<rss version="2.0"><channel><title>Aviation Weather METAR Data for WADD</title><link>https://aviationweather.gov/api/data/metar?ids=WADD</link><description>Latest METAR data for WADD</description><item><title>METAR Report for WADD</title><link>https://aviationweather.gov/api/data/metar?ids=WADD</link><description>WADD 290600Z 28013KT 9999 BKN016 30/26 Q1008 NOSIG</description><pubDate>Sun, 29 Dec 2024 06:15:18 </pubDate></item></channel></rss>