<rss version="2.0"><channel><title>Aviation Weather METAR Data for WADD</title><link>https://aviationweather.gov/api/data/metar?ids=WADD&amp;hours=24</link><description>Latest METAR data for WADD</description><item><title>2026-01-01 14:28:30Z</title><link>https://aviationweather.gov/api/data/metar?ids=WADD&amp;hours=24</link><description>METAR WADD 011400Z 12004KT 9999 FEW017 29/27 Q1009 NOSIG
METAR WADD 011330Z 12004KT 9999 FEW017 29/27 Q1009 NOSIG
METAR WADD 011300Z 13005KT 9999 FEW017 29/27 Q1009 NOSIG
METAR WADD 011230Z 13005KT 9999 SCT017 29/27 Q1008 NOSIG
METAR WADD 011200Z 11002KT 9999 SCT017 29/25 Q1009 NOSIG
METAR WADD 011130Z VRB02KT 9999 FEW017 29/25 Q1008 NOSIG
METAR WADD 011100Z 13003KT 9999 FEW017 29/25 Q1008 NOSIG
METAR WADD 011030Z 11003KT 9999 FEW016 29/25 Q1008 NOSIG
METAR WADD 011000Z 13004KT 9999 FEW016 29/25 Q1007 NOSIG
METAR WADD 010930Z 13005KT 100V180 9999 FEW016 30/25 Q1007 NOSIG
METAR WADD 010900Z 13004KT 110V170 9999 FEW016 30/25 Q1007 NOSIG
METAR WADD 010830Z 13005KT 100V170 9999 SCT016 30/26 Q1007 NOSIG
METAR WADD 010800Z 13006KT 9999 SCT016 30/26 Q1006 NOSIG
METAR WADD 010730Z 10006KT 050V160 9999 SCT016 30/26 Q1006 NOSIG
METAR WADD 010700Z 10005KT 070V140 9999 SCT016 30/26 Q1006 NOSIG
METAR WADD 010630Z 13006KT 080V170 9999 SCT016 31/26 Q1007 NOSIG
METAR WADD 010600Z 25006KT 220V280 9999 SCT016 30/26 Q1007 NOSIG
METAR WADD 010530Z 25006KT 200V280 9999 SCT016 30/26 Q1007 NOSIG
METAR WADD 010500Z 26006KT 220V280 9999 SCT016 30/26 Q1008 NOSIG
METAR WADD 010430Z 26006KT 9999 SCT016 30/26 Q1008 NOSIG
METAR WADD 010400Z 27006KT 230V310 9999 SCT016 30/26 Q1008 NOSIG
METAR WADD 010330Z 28008G17KT 9999 SCT016 30/26 Q1008 NOSIG
METAR WADD 010300Z 29007KT 260V330 9999 SCT016 30/26 Q1008 NOSIG
METAR WADD 010230Z 29007KT 250V320 9999 SCT016 29/26 Q1009 NOSIG
METAR WADD 010200Z 30008KT 270V360 9999 SCT016 30/26 Q1009 NOSIG
METAR WADD 010130Z 29006KT 260V320 9999 SCT016 30/25 Q1009 NOSIG
METAR WADD 010100Z 31006KT 9999 FEW015CB SCT016 30/25 Q1009 NOSIG
METAR WADD 010030Z 31005KT 9999 FEW015CB SCT016 29/25 Q1008 NOSIG
METAR WADD 010000Z 32005KT 9999 FEW015CB SCT016 29/25 Q1008 NOSIG
METAR WADD 312330Z 31005KT 9999 SCT016 28/25 Q1008 NOSIG
METAR WADD 312300Z 32003KT 9999 SCT016 27/25 Q1008 NOSIG
METAR WADD 312230Z VRB01KT 9999 SCT016 27/25 Q1008 NOSIG
METAR WADD 312200Z 02002KT 9999 SCT016 27/25 Q1007 NOSIG
METAR WADD 312130Z VRB01KT 9999 SCT016 27/25 Q1007 NOSIG
METAR WADD 312100Z VRB01KT 9999 FEW017 26/25 Q1007 NOSIG
METAR WADD 312030Z VRB01KT 9999 FEW017 27/25 Q1006 NOSIG
METAR WADD 311930Z 32004KT 9999 SCT016 27/25 Q1007 NOSIG
METAR WADD 311900Z 30004KT 9999 SCT016 27/25 Q1007 RERA NOSIG
METAR WADD 311830Z 32003KT 8000 -RA BKN015 27/25 Q1007 TEMPO TL1930 8 000 -RA
METAR WADD 311800Z 34003KT 9999 SCT016 27/25 Q1007 NOSIG
METAR WADD 311730Z 32006KT 9999 SCT016 27/25 Q1007 NOSIG
METAR WADD 311700Z VRB02KT 9999 FEW015CB SCT016 28/25 Q1007 NOSIG
METAR WADD 311630Z 22003KT 9999 FEW015CB SCT016 28/25 Q1008 NOSIG
METAR WADD 311600Z VRB02KT 9999 SCT016 28/25 Q1008 NOSIG
METAR WADD 311530Z VRB01KT 9999 SCT016 28/25 Q1008 NOSIG
METAR WADD 311500Z VRB01KT 9999 SCT016 28/25 Q1008 NOSIG
METAR WADD 311430Z VRB02KT 9999 SCT016 28/25 Q1008 NOSIG</description><pubDate>Thu, 01 Jan 2026 14:28:30 </pubDate></item></channel></rss>