<rss version="2.0"><channel><title>Aviation Weather METAR Data for WADD</title><link>https://aviationweather.gov/api/data/metar?ids=WADD&amp;hours=24</link><description>Latest METAR data for WADD</description><item><title>2025-01-30 10:41:54Z</title><link>https://aviationweather.gov/api/data/metar?ids=WADD&amp;hours=24</link><description>WADD 301030Z 27006KT 9999 FEW015 28/25 Q1006 NOSIG
WADD 301000Z 28009KT 9999 FEW016 28/25 Q1005 NOSIG
WADD 300930Z 29010KT 9999 FEW016 29/25 Q1005 NOSIG
WADD 300900Z 28011KT 9999 FEW016 29/25 Q1005 NOSIG
WADD 300830Z 27008KT 240V300 9999 FEW016 29/25 Q1004 NOSIG
WADD 300800Z 24004KT 200V270 9999 SCT016 28/26 Q1004 RERA NOSIG
WADD 300730Z 26005KT 9000 -RA SCT015 28/26 Q1005 NOSIG
WADD 300700Z 25005KT 9999 FEW017 28/25 Q1005 NOSIG
WADD 300630Z 27006KT 240V310 9999 SCT016 28/26 Q1005 RERA NOSIG
WADD 300600Z 27007KT 8000 -RA SCT016 28/26 Q1005 TEMPO TL0700 8000 -RA
WADD 300530Z 27007KT 9999 SCT016 28/26 Q1006 NOSIG
WADD 300500Z 26006KT 9999 SCT016 28/26 Q1006 NOSIG
WADD 300430Z 26008KT 9999 SCT015 28/26 Q1006 RERA NOSIG
WADD 300400Z 26009KT 8000 -RA BKN015 27/26 Q1007 NOSIG
WADD 300330Z 26009KT 8000 -RA BKN015 27/26 Q1007 NOSIG
WADD 300300Z 25008KT 8000 -RA BKN015 26/25 Q1008 NOSIG
WADD 300230Z 26009KT 8000 -RA BKN015 26/25 Q1008 TEMPO TL0300 8000 -RA
WADD 300200Z 26009KT 8000 -RA BKN015 26/23 Q1008 TEMPO TL0300 8000 -RA
WADD 300130Z 26011KT 6000 -RA FEW014CB BKN015 26/25 Q1008 TEMPO TL0230 6000 -RA
WADD 300100Z 26015KT 6000 -RA FEW013CB BKN014 25/24 Q1008 TL0130 6000 -RA
WADD 300030Z 26013KT 5000 -RA FEW012CB BKN013 26/25 Q1008 TEMPO TL0130 5000 -RA RMK CB IN APCH AND CLIMB-OUT
WADD 300000Z 25010KT 3000 RA FEW012CB BKN012 26/25 Q1008 TEMPO TL0100 3000 RA RMK CB IN APCH AND CLIMB-OUT
WADD 292330Z 25012KT 4000 RA FEW012CB BKN012 26/25 Q1007 TEMPO TL2430 RA RMK CB IN APCH AND CLIMB-OUT
WADD 292300Z 25013G25KT 0500 +RA FEW012CB BKN012 25/25 Q1007 TEMPO TL2400 +RA RMK CB IN APCH AND CLIMB-OUT
WADD 292230Z 24010KT 210V280 4000 RA FEW012CB BKN012 26/25 Q1007 TEMPO TL2330 RA RMK CB IN APCH AND CLIMB-OUT
WADD 292200Z 24011KT 8000 -RA FEW015CB BKN015 27/25 Q1006 TEMPO TL2300 -RA
WADD 292130Z 29007KT 9999 FEW015CB BKN016 27/25 Q1006 NOSIG
WADD 292100Z 29008KT 9999 BKN016 27/25 Q1006 NOSIG
WADD 292030Z 29007KT 9999 BKN016 27/25 Q1006 NOSIG
WADD 292000Z 28010KT 9999 BKN016 27/25 Q1006 NOSIG
WADD 291930Z 28009KT 9999 BKN016 27/25 Q1006 NOSIG
WADD 291900Z 29010KT 9999 BKN016 27/25 Q1006 NOSIG
WADD 291830Z 28011KT 9999 BKN016 27/25 Q1006 NOSIG
WADD 291800Z 28014KT 9999 BKN016 27/25 Q1007 NOSIG
WADD 291730Z 29013KT 9999 BKN016 27/25 Q1007 NOSIG
WADD 291700Z 32007KT 9999 FEW015CB BKN016 27/25 Q1008 NOSIG
WADD 291630Z 31009KT 9999 FEW015CB BKN015 27/25 Q1008 RERA NOSIG
WADD 291600Z 29010KT 9000 -RA FEW015CB BKN015 27/26 Q1008 TEMPO TL1700 -RA
WADD 291530Z 32008KT 8000 -RA FEW015CB BKN015 27/26 Q1008 TEMPO TL1630 -RA RMK CB IN APCH AND CLIMB-OUT
WADD 291500Z 24007KT 9000 -RA FEW015CB BKN016 27/26 Q1008 TEMPO TL1600 -RA
WADD 291430Z 24008KT 8000 -RA FEW015CB SCT016 27/25 Q1008 TEMPO TL1530 -RA
WADD 291400Z 25010KT 9999 FEW015CB SCT016 28/26 Q1008 NOSIG
WADD 291330Z 25007KT 9999 FEW015CB SCT016 29/26 Q1008 NOSIG
WADD 291300Z 26007KT 9999 FEW015CB SCT016 29/26 Q1008 NOSIG
WADD 291230Z 24005KT 200V270 9999 FEW015CB FEW016 29/26 Q1007 NOSIG
WADD 291200Z 24005KT 200V280 9999 FEW016 29/25 Q1007 NOSIG
WADD 291130Z 25006KT 9999 FEW016 29/25 Q1007 NOSIG
WADD 291100Z 25004KT 9999 FEW016 29/25 Q1006 NOSIG</description><pubDate>Thu, 30 Jan 2025 10:41:54 </pubDate></item></channel></rss>