<rss version="2.0"><channel><title>Aviation Weather METAR Data for WADD</title><link>https://aviationweather.gov/api/data/metar?ids=WADD&amp;hours=24</link><description>Latest METAR data for WADD</description><item><title>2025-06-22 12:50:32Z</title><link>https://aviationweather.gov/api/data/metar?ids=WADD&amp;hours=24</link><description>WADD 221230Z 12013KT 9999 FEW017 28/23 Q1012 NOSIG
WADD 221200Z 13012KT 9999 SCT017 28/24 Q1012 NOSIG
WADD 221130Z 13013KT 9999 SCT017 28/24 Q1012 NOSIG
WADD 221100Z 13013KT 9999 FEW017 28/24 Q1011 NOSIG
WADD 221030Z 13013KT 9999 FEW017 28/24 Q1011 NOSIG
WADD 221000Z 13014KT 9999 FEW017 28/24 Q1011 NOSIG
WADD 220930Z 12015KT 9999 SCT017 28/24 Q1011 NOSIG
WADD 220900Z 12018KT 9999 SCT017 28/24 Q1010 NOSIG
WADD 220830Z 13019KT 9999 SCT017 29/24 Q1010 NOSIG
WADD 220800Z 13017KT 9999 SCT017 29/24 Q1010 NOSIG
WADD 220730Z 13018KT 9999 SCT017 29/24 Q1010 NOSIG
WADD 220700Z 12019KT 9999 SCT017 29/24 Q1010 NOSIG
WADD 220630Z 13018KT 9999 SCT017 29/24 Q1011 NOSIG
WADD 220600Z 13018KT 9999 SCT017 29/25 Q1011 NOSIG
WADD 220500Z 13017KT 9999 SCT016 29/25 Q1011 NOSIG
WADD 220430Z 13017KT 9999 SCT016 29/25 Q1011 NOSIG
WADD 220400Z 12016KT 9999 SCT016 30/25 Q1012 NOSIG
WADD 220330Z 10015KT 9999 SCT016 29/25 Q1012 NOSIG
WADD 220300Z 11014KT 9999 SCT016 29/25 Q1013 NOSIG
WADD 220230Z 10016KT 9999 SCT016 29/25 Q1013 NOSIG
WADD 220200Z 11014KT 9999 SCT016 29/25 Q1013 NOSIG
WADD 220130Z 12014KT 9999 SCT016 29/24 Q1013 NOSIG
WADD 220100Z 11016KT 9999 SCT016 29/24 Q1013 NOSIG
WADD 220030Z 12016KT 9999 SCT016 28/24 Q1013 NOSIG
WADD 220000Z 12016KT 9999 SCT016 28/24 Q1013 NOSIG
WADD 212330Z 12012KT 9999 SCT016 28/25 Q1013 NOSIG
WADD 212300Z 11013KT 9999 FEW015CB SCT015 27/25 Q1012 NOSIG
WADD 212230Z 12013KT 9999 FEW015CB SCT015 27/24 Q1012 NOSIG
WADD 212200Z 12014KT 9999 SCT016 27/25 Q1012 NOSIG
WADD 212130Z 13013KT 9999 SCT016 27/25 Q1012 NOSIG
WADD 212100Z 13014KT 9999 SCT016 27/25 Q1011 NOSIG
WADD 212030Z 12012KT 9999 SCT016 27/25 Q1011 NOSIG
WADD 212000Z 11011KT 9999 SCT016 27/25 Q1011 NOSIG
WADD 211930Z 12012KT 9999 SCT016 27/25 Q1012 NOSIG
WADD 211900Z 12011KT 9999 SCT016 27/25 Q1012 NOSIG
WADD 211830Z 13009KT 9999 SCT016 27/25 Q1012 NOSIG
WADD 211800Z 13013KT 9999 SCT016 27/25 Q1012 NOSIG
WADD 211730Z 13013KT 9999 BKN016 28/25 Q1012 NOSIG
WADD 211700Z 12011KT 9999 SCT016 28/25 Q1012 NOSIG
WADD 211630Z 12012KT 9999 SCT016 28/26 Q1013 NOSIG
WADD 211600Z 12011KT 9999 SCT016 28/25 Q1013 NOSIG
WADD 211530Z 11012KT 9999 SCT016 28/25 Q1013 NOSIG
WADD 211500Z 12011KT 9999 SCT016 28/25 Q1013 NOSIG
WADD 211430Z 12013KT 9999 FEW016 28/25 Q1013 NOSIG
WADD 211400Z 12013KT 9999 FEW016 28/26 Q1013 NOSIG
WADD 211330Z 12013KT 9999 FEW016 28/25 Q1013 NOSIG
WADD 211300Z 12011KT 9999 FEW016 28/26 Q1012 NOSIG</description><pubDate>Sun, 22 Jun 2025 12:50:32 </pubDate></item></channel></rss>