<rss version="2.0"><channel><title>Aviation Weather METAR Data for WADD</title><link>https://aviationweather.gov/api/data/metar?ids=WADD&amp;hours=24</link><description>Latest METAR data for WADD</description><item><title>2025-06-02 14:48:12Z</title><link>https://aviationweather.gov/api/data/metar?ids=WADD&amp;hours=24</link><description>WADD 021430Z 13006KT 9999 FEW017 28/26 Q1012 NOSIG
WADD 021400Z 13006KT 9999 FEW017 28/26 Q1012 NOSIG
WADD 021330Z 13006KT 9999 FEW017 28/26 Q1012 NOSIG
WADD 021300Z 13005KT 9999 FEW017 28/26 Q1012 NOSIG
WADD 021230Z 13006KT 9999 FEW017 28/26 Q1011 NOSIG
WADD 021200Z 13007KT 9999 FEW017 28/26 Q1011 NOSIG
WADD 021130Z 13007KT 9999 FEW016 28/26 Q1011 NOSIG
WADD 021100Z 14007KT 9999 FEW016 28/26 Q1010 NOSIG
WADD 021030Z 13007KT 9999 FEW016 28/26 Q1010 NOSIG
WADD 021000Z 13006KT 9999 FEW016 29/26 Q1010 NOSIG
WADD 020930Z 13007KT 9999 FEW016 29/26 Q1009 NOSIG
WADD 020900Z 14009KT 9999 FEW016 29/26 Q1009 NOSIG
WADD 020830Z 14010KT 9999 FEW016 29/26 Q1009 NOSIG
WADD 020800Z 13009KT 9999 FEW016 29/26 Q1009 NOSIG
WADD 020730Z 11008KT 9999 FEW016 29/26 Q1009 NOSIG
WADD 020700Z 11010KT 9999 FEW016 29/26 Q1009 NOSIG
WADD 020630Z 11010KT 9999 SCT016 29/26 Q1009 NOSIG
WADD 020600Z 12010KT 9999 SCT016 29/25 Q1010 NOSIG
WADD 020530Z 10009KT 9999 SCT016 30/26 Q1010 NOSIG
WADD 020500Z 09009KT 9999 SCT016 30/26 Q1011 NOSIG
WADD 020430Z 09009KT 9999 SCT016 30/26 Q1011 NOSIG
WADD 020400Z 11008KT 070V130 9999 SCT016 30/26 Q1011 NOSIG
WADD 020330Z 09008KT 060V120 9999 SCT016 30/27 Q1012 NOSIG
WADD 020300Z 10007KT 070V140 9999 SCT016 29/26 Q1012 NOSIG
WADD 020230Z 13008KT 9999 SCT016 29/26 Q1013 NOSIG
WADD 020200Z 10006KT 060V140 9999 SCT016 29/26 Q1013 NOSIG
WADD 020130Z 08005KT 040V130 9999 SCT016 29/26 Q1013 NOSIG
WADD 020100Z 06007KT 9999 SCT016 28/26 Q1013 NOSIG
WADD 020030Z 06004KT 9999 SCT016 28/26 Q1013 NOSIG
WADD 020000Z 08003KT 9999 SCT016 26/25 Q1013 NOSIG
WADD 012330Z 09004KT 9999 SCT014 25/25 Q1012 NOSIG
WADD 012300Z 06004KT 9999 SCT014 25/25 Q1012 NOSIG
WADD 012230Z 08003KT 9999 BKN014 25/25 Q1012 NOSIG
WADD 012200Z 07004KT 9999 SCT016 25/25 Q1012 NOSIG
WADD 012130Z 05003KT 9999 SCT016 25/25 Q1012 NOSIG
WADD 012100Z 03001KT 9999 SCT016 25/25 Q1012 NOSIG
WADD 012030Z 34002KT 9999 FEW015CB SCT016 25/25 Q1012 RETS NOSIG
WADD 012000Z 01002KT 9999 FEW015CB SCT016 25/25 Q1012 RERA NOSIG
WADD 011930Z VRB02KT 6000 RA FEW015CB SCT015 26/25 Q1012 NOSIG TREND TEMPO TL2030 6000 RA RMK CB IN APCH AND CLIMB-OUT
WADD 011900Z VRB02KT 9999 FEW015CB FEW015 26/25 Q1012 NOSIG RMK CB IN APCH AND CLIMB-OUT
WADD 011830Z 35002KT 9999 FEW015CB SCT016 26/26 Q1012 NOSIG RMK CB IN APCH
WADD 011800Z 03004KT 9999 FEW015CB SCT015 25/25 Q1012 RERA NOSIG RMK CB IN APCH
WADD 011730Z 05003KT 6000 RA FEW015CB FEW015 26/25 Q1012 NOSIG TEMPO TL1900 6000 RA RMK CB IN APCH AND CLIMB-OUT
WADD 011700Z 02004KT 350V060 9999 FEW015CB FEW015 27/25 Q1012 NOSIG RMK CB IN CLIMB-OUT
WADD 011630Z 03004KT 9999 +DZ FEW016 27/25 Q1013 NOSIG
WADD 011600Z 07004KT 030V100 9999 SCT016 27/25 Q1013 NOSIG
WADD 011530Z 06006KT 9999 SCT016 27/25 Q1013 NOSIG
WADD 011500Z 11003KT 9999 FEW016 27/25 Q1013 NOSIG</description><pubDate>Mon, 02 Jun 2025 14:48:12 </pubDate></item></channel></rss>