<rss version="2.0"><channel><title>Aviation Weather METAR Data for WADD</title><link>https://aviationweather.gov/api/data/metar?ids=WADD&amp;hours=24</link><description>Latest METAR data for WADD</description><item><title>2025-11-22 07:40:06Z</title><link>https://aviationweather.gov/api/data/metar?ids=WADD&amp;hours=24</link><description>METAR WADD 220730Z VRB03KT 9999 SCT016 29/25 Q1006 NOSIG
METAR WADD 220700Z 13003KT 9999 SCT016 29/24 Q1006 NOSIG
METAR WADD 220630Z 15004KT 120V190 9999 SCT016 29/25 Q1007 NOSIG
METAR WADD 220600Z 14005KT 110V170 9999 FEW015CB BKN015 29/25 Q1007 R ETS NOSIG
METAR WADD 220530Z 33006KT 280V020 9999 TS FEW015CB SCT016 29/24 Q1007 TEMPO TL0630 TS
METAR WADD 220500Z 32011KT 280V350 9999 FEW015CB SCT016 30/25 Q1007 N OSIG
METAR WADD 220430Z 30012KT 9999 FEW015CB SCT016 31/25 Q1007 NOSIG
METAR WADD 220400Z 28008KT 9999 FEW015CB SCT016 30/26 Q1008 NOSIG
METAR WADD 220330Z 26005KT 180V310 9999 FEW015CB SCT016 32/26 Q1008 N OSIG
METAR WADD 220300Z 13005KT 9999 SCT016 31/26 Q1008 NOSIG
METAR WADD 220230Z 13006KT 9999 SCT016 30/26 Q1009 NOSIG
METAR WADD 220200Z 11007KT 9999 FEW015CB SCT016 30/25 Q1009 NOSIG
METAR WADD 220130Z 12006KT 070V140 9999 FEW015CB SCT016 30/26 Q1009 N OSIG
METAR WADD 220100Z 10005KT 070V140 9999 SCT016 30/26 Q1009 NOSIG
METAR WADD 220030Z VRB03KT 9999 FEW017 30/26 Q1009 NOSIG
METAR WADD 220000Z 10003KT 9999 FEW017 29/26 Q1009 NOSIG
METAR WADD 212330Z 13004KT 9999 FEW017 28/25 Q1008 NOSIG
METAR WADD 212300Z VRB02KT 9999 FEW017 27/25 Q1008 NOSIG
METAR WADD 212230Z 01003KT 9999 FEW017 27/25 Q1008 NOSIG
METAR WADD 212200Z 07003KT 9999 FEW017 26/24 Q1008 NOSIG
METAR WADD 212130Z 03003KT 9999 FEW017 26/25 Q1007 NOSIG
METAR WADD 212100Z 05003KT 9999 FEW017 26/25 Q1007 NOSIG
METAR WADD 212030Z 04002KT 9999 FEW017 26/25 Q1007 NOSIG
METAR WADD 212000Z 06003KT 9999 SCT017 26/25 Q1007 NOSIG
METAR WADD 211930Z VRB02KT 9999 SCT017 27/25 Q1007 NOSIG
METAR WADD 211900Z 04004KT 9999 SCT017 27/25 Q1007 NOSIG
METAR WADD 211830Z 05003KT 9999 FEW017 27/25 Q1007 NOSIG
METAR WADD 211800Z 05002KT 9999 FEW017 28/25 Q1007 NOSIG
METAR WADD 211730Z 09003KT 9999 FEW017 28/25 Q1008 NOSIG
METAR WADD 211700Z 05004KT 9999 FEW017 28/25 Q1008 NOSIG
METAR WADD 211630Z 04006KT 9999 FEW016CB FEW017 28/25 Q1008 NOSIG
METAR WADD 211600Z 04005KT 9999 FEW016CB FEW017 28/25 Q1009 NOSIG
METAR WADD 211530Z 06007KT 9999 FEW017 28/25 Q1009 NOSIG
METAR WADD 211500Z 06008KT 9999 FEW017 28/25 Q1009 NOSIG
METAR WADD 211430Z 07007KT 030V110 9999 FEW017 28/26 Q1009 NOSIG
METAR WADD 211400Z 08007KT 9999 FEW017 28/26 Q1009 NOSIG
METAR WADD 211330Z 09006KT 9999 FEW017 28/25 Q1009 NOSIG
METAR WADD 211300Z 10007KT 9999 SCT016 29/26 Q1009 NOSIG
METAR WADD 211230Z 10006KT 9999 SCT016 29/26 Q1008 NOSIG
METAR WADD 211200Z 13006KT 9999 SCT016 29/26 Q1008 NOSIG
METAR WADD 211130Z 13007KT 9999 SCT016 29/26 Q1009 NOSIG
METAR WADD 211100Z 12005KT 9999 SCT016 29/26 Q1008 NOSIG
METAR WADD 211030Z 12006KT 9999 SCT016 29/26 Q1008 NOSIG
METAR WADD 211000Z 13006KT 9999 SCT016 30/26 Q1008 NOSIG
METAR WADD 210930Z 12007KT 9999 SCT016 30/26 Q1007 NOSIG
METAR WADD 210900Z 13009KT 9999 SCT016 30/26 Q1007 NOSIG
METAR WADD 210830Z 11009KT 9999 SCT016 30/25 Q1007 NOSIG
METAR WADD 210800Z 16009KT 9999 SCT016 31/26 Q1007 NOSIG</description><pubDate>Sat, 22 Nov 2025 07:40:06 </pubDate></item></channel></rss>