<rss version="2.0"><channel><title>Aviation Weather METAR Data for WADD</title><link>https://aviationweather.gov/api/data/metar?ids=WADD</link><description>Latest METAR data for WADD</description><item><title>2024-12-29 11:17:21Z</title><link>https://aviationweather.gov/api/data/metar?ids=WADD</link><description>WADD 291100Z 26014KT 9999 SCT016 28/26 Q1008 NOSIG</description><pubDate>Sun, 29 Dec 2024 11:17:21 </pubDate></item></channel></rss>