<rss version="2.0"><channel><title>Aviation Weather METAR Data for WADD</title><link>https://aviationweather.gov/api/data/metar?ids=WADD&amp;hours=24</link><description>Latest METAR data for WADD</description><item><title>2026-01-28 08:45:55Z</title><link>https://aviationweather.gov/api/data/metar?ids=WADD&amp;hours=24</link><description>METAR WADD 280830Z 18004KT 110V270 9999 SCT016 28/24 Q1009 NOSIG
METAR WADD 280800Z VRB02KT 9999 SCT016 28/24 Q1009 NOSIG
METAR WADD 280730Z 23004KT 9999 SCT016 27/24 Q1009 NOSIG
METAR WADD 280700Z 22005KT 190V250 9999 SCT016 27/24 Q1009 NOSIG
METAR WADD 280630Z 22005KT 190V260 9999 FEW014CB SCT015 27/25 Q1010 N OSIG
METAR WADD 280600Z 23006KT 9999 FEW014CB BKN015 28/25 Q1010 NOSIG
METAR WADD 280530Z 24005KT 190V270 9999 FEW016CB SCT016 28/25 Q1010 N OSIG
METAR WADD 280500Z 23007KT 190V260 9999 FEW015CB BKN015 28/25 Q1010 N OSIG
METAR WADD 280430Z 26005KT 9999 FEW015CB SCT015 28/25 Q1011 NOSIG
METAR WADD 280400Z 26006KT 9999 FEW015CB SCT015 28/25 Q1011 NOSIG
METAR WADD 280330Z 24005KT 9999 FEW015CB BKN015 28/25 Q1011 NOSIG
METAR WADD 280300Z 27007KT 9999 FEW015CB BKN015 28/25 Q1011 NOSIG
METAR WADD 280230Z 31006KT 270V330 9999 FEW015CB BKN015 28/25 Q1011 N OSIG
METAR WADD 280200Z 28006KT 9999 BKN016 28/25 Q1011 NOSIG
METAR WADD 280130Z 27008KT 9999 BKN016 28/24 Q1011 NOSIG
METAR WADD 280100Z 27008KT 9999 SCT016 28/25 Q1011 NOSIG
METAR WADD 280030Z 27010KT 9999 SCT016 27/24 Q1011 NOSIG
METAR WADD 280000Z 27008KT 9999 SCT016 26/25 Q1011 NOSIG
METAR WADD 272330Z 25006KT 9999 FEW015CB SCT016 27/25 Q1010 NOSIG
METAR WADD 272300Z 25007KT 9999 FEW015CB SCT016 27/25 Q1010 NOSIG
METAR WADD 272230Z 25009KT 9999 SCT015 27/25 Q1010 RERA NOSIG
METAR WADD 272200Z 24006KT 9000 -RA FEW014CB BKN015 26/25 Q1009 TEMPO TL2300 9000 -RA
METAR WADD 272130Z 25008KT 9000 -RA FEW014CB BKN015 26/25 Q1009 TEMPO TL2230 9000 -RA
METAR WADD 272100Z 26012G20KT 8000 -RA FEW014CB BKN015 26/25 Q1009 TEMPO TL2200 8000 -RA
METAR WADD 272030Z 33004KT 9999 FEW014CB BKN015 26/25 Q1009 NOSIG
METAR WADD 272000Z 32005KT 9999 FEW014CB BKN015 26/24 Q1009 RETS NOSI G
METAR WADD 271930Z 26003KT 9999 TS FEW014CB BKN015 25/23 Q1009 RERA TEMPO TL2030 TS
METAR WADD 271900Z 25014G23KT 0600 +TSRA FEW014CB BKN014 24/23 Q1010 TEMPO TL2000 0600 +TSRA RMK CB IN APCH AND CLIMB-OUT
METAR WADD 271830Z 01005KT 5000 -RA FEW015CB SCT016 26/24 Q1009 TEMPO TL1930 5000 -RA RMK CB IN APCH AND CLIMB-OUT
METAR WADD 271800Z 36005KT 320V030 9999 SCT016 26/24 Q1010 NOSIG
METAR WADD 271730Z 36005KT 9999 SCT016 26/25 Q1010 NOSIG
METAR WADD 271700Z 36004KT 310V030 9999 SCT016 26/25 Q1010 NOSIG
METAR WADD 271630Z 03005KT 340V080 9999 SCT016 26/25 Q1010 NOSIG
METAR WADD 271600Z 05003KT 9999 SCT016 26/25 Q1011 NOSIG
METAR WADD 271530Z VRB02KT 9999 SCT016 27/25 Q1011 NOSIG
METAR WADD 271500Z VRB02KT 9999 SCT016 27/25 Q1011 NOSIG
METAR WADD 271430Z VRB01KT 9999 SCT016 27/25 Q1011 NOSIG
METAR WADD 271400Z VRB01KT 9999 SCT016 26/25 Q1011 NOSIG
METAR WADD 271330Z 04003KT 9999 SCT016 27/25 Q1011 NOSIG
METAR WADD 271300Z 33004KT 9999 SCT016 27/25 Q1010 NOSIG
METAR WADD 271230Z 27004KT 240V330 9999 SCT016 27/24 Q1010 NOSIG
METAR WADD 271200Z 30005KT 9999 SCT016 27/24 Q1010 NOSIG
METAR WADD 271130Z 30006KT 9999 SCT016 27/24 Q1010 NOSIG
METAR WADD 271100Z 33004KT 9999 SCT016 27/24 Q1009 NOSIG
METAR WADD 271030Z 30006KT 240V310 9999 FEW014CB BKN015 27/25 Q1009 N OSIG RMK CB IN APCH
METAR WADD 271000Z 24007KT 9999 FEW014CB BKN015 28/25 Q1009 NOSIG RMK CB IN APCH
METAR WADD 270930Z 25009KT 9999 FEW014CB BKN015 28/25 Q1009 NOSIG
METAR WADD 270900Z 26008KT 9999 FEW014CB BKN015 28/25 Q1009 NOSIG RMK CB IN CLIMB-OUT</description><pubDate>Wed, 28 Jan 2026 08:45:55 </pubDate></item></channel></rss>