<rss version="2.0"><channel><title>Aviation Weather METAR Data for WADD</title><link>https://aviationweather.gov/api/data/metar?ids=WADD&amp;hours=24</link><description>Latest METAR data for WADD</description><item><title>2025-02-03 17:39:48Z</title><link>https://aviationweather.gov/api/data/metar?ids=WADD&amp;hours=24</link><description>WADD 031730Z VRB01KT 9999 FEW017 28/26 Q1005 NOSIG
WADD 031700Z 03005KT 340V050 9999 FEW017 28/27 Q1005 NOSIG
WADD 031630Z 26003KT 9999 FEW017 29/26 Q1006 NOSIG
WADD 031600Z 26003KT 9999 FEW017 29/26 Q1006 NOSIG
WADD 031530Z 29007KT 250V330 9999 FEW017 29/27 Q1006 NOSIG
WADD 031500Z 27009KT 9999 FEW017 29/27 Q1006 NOSIG
WADD 031430Z 26009KT 9999 FEW017 29/27 Q1007 NOSIG
WADD 031400Z 26009KT 9999 FEW017 29/27 Q1006 NOSIG
WADD 031330Z 25008KT 9999 FEW017 29/27 Q1006 NOSIG
WADD 031300Z 25008KT 9999 FEW017 29/27 Q1006 NOSIG
WADD 031230Z 25008KT 9999 SCT016 30/27 Q1006 NOSIG
WADD 031200Z 25008KT 9999 SCT016 30/27 Q1006 NOSIG
WADD 031130Z 24007KT 9999 SCT016 30/27 Q1005 NOSIG
WADD 031100Z 24006KT 9999 SCT017 30/27 Q1004 NOSIG
WADD 031030Z 25005KT 210V270 9999 SCT017 30/27 Q1003 NOSIG
WADD 031000Z 25007KT 9999 FEW017 30/26 Q1003 NOSIG
WADD 030930Z 25008KT 220V280 9999 FEW017 31/26 Q1003 NOSIG
WADD 030900Z 24008KT 210V270 9999 FEW017 32/25 Q1003 NOSIG
WADD 030830Z 23008KT 9999 FEW017 33/25 Q1002 NOSIG
WADD 030800Z 24009KT 9999 FEW017 33/24 Q1003 NOSIG
WADD 030730Z 24007KT 9999 FEW017 33/25 Q1003 NOSIG
WADD 030700Z 24006KT 9999 FEW017 32/25 Q1003 NOSIG
WADD 030630Z 25007KT 210V320 9999 FEW017 33/25 Q1003 NOSIG
WADD 030600Z 29008KT 9999 FEW017 33/25 Q1003 NOSIG
WADD 030530Z 29009KT 9999 FEW017 33/26 Q1003 NOSIG
WADD 030500Z 27010KT 9999 FEW017 32/25 Q1004 NOSIG
WADD 030430Z 28010KT 9999 FEW017 31/26 Q1004 NOSIG
WADD 030400Z 29010KT 9999 FEW017 31/26 Q1005 NOSIG
WADD 030330Z 29009KT 9999 FEW017 31/26 Q1005 NOSIG
WADD 030300Z 27009KT 9999 FEW017 31/27 Q1006 NOSIG
WADD 030230Z 27009KT 9999 FEW017 31/26 Q1006 NOSIG
WADD 030200Z 28008KT 9999 FEW017 30/27 Q1006 NOSIG
WADD 030130Z 28005KT 9999 FEW017 30/26 Q1006 NOSIG
WADD 030100Z 29005KT 9999 FEW017 30/26 Q1006 NOSIG
WADD 030030Z 31005KT 270V340 9999 FEW017 29/26 Q1006 NOSIG
WADD 030000Z 29005KT 9999 FEW017 29/25 Q1006 NOSIG
WADD 022330Z 25004KT 9999 SCT016 28/26 Q1005 NOSIG
WADD 022300Z 31003KT 9999 SCT016 28/25 Q1005 NOSIG
WADD 022230Z VRB01KT 9999 SCT016 27/25 Q1005 NOSIG
WADD 022200Z VRB01KT 9999 SCT016 27/25 Q1005 NOSIG
WADD 022130Z 31003KT 9999 SCT016 27/25 Q1005 NOSIG
WADD 022100Z 32005KT 9999 SCT016 27/25 Q1005 NOSIG
WADD 022030Z 31004KT 9999 SCT016 27/26 Q1004 NOSIG
WADD 022000Z VRB01KT 9999 SCT016 26/26 Q1004 NOSIG
WADD 021930Z VRB01KT 9999 SCT016 26/26 Q1004 NOSIG
WADD 021900Z VRB01KT 9999 SCT016 27/26 Q1004 NOSIG
WADD 021830Z 22003KT 9999 SCT016 27/26 Q1004 NOSIG
WADD 021800Z VRB01KT 9999 SCT016 27/26 Q1004 NOSIG</description><pubDate>Mon, 03 Feb 2025 17:39:48 </pubDate></item></channel></rss>