<rss version="2.0"><channel><title>Aviation Weather METAR Data for WADD</title><link>https://aviationweather.gov/api/data/metar?ids=WADD&amp;hours=24</link><description>Latest METAR data for WADD</description><item><title>2025-11-30 23:25:10Z</title><link>https://aviationweather.gov/api/data/metar?ids=WADD&amp;hours=24</link><description>METAR WADD 302300Z 10003KT 9999 FEW016 27/26 Q1012 NOSIG
METAR WADD 302230Z 12004KT 9999 SCT016 27/26 Q1012 NOSIG
METAR WADD 302200Z 12005KT 9999 FEW015CB SCT016 27/25 Q1012 NOSIG
METAR WADD 302130Z 10003KT 9999 FEW015CB SCT016 27/25 Q1012 NOSIG
METAR WADD 302100Z VRB01KT 9999 FEW015CB SCT016 27/24 Q1011 NOSIG
METAR WADD 302030Z VRB02KT 9999 FEW015CB SCT016 27/24 Q1011 NOSIG
METAR WADD 302000Z 11003KT 9999 FEW015CB SCT016 27/24 Q1011 NOSIG
METAR WADD 301930Z VRB01KT 9999 SCT017 27/24 Q1011 NOSIG
METAR WADD 301900Z VRB02KT 9999 SCT017 27/24 Q1011 NOSIG
METAR WADD 301830Z VRB02KT 9999 SCT017 27/24 Q1011 NOSIG
METAR WADD 301800Z VRB02KT 9999 SCT017 27/24 Q1011 NOSIG
METAR WADD 301730Z 01004KT 9999 SCT017 27/25 Q1011 NOSIG
METAR WADD 301700Z VRB01KT 9999 SCT017 27/25 Q1011 NOSIG
METAR WADD 301630Z 24002KT 9999 SCT017 27/25 Q1011 NOSIG
METAR WADD 301600Z VRB01KT 9999 SCT017 27/24 Q1012 NOSIG
METAR WADD 301530Z VRB01KT 9999 SCT017 27/25 Q1012 NOSIG
METAR WADD 301500Z VRB01KT 9999 SCT017 27/24 Q1012 NOSIG
METAR WADD 301430Z 22001KT 9999 SCT017 28/24 Q1012 NOSIG
METAR WADD 301400Z VRB02KT 9999 SCT017 28/24 Q1012 NOSIG
METAR WADD 301330Z VRB01KT 9999 SCT017 28/24 Q1012 NOSIG
METAR WADD 301300Z VRB01KT 9999 SCT017 27/24 Q1012 NOSIG
METAR WADD 301230Z VRB01KT 9999 SCT017 28/24 Q1012 NOSIG
METAR WADD 301200Z VRB01KT 9999 FEW017 28/24 Q1011 NOSIG
METAR WADD 301130Z VRB02KT 9999 FEW017 28/24 Q1011 NOSIG
METAR WADD 301100Z VRB02KT 9999 FEW017 28/24 Q1011 NOSIG
METAR WADD 301030Z 23004KT 9999 FEW016 29/24 Q1011 NOSIG
METAR WADD 301000Z 23004KT 170V270 9999 FEW016 29/24 Q1010 NOSIG
METAR WADD 300930Z 25005KT 9999 FEW016 29/24 Q1010 NOSIG
METAR WADD 300900Z 25006KT 9999 FEW016 29/23 Q1009 NOSIG
METAR WADD 300830Z 25006KT 9999 FEW016 30/23 Q1009 NOSIG
METAR WADD 300800Z 25006KT 9999 FEW017 30/23 Q1009 NOSIG
METAR WADD 300730Z 26007KT 9999 FEW017 30/24 Q1009 NOSIG
METAR WADD 300700Z 26008KT 9999 FEW017 30/24 Q1009 NOSIG
METAR WADD 300630Z 26009KT 9999 SCT016 30/23 Q1009 NOSIG
METAR WADD 300600Z 25008KT 9999 FEW017 30/24 Q1009 NOSIG
METAR WADD 300530Z 25009KT 9999 FEW017 30/24 Q1009 NOSIG
METAR WADD 300500Z 25009KT 210V270 9999 FEW017 30/25 Q1010 NOSIG
METAR WADD 300430Z 24009KT 9999 FEW017 30/23 Q1011 NOSIG
METAR WADD 300400Z 26009KT 9999 FEW017 30/24 Q1011 NOSIG
METAR WADD 300330Z 27008KT 230V310 9999 FEW017 30/24 Q1012 NOSIG
METAR WADD 300300Z 30008KT 250V320 9999 FEW017 30/24 Q1012 NOSIG
METAR WADD 300230Z 28008KT 230V310 9999 FEW017 30/24 Q1012 NOSIG
METAR WADD 300200Z 28007KT 240V340 9999 SCT017 29/24 Q1012 NOSIG
METAR WADD 300130Z 29006KT 220V320 9999 SCT017 30/24 Q1012 NOSIG
METAR WADD 300100Z 29006KT 270V360 9999 SCT017 29/24 Q1012 NOSIG
METAR WADD 300030Z 28003KT 9999 SCT017 29/24 Q1012 NOSIG
METAR WADD 300000Z VRB04KT 9999 SCT017 29/24 Q1012 NOSIG
METAR WADD 292330Z VRB01KT 9999 SCT017 28/24 Q1012 NOSIG</description><pubDate>Sun, 30 Nov 2025 23:25:10 </pubDate></item></channel></rss>