<rss version="2.0"><channel><title>Aviation Weather METAR Data for WADD</title><link>https://aviationweather.gov/api/data/metar?ids=WADD&amp;hours=24</link><description>Latest METAR data for WADD</description><item><title>2025-07-04 02:10:41Z</title><link>https://aviationweather.gov/api/data/metar?ids=WADD&amp;hours=24</link><description>WADD 040200Z 15015KT 9999 BKN015 27/24 Q1013 NOSIG
WADD 040130Z 14014KT 9999 BKN015 27/24 Q1013 RERA NOSIG
WADD 040100Z 14013KT 8000 -RA BKN015 26/24 Q1014 TEMPO TL0200 -RA
WADD 040030Z 14013KT 9999 BKN015 27/24 Q1013 NOSIG
WADD 040000Z 14011KT 9999 BKN015 26/24 Q1013 NOSIG
WADD 032330Z 14010KT 9999 BKN015 26/24 Q1013 NOSIG
WADD 032300Z 14010KT 9999 BKN015 26/24 Q1012 NOSIG
WADD 032230Z 13010KT 9999 BKN015 26/24 Q1012 NOSIG
WADD 032200Z 14009KT 9999 SCT016 26/24 Q1012 NOSIG
WADD 032130Z 14009KT 9999 SCT016 26/24 Q1012 NOSIG
WADD 032100Z 13009KT 9999 SCT016 26/24 Q1012 NOSIG
WADD 032030Z 13010KT 9999 SCT016 26/24 Q1011 NOSIG
WADD 032000Z 14009KT 9999 SCT016 26/24 Q1011 NOSIG
WADD 031930Z 13009KT 9999 SCT016 26/24 Q1011 NOSIG
WADD 031900Z 13008KT 9999 SCT016 26/24 Q1012 NOSIG
WADD 031830Z 13010KT 9999 SCT016 26/24 Q1012 NOSIG
WADD 031800Z 13010KT 9999 SCT016 26/24 Q1012 NOSIG
WADD 031730Z 13011KT 9999 SCT016 26/24 Q1012 NOSIG
WADD 031700Z 13011KT 9999 SCT016 26/24 Q1012 NOSIG
WADD 031630Z 13013KT 9999 SCT016 26/24 Q1012 NOSIG
WADD 031600Z 13014KT 9999 SCT016 26/24 Q1012 NOSIG
WADD 031530Z 13014KT 9999 SCT016 26/24 Q1013 NOSIG
WADD 031500Z 13017KT 9999 SCT016 26/24 Q1013 NOSIG
WADD 031430Z 13014KT 9999 SCT016 26/24 Q1013 NOSIG
WADD 031400Z 12012KT 9999 SCT016 26/24 Q1013 NOSIG
WADD 031330Z 13012KT 9999 SCT016 27/24 Q1013 NOSIG
WADD 031300Z 13013KT 9999 SCT016 27/24 Q1013 NOSIG
WADD 031230Z 13013KT 9999 SCT016 27/24 Q1012 NOSIG
WADD 031200Z 13014KT 9999 SCT016 27/24 Q1012 NOSIG
WADD 031130Z 13014KT 9999 SCT016 27/24 Q1012 NOSIG
WADD 031100Z 14016KT 9999 SCT016 27/24 Q1012 NOSIG
WADD 031030Z 13015KT 9999 SCT016 27/24 Q1011 NOSIG
WADD 031000Z 13017KT 9999 SCT016 27/24 Q1011 NOSIG
WADD 030930Z 14016KT 9999 BKN016 27/24 Q1011 NOSIG
WADD 030900Z 14017KT 9999 BKN016 27/24 Q1010 NOSIG
WADD 030830Z 14017KT 9999 BKN016 27/25 Q1010 NOSIG
WADD 030800Z 14018KT 9999 SCT016 28/25 Q1010 NOSIG
WADD 030730Z 14016KT 9999 SCT016 28/24 Q1010 NOSIG
WADD 030700Z 13017KT 9999 SCT016 28/24 Q1010 NOSIG
WADD 030630Z 13015KT 9999 SCT016 28/25 Q1010 NOSIG
WADD 030600Z 14018KT 9999 BKN016 28/25 Q1011 NOSIG
WADD 030530Z 14019KT 9999 BKN016 28/24 Q1011 NOSIG
WADD 030500Z 14019KT 9999 FEW015CB BKN015 28/24 Q1011 NOSIG
WADD 030430Z 13018KT 9999 FEW015CB BKN015 28/24 Q1011 NOSIG
WADD 030400Z 13015KT 9999 FEW015CB BKN015 28/25 Q1012 NOSIG
WADD 030330Z 12015KT 9999 FEW015CB BKN015 27/24 Q1012 NOSIG
WADD 030300Z 13016KT 9999 FEW015CB BKN015 27/25 Q1012 NOSIG
WADD 030230Z 14018KT 9999 FEW015CB BKN015 27/25 Q1012 RERA NOSIG</description><pubDate>Fri, 04 Jul 2025 02:10:41 </pubDate></item></channel></rss>