<rss version="2.0"><channel><title>Aviation Weather METAR Data for WADD</title><link>https://aviationweather.gov/api/data/metar?ids=WADD&amp;hours=24</link><description>Latest METAR data for WADD</description><item><title>2025-03-18 17:41:51Z</title><link>https://aviationweather.gov/api/data/metar?ids=WADD&amp;hours=24</link><description>WADD 181730Z 27011KT 9999 SCT016 28/26 Q1010 NOSIG
WADD 181700Z 27008KT 9999 SCT016 28/26 Q1010 NOSIG
WADD 181630Z 26007KT 9999 FEW015CB SCT016 28/26 Q1011 NOSIG
WADD 181600Z 26008KT 9999 FEW015CB SCT016 28/26 Q1011 NOSIG
WADD 181530Z 25009KT 9999 FEW015CB SCT016 28/26 Q1011 RETS NOSIG
WADD 181500Z 30005KT 6000 -TSRA FEW014CB BKN015 27/25 Q1011 TEMPO TL1600 6000 -TSRA
WADD 181430Z 26013G23KT 5000 -RA FEW014CB BKN015 26/24 Q1011 TEMPO TL1530 5000 -RA
WADD 181400Z 29009KT 9999 FEW015CB SCT016 28/26 Q1010 NOSIG
WADD 181330Z 27009KT 9999 FEW017 28/26 Q1011 NOSIG
WADD 181300Z 27008KT 9999 FEW017 28/26 Q1010 NOSIG
WADD 181230Z 26008KT 9999 FEW016 28/26 Q1010 NOSIG
WADD 181200Z 27009KT 9999 FEW016 28/26 Q1010 NOSIG
WADD 181130Z 25008KT 9999 FEW016 29/25 Q1009 NOSIG
WADD 181100Z 25006KT 9999 FEW016 29/26 Q1009 NOSIG
WADD 181030Z 26010KT 9999 SCT016 29/26 Q1009 NOSIG
WADD 181000Z 26008KT 9999 FEW017 29/26 Q1009 NOSIG
WADD 180930Z 26011KT 9999 SCT017 29/26 Q1008 NOSIG
WADD 180900Z 26009KT 9999 FEW017 30/26 Q1008 NOSIG
WADD 180830Z 26011KT 9999 FEW017 30/26 Q1007 NOSIG
WADD 180800Z 27013KT 9999 FEW017 30/26 Q1007 NOSIG
WADD 180730Z 25010KT 9999 FEW017 31/27 Q1007 NOSIG
WADD 180700Z 26013KT 9999 FEW017 30/26 Q1007 NOSIG
WADD 180630Z 25012KT 9999 SCT016 31/25 Q1008 NOSIG
WADD 180600Z 26012KT 9999 FEW014CB SCT016 31/27 Q1008 NOSIG
WADD 180530Z 25009KT 9999 FEW017 31/27 Q1008 NOSIG
WADD 180500Z 26009KT 230V290 9999 FEW017 31/27 Q1008 NOSIG
WADD 180430Z 26010KT 9999 FEW017 31/27 Q1008 NOSIG
WADD 180400Z 25008KT 9999 FEW015CB SCT016 31/27 Q1009 NOSIG
WADD 180330Z 25007KT 220V290 9999 FEW015CB SCT016 30/27 Q1009 NOSIG
WADD 180300Z 27008KT 9999 FEW015CB SCT016 30/27 Q1010 NOSIG
WADD 180230Z 28007KT 230V320 9999 SCT016 30/27 Q1010 NOSIG
WADD 180200Z 29007KT 250V320 9999 SCT016 30/26 Q1010 NOSIG
WADD 180130Z 28007KT 240V320 9999 SCT016 29/26 Q1010 RERA NOSIG
WADD 180100Z 31006KT 8000 -RA SCT016 29/27 Q1010 TEMPO TL0200 -RA
WADD 180030Z 36005KT 330V050 9999 FEW015CB SCT016 29/27 Q1010 NOSIG
WADD 180000Z 35005KT 9999 FEW015CB FEW016 28/27 Q1009 NOSIG
WADD 172330Z 36006KT 330V040 9999 FEW017 28/27 Q1009 NOSIG
WADD 172300Z 34004KT 9999 FEW017 27/27 Q1008 NOSIG
WADD 172230Z 31004KT 9999 FEW017 27/26 Q1008 NOSIG
WADD 172200Z 32002KT 9999 FEW017 27/26 Q1007 NOSIG
WADD 172130Z 03002KT 9999 FEW017 27/26 Q1007 NOSIG
WADD 172100Z 34003KT 9999 FEW017 27/27 Q1007 NOSIG
WADD 172030Z 02002KT 9999 FEW017 27/27 Q1007 NOSIG
WADD 172000Z 02001KT 9999 FEW017 27/27 Q1007 NOSIG
WADD 171930Z VRB01KT 9999 FEW017 27/27 Q1007 NOSIG
WADD 171900Z 14002KT 9999 FEW017 28/27 Q1007 NOSIG
WADD 171830Z 05001KT 9999 FEW017 27/27 Q1008 NOSIG
WADD 171800Z 10002KT 9999 FEW017 27/27 Q1008 NOSIG</description><pubDate>Tue, 18 Mar 2025 17:41:51 </pubDate></item></channel></rss>