<rss version="2.0"><channel><title>Aviation Weather METAR Data for WADD</title><link>https://aviationweather.gov/api/data/metar?ids=WADD&amp;hours=24</link><description>Latest METAR data for WADD</description><item><title>2025-10-08 23:40:58Z</title><link>https://aviationweather.gov/api/data/metar?ids=WADD&amp;hours=24</link><description>METAR WADD 082330Z VRB02KT 9999 FEW017 26/24 Q1013 NOSIG
METAR WADD 082300Z 11001KT 9999 FEW017 25/23 Q1012 NOSIG
METAR WADD 082230Z VRB01KT 9999 SCT017 24/22 Q1012 NOSIG
METAR WADD 082200Z VRB02KT 9999 SCT016 24/23 Q1012 NOSIG
METAR WADD 082130Z 02004KT 9999 SCT016 24/22 Q1012 NOSIG
METAR WADD 082100Z VRB01KT 9999 SCT016 25/23 Q1012 NOSIG
METAR WADD 082030Z 36003KT 9999 SCT016 24/23 Q1011 NOSIG
METAR WADD 082000Z VRB02KT 9999 SCT016 24/23 Q1011 NOSIG
 WADD 081930Z VRB01KT 9999 SCT016 25/24 Q1011 NOSIG
METAR WADD 081900Z 04001KT 9999 SCT016 25/24 Q1012 NOSIG
METAR WADD 081830Z VRB01KT 9999 SCT016 25/24 Q1012 NOSIG
METAR WADD 081800Z 20001KT 9999 SCT016 25/23 Q1012 NOSIG
METAR WADD 081730Z 24002KT 9999 SCT016 25/23 Q1012 NOSIG
METAR WADD 081700Z 23002KT 9999 SCT016 26/24 Q1012 NOSIG
METAR WADD 081630Z 26001KT 9999 SCT0169 25/24 Q1012 NOSIG
METAR WADD 081600Z 22001KT 9999 SCT016 26/24 Q1012 NOSIG
METAR WADD 081530Z VRB01KT 9999 SCT016 26/24 Q1012 NOSIG
METAR WADD 081500Z VRB02KT 9999 SCT016 26/24 Q1013 NOSIG
METAR WADD 081430Z VRB01KT 9999 BKN015 26/24 Q1013 NOSIG
METAR WADD 081400Z VRB01KT 9000 BKN015 26/24 Q1013 RERA NOSIG
METAR WADD 081330Z VRB02KT 9999 SCT017 26/23 Q1012 NOSIG
METAR WADD 081300Z 26002KT 9999 FEW017 26/23 Q1012 NOSIG
METAR WADD 081230Z VRB02KT 9999 FEW017 27/23 Q1012 NOSIG
METAR WADD 081200Z VRB03KT 9999 FEW017 27/24 Q1012 NOSIG
METAR WADD 081130Z 23003KT 9999 FEW017 27/24 Q1011 NOSIG
METAR WADD 081100Z 23003KT 9999 FEW017 27/24 Q1011 NOSIG
METAR WADD 081030Z 23004KT 9999 FEW017 28/24 Q1011 NOSIG
METAR WADD 081000Z 25007KT 9999 FEW017 28/24 Q1010 NOSIG
METAR WADD 080930Z 25007KT 9999 FEW017 28/23 Q1010 NOSIG
METAR WADD 080900Z 26008KT 9999 FEW017 29/23 Q1010 NOSIG
METAR WADD 080830Z 26009KT 9999 FEW017 29/23 Q1009 NOSIG
METAR WADD 080800Z 26009KT 9999 FEW017 29/23 Q1009 NOSIG
METAR WADD 080730Z 26010KT 9999 FEW017 29/24 Q1009 NOSIG
METAR WADD 080700Z 26010KT 9999 FEW017 29/24 Q1010 NOSIG
METAR WADD 080630Z 25009KT 9999 FEW017 29/24 Q1010 NOSIG
METAR WADD 080600Z 26011KT 9999 FEW017 30/24 Q1011 NOSIG
METAR WADD 080530Z 26010KT 9999 FEW017 30/24 Q1011 NOSIG
METAR WADD 080500Z 26011KT 9999 FEW017 30/23 Q1011 NOSIG
METAR WADD 080430Z 25010KT 9999 FEW017 30/23 Q1012 NOSIG
METAR WADD 080400Z 26011KT 9999 FEW017 30/24 Q1012 NOSIG
METAR WADD 080330Z 26010KT 9999 FEW017 29/24 Q1012 NOSIG
METAR WADD 080300Z 26008KT 9999 FEW017 30/25 Q1013 NOSIG
METAR WADD 080230Z 25007KT 9999 FEW017 29/25 Q1013 NOSIG
METAR WADD 080200Z 28006KT 250V330 9999 FEW017 29/25 Q1014 NOSIG
METAR WADD 080130Z 26007KT 230V330 9999 FEW017 28/24 Q1014 NOSIG
METAR WADD 080100Z 29006KT 260V330 9999 FEW017 28/24 Q1014 NOSIG
METAR WADD 080030Z 31005KT 280V350 9999 FEW017 28/24 Q1014 NOSIG
METAR WADD 080000Z 33003KT 9999 FEW017 28/24 Q1014 NOSIG</description><pubDate>Wed, 08 Oct 2025 23:40:58 </pubDate></item></channel></rss>