<rss version="2.0"><channel><title>Aviation Weather METAR Data for WADD</title><link>https://aviationweather.gov/api/data/metar?ids=WADD&amp;hours=24</link><description>Latest METAR data for WADD</description><item><title>2025-11-03 05:28:41Z</title><link>https://aviationweather.gov/api/data/metar?ids=WADD&amp;hours=24</link><description>METAR WADD 030500Z 13006KT 080V190 9999 TS FEW016CB FEW016 31/26 Q100 9 NOSIG
METAR WADD 030430Z 14007KT 100V170 9999 FEW016CB SCT017 31/26 Q1009 N OSIG
METAR WADD 030400Z 13007KT 9999 SCT017 31/26 Q1010 NOSIG
METAR WADD 030330Z 14007KT 110V190 9999 SCT016 31/26 Q1011 NOSIG
METAR WADD 030300Z 16005KT 120V220 9999 SCT016 30/26 Q1011 NOSIG
METAR WADD 030230Z 22006KT 140V300 9999 SCT016 30/26 Q1012 NOSIG
METAR WADD 030200Z 11005KT 090V160 9999 FEW017 30/26 Q1012 NOSIG
METAR WADD 030130Z 11004KT 060V160 9999 FEW017 30/26 Q1012 NOSIG
METAR WADD 030100Z 11003KT 9999 FEW017 30/25 Q1012 NOSIG
METAR WADD 030030Z COR VRB02KT 9999 FEW017 29/25 Q1011 NOSIG
METAR WADD 030000Z VRB02KT 9999 FEW017 29/25 Q1011 NOSIG
METAR WADD 022330Z 33006KT 300V360 9999 FEW017 27/24 Q1011 NOSIG
METAR WADD 022300Z 32005KT 9999 FEW017 27/24 Q1011 NOSIG
METAR WADD 022230Z 31004KT 9999 FEW017 26/24 Q1010 NOSIG
METAR WADD 022200Z VRB01KT 9999 FEW017 26/24 Q1010 NOSIG
METAR WADD 022130Z VRB01KT 9999 FEW017 26/24 Q1009 NOSIG
METAR WADD 022100Z VRB02KT 9999 FEW017 25/24 Q1009 NOSIG
METAR WADD 022030Z 01003KT 9999 FEW017 26/24 Q1009 NOSIG
METAR WADD 022000Z 34003KT 9999 FEW017 26/25 Q1009 NOSIG
METAR WADD 021930Z VRB02KT 9999 FEW017 26/25 Q1009 NOSIG
METAR WADD 021900Z VRB01KT 9999 FEW017 26/25 Q1009 NOSIG
METAR WADD 021830Z VRB02KT 9999 FEW017 26/25 Q1009 NOSIG
METAR WADD 021800Z VRB02KT 9999 FEW017 26/25 Q1009 NOSIG
METAR WADD 021730Z VRB01KT 9999 FEW017 26/25 Q1010 NOSIG
METAR WADD 021700Z VRB02KT 9999 FEW017 26/25 Q1010 NOSIG
METAR WADD 021630Z 01004KT 310V070 9999 FEW017 27/26 Q1010 NOSIG
METAR WADD 021600Z VRB01KT 9999 FEW017 27/25 Q1010 NOSIG
METAR WADD 021530Z VRB01KT 9999 FEW016 26/25 Q1011 NOSIG
METAR WADD 021500Z VRB01KT 9999 FEW016 27/25 Q1011 NOSIG
METAR WADD 021430Z VRB02KT 9999 SCT016 26/25 Q1012 NOSIG
METAR WADD 021400Z VRB02KT 9999 SCT016 27/25 Q1012 NOSIG
METAR WADD 021330Z VRB01KT 9999 SCY016 27/25 Q1011 NOSIG
METAR WADD 021300Z VRB02KT 9999 SCT016 27/25 Q1012 NOSIG
METAR WADD 021230Z 10002KT 9999 FEW016CB SCT016 27/25 Q1012 NOSIG
METAR WADD 021200Z VRB03KT 9999 FEW016CB SCT016 27/25 Q1011 NOSIG
METAR WADD 021130Z VRB02KT 9999 SCT016 27/25 Q1011 NOSIG
METAR WADD 021100Z VRB02KT 9999 SCT016 27/24 Q1010 NOSIG
METAR WADD 021030Z 09004KT 070V130 9999 SCT016 27/25 Q1010 NOSIG
METAR WADD 021000Z VRB02KT 9999 SCT016 27/24 Q1010 NOSIG
METAR WADD 020930Z 11003KT 9999 SCT017 27/24 Q1009 NOSIG
METAR WADD 020900Z 15005KT 120V190 9999 SCT016 27/24 Q1009 NOSIG
METAR WADD 020830Z 13003KT 9999 SCT016 27/25 Q1009 NOSIG
METAR WADD 020800Z 12003KT 9999 FEW015CB BKN015 27/25 Q1009 NOSIG
METAR WADD 020730Z 22003KT 9999 SCT016 27/25 Q1009 RETSRA NOSIG
METAR WADD 020700Z VRB03KT 8000 -TSRA FEW014CB BKN014 27/25 Q1009 TEMPO TL0800 8000 -TSRA
METAR WADD 020630Z 36006G15KT 270V040 7000 -TSRA FEW014CB BKN014 28/23 Q1009 TEMPO TL0730 7000 -TSRA
METAR WADD 020600Z 31009KT 9999 TS FEW014CB BKN014 29/25 Q1009 TEMPO TL0700 TS
METAR WADD 020530Z 33012KT 9999 TS FEW015CB BKN016 28/25 Q1010 TEMPO TL0600 TS</description><pubDate>Mon, 03 Nov 2025 05:28:41 </pubDate></item></channel></rss>