<rss version="2.0"><channel><title>Aviation Weather METAR Data for WADD</title><link>https://aviationweather.gov/api/data/metar?ids=WADD&amp;hours=24</link><description>Latest METAR data for WADD</description><item><title>2025-01-20 09:25:07Z</title><link>https://aviationweather.gov/api/data/metar?ids=WADD&amp;hours=24</link><description>WADD 200900Z 26018KT 7000 -RA FEW014CB BKN014 26/25 Q1006 TEMPO TL1000 -RA
WADD 200830Z 25017G28KT 7000 -RA FEW014CB BKN014 26/25 Q1006 TEMPO TL0930 -RA
WADD 200800Z 24014G27KT 8000 -RA FEW014CB BKN015 27/25 Q1006 TEMPO TL0900 -RA
WADD 200730Z 24014G24KT 9999 FEW014CB BKN015 27/26 Q1006 NOSIG
WADD 200700Z 24011KT 9999 FEW014CB BKN015 27/26 Q1006 RERA NOSIG
WADD 200630Z 24009G20KT 8000 -RA FEW014CB BKN015 27/26 Q1006 TEMPO TL0730 -RA
WADD 200600Z 24012G22KT 5000 -RA FEW014CB BKN015 27/26 Q1006 TEMPO TL0700 5000 -RA
WADD 200530Z 25013KT 4000 -RA FEW014CB BKN016 27/26 Q1006 TEMPO TL0630 4000 -RA
WADD 200500Z 24012G22KT 4000 -RA FEW014CB BKN016 28/26 Q1006 TREND TEMPO TL0600 4000 -RA
WADD 200430Z 27011KT 9999 SCT016 29/26 Q1006 NOSIG
WADD 200400Z 26007KT 9999 SCT016 29/26 Q1007 NOSIG
WADD 200330Z 26006KT 9999 SCT017 29/26 Q1007 NOSIG
WADD 200300Z 26008KT 9999 SCT016 29/26 Q1007 NOSIG
WADD 200230Z 26009KT 9999 SCT016 28/25 Q1007 NOSIG
WADD 200200Z 27010KT 9999 SCT016 29/26 Q1007 NOSIG
WADD 200130Z 27010KT 9999 SCT016 29/26 Q1007 NOSIG
WADD 200100Z 26011KT 9999 BKN016 28/26 Q1007 NOSIG
WADD 200030Z 27010KT 9999 BKN015 28/26 Q1007 NOSIG
WADD 200000Z 27014KT 9999 FEW014CB BKN015 28/25 Q1006 NOSIG
WADD 192330Z 28011KT 9999 FEW014CB BKN015 28/25 Q1006 NOSIG
WADD 192300Z 28010KT 9999 FEW014CB BKN015 27/25 Q1006 NOSIG
WADD 192230Z 28010KT 9999 FEW014CB BKN015 27/25 Q1005 NOSIG
WADD 192200Z 29009KT 9999 FEW014CB BKN015 27/26 Q1005 NOSIG
WADD 192130Z 27012KT 9999 FEW014CB BKN015 27/26 Q1005 RERA NOSIG
WADD 192100Z 26013KT 7000 -RA FEW014CB BKN015 27/25 Q1005 TEMPO TL2200 -RA
WADD 192030Z 28010KT 9999 BKN015 27/26 Q1005 NOSIG
WADD 192000Z 28010KT 9999 BKN015 27/26 Q1005 NOSIG
WADD 191930Z 29010KT 9999 BKN015 27/26 Q1005 NOSIG
WADD 191900Z 29010KT 9999 BKN015 27/26 Q1005 NOSIG
WADD 191830Z 30012KT 9999 BKN015 27/26 Q1005 NOSIG
WADD 191800Z 29011KT 9999 BKN015 27/26 Q1005 NOSIG
WADD 191730Z 29012KT 9999 BKN015 27/26 Q1005 NOSIG
WADD 191700Z 29010KT 9999 BKN015 27/26 Q1006 NOSIG
WADD 191630Z 28011KT 9999 BKN015 27/26 Q1006 NOSIG
WADD 191600Z 28010KT 9999 BKN015 27/26 Q1006 NOSIG
WADD 191530Z 29010KT 9999 BKN015 27/26 Q1007 NOSIG
WADD 191500Z 29010KT 9999 BKN015 27/26 Q1006 RERA NOSIG
WADD 191430Z 30011KT 8000 -RA FEW014CB BKN015 27/26 Q1006 TEMPO TL1530 -RA
WADD 191400Z 30010KT 8000 -RA FEW014CB BKN015 27/26 Q1007 TEMPO TL1500 -RA
WADD 191330Z 30012KT 8000 -RA FEW014CB BKN015 27/26 Q1006 TEMPO TL1430 -RA
WADD 191300Z 30011KT 8000 -RA FEW014CB BKN015 27/26 Q1006 TEMPO TL1400 -RA
WADD 191230Z 30011KT 8000 -RA FEW014CB BKN015 27/26 Q1006 RETS TEMPO TL1330 -RA
WADD 191200Z 31011KT 290V010 8000 -TSRA FEW014CB BKN015 26/26 Q1006 TEMPO TL1300 -TSRA RMK CB IN APCH
WADD 191130Z VRB06KT 6000 -TSRA FEW014CB BKN014 26/26 Q1006 TEMPO TL1300 -TSRA RMK CB IN APCH AND CLIMB-OUT
WADD 191100Z 28015KT 1500 TSRA FEW014CB BKN014 28/26 Q1005 TEMPO TL1200 3000 TSRA
WADD 191030Z 28015KT 9000 TS FEW015CB BKN015 28/26 Q1004 RERA TEMPO TL1200 TS
WADD 191000Z 26013KT 8000 -TSRA FEW015CB BKN015 29/26 Q1004 TEMPO TL1100 -TSRA
WADD 190930Z 26015KT 9999 TS FEW015CB SCT016 29/26 Q1004 TEMPO TL1100 TS</description><pubDate>Mon, 20 Jan 2025 09:25:07 </pubDate></item></channel></rss>