<rss version="2.0"><channel><title>Aviation Weather METAR Data for WADD</title><link>https://aviationweather.gov/api/data/metar?ids=WADD&amp;hours=24</link><description>Latest METAR data for WADD</description><item><title>2025-04-21 09:42:49Z</title><link>https://aviationweather.gov/api/data/metar?ids=WADD&amp;hours=24</link><description>WADD 210930Z VRB02KT 9999 FEW016 30/24 Q1009 NOSIG
WADD 210900Z 17003KT 9999 FEW016 30/24 Q1009 NOSIG
WADD 210830Z 15005KT 120V210 9999 FEW017 30/24 Q1008 NOSIG
WADD 210800Z 18004KT 130V260 9999 FEW016 31/24 Q1008 NOSIG
WADD 210730Z 22005KT 160V280 9999 FEW016 31/24 Q1008 NOSIG
WADD 210700Z 24007KT 200V270 9999 FEW016 31/24 Q1008 NOSIG
WADD 210630Z 24006KT 210V290 9999 SCT017 32/25 Q1009 NOSIG
WADD 210600Z 26009KT 9999 SCT017 31/25 Q1009 NOSIG
WADD 210530Z 26008KT 220V290 9999 FEW017 31/25 Q1009 NOSIG
WADD 210500Z 25008KT 9999 FEW017 31/25 Q1010 NOSIG
WADD 210430Z VRB04KT 9999 FEW017 31/24 Q1010 NOSIG
WADD 210400Z VRB05KT 9999 FEW017 31/25 Q1010 NOSIG
WADD 210330Z 25006KT 210V280 9999 FEW017 30/25 Q1010 NOSIG
WADD 210300Z 25007KT 9999 FEW017 31/27 Q1011 NOSIG
WADD 210230Z 27005KT 9999 FEW017 30/26 Q1011 NOSIG
WADD 210200Z 26005KT 9999 FEW017 30/28 Q1011 NOSIG
WADD 210130Z 25003KT 9999 FEW017 30/27 Q1012 NOSIG
WADD 210100Z VRB02KT 9999 FEW017 29/27 Q1011 NOSIG
WADD 210030Z 18002KT 9999 FEW017 29/27 Q1011 NOSIG
WADD 210000Z 16002KT 9999 FEW017 28/27 Q1011 NOSIG
WADD 202330Z VRB01KT 9999 FEW017 28/26 Q1011 NOSIG
WADD 202300Z 05002KT 9999 FEW017 26/26 Q1010 NOSIG
WADD 202230Z 02003KT 9999 FEW017 26/25 Q1010 NOSIG
WADD 202200Z 05002KT 9999 FEW017 25/25 Q1010 NOSIG
WADD 202130Z 08004KT 9999 FEW017 25/25 Q1009 NOSIG
WADD 202100Z 08004KT 9999 FEW017 26/25 Q1009 NOSIG
WADD 202030Z 05002KT 9999 FEW017 26/25 Q1009 NOSIG
WADD 202000Z 05002KT 9999 FEW017 26/26 Q1009 NOSIG
WADD 201930Z 06001KT 9999 FEW017 27/26 Q1009 NOSIG
WADD 201900Z 07002KT 9999 FEW017 27/26 Q1009 NOSIG
WADD 201830Z 01001KT 9999 FEW017 27/26 Q1010 NOSIG
WADD 201800Z VRB02KT 9999 FEW017 27/26 Q1010 NOSIG
WADD 201730Z 04003KT 9999 FEW017 27/26 Q1010 NOSIG
WADD 201700Z VRB02KT 9999 FEW017 28/26 Q1010 NOSIG
WADD 201630Z VRB02KT 9999 FEW017 27/26 Q1010 NOSIG
WADD 201600Z 11002KT 9999 FEW017 28/26 Q1010 NOSIG
WADD 201530Z 09003KT 9999 FEW017 27/26 Q1010 NOSIG
WADD 201500Z 10003KT 9999 FEW017 27/26 Q1010 NOSIG
WADD 201430Z 10003KT 9999 FEW017 27/26 Q1011 NOSIG
WADD 201400Z 09005KT 9999 FEW017 27/26 Q1011 NOSIG
WADD 201330Z 11004KT 9999 FEW017 27/27 Q1010 NOSIG
WADD 201300Z 12006KT 9999 FEW017 28/27 Q1010 NOSIG
WADD 201230Z 14007KT 9999 FEW017 29/27 Q1010 NOSIG
WADD 201200Z 14007KT 9999 FEW017 29/27 Q1010 NOSIG
WADD 201130Z 12007KT 9999 FEW017 29/27 Q1009 NOSIG
WADD 201100Z 13008KT 9999 FEW017 29/27 Q1009 NOSIG
WADD 201030Z 14005KT 9999 FEW017 29/26 Q1008 NOSIG
WADD 201000Z 15004KT 9999 FEW017 29/25 Q1008 NOSIG</description><pubDate>Mon, 21 Apr 2025 09:42:49 </pubDate></item></channel></rss>