<rss version="2.0"><channel><title>Aviation Weather METAR Data for WADD</title><link>https://aviationweather.gov/api/data/metar?ids=WADD&amp;hours=24</link><description>Latest METAR data for WADD</description><item><title>2025-11-21 21:41:26Z</title><link>https://aviationweather.gov/api/data/metar?ids=WADD&amp;hours=24</link><description>METAR WADD 212130Z 03003KT 9999 FEW017 26/25 Q1007 NOSIG
METAR WADD 212100Z 05003KT 9999 FEW017 26/25 Q1007 NOSIG
METAR WADD 212030Z 04002KT 9999 FEW017 26/25 Q1007 NOSIG
METAR WADD 212000Z 06003KT 9999 SCT017 26/25 Q1007 NOSIG
METAR WADD 211930Z VRB02KT 9999 SCT017 27/25 Q1007 NOSIG
METAR WADD 211900Z 04004KT 9999 SCT017 27/25 Q1007 NOSIG
METAR WADD 211830Z 05003KT 9999 FEW017 27/25 Q1007 NOSIG
METAR WADD 211800Z 05002KT 9999 FEW017 28/25 Q1007 NOSIG
METAR WADD 211730Z 09003KT 9999 FEW017 28/25 Q1008 NOSIG
METAR WADD 211700Z 05004KT 9999 FEW017 28/25 Q1008 NOSIG
METAR WADD 211630Z 04006KT 9999 FEW016CB FEW017 28/25 Q1008 NOSIG
METAR WADD 211600Z 04005KT 9999 FEW016CB FEW017 28/25 Q1009 NOSIG
METAR WADD 211530Z 06007KT 9999 FEW017 28/25 Q1009 NOSIG
METAR WADD 211500Z 06008KT 9999 FEW017 28/25 Q1009 NOSIG
METAR WADD 211430Z 07007KT 030V110 9999 FEW017 28/26 Q1009 NOSIG
METAR WADD 211400Z 08007KT 9999 FEW017 28/26 Q1009 NOSIG
METAR WADD 211330Z 09006KT 9999 FEW017 28/25 Q1009 NOSIG
METAR WADD 211300Z 10007KT 9999 SCT016 29/26 Q1009 NOSIG
METAR WADD 211230Z 10006KT 9999 SCT016 29/26 Q1008 NOSIG
METAR WADD 211200Z 13006KT 9999 SCT016 29/26 Q1008 NOSIG
METAR WADD 211130Z 13007KT 9999 SCT016 29/26 Q1009 NOSIG
METAR WADD 211100Z 12005KT 9999 SCT016 29/26 Q1008 NOSIG
METAR WADD 211030Z 12006KT 9999 SCT016 29/26 Q1008 NOSIG
METAR WADD 211000Z 13006KT 9999 SCT016 30/26 Q1008 NOSIG
METAR WADD 210930Z 12007KT 9999 SCT016 30/26 Q1007 NOSIG
METAR WADD 210900Z 13009KT 9999 SCT016 30/26 Q1007 NOSIG
METAR WADD 210830Z 11009KT 9999 SCT016 30/25 Q1007 NOSIG
METAR WADD 210800Z 16009KT 9999 SCT016 31/26 Q1007 NOSIG
METAR WADD 210730Z 15010KT 9999 SCT016 31/26 Q1007 NOSIG
METAR WADD 210700Z 15010KT 9999 SCT016 31/26 Q1007 NOSIG
METAR WADD 210630Z 16010KT 9999 SCT016 31/26 Q1007 NOSIG
METAR WADD 210600Z 17011KT 9999 SCT016 31/26 Q1007 NOSIG
METAR WADD 210530Z 16009KT 9999 SCT016 31/26 Q1008 NOSIG
METAR WADD 210500Z 12007KT 9999 SCT016 31/26 Q1008 NOSIG
METAR WADD 210430Z 19006KT 9999 FEW017 32/26 Q1008 NOSIG
METAR WADD 210400Z 20004KT 9999 FEW017 31/26 Q1009 NOSIG
METAR WADD 210330Z 15006KT 9999 FEW017 31/26 Q1009 NOSIG
METAR WADD 210300Z 12006KT 9999 FEW017 31/26 Q1009 NOSIG
METAR WADD 210230Z 10006KT 060V130 9999 FEW017 31/25 Q1010 NOSIG
METAR WADD 210200Z 13005KT 080V150 9999 FEW017 30/26 Q1010 NOSIG
METAR WADD 210130Z VRB02KT 9999 FEW016 30/26 Q1010 NOSIG
METAR WADD 210100Z 33004KT 300V010 9999 FEW017 30/26 Q1010 NOSIG
METAR WADD 210030Z 31005KT 9999 FEW017 29/25 Q1010 NOSIG
METAR WADD 210000Z 34003KT 9999 FEW017 29/25 Q1010 NOSIG
METAR WADD 202330Z 01006KT 9999 FEW017 28/25 Q1010 NOSIG
METAR WADD 202300Z 02003KT 9999 FEW017 27/25 Q1009 NOSIG
METAR WADD 202230Z 09003KT 9999 FEW017 26/25 Q1009 NOSIG
METAR WADD 202200Z 09003KT 9999 FEW017 26/25 Q1009 NOSIG</description><pubDate>Fri, 21 Nov 2025 21:41:26 </pubDate></item></channel></rss>