<rss version="2.0"><channel><title>Aviation Weather METAR Data for WADD</title><link>https://aviationweather.gov/api/data/metar?ids=WADD&amp;hours=24</link><description>Latest METAR data for WADD</description><item><title>2025-01-13 17:22:08Z</title><link>https://aviationweather.gov/api/data/metar?ids=WADD&amp;hours=24</link><description>WADD 131700Z 30010KT 9999 SCT016 28/26 Q1008 NOSIG
WADD 131630Z 27009KT 9999 SCT016 28/26 Q1008 NOSIG
WADD 131600Z 26008KT 9999 SCT016 28/26 Q1008 NOSIG
WADD 131530Z 26008KT 9999 SCT016 28/26 Q1008 NOSIG
WADD 131500Z 26008KT 9999 SCT016 28/26 Q1008 NOSIG
WADD 131430Z 25008KT 9999 SCT016 28/26 Q1008 NOSIG
WADD 131400Z 23004KT 9999 SCT016 28/26 Q1008 NOSIG
WADD 131330Z 23004KT 160V270 9999 SCT016 28/26 Q1008 NOSIG
WADD 131300Z 23005KT 9999 SCT016 28/26 Q1007 NOSIG
WADD 131230Z 24007KT 9999 SCT016 28/26 Q1007 NOSIG
WADD 131200Z 25007KT 9999 BKN016 28/26 Q1007 NOSIG
WADD 131130Z 24005KT 150V270 9999 SCT016 28/26 Q1006 NOSIG
WADD 131100Z 24006KT 9999 BKN016 28/26 Q1006 NOSIG
WADD 131030Z 24005KT 9999 BKN016 29/26 Q1006 NOSIG
WADD 131000Z 23006KT 200V260 9999 BKN015 29/26 Q1006 NOSIG
WADD 130930Z 24007KT 210V270 9999 BKN015 29/26 Q1005 NOSIG
WADD 130900Z 25007KT 9999 SCT016 29/26 Q1005 NOSIG
WADD 130830Z 25005KT 220V290 9999 SCT016 29/26 Q1005 NOSIG
WADD 130800Z 25006KT 220V280 9999 SCT016 29/26 Q1005 NOSIG
WADD 130730Z 24005KT 210V290 9999 SCT016 29/26 Q1006 NOSIG
WADD 130700Z 26006KT 9999 SCT016 29/26 Q1006 NOSIG
WADD 130630Z 26007KT 220V280 9999 SCT016 30/26 Q1006 NOSIG
WADD 130600Z 26007KT 9999 BKN015 29/25 Q1007 NOSIG
WADD 130530Z 28010KT 9999 SCT016 30/26 Q1007 NOSIG
WADD 130500Z 28011KT 9999 SCT016 30/26 Q1007 NOSIG
WADD 130430Z 26009KT 9999 SCT015 28/27 Q1008 RERA NOSIG
WADD 130400Z 26013KT 6000 -RA FEW014CB BKN015 28/26 Q1008 TEMPO TL0500 6000 -RA
WADD 130330Z 27008KT 9999 FEW014CB SCT015 28/27 Q1009 NOSIG
WADD 130300Z 28008KT 9999 SCT015 28/26 Q1009 NOSIG
WADD 130230Z 26006KT 9999 BKN015 28/26 Q1009 RERA NOSIG
WADD 130200Z 26006KT 7000 -RA FEW014CB BKN014 26/26 Q1009 TEMPO TL0300 7000 -RA
WADD 130130Z 32007KT 5000 RA FEW014CB BKN015 28/26 Q1009 TEMPO TL0230 5000 RA
WADD 130100Z 32005KT 7000 -RA FEW014CB BKN015 27/26 Q1009 TEMPO TL0200 7000 -RA
WADD 130030Z 32006KT 9999 FEW014CB BKN015 27/26 Q1009 NOSIG
WADD 130000Z 33006KT 290V350 9999 FEW014CB BKN014 26/26 Q1009 RERA NOSIG
WADD 122330Z 23006KT 8000 -RA FEW014CB BKN014 26/26 Q1008 TEMPO TL2430 -RA
WADD 122300Z 26008KT 230V300 8000 FEW014CB BKN015 26/26 Q1008 TEMPO FM2305 TL2400 5000 RA RMK CB IN CLIMB-OUT
WADD 122230Z 34004KT 9999 BKN015 26/25 Q1008 NOSIG
WADD 122200Z 26007KT 9999 BKN015 25/25 Q1007 RERA NOSIG
WADD 122130Z 28012KT 7000 -RA FEW014CB BKN014 26/25 Q1007 TEMPO TL2230 7000 -RA
WADD 122100Z 27005KT 7000 -RA FEW014CB BKN014 25/25 Q1007 TEMPO TL2200 7000 -RA
WADD 122030Z 29007KT 9999 SCT016 26/25 Q1007 NOSIG
WADD 122000Z 30013KT 9999 BKN015 26/25 Q1007 NOSIG
WADD 121930Z 28013KT 9999 BKN015 26/25 Q1007 NOSIG
WADD 121900Z 26011KT 9999 SCT016 27/25 Q1007 NOSIG
WADD 121830Z 27011KT 9999 SCT017 26/25 Q1007 NOSIG
WADD 121800Z 28012KT 9999 SCT016 26/25 Q1007 NOSIG
WADD 121730Z 28012KT 8000 -RA BKN015 26/25 Q1008 TEMPO TL1830 8000 -RA</description><pubDate>Mon, 13 Jan 2025 17:22:08 </pubDate></item></channel></rss>