<rss version="2.0"><channel><title>Aviation Weather METAR Data for WADD</title><link>https://aviationweather.gov/api/data/metar?ids=WADD&amp;hours=24</link><description>Latest METAR data for WADD</description><item><title>2025-07-20 16:33:00Z</title><link>https://aviationweather.gov/api/data/metar?ids=WADD&amp;hours=24</link><description>WADD 201600Z 12006KT 9999 FEW017 26/23 Q1011 NOSIG
WADD 201530Z 13007KT 9999 FEW017 26/22 Q1011 NOSIG
WADD 201500Z 12007KT 9999 FEW017 26/22 Q1011 NOSIG
WADD 201430Z 13007KT 9999 FEW017 26/23 Q1011 NOSIG
WADD 201400Z 13007KT 9999 FEW017 26/23 Q1011 NOSIG
WADD 201330Z 13009KT 9999 SCT017 26/23 Q1011 NOSIG
WADD 201300Z 12010KT 9999 SCT017 26/23 Q1010 NOSIG
WADD 201230Z 14007KT 9999 SCT017 26/24 Q1010 NOSIG
WADD 201200Z 14010KT 9999 SCT016 26/23 Q1010 NOSIG
WADD 201130Z 15009KT 9999 FEW017 26/23 Q1009 NOSIG
WADD 201100Z 15008KT 9999 FEW017 26/23 Q1009 NOSIG
WADD 201030Z 16010KT 9999 FEW016 26/23 Q1009 NOSIG
WADD 201000Z 15012KT 9999 SCT016 27/23 Q1009 NOSIG
WADD 200930Z 15013KT 9999 SCT016 27/23 Q1008 NOSIG
WADD 200900Z 14013KT 9999 SCT016 27/23 Q1008 NOSIG
WADD 200830Z 14013KT 9999 SCT016 27/23 Q1008 NOSIG
WADD 200800Z 15013KT 9999 SCT016 27/22 Q1008 NOSIG
WADD 200730Z 16013KT 9999 SCT016 28/23 Q1008 NOSIG
WADD 200700Z 14013KT 9999 FEW016 28/22 Q1008 NOSIG
WADD 200630Z 13012KT 9999 FEW016 28/22 Q1008 NOSIG
WADD 200600Z 13011KT 090V150 9999 FEW016 29/23 Q1008 NOSIG
WADD 200530Z 14014KT 9999 FEW017 28/23 Q1008 NOSIG
WADD 200500Z 11012KT 9999 FEW017 29/21 Q1009 NOSIG
WADD 200430Z 13012KT 9999 FEW017 28/22 Q1009 NOSIG
WADD 200400Z 11010KT 9999 FEW017 29/23 Q1010 NOSIG
WADD 200330Z 12013KT 9999 FEW017 28/22 Q1010 NOSIG
WADD 200300Z 10012KT 9999 FEW017 28/22 Q1010 NOSIG
WADD 200230Z 10010KT 9999 FEW017 28/22 Q1011 NOSIG
WADD 200200Z 10010KT 9999 FEW017 28/22 Q1011 NOSIG
WADD 200130Z 09008KT 9999 FEW017 28/22 Q1011 NOSIG
WADD 200100Z 08007KT 9999 FEW017 27/22 Q1011 NOSIG
WADD 200030Z 08005KT 050V120 9999 FEW017 26/22 Q1011 NOSIG
WADD 200000Z 04003KT 9999 FEW017 25/21 Q1011 NOSIG
WADD 192330Z VRB02KT 9999 FEW017 24/21 Q1011 NOSIG
WADD 192300Z VRB02KT 9999 SCT016 23/21 Q1010 NOSIG
WADD 192230Z 36005KT 9999 SCT016 23/21 Q1010 NOSIG
WADD 192200Z 36004KT 9999 SCT016 23/21 Q1010 NOSIG
WADD 192130Z 35003KT 9999 SCT016 23/21 Q1010 NOSIG
WADD 192100Z 35003KT 9999 SCT016 23/21 Q1010 NOSIG
WADD 192030Z 36002KT 9999 SCT016 24/22 Q1010 NOSIG
WADD 192000Z VRB01KT 9999 SCT016 24/22 Q1010 NOSIG
WADD 191930Z VRB02KT 9999 SCT016 24/22 Q1010 NOSIG
WADD 191900Z 13004KT 9999 FEW016 25/22 Q1010 NOSIG
WADD 191830Z 13006KT 9999 FEW016 25/22 Q1010 NOSIG
WADD 191800Z 13007KT 9999 FEW016 25/22 Q1010 NOSIG
WADD 191730Z 13006KT 9999 FEW016 25/22 Q1010 NOSIG
WADD 191700Z 13007KT 9999 FEW016 25/22 Q1010 NOSIG</description><pubDate>Sun, 20 Jul 2025 16:33:00 </pubDate></item></channel></rss>