<rss version="2.0"><channel><title>Aviation Weather METAR Data for WADD</title><link>https://aviationweather.gov/api/data/metar?ids=WADD&amp;hours=24</link><description>Latest METAR data for WADD</description><item><title>2025-07-16 02:23:04Z</title><link>https://aviationweather.gov/api/data/metar?ids=WADD&amp;hours=24</link><description>WADD 160200Z 15014KT 9999 BKN015 27/23 Q1013 NOSIG
WADD 160130Z 15012KT 9999 BKN015 27/23 Q1013 NOSIG
WADD 160100Z 15011KT 9999 SCT016 27/23 Q1013 NOSIG
WADD 160030Z 14007KT 9999 SCT016 26/23 Q1013 NOSIG
WADD 160000Z 14007KT 9999 SCT016 26/23 Q1013 NOSIG
WADD 152330Z 13007KT 9999 SCT016 26/23 Q1012 NOSIG
WADD 152300Z 14009KT 9999 SCT016 26/23 Q1012 NOSIG
WADD 152230Z 14010KT 9999 SCT016 26/23 Q1012 NOSIG
WADD 152200Z 14008KT 9999 SCT016 26/23 Q1011 NOSIG
WADD 152130Z 14012KT 9999 SCT016 26/23 Q1011 NOSIG
WADD 152100Z 14012KT 9999 SCT016 26/23 Q1011 NOSIG
WADD 152030Z 15013KT 9999 SCT016 26/23 Q1011 NOSIG
WADD 152000Z 15012KT 9999 SCT016 26/23 Q1011 NOSIG
WADD 151930Z 15009KT 9999 SCT016 26/24 Q1011 NOSIG
WADD 151900Z 14009KT 9999 SCT016 26/24 Q1012 NOSIG
WADD 151830Z 15011KT 9999 SCT016 26/24 Q1011 NOSIG
WADD 151800Z 15009KT 9999 SCT016 26/24 Q1012 NOSIG
WADD 151730Z 15010KT 9999 SCT016 26/24 Q1012 NOSIG
WADD 151700Z 14012KT 9999 SCT016 26/24 Q1012 NOSIG
WADD 151630Z 15013KT 9999 SCT016 26/24 Q1012 NOSIG
WADD 151600Z 15012KT 9999 SCT016 27/24 Q1012 NOSIG
WADD 151530Z 16011KT 9999 SCT016 27/24 Q1012 NOSIG
WADD 151500Z 15011KT 9999 SCT016 27/24 Q1012 NOSIG
WADD 151430Z 15010KT 9999 SCT016 27/24 Q1012 NOSIG
WADD 151400Z 15008KT 9999 SCT016 27/24 Q1012 NOSIG
WADD 151330Z 15009KT 9999 SCT016 27/24 Q1012 NOSIG
WADD 151300Z 15008KT 9999 SCT016 27/24 Q1012 NOSIG
WADD 151230Z 14007KT 9999 SCT016 27/24 Q1011 NOSIG
WADD 151200Z 14009KT 9999 SCT016 27/24 Q1011 NOSIG
WADD 151130Z 14010KT 9999 SCT016 27/24 Q1011 NOSIG
WADD 151100Z 14011KT 9999 BKN015 27/24 Q1010 NOSIG
WADD 151030Z 14009KT 9999 SCT015 27/24 Q1010 NOSIG
WADD 151000Z 14011KT 9999 SCT016 27/24 Q1010 NOSIG
WADD 150930Z 14014KT 9999 SCT017 27/24 Q1009 NOSIG
WADD 150900Z 13014KT 9999 FEW017 28/24 Q1009 NOSIG
WADD 150830Z 13014KT 9999 FEW017 28/24 Q1009 NOSIG
WADD 150800Z 14018KT 9999 FEW017 28/24 Q1009 NOSIG
WADD 150730Z 14016KT 9999 FEW016 28/24 Q1009 NOSIG
WADD 150700Z 13019KT 9999 FEW016 28/24 Q1008 NOSIG
WADD 150630Z 13016KT 9999 FEW016 28/25 Q1009 NOSIG
WADD 150600Z 12015KT 9999 FEW016 29/25 Q1009 NOSIG
WADD 150530Z 11017KT 9999 FEW016 29/25 Q1009 NOSIG
WADD 150500Z 12019KT 9999 FEW016 28/25 Q1009 NOSIG
WADD 150430Z 12020KT 9999 FEW016 29/25 Q1010 NOSIG
WADD 150400Z 11019KT 9999 FEW016 29/25 Q1010 NOSIG
WADD 150330Z 11017KT 9999 FEW016 29/25 Q1011 NOSIG
WADD 150300Z 11015KT 9999 FEW016 29/25 Q1011 NOSIG
WADD 150230Z 10015KT 9999 FEW016 28/25 Q1011 NOSIG</description><pubDate>Wed, 16 Jul 2025 02:23:04 </pubDate></item></channel></rss>