<rss version="2.0"><channel><title>Aviation Weather METAR Data for WADD</title><link>https://aviationweather.gov/api/data/metar?ids=WADD&amp;hours=24</link><description>Latest METAR data for WADD</description><item><title>2026-03-16 08:11:36Z</title><link>https://aviationweather.gov/api/data/metar?ids=WADD&amp;hours=24</link><description>METAR WADD 160800Z 25009KT 9999 NCD 31/26 Q1007 NOSIG
METAR WADD 160730Z 25009KT 9999 FEW016 32/26 Q1008 NOSIG
METAR WADD 160700Z 25010KT 9999 FEW016 31/26 Q1008 NOSIG
METAR WADD 160630Z 24008KT 9999 FEW016 31/26 Q1008 NOSIG
METAR WADD 160600Z 25008KT 9999 SCT016 31/26 Q1008 NOSIG
METAR WADD 160530Z 26010KT 220V280 9999 FEW017 31/26 Q1009 NOSIG
METAR WADD 160500Z 25009KT 220V280 9999 FEW017 31/27 Q1009 NOSIG
METAR WADD 160430Z 26009KT 9999 FEW017 30/27 Q1010 NOSIG
METAR WADD 160400Z 26009KT 220V280 9999 SCT016 31/26 Q1010 NOSIG
METAR WADD 160330Z 26008KT 220V290 9999 SCT016 31/26 Q1010 NOSIG
METAR WADD 160300Z 26007KT 210V290 9999 SCT016 30/26 Q1010 NOSIG
METAR WADD 160230Z 27007KT 9999 SCT016 30/26 Q1010 NOSIG
METAR WADD 160200Z 27005KT 9999 FEW016CB SCT016 29/26 Q1011 NOSIG
METAR WADD 160130Z 23005KT 210V280 9999 FEW016CB SCT016 28/26 Q1011 R ERA NOSIG RMK CB IN APCH AND CLIMB-OUT
METAR WADD 160100Z 24003KT 8000 -RA FEW016CB FEW016 27/26 Q1011 TEMPO TL0230 8000 -RA RMK CB IN APCH AND CLIMB-OUT
SPECI WADD 160046Z 25008KT 220V300 8000 -RA FEW016CB FEW016 29/26 Q1011 NOSIG RMK CB IN APCH
METAR WADD 160030Z 29004KT 260V320 9999 FEW016CB FEW016 30/26 Q1010 NOSIG RMK CB IN APCH
METAR WADD 160000Z VRB02KT 9999 FEW016CB FEW016 30/27 Q1010 NOSIG RMK CB IN APCH
METAR WADD 152330Z 01003KT 9999 FEW016 28/27 Q1010 NOSIG
METAR WADD 152300Z VRB02KT 9999 FEW017 25/25 Q1010 NOSIG
METAR WADD 152230Z 05002KT 9999 FEW016 25/25 Q1009 NOSIG
METAR WADD 152200Z VRB01KT 9999 FEW016 25/24 Q1009 NOSIG
METAR WADD 152130Z VRB01KT 9999 SCT016 25/24 Q1009 NOSIG
METAR WADD 152100Z VRB02KT 9999 FEW015CB SCT016 25/25 Q1009 NOSIG CB IN CLIMB-OUT
METAR WADD 152030Z VRB04KT 9999 FEW015CB SCT016 25/25 Q1009 NOSIG RMK CB TO S
METAR WADD 152000Z 02003KT 9999 FEW015CB SCT016 26/25 Q1009 NOSIG RMK CB TO S
METAR WADD 151930Z VRB02KT 9999 FEW015CB SCT016 26/25 Q1009 NOSIG RMK CB TO S
METAR WADD 151900Z 28003KT 9999 SCT015 26/25 Q1009 NOSIG
METAR WADD 151830Z 28009KT 9999 SCT015 26/25 Q1010 NOSIG
METAR WADD 151800Z 25008KT 9999 SCT015 25/24 Q1010 NOSIG
METAR WADD 151730Z 25006KT 9999 FEW013CB SCT014 25/25 Q1010 RETS NOSIG RMK CB TO SW
METAR WADD 151700Z 24005KT 200V260 9999 TS FEW013CB SCT014 25/25 Q101 1 NOSIG RMK CB IN CLIMB-OUT AND APCH
METAR WADD 151630Z 24011KT 9999 TS FEW013CB SCT014 25/24 Q1011 NOSIG RMK CB IN CLIMB-OUT AND APCH
SPECI WADD 151615Z VRB02KT 9999 TS FEW013CB SCT014 26/25 Q1011 NOSIG RMK CB IN CLIMB-OUT AND SW
METAR WADD 151600Z VRB02KT 9999 FEW014CB SCT015 26/25 Q1011 NOSIG RMK CB TO S AND SW
METAR WADD 151530Z VRB02KT 9999 FEW014CB SCT015 26/26 Q1012 CB TO S NOSIG
METAR WADD 151500Z VRB02KT 9999 FEW014CB SCT015 26/26 Q1012 RETSRA NO SIG
METAR WADD 151430Z 34004KT 290V360 7000 -TSRA FEW013CB BKN014 26/25 Q 1012 TEMPO TL1530 7000 -TSRA RMK CB IN APCH AND CB TO SE
METAR WADD 151400Z 33007KT 7000 -TSRA FEW013CB BKN014 26/26 Q1012 TEMPO TL1500 7000 -TSRA RMK CB IN APCH AND CLIMB-OUT
METAR WADD 151330Z 30011G20KT 7000 -TSRA FEW013CB BKN014 25/25 Q1011 TEMPO TL1430 7000 -TSRA RMK CB IN APCH AND CLIMB-OUT
METAR WADD 151300Z 34009KT 310V010 1500 TSRA FEW013CB BKN014 26/26 Q1011 TEMPO TL1400 1500 TSRA RMK CB IN APCH AND CLIMB-OUT
METAR WADD 151230Z 28008KT 270V340 1200 TSRA FEW013CB BKN014 27/26 Q1011 TEMPO TL1330 1200 TSRA RMK CB INAPCH AND CLIMB-OUT
SPECI WADD 151222Z 36004KT 330V030 1200 TSRA FEW013CB BKN014 27/26 Q1010 TEMPO TL1330 1200 TSRA RMK CB IN APCH AND CLIMB-OUT
SPECI WADD 151205Z 02007KT 330V030 7000 -TSRA FEW014CB BKN015 28/25 Q1010 TEMPO TL1300 7000 -TSRA RMK CB IN APCH AND CLIMB-OUT
METAR WADD 151200Z 02007KT 320V040 9999 TS FEW014CB SCT015 28/25 Q1010 NOSIG RMK CB IN APCH
METAR WADD 151130Z 26007KT 9999 TS FEW015CB SCT015 28/26 Q1010 NOSIG RMK CB IN APCH
METAR WADD 151100Z 27010KT 9999 FEW015CB SCT015 28/26 Q1009 NOSIG RMK CB IN APCH
METAR WADD 151030Z 26008KT 9999 FEW015CB SCT015 29/27 Q1009 RETS NOSI G RMK CB IN APCH
METAR WADD 151000Z 25009KT 9999 TS FEW015CB SCT015 29/26 Q1008 NOSIG RMK CB IN APCH
METAR WADD 150930Z 25009KT 9999 FEW015CB SCT016 29/26 Q1008 NOSIG RMK CB IN APCH
METAR WADD 150900Z 24007KT 9999 FEW015CB SCT016 30/26 Q1008 NOSIG
METAR WADD 150830Z 26010KT 9999 SCT016 31/27 Q1008 NOSIG</description><pubDate>Mon, 16 Mar 2026 08:11:36 </pubDate></item></channel></rss>