<rss version="2.0"><channel><title>Aviation Weather METAR Data for WADD</title><link>https://aviationweather.gov/api/data/metar?ids=WADD&amp;hours=24</link><description>Latest METAR data for WADD</description><item><title>2025-08-30 04:42:59Z</title><link>https://aviationweather.gov/api/data/metar?ids=WADD&amp;hours=24</link><description>WADD 300430Z 13012KT 9999 FEW017 29/23 Q1012 NOSIG
WADD 300400Z 11012KT 9999 FEW017 29/23 Q1012 NOSIG
WADD 300330Z 11013KT 9999 FEW017 28/23 Q1013 NOSIG
WADD 300300Z 11014KT 9999 FEW017 29/23 Q1013 NOSIG
WADD 300230Z 11013KT 9999 FEW017 28/23 Q1013 NOSIG
WADD 300200Z 09010KT 9999 SCT017 28/23 Q1014 NOSIG
WADD 300130Z 10010KT 9999 SCT017 28/23 Q1014 NOSIG
WADD 300100Z 11011KT 070V130 9999 SCT017 27/23 Q1014 NOSIG
WADD 300030Z 12011KT 9999 FEW017 27/23 Q1014 NOSIG
WADD 300000Z 12008KT 9999 FEW017 26/23 Q1014 NOSIG
WADD 292330Z 09005KT 9999 FEW017 26/23 Q1014 NOSIG
WADD 292300Z 11004KT 9999 FEW017 25/23 Q1014 NOSIG
WADD 292230Z 12004KT 9999 FEW017 25/23 Q1013 NOSIG
WADD 292200Z 11004KT 9999 FEW017 24/23 Q1013 NOSIG
WADD 292130Z 13006KT 9999 FEW017 25/23 Q1013 NOSIG
WADD 292100Z 13008KT 9999 FEW017 25/23 Q1012 NOSIG
WADD 292030Z 12007KT 9999 FEW017 25/23 Q1012 NOSIG
WADD 292000Z 13009KT 9999 FEW017 25/23 Q1013 NOSIG
WADD 291930Z 13010KT 9999 FEW017 25/23 Q1013 NOSIG
WADD 291900Z 12009KT 9999 FEW017 25/23 Q1013 NOSIG
WADD 291830Z 12010KT 9999 FEW017 25/23 Q1013 NOSIG
WADD 291800Z 10009KT 9999 FEW017 26/23 Q1014 NOSIG
WADD 291730Z 12010KT 9999 FEW017 26/23 Q1014 NOSIG
WADD 291700Z 12009KT 9999 FEW017 26/23 Q1014 NOSIG
WADD 291630Z 12010KT 9999 FEW017 26/23 Q1014 NOSIG
WADD 291600Z 12010KT 9999 FEW017 26/23 Q1014 NOSIG
WADD 291530Z 13010KT 9999 FEW017 26/23 Q1014 NOSIG
WADD 291500Z 13009KT 9999 FEW017 26/23 Q1014 NOSIG
WADD 291430Z 13009KT 9999 FEW017 26/23 Q1014 NOSIG
WADD 291400Z 13012KT 9999 FEW017 26/23 Q1014 NOSIG
WADD 291330Z 13011KT 9999 SCT016 26/23 Q1014 NOSIG
WADD 291300Z 13010KT 9999 FEW017 26/23 Q1014 NOSIG
WADD 291230Z 13012KT 9999 FEW017 26/23 Q1014 NOSIG
WADD 291200Z 13012KT 9999 FEW017 26/23 Q1013 NOSIG
WADD 291130Z 13012KT 9999 FEW016 26/23 Q1013 NOSIG
WADD 291100Z 13012KT 9999 FEW016 26/22 Q1013 NOSIG
WADD 291030Z 14014KT 9999 SCT016 26/23 Q1012 NOSIG
WADD 291000Z 14015KT 9999 SCT016 26/23 Q1012 NOSIG
WADD 290930Z 14015KT 9999 SCT015 27/23 Q1012 NOSIG
WADD 290900Z 13016KT 9999 BKN016 27/23 Q1012 NOSIG
WADD 290830Z 13015KT 9999 BKN016 27/23 Q1012 NOSIG
WADD 290800Z 14017KT 9999 SCT016 27/22 Q1011 NOSIG
WADD 290730Z 14016KT 9999 SCT016 27/23 Q1012 NOSIG
WADD 290700Z 15018KT 9999 BKN016 27/22 Q1012 NOSIG
WADD 290630Z 14016KT 9999 BKN016 27/23 Q1012 NOSIG
WADD 290600Z 14015KT 9999 BKN016 27/23 Q1012 NOSIG
WADD 290530Z 14016KT 9999 BKN016 27/23 Q1013 NOSIG
WADD 290500Z 15016KT 9999 BKN016 27/22 Q1013 NOSIG</description><pubDate>Sat, 30 Aug 2025 04:42:59 </pubDate></item></channel></rss>