<rss version="2.0"><channel><title>Aviation Weather METAR Data for WADD</title><link>https://aviationweather.gov/api/data/metar?ids=WADD&amp;hours=24</link><description>Latest METAR data for WADD</description><item><title>2025-03-08 18:42:14Z</title><link>https://aviationweather.gov/api/data/metar?ids=WADD&amp;hours=24</link><description>WADD 081830Z 34005KT 9999 SCT016 27/27 Q1008 NOSIG
WADD 081800Z 36005KT 330V040 9999 SCT016 28/27 Q1008 NOSIG
WADD 081730Z 33006KT 310V050 9999 SCT016 28/27 Q1009 NOSIG
WADD 081700Z VRB01KT 9999 SCT016 28/27 Q1009 NOSIG
WADD 081630Z VRB02KT 9999 SCT016 28/28 Q1009 NOSIG
WADD 081600Z 09004KT 9999 SCT016 27/27 Q1009 NOSIG
WADD 081530Z VRB01KT 9999 FEW015CB SCT016 28/27 Q1010 NOSIG
WADD 081500Z 14003KT 9999 FEW015CB SCT016 29/28 Q1010 NOSIG
WADD 081430Z 14004KT 9999 FEW015CB SCT016 29/28 Q1010 NOSIG
WADD 081400Z 16003KT 9999 FEW017 29/27 Q1009 NOSIG
WADD 081330Z 19004KT 9999 FEW017 29/28 Q1009 NOSIG
WADD 081300Z 20004KT 9999 FEW017 29/27 Q1009 NOSIG
WADD 081230Z 22004KT 9999 SCT016 29/26 Q1009 NOSIG
WADD 081200Z 22003KT 9999 SCT016 29/26 Q1008 NOSIG
WADD 081130Z 23003KT 9999 SCT016 29/26 Q1008 NOSIG
WADD 081100Z 23003KT 9999 SCT016 29/25 Q1007 NOSIG
WADD 081030Z 18002KT 9999 SCT016 29/25 Q1007 NOSIG
WADD 081000Z VRB02KT 9999 SCT016 28/25 Q1006 NOSIG
WADD 080930Z 33004KT 300V030 9999 SCT016 28/25 Q1006 NOSIG
WADD 080900Z 33007KT 9999 BKN016 28/25 Q1006 NOSIG
WADD 080830Z 33008KT 9999 FEW015CB BKN015 27/26 Q1006 NOSIG
WADD 080800Z 34014KT 9999 FEW015CB BKN015 28/25 Q1006 NOSIG
WADD 080730Z 11008KT 9999 FEW015CB SCT016 31/28 Q1006 NOSIG
WADD 080700Z 11008KT 080V140 9999 SCT016 31/28 Q1006 NOSIG
WADD 080630Z 16008KT 9999 SCT016 32/28 Q1006 NOSIG
WADD 080600Z 17010KT 9999 SCT016 32/27 Q1006 NOSIG
WADD 080530Z 23006KT 9999 SCT016 32/28 Q1006 NOSIG
WADD 080500Z 23005KT 9999 FEW016 32/28 Q1007 NOSIG
WADD 080430Z 22008KT 9999 SCT016 31/29 Q1007 NOSIG
WADD 080400Z 11008KT 9999 SCT016 32/28 Q1007 NOSIG
WADD 080330Z 10007KT 070V130 9999 FEW016 31/28 Q1008 NOSIG
WADD 080300Z 08006KT 050V120 9999 FEW016 31/28 Q1008 NOSIG
WADD 080230Z 11006KT 9999 FEW016 31/27 Q1009 NOSIG
WADD 080200Z 11008KT 9999 FEW016 31/28 Q1009 NOSIG
WADD 080130Z 09006KT 9999 FEW016 30/28 Q1008 NOSIG
WADD 080100Z VRB02KT 9999 FEW016 29/28 Q1008 NOSIG
WADD 080030Z 19002KT 9999 FEW016 29/27 Q1008 NOSIG
WADD 080000Z VRB01KT 9999 FEW016 28/27 Q1008 NOSIG
WADD 072330Z 02003KT 9999 SCT016 27/27 Q1007 NOSIG
WADD 072300Z 02003KT 9999 SCT016 27/26 Q1007 NOSIG
WADD 072200Z 02004KT 9999 SCT016 26/26 Q1007 NOSIG
WADD 072130Z 10003KT 9999 SCT016 28/27 Q1007 NOSIG
WADD 072100Z 07001KT 9999 SCT016 28/27 Q1006 NOSIG
WADD 072030Z 15003KT 9999 SCT016 28/27 Q1006 NOSIG
WADD 072000Z 15003KT 9999 FEW017 27/27 Q1006 NOSIG
WADD 071930Z 13003KT 9999 FEW017 28/27 Q1006 NOSIG
WADD 071900Z 13002KT 9999 FEW017 28/27 Q1007 NOSIG</description><pubDate>Sat, 08 Mar 2025 18:42:14 </pubDate></item></channel></rss>