<rss version="2.0"><channel><title>Aviation Weather METAR Data for WADD</title><link>https://aviationweather.gov/api/data/metar?ids=WADD&amp;hours=24</link><description>Latest METAR data for WADD</description><item><title>2025-02-04 22:41:00Z</title><link>https://aviationweather.gov/api/data/metar?ids=WADD&amp;hours=24</link><description>WADD 042230Z VRB02KT 9999 SCT016 28/27 Q1005 NOSIG
WADD 042200Z 08006KT 9999 SCT016 27/26 Q1004 NOSIG
WADD 042130Z 32008KT 300V110 9999 FEW015CB BKN016 27/26 Q1004 NOSIG
WADD 042100Z 15008G19KT 140V240 9999 FEW015CB BKN016 28/27 Q1004 NOSIG
WADD 042030Z 09003KT 9999 FEW015CB BKN016 28/27 Q1004 NOSIG
WADD 042000Z 09003KT 9999 SCT016 28/27 Q1005 NOSIG
WADD 041930Z 02003KT 9999 SCT016 28/27 Q1005 NOSIG
WADD 041900Z 06002KT 9999 SCT016 27/27 Q1005 NOSIG
WADD 041830Z 08003KT 9999 SCT016 28/27 Q1005 NOSIG
WADD 041800Z 07004KT 9999 SCT016 28/27 Q1005 NOSIG
WADD 041730Z 09003KT 9999 SCT016 28/27 Q1006 NOSIG
WADD 041700Z 11003KT 9999 SCT016 28/27 Q1006 NOSIG
WADD 041630Z 11003KT 9999 FEW015CB BKN016 28/27 Q1006 RERA NOSIG
WADD 041600Z 08004KT 060V140 8000 -RA FEW015CB BKN016 27/26 Q1007 TEMPO TL1700 -RA
WADD 041530Z 19010KT 8000 -RA FEW015CB BKN016 30/28 Q1007 TEMPO TL1630 -RA
WADD 041500Z 15004KT 9999 FEW017 30/28 Q1007 NOSIG
WADD 041430Z 14003KT 9999 FEW017 30/28 Q1007 NOSIG
WADD 041400Z 13004KT 9999 FEW017 30/28 Q1006 NOSIG
WADD 041330Z 15006KT 9999 FEW017 30/28 Q1007 NOSIG
WADD 041300Z 17009KT 9999 FEW017 30/28 Q1006 NOSIG
WADD 041230Z 16008KT 9999 FEW017 30/28 Q1006 NOSIG
WADD 041200Z 18010KT 9999 FEW017 30/28 Q1006 NOSIG
WADD 041130Z 16008KT 9999 SCT017 30/27 Q1005 NOSIG
WADD 041100Z 14009KT 9999 SCT017 31/27 Q1004 NOSIG
WADD 041030Z 16009KT 9999 SCT017 31/27 Q1004 NOSIG
WADD 041000Z 16006KT 9999 FEW017 32/27 Q1004 NOSIG
WADD 040930Z 13006KT 9999 FEW017 32/25 Q1004 NOSIG
WADD 040900Z 14006KT 070V220 9999 FEW017 32/25 Q1004 NOSIG
WADD 040830Z 25006KT 220V310 9999 FEW017 33/26 Q1003 NOSIG
WADD 040800Z 24008KT 220V280 9999 FEW017 33/26 Q1004 NOSIG
WADD 040730Z 25009KT 9999 FEW017 33/26 Q1004 NOSIG
WADD 040700Z 24008KT 9999 FEW017 33/26 Q1004 NOSIG
WADD 040630Z 30008KT 260V330 9999 FEW017 33/25 Q1004 NOSIG
WADD 040600Z 28009KT 9999 FEW017 33/26 Q1004 NOSIG
WADD 040530Z 28008KT 240V320 9999 FEW017 33/25 Q1005 NOSIG
WADD 040500Z 28007KT 240V320 9999 FEW017 33/25 Q1005 NOSIG
WADD 040430Z 28008KT 230V320 9999 FEW017 33/25 Q1005 NOSIG
WADD 040400Z 26005KT 9999 FEW017 33/24 Q1005 NOSIG
WADD 040330Z 27005KT 200V330 9999 FEW017 33/24 Q1006 NOSIG
WADD 040300Z 29005KT 230V350 9999 FEW017 33/24 Q1006 NOSIG
WADD 040230Z 27005KT 220V320 9999 FEW017 32/24 Q1006 NOSIG
WADD 040200Z 31006KT 270V340 9999 FEW017 32/24 Q1006 NOSIG
WADD 040130Z 33006KT 9999 FEW017 31/24 Q1006 NOSIG
WADD 040100Z 32004KT 260V360 9999 FEW017 31/24 Q1007 NOSIG
WADD 040030Z VRB02KT 9999 FEW017 30/26 Q1006 NOSIG
WADD 040000Z VRB02KT 9999 FEW017 29/25 Q1006 NOSIG
WADD 032330Z 07003KT 9999 FEW017 28/26 Q1006 NOSIG
WADD 032300Z 03003KT 9999 FEW017 27/26 Q1006 NOSIG TREND NOSIG</description><pubDate>Tue, 04 Feb 2025 22:41:00 </pubDate></item></channel></rss>