<rss version="2.0"><channel><title>Aviation Weather METAR Data for WADD</title><link>https://aviationweather.gov/api/data/metar?ids=WADD&amp;hours=24</link><description>Latest METAR data for WADD</description><item><title>2026-02-09 23:48:17Z</title><link>https://aviationweather.gov/api/data/metar?ids=WADD&amp;hours=24</link><description>METAR WADD 092330Z 31011KT 7000 -RA BKN015 26/24 Q1010 NOSIG
METAR WADD 092300Z 31013KT 7000 -RA BKN015 26/25 Q1010 NOSIG
METAR WADD 092230Z 31011KT 7000 -RA BKN015 26/25 Q1010 TEMPO TL2330 -RA
METAR WADD 092200Z 30010KT 7000 -RA FEW014CB BKN015 26/25 Q1010 TEMPO TL2330 -RA
METAR WADD 092130Z 29007KT 9999 FEW014CB BKN015 26/25 Q1010 NOSIG
METAR WADD 092100Z 29007KT 9999 FEW014CB BKN015 26/25 Q1009 NOSIG
METAR WADD 092000Z 26005KT 7000 -RA FEW014CB BKN015 25/24 Q1009 TEMPO TL2130 -RA
METAR WADD 091930Z 24005KT 7000 -RA FEW014CB BKN015 25/24 Q1009 TEMPO TL2030 -RA
METAR WADD 091900Z 24008KT 6000 -RA FEW014CB BKN015 25/24 Q1009 TEMPO TL2030 -RA
METAR WADD 091830Z 27005KT 9999 FEW014CB BKN015 26/24 Q1009 NOSIG
METAR WADD 091800Z 30006KT 9999 FEW014CB BKN015 26/24 Q1009 RERA NOSI G
METAR WADD 091730Z 31007KT 7000 -RA FEW014CB BKN015 26/25 Q1009 NOSIG
METAR WADD 091700Z 30007KT 7000 -RA FEW014CB BKN014 26/24 Q1010 NOSIG
METAR WADD 091630Z 30008KT 7000 -RA FEW014CB BKN014 26/24 Q1010 NOSIG
METAR WADD 091600Z 30008KT 7000 -RA FEW014CB BKN014 26/24 Q1011 NOSIG
METAR WADD 091530Z 30009KT 7000 -RA FEW014CB BKN014 26/25 Q1011 NOSIG
METAR WADD 091500Z 30008KT 7000 -RA FEW014CB BKN014 26/25 Q1011 RETS TEMPO TL1600 -RA
METAR WADD 091430Z 32006KT 290V350 7000 -TSRA FEW013CB BKN014 25/24 Q 1011 TEMPO TL1600 -TSRA
METAR WADD 091400Z VRB05KT 4000 TSRA FEW013CB BKN013 24/24 Q1011 TEMPO TL1500 6000 -TSRA RMK CB IN APCH
METAR WADD 091330Z VRB03KT 0500 +RA FEW013CB BKN013 26/25 Q1011 TEMPO TL1500 2000 RA RMK CB IN APCH AND CLIMB-OUT
METAR WADD 091300Z 34005KT 290V020 9999 FEW015CB BKN015 27/24 Q1010 TEMPO FM1320 4000 TSRA RMK CB IN CLIMB-OUT
METAR WADD 091230Z VRB03KT 9999 BKN016 26/23 Q1010 NOSIG
METAR WADD 091200Z 33006KT 290V030 9999 FEW015CB BKN016 27/24 Q1009 N OSIG RMK CB IN APCH
METAR WADD 091130Z 32007KT 9999 FEW015CB BKN016 27/24 Q1009 NOSIG RMK CB IN APCH
METAR WADD 091100Z 32013KT 9999 FEW015CB BKN016 27/24 Q1009 NOSIG
METAR WADD 091030Z 26010KT 9999 FEW015CB SCT016 29/25 Q1008 NOSIG
METAR WADD 091000Z 25007KT 9999 FEW015CB SCT016 29/25 Q1008 NOSIG
METAR WADD 090930Z 25008KT 9999 FEW015CB SCT016 30/25 Q1007 NOSIG
METAR WADD 090900Z 25007KT 9999 FEW015CB SCT016 30/25 Q1007 NOSIG
METAR WADD 090830Z 25006KT 9999 FEW015CB SCT016 30/24 Q1007 NOSIG
METAR WADD 090800Z 26007KT 9999 FEW015CB SCT016 30/24 Q1006 NOSIG
METAR WADD 090730Z 25005KT 210V290 9999 FEW015CB SCT016 30/24 Q1007 N OSIG
METAR WADD 090700Z 26007KT 9999 FEW015CB SCT016 30/24 Q1007 NOSIG
METAR WADD 090630Z 29010KT 9999 FEW015CB SCT016 30/25 Q1007 NOSIG
METAR WADD 090600Z 27009KT 9999 FEW015CB SCT016 30/25 Q1008 NOSIG
METAR WADD 090530Z 26008KT 9999 SCT016 30/25 Q1007 NOSIG
METAR WADD 090500Z 10003KT 9999 SCT016 29/25 Q1008 NOSIG
METAR WADD 090430Z 08006KT 9999 FEW016 30/25 Q1008 NOSIG
METAR WADD 090400Z 11005KT 070V140 9999 FEW016 30/25 Q1008 NOSIG
METAR WADD 090330Z 22003KT 9999 FEW016 30/24 Q1009 NOSIG
METAR WADD 090300Z 25004KT 210V290 9999 FEW016 30/24 Q1009 NOSIG
METAR WADD 090230Z 25004KT 210V290 9999 FEW016 30/24 Q1009 NOSIG
METAR WADD 090200Z 27003KT 9999 FEW017 30/24 Q1009 NOSIG
METAR WADD 090130Z 30005KT 250V340 9999 FEW017 29/24 Q1009 NOSIG
METAR WADD 090100Z 27005KT 230V300 9999 FEW017 29/24 Q1009 NOSIG
METAR WADD 090030Z 33005KT 270V360 9999 FEW017 29/24 Q1009 NOSIG
METAR WADD 090000Z 34003KT 9999 FEW017 28/24 Q1009 NOSIG</description><pubDate>Mon, 09 Feb 2026 23:48:17 </pubDate></item></channel></rss>