<rss version="2.0"><channel><title>Aviation Weather METAR Data for WADD</title><link>https://aviationweather.gov/api/data/metar?ids=WADD&amp;hours=24</link><description>Latest METAR data for WADD</description><item><title>2026-05-13 20:19:43Z</title><link>https://aviationweather.gov/api/data/metar?ids=WADD&amp;hours=24</link><description>METAR WADD 132000Z 12009KT 9999 FEW015CB SCT016 28/26 Q1007 NOSIG
METAR WADD 131930Z 13012KT 9999 FEW015CB SCT016 28/26 Q1007 NOSIG
METAR WADD 131900Z 12012KT 9999 FEW015CB SCT016 28/26 Q1007 NOSIG
METAR WADD 131830Z 12011KT 9999 FEW015CB SCT016 28/26 Q1008 NOSIG
METAR WADD 131800Z 12011KT 9999 FEW015CB SCT016 28/26 Q1008 NOSIG
METAR WADD 131730Z 12012KT 9999 FEW015CB SCT016 28/26 Q1008 NOSIG
METAR WADD 131700Z 12013KT 9999 FEW015CB SCT016 28/26 Q1008 RERA NOSI G
METAR WADD 131630Z 13012KT 7000 -RA FEW015CB SCT016 28/26 Q1009 TEMPO TL1730 -RA
SPECI WADD 131615Z 13013KT 6000 -RA FEW015CB BKN016 28/26 Q1009 TEMPO TL1715 -RA
METAR WADD 131600Z 13013KT 9999 FEW016 28/26 Q1009 NOSIG
METAR WADD 131530Z 12013KT 9999 FEW016 28/26 Q1009 NOSIG
METAR WADD 131500Z 12014KT 9999 FEW016 28/26 Q1009 NOSIG
METAR WADD 131430Z 12013KT 9999 SCT016 28/26 Q1010 NOSIG
METAR WADD 131400Z 12013KT 9999 SCT016 29/26 Q1010 NOSIG
METAR WADD 131330Z 11015KT 9999 SCT016 29/25 Q1009 NOSIG
METAR WADD 131300Z 12015KT 9999 SCT016 29/26 Q1009 NOSIG
METAR WADD 131230Z 11014KT 9999 SCT016 29/26 Q1009 NOSIG
METAR WADD 131200Z 12016KT 9999 SCT016 29/26 Q1009 NOSIG
METAR WADD 131130Z 12016KT 9999 SCT016 29/26 Q1008 NOSIG
METAR WADD 131100Z 12015KT 9999 SCT016 29/26 Q1008 NOSIG
METAR WADD 131030Z 12018KT 9999 SCT016 29/26 Q1008 NOSIG
METAR WADD 131000Z 13017KT 9999 SCT016 29/26 Q1007 NOSIG
METAR WADD 130930Z 13018KT 9999 SCT016 29/26 Q1007 NOSIG
METAR WADD 130900Z 14018KT 9999 SCT016 30/26 Q1007 NOSIG
METAR WADD 130830Z 13015KT 9999 SCT016 30/26 Q1007 NOSIG
METAR WADD 130800Z 13018KT 9999 SCT016 30/26 Q1007 NOSIG
METAR WADD 130730Z 13017KT 9999 SCT016 30/26 Q1006 NOSIG
METAR WADD 130700Z 14017KT 9999 SCT016 30/26 Q1006 NOSIG
METAR WADD 130630Z 13016KT 9999 SCT016 31/26 Q1007 NOSIG
METAR WADD 130600Z 12016KT 9999 SCT016 31/26 Q1007 NOSIG
METAR WADD 130530Z 12015KT 9999 SCT015 31/26 Q1008 NOSIG
METAR WADD 130500Z 12016KT 9999 SCT016 31/26 Q1008 NOSIG
METAR WADD 130430Z 13017KT 9999 SCT015 30/26 Q1008 NOSIG
METAR WADD 130400Z 13016KT 9999 BKN015 31/26 Q1009 NOSIG
METAR WADD 130330Z 13016KT 9999 BKN015 30/26 Q1009 NOSIG
METAR WADD 130300Z 11016KT 9999 BKN015 30/26 Q1009 NOSIG
METAR WADD 130230Z 12013KT BKN015 31/26 Q1009 NOSIG
METAR WADD 130200Z 11014KT 9999 BKN015 30/26 Q1010 NOSIG
METAR WADD 130130Z 12015KT 9999 SCT015 29/26 Q1010 NOSIG
METAR WADD 130100Z 12015KT 9999 BKN015 29/26 Q1010 NOSIG
METAR WADD 130030Z 12015KT 9999 BKN016 29/26 Q1010 NOSIG
METAR WADD 130000Z 12013KT 9999 BKN015 29/26 Q1010 NOSIG
METAR WADD 122330Z 12012KT 9999 SCT017 28/26 Q1009 NOSIG
METAR WADD 122300Z 12011KT 9999 SCT016 28/26 Q1009 NOSIG
METAR WADD 122230Z 12010KT 9999 SCT016 28/26 Q1008 NOSIG
METAR WADD 122200Z 12012KT 9999 SCT016 28/26 Q1008 NOSIG
METAR WADD 122130Z 12010KT 9999 SCT016 28/26 Q1008 NOSIG
METAR WADD 122100Z 12012KT 9999 SCT016 28/26 Q1008 NOSIG
METAR WADD 122030Z 12011KT 9999 SCT016 28/26 Q1008 NOSIG</description><pubDate>Wed, 13 May 2026 20:19:43 </pubDate></item></channel></rss>