<rss version="2.0"><channel><title>Aviation Weather METAR Data for WADD</title><link>https://aviationweather.gov/api/data/metar?ids=WADD&amp;hours=24</link><description>Latest METAR data for WADD</description><item><title>2025-02-09 19:18:41Z</title><link>https://aviationweather.gov/api/data/metar?ids=WADD&amp;hours=24</link><description>WADD 091900Z 26017G27KT 9999 FEW014CB BKN014 28/26 Q1005 NOSIG
WADD 091830Z 27020KT 9999 FEW014CB BKN014 28/26 Q1005 NOSIG
WADD 091800Z 27018KT 9999 FEW014CB BKN014 28/26 Q1005 NOSIG
WADD 091730Z 26019G29KT 9999 FEW014CB BKN014 29/26 Q1006 NOSIG
WADD 091700Z 26018KT 9999 FEW014CB BKN014 28/26 Q1006 NOSIG
WADD 091630Z 26012KT 8000 -RA FEW014CB BKN014 26/24 Q1007 TEMPO TL1730 -RA
WADD 091600Z 27019G29KT 6000 -RA FEW014CB BKN014 26/25 Q1007 TEMPO TL1700 -RA
WADD 091530Z 26015KT 9999 FEW015CB BKN015 29/26 Q1007 NOSIG
WADD 091500Z 26015KT 9999 BKN015 29/26 Q1007 NOSIG
WADD 091430Z 26018KT 9999 FEW014CB BKN015 29/26 Q1007 NOSIG
WADD 091400Z 27017KT 9999 FEW014CB BKN014 28/26 Q1007 NOSIG
WADD 091330Z 28018G26KT 9000 -RA FEW014CB BKN014 27/25 Q1007 RETS TEMPO TL1430 -RA
WADD 091300Z 28021KT 4000 -RA FEW014CB BKN014 27/26 Q1006 TEMPO TL1400 -RA RMK CB IN APCH AND CLIMB-OUT
WADD 091230Z 28011KT 240V310 8000 -RA FEW014CB BKN015 27/26 Q1006 TEMPO TL1330 -RA RMK CB IN APCH AND CLIMB-OUT
WADD 091200Z 29013KT 8000 -RA FEW014CB BKN015 27/26 Q1006 TEMPO TL1300 -RA
WADD 091130Z 30012KT 8000 -RA FEW014CB BKN015 28/26 Q1005 TEMPO TL1230 -RA
WADD 091100Z 29014KT 4000 RA FEW014CB BKN015 28/26 Q1005 TEMPO TL1200 4000 RA
WADD 091030Z 27016KT 9999 SCT015 28/25 Q1004 NOSIG
WADD 091000Z 28015KT 9999 SCT015 28/26 Q1004 NOSIG
WADD 090930Z 30016KT 9999 BKN015 28/26 Q1004 NOSIG
WADD 090900Z 29017KT 9999 BKN015 28/26 Q1004 NOSIG
WADD 090830Z 31014KT 9999 BKN015 27/25 Q1004 NOSIG
WADD 090800Z 29019KT 9000 -RA BKN015 28/25 Q1004 TEMPO TL0900 -RA
WADD 090730Z 27022KT 9000 -RA BKN015 28/25 Q1005 RETS TEMPO TL0830 -RA
WADD 090700Z 26018KT 8000 -TSRA FEW014CB BKN015 27/25 Q1005 TEMPO TL0800 -TSRA
WADD 090630Z 27017KT 8000 -TSRA FEW013CB BKN014 26/25 Q1004 TEMPO TL0730 -TSRA
WADD 090600Z 26025G38KT 2000 +RA FEW013CB BKN014 25/24 Q1006 TEMPO TL0700 2000 +RA
WADD 090530Z 27021KT 1000 +RA FEW014CB BKN014 29/26 Q1005 TEMPO TL0630 1000 +RA
WADD 090500Z 27017KT 9999 FEW016CB BKN016 28/27 Q1006 RERA NOSIG
WADD 090430Z 26017KT 5000 RA FEW015CB BKN015 29/27 Q1006 TEMPO TL0530 7000 -RA
WADD 090400Z 24013KT 9999 FEW015CB BKN015 28/27 Q1006 RERA NOSIG
WADD 090330Z 23017G28KT 1500 +RA FEW014CB BKN014 28/25 Q1007 TEMPO TL0430 2000 RA
WADD 090300Z 26015KT 9999 FEW016CB SCT016 30/27 Q1007 NOSIG
WADD 090230Z 26019KT 9999 FEW016CB SCT016 30/26 Q1007 NOSIG
WADD 090200Z 26014G29KT 9999 FEW016CB SCT016 28/26 Q1007 NOSIG
WADD 090130Z 26013KT 9999 FEW016CB BKN016 29/26 Q1007 NOSIG
WADD 090100Z 26014G24KT 8000 FEW015CB BKN015 29/27 Q1008 RERA NOSIG
WADD 090030Z 25014KT 7000 -RA FEW016CB BKN016 28/26 Q1008 TEMPO TL0130 -RA
WADD 090000Z 26016KT 9999 FEW016CB BKN016 29/26 Q1007 RERA NOSIG
WADD 082330Z 25013KT 7000 -RA FEW015CB BKN016 29/26 Q1007 TEMPO TL2430 5000 RA
WADD 082300Z 25013G23KT 7000 -RA FEW015CB BKN016 28/26 Q1006 TEMPO TL2400 -RA
WADD 082230Z 26018KT 9999 FEW015CB SCT016 29/26 Q1006 NOSIG
WADD 082200Z 26017KT 9999 FEW015CB SCT016 29/26 Q1005 NOSIG
WADD 082130Z 26018KT 9999 FFEW015CB SCT016 29/26 Q1005 NOSIG
WADD 082100Z 26015KT 9999 FEW015CB SCT016 29/26 Q1005 NOSIG
WADD 082030Z 26015G25KT 9999 FEW015CB SCT016 29/26 Q1005 NOSIG
WADD 082000Z 26016KT 9999 FEW015CB SCT016 29/26 Q1006 NOSIG
WADD 081930Z 26016KT 9999 FEW015CB SCT016 29/26 Q1006 NOSIG</description><pubDate>Sun, 09 Feb 2025 19:18:41 </pubDate></item></channel></rss>