<rss version="2.0"><channel><title>Aviation Weather METAR Data for WADD</title><link>https://aviationweather.gov/api/data/metar?ids=WADD&amp;hours=24</link><description>Latest METAR data for WADD</description><item><title>2025-10-03 18:49:14Z</title><link>https://aviationweather.gov/api/data/metar?ids=WADD&amp;hours=24</link><description>METAR WADD 031830Z 23002KT 9999 SCT016 26/23 Q1012 NOSIG
METAR WADD 031800Z VRB01KT 9999 SCT016 26/23 Q1013 NOSIG
METAR WADD 031730Z 29001KT 9999 SCT016 26/23 Q1013 NOSIG
METAR WADD 031700Z 00000KT 9999 SCT016 25/23 Q1013 NOSIG
METAR WADD 031630Z 27002KT 9999 SCT016 26/23 Q1013 NOSIG
METAR WADD 031600Z 25001KT 9999 SCT016 26/23 Q1014 NOSIG
METAR WADD 031530Z 24002KT 9999 SCT016 26/24 Q1014 NOSIG
METAR WADD 031500Z VRB01KT 9999 SCT016 26/24 Q1014 NOSIG
METAR WADD 031430Z 25001KT 9999 SCT016 26/24 Q1014 NOSIG
METAR WADD 031400Z VRB01KT 9999 SCT016 27/24 Q1014 NOSIG
METAR WADD 031330Z 25002KT 9999 SCT016 27/24 Q1014 NOSIG
METAR WADD 031300Z 26002KT 9999 SCT016 27/24 Q1014 NOSIG
METAR WADD 031230Z VRB02KT 9999 SCT016 27/24 Q1014 NOSIG
METAR WADD 031200Z 25003KT 9999 SCT016 27/24 Q1013 NOSIG
METAR WADD 031130Z 25003KT 9999 FEW017 27/24 Q1013 NOSIG
METAR WADD 031100Z 19003KT 9999 SCT017 28/24 Q1012 NOSIG
METAR WADD 031030Z 19003KT 9999 SCT017 28/23 Q1012 NOSIG
METAR WADD 031000Z 18004KT 9999 SCT017 28/23 Q1011 NOSIG
METAR WADD 030930Z 15005KT 120V230 9999 FEW017 28/23 Q1011 NOSIG
 WADD 030900Z 18005KT 130V280 9999 FEW017 29/23 Q1011 NOSIG
METAR WADD 030830Z 16006KT 120V220 9999 FEW017 29/23 Q1010 NOSIG
METAR WADD 030800Z 16007KT 120V260 9999 FEW017 30/23 Q1010 NOSIG
METAR WADD 030730Z 17007KT 120V240 9999 FEW017 30/23 Q1010 NOSIG
METAR WADD 030700Z 15006KT 090V200 9999 FEW017 31/22 Q1010 NOSIG
METAR WADD 030630Z 13007KT 090V160 9999 FEW017 31/23 Q1010 NOSIG
METAR WADD 030600Z 25007KT 210V280 9999 FEW017 31/25 Q1010 NOSIG
METAR WADD 030530Z 25008KT 9999 FEW017 30/25 Q1010 NOSIG
METAR WADD 030500Z 25008KT 9999 FEW017 30/25 Q1011 NOSIG
METAR WADD 030430Z 26009KT 9999 FEW017 30/25 Q1012 NOSIG
METAR WADD 030400Z 25009KT 9999 FEW017 29/25 Q1012 NOSIG
METAR WADD 030330Z 26008KT 9999 FEW017 29/24 Q1013 NOSIG
METAR WADD 030300Z 26008KT 9999 FEW017 29/24 Q1013 NOSIG
METAR WADD 030230Z 25007KT 9999 FEW017 29/24 Q1013 NOSIG
METAR WADD 030200Z 24005KT 210V290 9999 FEW017 29/24 Q1014 NOSIG
METAR WADD 030130Z 26003KT 9999 FEW017 29/24 Q1014 NOSIG
METAR WADD 030100Z 30004KT 270V330 9999 SCT017 28/24 Q1014 NOSIG
METAR WADD 030030Z 25004KT 220V290 9999 FEW017 28/24 Q1014 NOSIG
METAR WADD 030000Z 32003KT 9999 FEW017 27/24 Q1013 NOSIG
METAR WADD 022330Z 35004KT 320V020 9999 FEW017 27/24 Q1013 NOSIG
METAR WADD 022300Z VRB02KT 9999 FEW017 26/25 Q1013 NOSIG
METAR WADD 022230Z VRB01KT 9999 FEW017 24/23 Q1012 NOSIG
 WADD 022200Z 29002KT 9999 FEW017 24/23 Q1012 NOSIG
 WADD 022130Z 32001KT 9999 FEW017 25/24 Q1012 NOSIG
METAR WADD 022100Z 00000KT 9999 FEW017 25/24 Q1012 NOSIG
 WADD 022030Z 00000KT 9999 FEW017 25/24 Q1011 NOSIG
METAR WADD 022000Z VRB01KT 9999 FEW017 25/24 Q1011 NOSIG
 WADD 021930Z VRB01KT 9999 FEW017 26/24 Q1011 NOSIG
METAR WADD 021900Z VRB03KT 9999 FEW017 26/24 Q1011 NOSIG</description><pubDate>Fri, 03 Oct 2025 18:49:14 </pubDate></item></channel></rss>