<rss version="2.0"><channel><title>Aviation Weather METAR Data for WADD</title><link>https://aviationweather.gov/api/data/metar?ids=WADD&amp;hours=24</link><description>Latest METAR data for WADD</description><item><title>2026-06-26 23:16:11Z</title><link>https://aviationweather.gov/api/data/metar?ids=WADD&amp;hours=24</link><description>METAR WADD 262300Z 13008KT 9999 BKN016 27/25 Q1011 NOSIG
METAR WADD 262230Z 13007KT 9999 SCT016 26/25 Q1011 NOSIG
METAR WADD 262200Z 14007KT 9999 SCT017 26/25 Q1011 NOSIG
METAR WADD 262130Z 14007KT 9999 FEW017 26/24 Q1011 NOSIG
METAR WADD 262100Z 14009KT 9999 FEW017 26/25 Q1011 NOSIG
METAR WADD 262030Z 13009KT 9999 FEW017 26/25 Q1011 NOSIG
METAR WADD 262000Z 13008KT 9999 FEW017 26/25 Q1011 NOSIG
METAR WADD 261930Z 13007KT 9999 FEW017 26/25 Q1011 NOSIG
METAR WADD 261900Z 12007KT 9999 FEW017 26/25 Q1011 NOSIG
METAR WADD 261830Z 12009KT 9999 FEW017 26/25 Q1011 NOSIG
METAR WADD 261800Z 13009KT 9999 FEW017 26/25 Q1011 NOSIG
METAR WADD 261730Z 13008KT 9999 FEW017 26/25 Q1011 NOSIG
METAR WADD 261700Z 12010KT 9999 FEW017 27/24 Q1012 NOSIG
METAR WADD 261630Z 12010KT 9999 FEW017 27/24 Q1012 NOSIG
METAR WADD 261600Z 12011KT 9999 FEW017 27/25 Q1012 NOSIG
METAR WADD 261530Z 12010KT 9999 FEW017 27/25 Q1012 NOSIG
METAR WADD 261500Z 12010KT 9999 FEW017 27/24 Q1012 NOSIG
METAR WADD 261430Z 12009KT 9999 FEW017 27/25 Q1012 NOSIG
METAR WADD 261400Z 12011KT 9999 FEW017 27/25 Q1012 NOSIG
METAR WADD 261330Z 12010KT 9999 FEW017 27/25 Q1012 NOSIG
METAR WADD 261300Z 12010KT 9999 FEW017 27/25 Q1012 NOSIG
METAR WADD 261230Z 12011KT 9999 FEW017 27/25 Q1012 NOSIG
METAR WADD 261200Z 12011KT 9999 FEW017 27/25 Q1011 NOSIG
METAR WADD 261130Z 12011KT 9999 FEW017 27/25 Q1011 NOSIG
METAR WADD 261100Z 12013KT 9999 FEW017 27/25 Q1011 NOSIG
METAR WADD 261030Z 12015KT 9999 FEW017 27/24 Q1011 NOSIG
METAR WADD 261000Z 13015KT 9999 FEW018 28/25 Q1010 NOSIG
METAR WADD 260930Z 11015KT 9999 FEW018 28/24 Q1010 NOSIG
METAR WADD 260900Z 12016KT 9999 FEW018 28/24 Q1010 NOSIG
METAR WADD 260830Z 12015KT 9999 FEW018 29/24 Q1010 NOSIG
METAR WADD 260800Z 11014KT 9999 FEW018 29/24 Q1010 NOSIG
METAR WADD 260730Z 12017KT 9999 FEW018 29/24 Q1010 NOSIG
METAR WADD 260700Z 12018KT 9999 FEW018 29/24 Q1010 NOSIG
METAR WADD 260630Z 11018KT 9999 FEW017 29/24 Q1010 NOSIG
METAR WADD 260600Z 11018KT 9999 FEW016 29/24 Q1010 NOSIG
METAR WADD 260530Z 11018KT 9999 SCT016 29/25 Q1011 NOSIG
METAR WADD 260500Z 12019KT 9999 SCT016 29/25 Q1011 NOSIG
METAR WADD 260430Z 11020KT 9999 SCT016 29/25 Q1012 NOSIG
METAR WADD 260400Z 11019KT 9999 SCT016 29/25 Q1012 NOSIG
METAR WADD 260330Z 11017KT 9999 SCT016 28/25 Q1013 RERA NOSIG
METAR WADD 260300Z 11016KT 8000 -RA FEW015CB BKN016 28/25 Q1013 TEMPO TL0400 8000 -RA RMK CB IN CLIMB-OUT
METAR WADD 260230Z 11016KT 9999 FEW015CB BKN016 29/25 Q1014 NOSIG RMK CB IN APCH
METAR WADD 260200Z 12018KT 9999 FEW015CB BKN016 28/25 Q1014 NOSIG RMK CB IN APCH
METAR WADD 260130Z 12015KT 9999 FEW015CB BKN016 28/25 Q1014 NOSIG RMK CB IN APCH
METAR WADD 260100Z 12015KT 9999 FEW016CB SCT016 29/25 Q1014 NOSIG RMK CB IN APCH
METAR WADD 260030Z 12015KT 9999 FEW016CB SCT016 28/25 Q1014 NOSIG RMK CB IN APCH
METAR WADD 260000Z 12016KT 9999 BKN016 28/25 Q1014 NOSIG
METAR WADD 252330Z 13016KT 9999 SCT016 27/25 Q1013 NOSIG</description><pubDate>Fri, 26 Jun 2026 23:16:11 </pubDate></item></channel></rss>