<rss version="2.0"><channel><title>Aviation Weather METAR Data for WADD</title><link>https://aviationweather.gov/api/data/metar?ids=WADD&amp;hours=24</link><description>Latest METAR data for WADD</description><item><title>2025-10-31 14:46:09Z</title><link>https://aviationweather.gov/api/data/metar?ids=WADD&amp;hours=24</link><description>METAR WADD 311430Z 15006KT 9999 FEW017 28/27 Q1013 NOSIG
METAR WADD 311400Z 13007KT 9999 FEW017 28/27 Q1013 NOSIG
METAR WADD 311330Z 14005KT 9999 FEW017 28/27 Q1013 NOSIG
METAR WADD 311300Z 14007KT 9999 FEW017 29/27 Q1013 NOSIG
METAR WADD 311230Z 15005KT 9999 FEW017 29/27 Q1012 NOSIG
METAR WADD 311200Z 15006KT 9999 FEW017 29/27 Q1012 NOSIG
METAR WADD 311130Z 14007KT 9999 FEW017 29/26 Q1012 NOSIG
METAR WADD 311100Z 13007KT 9999 FEW017 29/26 Q1011 NOSIG
METAR WADD 311030Z 13007KT 9999 FEW017 29/26 Q1011 NOSIG
METAR WADD 311000Z 11006KT 9999 FEW017 29/26 Q1011 NOSIG
METAR WADD 310930Z 12008KT 9999 FEW017 30/26 Q1010 NOSIG
METAR WADD 310900Z 13007KT 9999 SCT017 30/26 Q1009 NOSIG
METAR WADD 310830Z 13008KT 9999 SCT017 30/26 Q1009 NOSIG
METAR WADD 310800Z 11006KT 9999 SCT017 30/26 Q1009 NOSIG
METAR WADD 310730Z 12009KT 9999 SCT017 30/26 Q1009 NOSIG
METAR WADD 310700Z 12009KT 9999 FEW016CB SCT017 30/26 Q1010 NOSIG
METAR WADD 310630Z 11008KT 9999 FEW016CB SCT017 31/26 Q1009 NOSIG
METAR WADD 310600Z 11006KT 9999 FEW016CB FEW017 31/26 Q1010 NOSIG
METAR WADD 310530Z 12007KT 080V150 9999 FEW016CB FEW017 31/26 Q1010 N OSIG
METAR WADD 310500Z 25005KT 9999 FEW016CB FEW017 31/27 Q1011 NOSIG
METAR WADD 310430Z 20007KT 130V250 9999 FEW017 30/26 Q1011 NOSIG
METAR WADD 310400Z 22003KT 9999 FEW017 31/26 Q1012 NOSIG
METAR WADD 310330Z 18003KT 9999 FEW017 30/27 Q1012 NOSIG
METAR WADD 310300Z 14005KT 9999 FEW017 29/27 Q1012 NOSIG
METAR WADD 310230Z 13006KT 9999 FEW017 29/26 Q1013 NOSIG
METAR WADD 310200Z 10006KT 9999 FEW017 29/26 Q1013 NOSIG
METAR WADD 310130Z 10007KT 9999 FEW016 27/26 Q1013 NOSIG
METAR WADD 310100Z 11005KT 9999 FEW016 26/25 Q1013 NOSIG
METAR WADD 310030Z 12005KT 9999 SCT016 26/25 Q1013 NOSIG
METAR WADD 310000Z 09006KT 9999 SCT016 25/25 Q1013 NOSIG
METAR WADD 302330Z 11005KT 060V140 9999 SCT016 25/25 Q1013 RERA NOSIG
METAR WADD 302300Z 10005KT 8000 -RA FEW016CB SCT016 24/24 Q1012 TEMPO TL2400 -RA
METAR WADD 302230Z 17006KT 7000 -TSRA FEW016CB BKN016 25/25 Q1012 TEMPO TL2330 7000 -RA
METAR WADD 302200Z 11004KT 080V150 7000 -TSRA FEW015CB BKN015 25/25 Q1012 TEMPO TL2300 7000 -TSRA
METAR WADD 302130Z 15005KT 7000 -TSRA FEW015CB BKN015 25/25 Q1012 TEMPO TL2230 7000 -TSRA
METAR WADD 302100Z 17004KT 4000 TSRA FEW015CB BKN015 25/25 Q1011 TEMPO TL2200 5000 TSRA RMK CB IN CLIMB-OUT
METAR WADD 302030Z 17005KT 110V200 4000 TSRA FEW015CB BKN0150 25/25 Q1011 TEMPO TL2100 4000 TSRA RMK CB IN CLIMB-OUT
METAR WADD 302000Z VRB04KT 1000 +TSRA FEW015CB BKN015 25/25 Q1010 TEMPO TL2100 2000 +TSRA RMK CB IN CLIMB-OUT
METAR WADD 301930Z 31004KT 250V340 1000 +TSRA FEW015CB BKN015 25/25 Q1010 TEMPO TL2030 3000 TSRA RMK CB IN CLIMB-OUT
METAR WADD 301900Z 05004KT 6000 -RA FEW015CB BKN015 25/25 Q1010 TEMPO TL2000 5000 -RA
METAR WADD 301830Z 11007KT 5000 -RA FEW015CB BKN015 26/26 Q1010 TEMPO TL1930 4000 RA RMK CB IN CLIMB-OUT
METAR WADD 301800Z 12008KT 7000 -TSRA FEW015CB BKN015 26/26 Q1010 TEMPO TL1900 7000 -TSRA RMK CB IN CLIMB-OUT
METAR WADD 301730Z 12008KT 060V140 3000 +TSRA FEW015CB BKN015 26/26 Q1010 TEMPO TL1830 4000 TSRA RMK CB IN APCH AND CLIMB-OUT
METAR WADD 301700Z 03009KT 1000 +TSRA FEW015CB BKN015 27/26 Q1010 TEMPO TL18000 3000 RA RMK CB IN APCH AND CLIMB-OUT
METAR WADD 301630Z 14009KT 9999 FEW016CB BKN016 28/27 Q1010 NOSIG RMK CB IN CLIMB-OUT
METAR WADD 301600Z 12009KT 9999 FEW016CB SCT016 29/27 Q1010 NOSIG
METAR WADD 301530Z 12009KT 9999 FEW016CB BKN016 29/27 Q1011 NOSIG
METAR WADD 301500Z 11008KT 9999 FEW016CB BKN016 28/27 Q1011 NOSIG</description><pubDate>Fri, 31 Oct 2025 14:46:09 </pubDate></item></channel></rss>