<rss version="2.0"><channel><title>Aviation Weather METAR Data for WADD</title><link>https://aviationweather.gov/api/data/metar?ids=WADD&amp;hours=24</link><description>Latest METAR data for WADD</description><item><title>2026-02-09 08:00:37Z</title><link>https://aviationweather.gov/api/data/metar?ids=WADD&amp;hours=24</link><description>METAR WADD 090730Z 25005KT 210V290 9999 FEW015CB SCT016 30/24 Q1007 N OSIG
METAR WADD 090700Z 26007KT 9999 FEW015CB SCT016 30/24 Q1007 NOSIG
METAR WADD 090630Z 29010KT 9999 FEW015CB SCT016 30/25 Q1007 NOSIG
METAR WADD 090600Z 27009KT 9999 FEW015CB SCT016 30/25 Q1008 NOSIG
METAR WADD 090530Z 26008KT 9999 SCT016 30/25 Q1007 NOSIG
METAR WADD 090500Z 10003KT 9999 SCT016 29/25 Q1008 NOSIG
METAR WADD 090430Z 08006KT 9999 FEW016 30/25 Q1008 NOSIG
METAR WADD 090400Z 11005KT 070V140 9999 FEW016 30/25 Q1008 NOSIG
METAR WADD 090330Z 22003KT 9999 FEW016 30/24 Q1009 NOSIG
METAR WADD 090300Z 25004KT 210V290 9999 FEW016 30/24 Q1009 NOSIG
METAR WADD 090230Z 25004KT 210V290 9999 FEW016 30/24 Q1009 NOSIG
METAR WADD 090200Z 27003KT 9999 FEW017 30/24 Q1009 NOSIG
METAR WADD 090130Z 30005KT 250V340 9999 FEW017 29/24 Q1009 NOSIG
METAR WADD 090100Z 27005KT 230V300 9999 FEW017 29/24 Q1009 NOSIG
METAR WADD 090030Z 33005KT 270V360 9999 FEW017 29/24 Q1009 NOSIG
METAR WADD 090000Z 34003KT 9999 FEW017 28/24 Q1009 NOSIG
METAR WADD 082330Z 33003KT 9999 FEW017 27/24 Q1009 NOSIG
METAR WADD 082300Z 01003KT 9999 FEW017 27/24 Q1009 NOSIG
METAR WADD 082230Z VRB02KT 9999 FEW017 26/24 Q1008 NOSIG
METAR WADD 082200Z 13002KT 9999 FEW017 26/24 Q1008 NOSIG
METAR WADD 082130Z VRB01KT 9999 FEW017 26/24 Q1008 NOSIG
METAR WADD 082100Z VRB01KT 9999 FEW017 26/24 Q1007 NOSIG
METAR WADD 082030Z VRB02KT 9999 FEW017 26/24 Q1007 NOSIG
METAR WADD 082000Z 03003KT 9999 FEW016 26/24 Q1007 NOSIG
METAR WADD 081900Z 02003KT 9999 FEW016 26/25 Q1007 NOSIG
METAR WADD 081830Z 05004KT 9999 FEW016 26/25 Q1008 NOSIG
METAR WADD 081800Z 01003KT 9999 SCT016 27/25 Q1008 NOSIG
METAR WADD 081730Z 02004KT 320V030 9999 SCT016 26/25 Q1008 NOSIG
METAR WADD 081700Z 36003KT 9999 SCT016 27/25 Q1009 NOSIG
METAR WADD 081630Z 33004KT 260V020 9999 SCT016 27/25 Q1009 NOSIG
METAR WADD 081600Z 33004KT 260V360 9999 SCT016 27/25 Q1009 NOSIG
METAR WADD 081530Z 33005KT 9999 SCT016 27/25 Q1010 NOSIG
METAR WADD 081500Z 32005KT 270V350 9999 SCT016 27/25 Q1010 NOSIG
METAR WADD 081430Z 32008KT 9999 SCT016 27/25 Q1010 NOSIG
METAR WADD 081400Z 34005KT 290V020 9999 SCT016 27/24 Q1011 NOSIG
METAR WADD 081330Z 33003KT 9999 SCT016 27/24 Q1010 NOSIG
METAR WADD 081300Z VRB02KT 9999 SCT016 26/23 Q1010 NOSIG
METAR WADD 081230Z 36005KT 280V050 9999 FEW015CB BKN016 26/23 Q1010 R ERA NOSIG
METAR WADD 081200Z 29009KT 270V360 8000 -RA FEW015CB BKN016 27/23 Q1010 TEMPO TL1300 -RA
METAR WADD 081130Z 28018G27KT 9999 FEW016CB BKN016 26/24 Q1009 NOSIG RMK CB IN APCH AND CLIMB-OUT
METAR WADD 081100Z 26012KT 9999 FEW016CB SCT016 29/26 Q1009 NOSIG
METAR WADD 081030Z 25009KT 9999 FEW016CB FEW017 29/25 Q1008 NOSIG
METAR WADD 081000Z 25009KT 9999 FEW016CB FEW017 29/25 Q1008 NOSIG
METAR WADD 080930Z 25009KT 9999 FEW017 29/25 Q1007 NOSIG
METAR WADD 080900Z 26010KT 9999 FEW017 30/25 Q1007 NOSIG
METAR WADD 080830Z 26010KT 9999 FEW017 30/25 Q1007 NOSIG</description><pubDate>Mon, 09 Feb 2026 08:00:37 </pubDate></item></channel></rss>