<rss version="2.0"><channel><title>Aviation Weather METAR Data for WADD</title><link>https://aviationweather.gov/api/data/metar?ids=WADD&amp;hours=24</link><description>Latest METAR data for WADD</description><item><title>2026-01-18 14:44:44Z</title><link>https://aviationweather.gov/api/data/metar?ids=WADD&amp;hours=24</link><description>METAR WADD 181430Z 31005KT 270V340 9999 BKN016 26/24 Q1007 NOSIG
METAR WADD 181400Z 31006KT 9999 BKN016 26/24 Q1007 NOSIG
METAR WADD 181330Z 33006KT 270V360 9999 BKN015 26/23 Q1007 NOSIG
METAR WADD 181300Z 36006KT 310V030 9999 BKN015 25/23 Q1007 NOSIG
METAR WADD 181230Z 36006KT 320V030 9999 FEW014CB BKN015 25/23 Q1007 R ERA NOSIG
METAR WADD 181200Z 35007KT 300V030 8000 -RA FEW014CB BKN015 25/24 Q1007 TEMPO TL1300 -RA RMK CB IN APCH
METAR WADD 181130Z 33011KT 6000 -RA FEW014CB BKN015 26/25 Q1007 TEMPO TL1300 -RA RMK CB IN APCH AND CLIMB-OUT
METAR WADD 181100Z 26020G32KT 4000 RA FEW013CB BKN014 26/24 Q1006 TEM PO TL1230 4000 RA RMK CB IN APCH AND CLIMB-OUT
SPECI WADD 181039Z 26022KT 5000 FEW013CB BKN014 29/25 Q1005 NOSIG RMK CB IN CLIMB-OUT
METAR WADD 181030Z 26012KT 9999 FEW014CB BKN015 29/25 Q1005 NOSIG RMK CB IN CLIMB-OUT
METAR WADD 181000Z 25010KT 9999 FEW015CB BKN016 29/25 Q1005 NOSIG
METAR WADD 180930Z 26009KT 9999 FEW015CB BKN016 29/25 Q1005 NOSIG
METAR WADD 180900Z 25010KT 9999 SCT017 29/25 Q1004 NOSIG
METAR WADD 180830Z 25011KT 9999 SCT017 29/25 Q1004 NOSIG
METAR WADD 180800Z 25010KT 9999 SCT017 29/26 Q1004 NOSIG
METAR WADD 180730Z 25010KT 9999 SCT017 29/26 Q1004 NOSIG
METAR WADD 180700Z 24012KT 9999 SCT017 30/26 Q1004 NOSIG
METAR WADD 180630Z 25012KT 9999 SCT017 31/26 Q1004 NOSIG
METAR WADD 180600Z 25011KT 9999 SCT017 31/26 Q1004 NOSIG
METAR WADD 180530Z 25012KT 9999 SCT017 31/27 Q1005 NOSIG
METAR WADD 180500Z 26012KT 9999 FEW017 31/26 Q1005 NOSIG
METAR WADD 180430Z 25010KT 9999 SCT017 31/26 Q1005 NOSIG
METAR WADD 180400Z 26011KT 9999 FEW017 30/25 Q1005 NOSIG
METAR WADD 180330Z 26011KT 9999 FEW017 30/25 Q1006 NOSIG
METAR WADD 180300Z 26011KT 9999 FEW017 30/25 Q1006 NOSIG
METAR WADD 180230Z 27010KT 230V290 9999 FEW017 30/26 Q1006 NOSIG
METAR WADD 180200Z 28008KT 9999 FEW017 29/25 Q1007 NOSIG
METAR WADD 180130Z 27007KT 230V290 9999 SCT016 29/25 Q1007 NOSIG
METAR WADD 180100Z 28008KT 9999 FEW015CB SCT016 28/25 Q1007 RETS NOSI G
METAR WADD 180030Z 31008KT 9999 TS FEW015CB SCT016 29/25 Q1007 TEMPO TL0130 TS
METAR WADD 180000Z 33006KT 300V360 9999 SCT017 28/25 Q1006 NOSIG
METAR WADD 172330Z 33006KT 290V360 9999 FEW017 28/25 Q1006 NOSIG
METAR WADD 172300Z 34005KT 9999 FEW017 27/24 Q1005 NOSIG
METAR WADD 172230Z 34004KT 9999 FEW017 27/24 Q1005 NOSIG
METAR WADD 172200Z 33004KT 9999 FEW017 27/24 Q1005 NOSIG
METAR WADD 172130Z 31004KT 9999 FEW017 27/24 Q1005 NOSIG
METAR WADD 172100Z 28007KT 9999 FEW017 27/24 Q1005 NOSIG
METAR WADD 172030Z 27008KT 9999 FEW017 27/24 Q1004 NOSIG
METAR WADD 172000Z 27010KT 9999 FEW017 27/24 Q1004 NOSIG
METAR WADD 171930Z 28008KT 9999 FEW017 28/25 Q1004 NOSIG
METAR WADD 171900Z 29008KT 9999 SCT016 27/25 Q1004 NOSIG
METAR WADD 171830Z 29010KT 9999 SCT016 27/25 Q1004 NOSIG
METAR WADD 171730Z 30008KT 9999 SCT016 27/25 Q1005 NOSIG
METAR WADD 171700Z 30009KT 9999 SCT016 28/25 Q1006 NOSIG
METAR WADD 171630Z 32003KT 9999 SCT016 27/24 Q1006 NOSIG
METAR WADD 171600Z 34005KT 300V010 9999 SCT016 28/24 Q1006 NOSIG
METAR WADD 171530Z 33006KT 9999 SCT015 28/24 Q1006 NOSIG
METAR WADD 171500Z 30009KT 9999 FEW015CB BKN015 28/25 Q1007 NOSIG RMK CB IN APCH</description><pubDate>Sun, 18 Jan 2026 14:44:44 </pubDate></item></channel></rss>