<rss version="2.0"><channel><title>Aviation Weather METAR Data for WADD</title><link>https://aviationweather.gov/api/data/metar?ids=WADD&amp;hours=24</link><description>Latest METAR data for WADD</description><item><title>2025-02-13 05:23:16Z</title><link>https://aviationweather.gov/api/data/metar?ids=WADD&amp;hours=24</link><description>WADD 130500Z 25014G24KT 9999 FEW016CB SCT016 28/26 Q1009 NOSIG
WADD 130430Z 28015KT 9999 SCT017 31/26 Q1009 NOSIG
WADD 130400Z 29012KT 9999 FEW017 31/26 Q1009 NOSIG
WADD 130330Z 30012KT 9999 FEW017 31/26 Q1009 NOSIG
WADD 130300Z 30012KT 9999 SCT017 30/26 Q1009 NOSIG
WADD 130230Z 29013KT 9999 SCT016 30/26 Q1010 NOSIG
WADD 130200Z 30009KT 9999 SCT016 29/26 Q1010 NOSIG
WADD 130130Z 31009KT 9999 SCT016 29/27 Q1010 NOSIG
WADD 130100Z 31007KT 9999 BKN015 28/26 Q1010 RERA NOSIG
WADD 130030Z 31007KT 8000 -RA BKN015 26/26 Q1010 TEMPO TL0130 -RA
WADD 130000Z 30009KT 4000 -RA BKN014 26/26 Q1010 TEMPO TL0130 6000 -RA
WADD 122330Z 30011KT 6000 -RA BKN015 27/25 Q1009 TEMPO TL0030 -RA
WADD 122300Z 30013KT 9999 BKN015 27/25 Q1009 NOSIG
WADD 122230Z 28009KT 9999 BKN015 27/25 Q1009 NOSIG
WADD 122200Z 29011KT 9999 SCT016 27/25 Q1008 NOSIG
WADD 122130Z 28006KT 9999 BKN015 27/25 Q1008 NOSIG
WADD 122030Z 29007KT 9999 BKN015 27/25 Q1008 NOSIG
WADD 122000Z 29010KT 9999 SCT016 28/25 Q1008 NOSIG
WADD 121930Z 31005KT 9999 BKN016 27/25 Q1008 NOSIG
WADD 121900Z 30007KT 9999 SCT016 27/25 Q1008 NOSIG
WADD 121830Z 31006KT 9999 FEW017 27/25 Q1008 NOSIG
WADD 121800Z 31007KT 9999 SCT016 27/25 Q1008 NOSIG
WADD 121730Z 32006KT 9999 SCT016 27/25 Q1009 NOSIG
WADD 121700Z 30010KT 9999 SCT016 28/25 Q1009 NOSIG
WADD 121630Z 30012KT 9999 FEW017 28/25 Q1009 NOSIG
WADD 121600Z 30012KT 9999 SCT016 28/25 Q1009 NOSIG
WADD 121530Z 30011KT 9999 FEW017 28/26 Q1009 NOSIG
WADD 121500Z 30011KT 9999 SCT016 28/25 Q1010 NOSIG
WADD 121430Z 30010KT 9999 SCT016 28/25 Q1010 NOSIG
WADD 121400Z 30011KT 9999 SCT016 28/25 Q1009 NOSIG
WADD 121330Z 30010KT 9999 SCT016 27/26 Q1009 NOSIG
WADD 121300Z 29012KT 9999 SCT016 28/26 Q1009 NOSIG
WADD 121230Z 29012KT 9999 SCT016 27/25 Q1009 NOSIG
WADD 121200Z 29013KT 9999 SCT015 28/25 Q1009 NOSIG
WADD 121130Z 27015KT 9999 SCT016 27/25 Q1009 NOSIG
WADD 121100Z 29013KT 9999 SCT016 28/25 Q1008 NOSIG
WADD 121030Z 27015KT 9999 FEW016CB BKN016 27/25 Q1008 NOSIG
WADD 121000Z 27016G25KT 9999 FEW016CB BKN016 27/24 Q1008 NOSIG
WADD 120930Z 29014KT 9999 FEW015CB BKN015 28/25 Q1008 NOSIG
WADD 120900Z 27016KT 9999 FEW015CB BKN015 28/25 Q1008 RERA NOSIG
WADD 120830Z 28013KT 8000 -RA FEW015CB BKN015 28/25 Q1008 TEMPO TL0900 8000 -RA
WADD 120800Z 29013KT 8000 -RA FEW015CB BKN015 27/26 Q1008 TEMPO TL0900 8000 -RA
WADD 120730Z 30014KT 8000 -RA FEW015CB BKN015 27/26 Q1008 TEMPO TL0900 8000 -RA
WADD 120700Z 29016KT 8000 -RA FEW013CB BKN013 27/26 Q1008 TEMPO TL0830 8000 -RA
WADD 120630Z 28018KT 6000 -RA FEW013CB BKN013 27/26 Q1009 TEMPO TL0800 6000 -RA
WADD 120600Z 28016KT 6000 -RA FEW013CB BKN013 26/26 Q1010 TEMPO TL0800 6000 -RA
WADD 120530Z 29016KT 5000 -RA FEW013CB BKN013 25/25 Q1010 TEMPO TL0630 5000 -RA</description><pubDate>Thu, 13 Feb 2025 05:23:16 </pubDate></item></channel></rss>