<rss version="2.0"><channel><title>Aviation Weather METAR Data for WADD</title><link>https://aviationweather.gov/api/data/metar?ids=WADD&amp;hours=24</link><description>Latest METAR data for WADD</description><item><title>2026-02-20 14:22:23Z</title><link>https://aviationweather.gov/api/data/metar?ids=WADD&amp;hours=24</link><description>METAR WADD 201400Z 30009KT 9999 SCT016 28/26 Q1009 NOSIG
METAR WADD 201330Z 25003KT 9999 FEW015CB SCT016 29/26 Q1009 NOSIG
METAR WADD 201300Z VRB02KT 9999 FEW015CB SCT016 29/26 Q1009 NOSIG
METAR WADD 201230Z 22002KT 9999 SCT016 29/26 Q1008 NOSIG
METAR WADD 201200Z VRB02KT 9999 SCT016 29/26 Q1008 NOSIG
METAR WADD 201130Z 24004KT 9999 FEW017 29/26 Q1008 NOSIG
METAR WADD 201100Z 27006KT 9999 FEW017 28/25 Q1008 NOSIG
METAR WADD 201030Z 25005KT 9999 FEW017 29/25 Q1008 NOSIG
METAR WADD 201000Z 26005KT 230V290 9999 FEW017 29/25 Q1007 NOSIG
METAR WADD 200930Z 27006KT 9999 FEW017 30/25 Q1007 NOSIG
METAR WADD 200900Z 26005KT 220V290 9999 FEW017 30/25 Q1007 NOSIG
METAR WADD 200830Z 26006KT 220V280 9999 FEW017 30/25 Q1007 NOSIG
METAR WADD 200800Z 25006KT 220V290 9999 FEW017 30/25 Q1007 NOSIG
METAR WADD 200730Z 25007KT 9999 FEW017 30/25 Q1007 NOSIG
METAR WADD 200700Z 26008KT 220V280 9999 FEW017 31/25 Q1007 NOSIG
METAR WADD 200630Z 25007KT 200V280 9999 FEW017 31/26 Q1008 NOSIG
METAR WADD 200600Z 25008KT 9999 FEW017 30/26 Q1008 NOSIG
METAR WADD 200530Z 26009KT 9999 FEW017 30/26 Q1008 NOSIG
METAR WADD 200500Z 25007KT 9999 FEW017 30/26 Q1009 NOSIG
METAR WADD 200430Z 25006KT 200V270 9999 FEW017 31/25 Q1009 NOSIG
METAR WADD 200400Z 24007KT 9999 FEW017 31/25 Q1009 NOSIG
METAR WADD 200330Z 26007KT 210V280 9999 FEW017 30/25 Q1009 NOSIG
METAR WADD 200300Z 24006KT 190V280 9999 FEW017 30/25 Q1009 NOSIG
METAR WADD 200230Z 27006KT 210V330 9999 FEW017 31/24 Q1010 NOSIG
METAR WADD 200200Z 28004KT 220V330 9999 FEW017 30/25 Q1010 NOSIG
METAR WADD 200130Z 25003KT 9999 FEW017 29/24 Q1010 NOSIG
METAR WADD 200100Z 35004KT 320V050 9999 FEW017 30/27 Q1010 NOSIG
METAR WADD 200030Z VRB02KT 9999 FEW017 29/27 Q1010 NOSIG
METAR WADD 200000Z VRB02KT 9999 FEW017 28/27 Q1009 NOSIG
METAR WADD 192330Z 01004KT 350V050 9999 FEW017 26/26 Q1009 NOSIG
METAR WADD 192300Z 02005KT 9999 FEW017 26/25 Q1009 NOSIG
METAR WADD 192230Z 02003KT 9999 FEW017 26/25 Q1009 NOSIG
METAR WADD 192200Z 10002KT 9999 FEW017 26/25 Q1008 NOSIG
METAR WADD 192130Z 08003KT 9999 FEW017 26/25 Q1008 NOSIG
METAR WADD 192100Z 07002KT 9999 FEW017 26/25 Q1008 NOSIG
METAR WADD 192030Z 07001KT 9999 FEW017 26/25 Q1008 NOSIG
METAR WADD 192000Z 07001KT 9999 FEW017 26/25 Q1008 NOSIG
METAR WADD 191930Z 03003KT 9999 FEW017 27/25 Q1008 NOSIG
METAR WADD 191900Z 36005KT 9999 FEW017 27/25 Q1008 NOSIG
METAR WADD 191830Z 01005KT 9999 FEW017 27/25 Q1009 NOSIG
METAR WADD 191800Z 03003KT 9999 FEW017 27/25 Q1009 NOSIG
METAR WADD 191730Z VRB02KT 9999 FEW017 27/26 Q1009 NOSIG
METAR WADD 191700Z VRB02KT 9999 FEW017 27/25 Q1009 NOSIG
METAR WADD 191630Z VRB01KT 9999 FEW017 27/25 Q1010 NOSIG
METAR WADD 191600Z 02003KT 9999 FEW017 28/25 Q1010 NOSIG
METAR WADD 191530Z 03004KT 020V090 9999 FEW017 28/25 Q1010 NOSIG
METAR WADD 191500Z 03004KT 9999 FEW017 28/25 Q1010 NOSIG
METAR WADD 191430Z 10003KT 9999 FEW017 28/25 Q1010 NOSIG</description><pubDate>Fri, 20 Feb 2026 14:22:23 </pubDate></item></channel></rss>