<rss version="2.0"><channel><title>Aviation Weather METAR Data for WADD</title><link>https://aviationweather.gov/api/data/metar?ids=WADD&amp;hours=24</link><description>Latest METAR data for WADD</description><item><title>2025-11-12 21:41:42Z</title><link>https://aviationweather.gov/api/data/metar?ids=WADD&amp;hours=24</link><description>METAR WADD 122130Z 34004KT 9999 FEW017 26/25 Q1008 NOSIG
METAR WADD 122100Z 28006KT 270V350 9999 FEW017 27/25 Q1008 NOSIG
METAR WADD 122030Z 29008KT 9999 FEW017 27/25 Q1008 NOSIG
METAR WADD 122000Z 28008KT 9999 FEW07 27/25 Q1008 NOSIG
METAR WADD 121930Z 35003KT 9999 FEW017 26/24 Q1008 NOSIG
METAR WADD 121900Z VRB02KT 9999 FEW017 26/24 Q1007 NOSIG
METAR WADD 121830Z 34003KT 9999 FEW017 26/24 Q1007 NOSIG
METAR WADD 121800Z 33002KT 9999 SCT017 26/24 Q1008 NOSIG
METAR WADD 121730Z 02003KT 9999 SCT017 26/24 Q1008 NOSIG
METAR WADD 121700Z VRB02KT 9999 SCT017 26/24 Q1009 NOSIG
METAR WADD 121630Z 34003KT 9999 SCT016 26/24 Q1009 NOSIG
METAR WADD 121600Z 33003KT 9999 SCT016 26/25 Q1010 NOSIG
METAR WADD 121530Z VRB02KT 9999 SCT016 26/24 Q1010 NOSIG
METAR WADD 121500Z 35004KT 320V040 9999 SCT016 26/24 Q1010 NOSIG
METAR WADD 121430Z 35005KT 310V030 9999 SCT016 26/24 Q1010 NOSIG
METAR WADD 121400Z 33005KT 9999 BKN015 26/24 Q1011 RERA NOSIG
METAR WADD 121330Z 32006KT 8000 -RA BKN015 26/24 Q1011 TEMPO TL1400 8 000 -RA
METAR WADD 121300Z 33006KT 8000 -RA FEW014CB BKN015 26/25 Q1010 TEMPO TL1400 8000 -RA
METAR WADD 121230Z 33006KT 300V360 8000 -RA FEW014CB BKN0150 26/25 Q1 010 TEMPO TL1300 8000 -RA
METAR WADD 121200Z 33007KT 6000 -RA FEW014CB BKN015 26/25 Q1010 TEMPO TL1300 6000 -RA RMK CB IN APCH
METAR WADD 121130Z 34006KT 300V020 8000 -RA FEW014CB BKN015 26/25 Q1009 TEMPO TL1200 8000 -RA
METAR WADD 121100Z 35006KT 320V030 7000 -RA FEW014CB BKN015 26/25 Q1009 TEMPO TL1200 7000 -RA
METAR WADD 121030Z 01007KT 7000 -RA FEW014CB BKN014 25/24 Q1009 TEMPO TL1100 7000 -RA
METAR WADD 121000Z 01008KT 330V040 7000 -RA FEW014CB BKN014 26/24 Q10 09 TEMPO TL1100 7000 -RA
METAR WADD 120930Z 02009KT 270V040 8000 -RA FEW014CB BKN014 28/25 Q10 08 RETS TEMPO TL1030 8000 -RA
METAR WADD 120900Z 25006KT 9999 TS EW015CB BKN015 29/25 Q1008 NOSIG R MK CB IN APCH
METAR WADD 120830Z 26008KT 9999 FEW015CB SCT015 29/25 Q1007 NOSIG RMK CB IN APCH
METAR WADD 120800Z 26010KT 9999 FEW015CB SCT015 29/25 Q1007 NOSIG RMK CB IN APCH
METAR WADD 120730Z 25007KT 9999 FEW015CB SCT015 30/26 Q1007 NOSIG RMK CB IN APCH
METAR WADD 120700Z 25007KT 220V280 9999 FEW015CB SCT015 30/26 Q1007 NOSIG RMK CB IN APCH
METAR WADD 120630Z 26009KT 9999 FEW015CB SCT015 29/26 Q1007 NOSIG RMK CB IN APCH
METAR WADD 120600Z 26008KT 9999 FEW015CB SCT015 30/26 Q1008 NOSIG RMK CB IN APCH
METAR WADD 120530Z 25008KT 9999 SCT016 30/26 Q1008 NOSIG
METAR WADD 120500Z 25008KT 210V270 9999 SCT016 30/26 Q1008 NOSIG
METAR WADD 120430Z 25008KT 220V280 9999 FEW017 30/26 Q1009 NOSIG
METAR WADD 120400Z 26007KT 9999 FEW017 31/26 Q1009 NOSIG
METAR WADD 120330Z 26006KT 200V300 9999 FEW017 30/26 Q1009 NOSIG
METAR WADD 120300Z 26007KT 220V290 9999 FEW017 30/26 Q1010 NOSIG
METAR WADD 120230Z 27004KT 240V320 9999 FEW017 30/26 Q1010 NOSIG
METAR WADD 120200Z 24005KT 210V280 9999 FEW013 OVC020 29/25 Q1011 NOS IG
METAR WADD 120130Z VRB02KT 9999 FEW017 30/26 Q1011 NOSIG
METAR WADD 120100Z VRB03KT 9999 FEW017 29/26 Q1011 NOSIG
METAR WADD 120030Z VRB03KT 9999 FEW017 29/25 Q1010 NOSIG
METAR WADD 120000Z VRB01KT 9999 FEW017 28/25 Q1010 NOSIG
METAR WADD 112330Z 35003KT 9999 FEW017 28/25 Q1010 NOSIG
METAR WADD 112300Z 03004KT 9999 FEW017 26/25 Q1010 NOSIG
METAR WADD 112230Z 02004KT 9999 FEW017 25/24 Q1010 NOSIG
METAR WADD 112200Z VRB02KT 9999 FEW017 25/24 Q1009 NOSIG</description><pubDate>Wed, 12 Nov 2025 21:41:42 </pubDate></item></channel></rss>