<rss version="2.0"><channel><title>Aviation Weather METAR Data for WADD</title><link>https://aviationweather.gov/api/data/metar?ids=WADD&amp;hours=24</link><description>Latest METAR data for WADD</description><item><title>2025-01-06 10:26:46Z</title><link>https://aviationweather.gov/api/data/metar?ids=WADD&amp;hours=24</link><description>WADD 061000Z 08005KT 9999 SCT016 27/25 Q1006 NOSIG
WADD 060930Z 10006KT 9000 -RA FEW015CB SCT016 27/25 Q1006 RETS TEMPO TL1030 -RA
WADD 060900Z 07008KT 040V110 9999 TS FEW015CB BKN016 28/25 Q1006 TEMPO TL1000 TS
WADD 060830Z 25006KT 210V280 9999 TS FEW015CB BKN016 29/26 Q1006 TEMPO TL0930 TS RMK CB IN APCH
WADD 060800Z 26008KT 220V290 9999 TS FEW015CB SCT016 29/26 Q1006 TEMPO TL0900 TS RMK CB IN APCH
WADD 060730Z 25008KT 9999 FEW015CB SCT016 29/26 Q1006 NOSIG
WADD 060700Z 25008KT 9999 FEW015CB SCT016 29/26 Q1006 NOSIG
WADD 060630Z 26010KT 9999 SCT016 29/26 Q1006 NOSIG
WADD 060600Z 26009KT 9999 BKN015 28/26 Q1007 NOSIG
WADD 060530Z 26008KT 220V280 9999 SCT016 29/27 Q1007 NOSIG
WADD 060500Z 26008KT 9999 SCT016 29/26 Q1007 NOSIG
WADD 060430Z 25006KT 9999 SCT016 29/26 Q1008 NOSIG
WADD 060400Z 25007KT 9999 SCT016 28/25 Q1008 NOSIG
WADD 060330Z 25006KT 220V280 9999 SCT016 29/26 Q1009 NOSIG
WADD 060300Z 26004KT 230V290 9999 SCT016 28/25 Q1009 NOSIG
WADD 060230Z 28005KT 250V310 9999 SCT016 28/25 Q1009 NOSIG
WADD 060200Z VRB02KT 9999 SCT016 28/25 Q1009 NOSIG
WADD 060130Z 35003KT 9999 SCT016 27/25 Q1009 NOSIG
WADD 060100Z VRB02KT 9999 SCT016 27/25 Q1009 NOSIG
WADD 060030Z 29003KT 9999 SCT016 26/25 Q1009 NOSIG
WADD 060000Z 32003KT 9999 SCT016 26/25 Q1009 NOSIG
WADD 052330Z VRB01KT 9999 SCT016 25/24 Q1009 NOSIG
WADD 052300Z 32003KT 9999 SCT017 25/24 Q1008 NOSIG
WADD 052230Z 30001KT 9999 SCT017 24/24 Q1008 NOSIG
WADD 052200Z 34004KT 9999 SCT017 24/24 Q1008 RERA NOSIG
WADD 052130Z 33005KT 8000 -RA BKN017 25/24 Q1008 TEMPO TL2230 -RA
WADD 052100Z 34005KT 9999 SCT017 24/24 Q1007 NOSIG
WADD 052030Z 33003KT 9999 BKN017 24/24 Q1007 NOSIG
WADD 052000Z 33006KT 9999 BKN017 24/24 Q1007 NOSIG
WADD 051930Z 32005KT 9999 25/24 Q1007 RERA NOSIG
WADD 051900Z 33007KT 7000 -RA BKN017 25/25 Q1007 TEMPO TL2000 -RA
WADD 051830Z 30004KT 8000 -RA BKN017 25/24 Q1007 TEMPO TL1930 -RA
WADD 051800Z VRB01KT 8000 -RA BKN017 24/24 Q1007 TEMPO TL1900 -RA
WADD 051730Z 18004KT 6000 -TSRA FEW016CB BKN016 25/25 Q1008 TEMPO TL1830 6000 -RA
WADD 051700Z 16009KT 5000 -TSRA FEW016CB BKN016 25/25 Q1008 TEMPO TL1800 5000 -TSRA RMK CB IN APCH
WADD 051630Z 14009KT 5000 TSRA FEW015CB BKN015 25/25 Q1008 TEMPO TL1730 5000 TSRA RMK CB IN APCH AND CLIMB-OUT
WADD 051600Z 15011KT 4000 TSRA FEW015CB BKN015 25/25 Q1009 TEMPO TL1700 5000 TSRA RMK CB IN APCH AND CLIMB-OUT
WADD 051530Z 13018KT 1000 +TSRA FEW014CB BKN014 25/25 Q1009 TEMPO TL1630 2000 TSRA RMK CB IN APCH AND CLIMB-OUT
WADD 051500Z 13010KT 2000 TSRA FEW014CB BKN014 26/26 Q1009 TEMPO TL1600 3000 TSRA RMK CB IN APCH
WADD 051430Z 22003KT 9999 TS FEW016CB BKN016 27/25 Q1009 NOSIG RMK CB IN APCH
WADD 051400Z 23002KT 9999 FEW017CB SCT017 27/25 Q1009 NOSIG
WADD 051330Z 23002KT 9999 FEW017 BKN033 28/25 Q1008 NOSIG
WADD 051300Z 23003KT 9999 FEW017 BKN033 28/25 Q1008 NOSIG
WADD 051230Z 26005KT 9999 SCT017 28/25 Q1008 NOSIG
WADD 051200Z 26005KT 9999 FEW017 28/25 Q1008 NOSIG
WADD 051130Z 26004KT 9999 FEW017 28/24 Q1007 NOSIG
WADD 051100Z 26004KT 9999 FEW017 28/24 Q1007 NOSIG
WADD 051030Z 26005KT 9999 FEW017 28/25 Q1007 NOSIG</description><pubDate>Mon, 06 Jan 2025 10:26:46 </pubDate></item></channel></rss>