<rss version="2.0"><channel><title>Aviation Weather METAR Data for WADD</title><link>https://aviationweather.gov/api/data/metar?ids=WADD&amp;hours=24</link><description>Latest METAR data for WADD</description><item><title>2025-02-25 21:41:01Z</title><link>https://aviationweather.gov/api/data/metar?ids=WADD&amp;hours=24</link><description>WADD 252130Z 34002KT 9999 SCT016 25/24 Q1011 NOSIG
WADD 252100Z 36002KT 9999 SCT016 25/24 Q1011 NOSIG
WADD 252030Z VRB02KT 9999 FEW015CB SCT016 25/25 Q1011 NOSIG
WADD 252000Z VRB01KT 9999 SCT016 25/25 Q1011 NOSIG
WADD 251930Z VRB01KT 9999 SCT016 25/25 Q1011 NOSIG
WADD 251900Z 25003KT 9999 SCT016 26/25 Q1011 NOSIG
WADD 251830Z 25004KT 9999 FEW015CB SCT016 26/25 Q1011 NOSIG
WADD 251800Z 29006KT 250V320 9999 FEW015CB SCT016 26/25 Q1012 NOSIG
WADD 251730Z 31004KT 260V330 9999 FEW015CB SCT016 26/25 Q1012 NOSIG
WADD 251700Z 28003KT 9999 FEW015CB SCT016 26/25 Q1013 NOSIG
WADD 251630Z VRB01KT 9999 SCT016 26/25 Q1013 NOSIG
WADD 251600Z VRB01KT 9999 SCT016 26/25 Q1013 NOSIG
WADD 251530Z 33003KT 9999 SCT016 27/24 Q1013 NOSIG
WADD 251500Z VRB02KT 9999 SCT016 27/25 Q1013 NOSIG
WADD 251430Z 00000KT 9999 SCT016 27/25 Q1013 NOSIG
WADD 251400Z VRB01KT 9999 SCT016 27/25 Q1013 NOSIG
WADD 251330Z VRB02KT 9999 SCT016 27/25 Q1013 NOSIG
WADD 251300Z VRB02KT 9999 SCT016 27/24 Q1012 NOSIG
WADD 251230Z 33004KT 290V360 9999 SCT016 27/25 Q1012 NOSIG
WADD 251200Z 34003KT 9999 SCT016 27/25 Q1011 NOSIG
WADD 251130Z 35003KT 9999 SCT016 27/25 Q1011 NOSIG
WADD 251100Z VRB02KT 9999 SCT016 27/25 Q1010 NOSIG
WADD 251030Z VRB02KT 9999 SCT016 27/25 Q1010 NOSIG
WADD 251000Z 35003KT 9999 SCT016 27/25 Q1010 NOSIG
WADD 250930Z VRB02KT 9999 BKN015 27/25 Q1010 NOSIG
WADD 250900Z VRB02KT 9999 FEW014CB BKN015 26/25 Q1010 RERA NOSIG
WADD 250830Z 23005KT 200V260 6000 -RA FEW014CB BKN015 25/24 Q1010 RETS TEMPO TL0930 -RA RMK CB IN APCH AND CLIMB-OUT
WADD 250800Z 20004KT 130V240 5000 -TSRA FEW014CB BKN015 26/25 Q1010 TEMPO TL0900 5000 -TSRA RMK CB IN APCH AND CLIMB-OUT
WADD 250730Z 35007KT 310V030 7000 -TSRA FEW014CB BKN015 27/25 Q1010 TEMPO TL0830 -TSRA RMK CB IN CLIMB-OUT
WADD 250700Z 28003KT 8000 -TSRA FEW014CB BKN015 29/26 Q1010 TEMPO TL0800 -TSRA
WADD 250630Z VRB02KT 7000 -RA FEW014CB SCT015 27/26 Q1010 TEMPO TL0730 -RA
WADD 250600Z 13008KT 2000 RA FEW013CB SCT014 26/24 Q1011 TEMPO TL0700 2000 RA
WADD 250530Z 25008KT 220V280 9999 FEW015CB SCT016 30/26 Q1011 NOSIG
WADD 250500Z 27007KT 9999 SCT016 30/26 Q1011 NOSIG
WADD 250430Z 24004KT 210V270 9999 FEW015CB SCT016 29/24 Q1012 NOSIG
WADD 250400Z 22006KT 9999 FEW015CB SCT016 28/26 Q1012 RETS NOSIG
WADD 250330Z 19005KT 140V250 9999 FEW015CB SCT016 28/26 Q1013 NOSIG
WADD 250300Z 25005KT 210V280 9999 FEW015CB SCT016 29/26 Q1013 NOSIG
WADD 250230Z 26005KT 220V310 9999 SCT016 28/26 Q1013 NOSIG
WADD 250200Z 28004KT 240V320 9999 FEW016 29/25 Q1013 NOSIG
WADD 250130Z 28004KT 9999 FEW016 29/25 Q1013 NOSIG
WADD 250100Z 27003KT 9999 FEW016 28/25 Q1013 NOSIG
WADD 250030Z 27004KT 240V310 9999 FEW016 28/25 Q1013 NOSIG
WADD 250000Z VRB02KT 9999 FEW017 27/25 Q1013 NOSIG
WADD 242330Z VRB02KT 9999 FEW017 27/25 Q1012 NOSIG
WADD 242300Z VRB02KT 9999 FEW016 26/25 Q1012 NOSIG
WADD 242230Z 27003KT 9999 FEW016 25/24 Q1012 NOSIG
WADD 242200Z 23007KT 8000 -RA FEW014CB BKN014 27/26 Q1012 TEMPO TL2300 8000 -RA RMK CB IN APCH</description><pubDate>Tue, 25 Feb 2025 21:41:01 </pubDate></item></channel></rss>