<rss version="2.0"><channel><title>Aviation Weather METAR Data for WADD</title><link>https://aviationweather.gov/api/data/metar?ids=WADD&amp;hours=24</link><description>Latest METAR data for WADD</description><item><title>2026-02-16 23:37:50Z</title><link>https://aviationweather.gov/api/data/metar?ids=WADD&amp;hours=24</link><description>METAR WADD 162330Z VRB02KT 9999 BKN016 26/24 Q1007 NOSIG
METAR WADD 162300Z 29003KT 9999 FEW015CB SCT016 25/24 Q1007 NOSIG
METAR WADD 162230Z 24003KT 9999 FEW015CB SCT016 25/24 Q1007 RETSRA NO SIG
METAR WADD 162200Z 24005KT 150V270 6000 -TSRA FEW014CB BKN015 25/24 Q1007 TEMPO TL2300 -TSRA RMK CB IN APCH AND CLIMB-OUT
METAR WADD 162130Z VRB02KT 5000 -TSRA FEW015CB BKN016 26/25 Q1007 TEMPO TL2230 -TSRA RMK CB IN APCH AND CLIMB-OUT
METAR WADD 162100Z VRB02KT 9999 FEW015CB BKN016 26/25 Q1006 NOSIG
METAR WADD 162030Z 04003KT 9999 FEW015CB BKN016 26/25 Q1006 NOSIG
METAR WADD 162000Z VRB02KT 9999 FEW015CB BKN016 26/25 Q1006 RERA NOSI G
METAR WADD 161930Z 28006KT 210V310 5000 -RA FEW015CB BKN016 26/25 Q10 06 TEMPO TL2030 -RA
METAR WADD 161900Z VRB02KT 3000 RA FEW015CB BKN016 27/25 Q1006 TEMPO TL2000 3000 RA RMK CB IN APCH AND CLIMB-OUT
METAR WADD 161830Z VRB02KT 9999 FEW015CB SCT016 27/25 Q1006 NOSIG
METAR WADD 161800Z VRB02KT 9999 FEW015CB SCT016 26/24 Q1007 NOSIG
METAR WADD 161730Z 29007KT 260V340 9999 FEW015CB SCT016 27/25 Q1007 N OSIG
METAR WADD 161700Z 25006KT 9999 FEW015CB SCT016 28/25 Q1007 NOSIG
METAR WADD 161630Z 25006KT 9999 FEW015CB SCT016 28/25 Q1007 NOSIG
METAR WADD 161600Z 25006KT 9999 SCT016 28/25 Q1007 NOSIG
METAR WADD 161530Z 25006KT 9999 FEW017 28/25 Q1008 NOSIG
METAR WADD 161500Z 26007KT 9999 FEW017 28/25 Q1008 NOSIG
METAR WADD 161430Z 26007KT 9999 FEW017 28/25 Q1008 NOSIG
METAR WADD 161400Z 25008KT 9999 FEW017 28/24 Q1007 NOSIG
METAR WADD 161330Z 24004KT 9999 FEW017 28/25 Q1007 NOSIG
METAR WADD 161300Z 25008KT 9999 FEW017 28/25 Q1007 NOSIG
METAR WADD 161230Z 25006KT 9999 FEW017 28/25 Q1007 NOSIG
METAR WADD 161200Z 25005KT 9999 SCT016 28/25 Q1006 NOSIG
METAR WADD 161130Z 26009KT 9999 SCT016 28/24 Q1006 NOSIG
METAR WADD 161100Z 25007KT 9999 SCT016 28/24 Q1006 NOSIG
METAR WADD 161030Z 25006KT 9999 FEW017 28/24 Q1006 NOSIG
METAR WADD 161000Z 25007KT 9999 FEW017 29/24 Q1006 NOSIG
METAR WADD 160930Z 25009KT 9999 SCT016 29/25 Q1005 NOSIG
METAR WADD 160900Z 24010KT 9999 FEW017 29/25 Q1005 NOSIG
METAR WADD 160830Z 25009KT 9999 FEW016 29/25 Q1005 NOSIG
METAR WADD 160800Z 25009KT 9999 FEW016 29/25 Q1005 NOSIG
METAR WADD 160730Z 25010KT 9999 FEW016 29/25 Q1005 NOSIG
METAR WADD 160700Z 25009KT 9999 FEW016 29/25 Q1006 NOSIG
METAR WADD 160630Z 26009KT 9999 FEW016 29/25 Q1005 NOSIG
METAR WADD 160600Z 25009KT 9999 FEW016 29/25 Q1005 NOSIG
METAR WADD 160530Z 26010KT 9999 SCT016 29/25 Q1006 NOSIG
METAR WADD 160500Z 26009KT 9999 SCT016 29/25 Q1007 NOSIG
METAR WADD 160430Z 26009KT 9999 SCT016 29/25 Q1007 NOSIG
METAR WADD 160400Z 26008KT 9999 SCT016 29/25 Q1008 NOSIG
METAR WADD 160330Z 26010KT 9999 SCT016 29/25 Q1008 NOSIG
METAR WADD 160300Z 29010KT 9999 SCT016 29/25 Q1008 NOSIG
METAR WADD 160230Z 27012KT 9999 SCT016 28/25 Q1008 NOSIG
METAR WADD 160200Z 29012KT 9999 BKN015 28/25 Q1009 NOSIG
METAR WADD 160130Z 27014KT 9999 BKN015 27/25 Q1009 NOSIG
METAR WADD 160100Z 27014KT 9999 SCT016 26/25 Q1009 RERA NOSIG
METAR WADD 160030Z 28015KT 6000 -RA FEW014CB BKN014 26/24 Q1008 TEMPO TL0200 -RA CB IN APCH
METAR WADD 160000Z 27020G30KT 0500 +RA FEW010CB BKN010 25/24 Q1008 TEMPO TL0100 2000 RA RMK CB IN APCH AND CLIMB-OUT</description><pubDate>Mon, 16 Feb 2026 23:37:50 </pubDate></item></channel></rss>