<rss version="2.0"><channel><title>Aviation Weather METAR Data for WADD</title><link>https://aviationweather.gov/api/data/metar?ids=WADD&amp;hours=24</link><description>Latest METAR data for WADD</description><item><title>2025-09-01 15:42:10Z</title><link>https://aviationweather.gov/api/data/metar?ids=WADD&amp;hours=24</link><description>WADD 011530Z 13011KT 9999 FEW017 27/25 Q1012 NOSIG
WADD 011500Z 12011KT 9999 +DZ BKN045 27/25 Q1012 NOSIG
WADD 011430Z 13012KT 9999 FEW017 27/25 Q1012 NOSIG
WADD 011400Z 12010KT 9999 FEW017 27/25 Q1011 NOSIG
WADD 011330Z 12014KT 9999 FEW017 27/25 Q1011 NOSIG
WADD 011300Z 13013KT 9999 FEW017 27/25 Q1011 NOSIG
WADD 011230Z 13012KT 9999 FEW017 27/25 Q1011 NOSIG
WADD 011200Z 13012KT 9999 FEW017 27/25 Q1010 NOSIG
WADD 011130Z 13014KT 9999 FEW017 27/25 Q1010 NOSIG
WADD 011100Z 13014KT 9999 FEW017 27/25 Q1009 NOSIG
WADD 011030Z 13015KT 9999 FEW017 27/25 Q1009 NOSIG
WADD 011000Z 13014KT 9999 FEW017 28/25 Q1009 NOSIG
WADD 010930Z 12015KT 9999 FEW017 29/24 Q1009 NOSIG
WADD 010900Z 13015KT 9999 FEW017 29/24 Q1008 NOSIG
WADD 010830Z 14015KT 9999 FEW017 29/24 Q1008 NOSIG
WADD 010800Z 13015KT 9999 FEW017 30/24 Q1008 NOSIG
WADD 010730Z 13015KT 9999 FEW017 30/24 Q1008 NOSIG
WADD 010700Z 11014KT 9999 FEW017 30/24 Q1008 NOSIG
WADD 010630Z 12013KT 9999 FEW017 30/24 Q1009 NOSIG
WADD 010600Z 12012KT 9999 FEW017 30/24 Q1009 NOSIG
WADD 010530Z 11012KT 9999 FEW017 30/24 Q1009 NOSIG
WADD 010500Z 11012KT 9999 FEW017 30/25 Q1010 NOSIG
WADD 010430Z 12011KT 9999 FEW017 30/24 Q1010 NOSIG
WADD 010400Z 11013KT 9999 FEW017 30/25 Q1011 NOSIG
WADD 010330Z 12014KT 9999 FEW017 29/24 Q1011 NOSIG
WADD 010300Z 12013KT 9999 FEW017 29/25 Q1012 NOSIG
WADD 010230Z 12012KT 9999 FEW017 29/24 Q1012 NOSIG
WADD 010200Z 11012KT 9999 FEW017 29/24 Q1012 NOSIG
WADD 010130Z 11009KT 9999 FEW017 28/24 Q1013 NOSIG
WADD 010100Z VRB02KT 9999 FEW017 27/23 Q1013 NOSIG
WADD 010030Z 18003KT 9999 FEW017 26/23 Q1013 NOSIG
WADD 010000Z VRB01KT 9999 FEW017 26/23 Q1012 NOSIG
WADD 312330Z 36003KT 9999 FEW017 25/22 Q1012 NOSIG
WADD 312300Z 34004KT 9999 FEW017 24/23 Q1012 NOSIG
WADD 312230Z 33003KT 9999 FEW017 24/22 Q1012 NOSIG
WADD 312200Z 35003KT 9999 FEW017 24/22 Q1012 NOSIG
WADD 312130Z VRB01KT 9999 SCT017 25/22 Q1012 NOSIG
WADD 312100Z 36003KT 9999 SCT017 25/23 Q1011 NOSIG
WADD 312030Z 35003KT 9999 SCT017 25/23 Q1011 NOSIG
WADD 312000Z VRB02KT 9999 SCT017 24/23 Q1011 NOSIG
WADD 311930Z 10002KT 9999 SCT017 25/23 Q1011 NOSIG
WADD 311900Z 10002KT 9999 FEW017 25/23 Q1011 NOSIG
WADD 311830Z 10003KT 9999 FEW017 25/23 Q1011 NOSIG
WADD 311800Z 11003KT 9999 FEW017 25/23 Q1011 NOSIG
WADD 311730Z 14003KT 9999 FEW017 26/23 Q1012 NOSIG
WADD 311700Z 16004KT 9999 FEW017 26/24 Q1012 NOSIG
WADD 311630Z 10004KT 9999 FEW017 26/23 Q1012 NOSIG
WADD 311600Z 10006KT 9999 SCT017 26/23 Q1013 NOSIG</description><pubDate>Mon, 01 Sep 2025 15:42:10 </pubDate></item></channel></rss>