<rss version="2.0"><channel><title>Aviation Weather METAR Data for WADD</title><link>https://aviationweather.gov/api/data/metar?ids=WADD&amp;hours=24</link><description>Latest METAR data for WADD</description><item><title>2025-03-21 22:42:25Z</title><link>https://aviationweather.gov/api/data/metar?ids=WADD&amp;hours=24</link><description>WADD 212230Z 29010KT 9999 FEW017 28/26 Q1008 NOSIG
WADD 212200Z 30008KT 9999 FEW017 28/26 Q1008 NOSIG
WADD 212130Z 32007KT 9999 FEW017 28/26 Q1008 NOSIG
WADD 212100Z 29012KT 9999 FEW017 28/26 Q1008 NOSIG
WADD 212030Z 28012KT 9999 FEW017 28/25 Q1008 NOSIG
WADD 212000Z 28012KT 9999 FEW017 28/26 Q1008 NOSIG
WADD 211930Z 28012KT 9999 FEW017 28/26 Q1008 NOSIG
WADD 211900Z 28011KT 9999 FEW017 28/26 Q1008 NOSIG
WADD 211830Z 28010KT 9999 FEW017 28/26 Q1008 NOSIG
WADD 211800Z 29011KT 9999 FEW017 28/26 Q1009 NOSIG
WADD 211730Z 28010KT 9999 FEW016 28/26 Q1009 NOSIG
WADD 211700Z 27012KT 9999 FEW016 28/27 Q1010 NOSIG
WADD 211630Z 28010KT 9999 FEW016 28/27 Q1010 NOSIG
WADD 211600Z 29009KT 9999 FEW016 29/27 Q1011 NOSIG
WADD 211530Z 27009KT 9999 SCT016 28/27 Q1011 NOSIG
WADD 211500Z 27011KT 9999 SCT016 28/27 Q1011 NOSIG
WADD 211430Z 27011KT 9999 SCT016 28/26 Q1011 NOSIG
WADD 211400Z 26011KT 9999 SCT016 28/26 Q1011 NOSIG
WADD 211330Z 26010KT 9999 SCT016 29/26 Q1011 NOSIG
WADD 211300Z 26009KT 9999 SCT016 29/26 Q1010 NOSIG
WADD 211230Z 26010KT 9999 SCT016 29/26 Q1010 NOSIG
WADD 211200Z 26009KT 9999 SCT016 29/26 Q1010 NOSIG
WADD 211130Z 26011KT 9999 SCT016 29/26 Q1009 NOSIG
WADD 211100Z 26009KT 9999 SCT016 29/26 Q1009 NOSIG
WADD 211030Z 26010KT 9999 SCT016 29/26 Q1009 NOSIG
WADD 211000Z 29008KT 9999 SCT016 28/27 Q1009 NOSIG
WADD 210930Z 28008KT 9999 SCT016 28/26 Q1009 NOSIG
WADD 210900Z 29006KT 9999 SCT016 28/26 Q1008 NOSIG
WADD 210830Z 29005KT 9999 SCT016 28/26 Q1008 RERA NOSIG
WADD 210800Z 30006KT 8000 -RA SCT015 27/26 Q1008 TEMPO TL0900 8000 -RA
WADD 210730Z 29006KT 7000 -RA SCT015 27/26 Q1009 TEMPO TL0830 7000 -RA
WADD 210700Z 29006KT 7000 -RA SCT015 27/26 Q1009 TEMPO TL0800 7000 -RA
WADD 210630Z 26004KT 7000 -RA FEW014CB SCT015 27/26 Q1009 TEMPO TL0730 7000 -RA
WADD 210600Z 24005KT 200V270 7000 -RA FEW014CB SCT015 26/25 Q1010 TEMPO TL0700 7000 -RA
WADD 210530Z 25006KT 6000 -RA BKN014 27/25 Q1010 TEMPO TL0630 6000 -RA
WADD 210500Z 29010KT 260V320 8000 -RA SCT015 27/26 Q1010 NOSIG
WADD 210430Z 32005KT 280V340 7000 -RA BKN014 26/25 Q1010 TEMPO TL0530 7000 -RA
WADD 210400Z 21003KT 1000 +RA BKN012 26/25 Q1011 TEMPO TL0430 1000 +RA
WADD 210330Z VRB02KT 6000 -RA BKN015 26/25 Q1011 NOSIG
WADD 210300Z VRB02KT 7000 -RA BKN015 25/24 Q1011 TEMPO TL0400 7000 -RA
WADD 210230Z 31009KT 260V040 1000 +RA FEW014CB BKN014 27/25 Q1012 TEMPO TL0330 1000 +RA RMK CB IN APCH AND CLIMB-OUT
WADD 210200Z 31005KT 260V340 7000 -RA FEW015CB BKN015 28/25 Q1011 TEMPO TL0300 7000 -RA RMK CB IN CLIMB-OUT
WADD 210130Z 34005KT 310V040 9999 SCT016 28/26 Q1011 NOSIG
WADD 210100Z 34005KT 300V020 9999 SCT016 27/25 Q1011 NOSIG
WADD 210030Z 02004KT 350V090 9999 SCT016 27/26 Q1011 NOSIG
WADD 210000Z 08003KT 9999 SCT016 26/25 Q1011 NOSIG
WADD 202330Z VRB02KT 9999 SCT016 26/25 Q1010 NOSIG
WADD 202300Z VRB02KT 9999 SCT016 25/25 Q1010 NOSIG</description><pubDate>Fri, 21 Mar 2025 22:42:25 </pubDate></item></channel></rss>