<rss version="2.0"><channel><title>Aviation Weather METAR Data for WADD</title><link>https://aviationweather.gov/api/data/metar?ids=WADD&amp;hours=24</link><description>Latest METAR data for WADD</description><item><title>2026-02-21 08:41:58Z</title><link>https://aviationweather.gov/api/data/metar?ids=WADD&amp;hours=24</link><description>METAR WADD 210830Z 26013KT 9999 SCT016 30/26 Q1004 NOSIG
METAR WADD 210800Z 25010KT 9999 SCT016 30/25 Q1004 NOSIG
METAR WADD 210730Z 26011KT 9999 SCT016 30/25 Q1005 NOSIG
METAR WADD 210700Z 26009KT 9999 SCT016 30/25 Q1005 NOSIG
METAR WADD 210630Z 26010KT 9999 SCT016 30/25 Q1005 NOSIG
METAR WADD 210600Z 27011KT 9999 SCT016 30/25 Q1005 NOSIG
METAR WADD 210530Z 30011KT 9999 FEW017 30/25 Q1006 NOSIG
METAR WADD 210500Z 29009KT 250V320 9999 FEW017 30/25 Q1006 NOSIG
METAR WADD 210430Z 28008KT 9999 FEW017 31/26 Q1006 NOSIG
METAR WADD 210400Z 28007KT 9999 FEW017 30/25 Q1007 NOSIG
METAR WADD 210330Z 27010KT 230V300 9999 FEW017 29/25 Q1007 NOSIG
METAR WADD 210300Z 27012KT 9999 FEW016 30/24 Q1007 NOSIG
METAR WADD 210230Z 27012KT 240V300 9999 FEW015CB SCT016 28/25 Q1007 N OSIG
METAR WADD 210200Z 29012KT 9999 FEW015CB SCT016 30/25 Q1008 NOSIG
METAR WADD 210130Z 29012KT 9999 FEW017 29/26 Q1008 NOSIG
METAR WADD 210100Z 28008KT 9999 FEW017 29/26 Q1008 NOSIG
METAR WADD 210030Z 28009KT 9999 FEW017 28/25 Q1007 NOSIG
METAR WADD 210000Z 30009KT 9999 FEW017 27/24 Q1007 NOSIG
METAR WADD 202330Z 30008KT 9999 SCT016 27/24 Q1007 NOSIG
METAR WADD 202300Z 30009KT 9999 BKN016 26/24 Q1007 NOSIG
METAR WADD 202230Z 32007KT 290V350 9999 FEW015CB BKN015 26/25 Q1007 R ERA NOSIG
METAR WADD 202200Z 29007KT 7000 -RA FEW015CB BKN015 26/25 Q1007 TEMPO TL2300 7000 -RA RMK CB IN APCH
METAR WADD 202130Z 28013KT 7000 -RA FEW015CB BKN015 26/25 Q1007 TEMPO TL2217 7000 -RA RMK CB IN APCH AND CLIMB-OUT
METAR WADD 202100Z 27015KT 9999 FEW015CB SCT016 28/25 Q1007 NOSIG RMK CB IN CLIMB-OUT
METAR WADD 202030Z COR 28007KT 9999 FEW015CB SCT016 27/25 Q1007 NOSIG
METAR WADD 202000Z 27006KT 9999 SCT016 27/25 Q1007 NOSIG
METAR WADD 201930Z 25002KT 9999 SCT016 27/26 Q1007 NOSIG
METAR WADD 201900Z 16002KT 9999 SCT016 27/26 Q1007 NOSIG
METAR WADD 201830Z VRB01KT 9999 SCT016 27/26 Q1007 NOSIG
METAR WADD 201800Z 24003KT 9999 SCT016 28/26 Q1008 NOSIG
METAR WADD 201730Z VRB02KT 9999 FEW015CB SCT016 28/25 Q1008 RERA NOSI G
METAR WADD 201700Z 31004KT 270V350 9000 -RA FEW015CB SCT016 28/26 Q1008 TEMPO TL1800 9000 -RA RMK CB IN CLIMB-OUT
METAR WADD 201630Z 33004KT 310V010 8000 -RA FEW015CB SCT016 28/25 Q1009 TEMPO TL1730 8000 -RA RMK CB IN CLIMB-OUT
METAR WADD 201600Z 33003KT 9999 FEW015CB SCT016 28/25 Q1009 NOSIG
METAR WADD 201530Z 33003KT 9999 FEW015CB SCT016 28/25 Q1009 NOSIG
METAR WADD 201500Z 32005KT 290V360 9999 SCT016 28/25 Q1009 NOSIG
METAR WADD 201430Z 31007KT 9999 SCT016 28/25 Q1009 NOSIG
METAR WADD 201400Z 30009KT 9999 SCT016 28/26 Q1009 NOSIG
METAR WADD 201330Z 25003KT 9999 FEW015CB SCT016 29/26 Q1009 NOSIG
METAR WADD 201300Z VRB02KT 9999 FEW015CB SCT016 29/26 Q1009 NOSIG
METAR WADD 201230Z 22002KT 9999 SCT016 29/26 Q1008 NOSIG
METAR WADD 201200Z VRB02KT 9999 SCT016 29/26 Q1008 NOSIG
METAR WADD 201130Z 24004KT 9999 FEW017 29/26 Q1008 NOSIG
METAR WADD 201100Z 27006KT 9999 FEW017 28/25 Q1008 NOSIG
METAR WADD 201030Z 25005KT 9999 FEW017 29/25 Q1008 NOSIG
METAR WADD 201000Z 26005KT 230V290 9999 FEW017 29/25 Q1007 NOSIG
METAR WADD 200930Z 27006KT 9999 FEW017 30/25 Q1007 NOSIG
METAR WADD 200900Z 26005KT 220V290 9999 FEW017 30/25 Q1007 NOSIG</description><pubDate>Sat, 21 Feb 2026 08:41:58 </pubDate></item></channel></rss>