<rss version="2.0"><channel><title>Aviation Weather METAR Data for WADD</title><link>https://aviationweather.gov/api/data/metar?ids=WADD&amp;hours=24</link><description>Latest METAR data for WADD</description><item><title>2025-01-19 05:21:14Z</title><link>https://aviationweather.gov/api/data/metar?ids=WADD&amp;hours=24</link><description>WADD 190500Z 28009KT 9999 FEW017 30/26 Q1005 NOSIG
WADD 190430Z 29010KT 9999 SCT017 30/26 Q1005 NOSIG
WADD 190400Z 29009KT 9999 SCT017 30/25 Q1005 NOSIG
WADD 190330Z 29009KT 9999 SCT016 30/26 Q1005 NOSIG
WADD 190300Z 28012KT 9999 SCT016 30/26 Q1005 NOSIG
WADD 190230Z 28013KT 9999 SCT016 30/26 Q1006 NOSIG
WADD 190200Z 28012KT 9999 SCT017 30/26 Q1006 NOSIG
WADD 190130Z 28010KT 9999 FEW017 30/26 Q1006 NOSIG
WADD 190100Z 29010KT 9999 FEW017 29/26 Q1006 NOSIG
WADD 190030Z 31008KT 9999 FEW017 29/25 Q1006 NOSIG
WADD 190000Z 32008KT 9999 SCT016 28/25 Q1006 NOSIG
WADD 182330Z 29011KT 9999 SCT016 28/26 Q1005 NOSIG
WADD 182300Z 27010KT 9999 SCT016 27/26 Q1005 NOSIG
WADD 182230Z 27012KT 9999 SCT015 27/25 Q1005 NOSIG
WADD 182200Z 26011KT 9999 SCT016 27/26 Q1005 NOSIG
WADD 182130Z 25011KT 9999 SCT016 27/25 Q1004 NOSIG
WADD 182100Z 27012KT 9999 FEW017 27/25 Q1004 NOSIG
WADD 182030Z 27012KT 9999 FEW017 27/25 Q1004 NOSIG
WADD 182000Z 29009KT 9999 FEW017 27/25 Q1004 NOSIG
WADD 181930Z 30008KT 9999 FEW017 27/25 Q1004 NOSIG
WADD 181900Z 30008KT 9999 SCT016 27/25 Q1004 NOSIG
WADD 181830Z 29010KT 9999 SCT16 27/25 Q1005 NOSIG
WADD 181800Z 30011KT 9999 FEW017 27/25 Q1005 NOSIG
WADD 181730Z 30015G25KT 9999 FEW017 27/25 Q1005 NOSIG
WADD 181700Z 29015KT 9999 FEW017 27/26 Q1005 NOSIG
WADD 181630Z 30010KT 9999 SCT016 27/26 Q1005 NOSIG
WADD 181600Z 29012KT 9999 SCT016 27/25 Q1006 NOSIG
WADD 181530Z 29012KT 9999 BKN015 27/26 Q1006 RERA NOSIG
WADD 181500Z 27013KT 8000 -RA FEW014CB BKN014 26/26 Q1006 TEMPO TL1600 8000 -RA
WADD 181430Z 27013KT 8000 -RA FEW015CB BKN015 26/26 Q1007 TEMPO TL1530 8000 -RA
WADD 181400Z 29014KT 7000 -RA FEW015CB BKN015 27/26 Q1007 TEMPO TL1500 7000 -RA
WADD 181330Z 29015KT 7000 -RA BKN015 27/26 Q1007 TEMPO TL1430 7000 -RA
WADD 181300Z 29015KT 7000 -RA FEW015CB BKN015 26/26 Q1007 RETS TEMPO TL1400 7000 -RA
WADD 181230Z 31010KT 6000 -TSRA FEW015CB BKN015 26/25 Q1007 TEMPO TL1330 6000 -TSRA
WADD 181200Z 31008KT 6000 -TSRA FEW015CB BKN015 25/25 Q1006 TEMPO TL1300 6000 -TSRA
WADD 181130Z 28017G37KT 1500 +TSRA FEW015CB BKN016 24/24 Q1006 TEMPO TL1300 1500 +TSRA
WADD 181100Z 26011G25KT 4000 TSRA FEW015CB BKN016 27/25 Q1005 TEMPO TL1230 4000 RA
WADD 181030Z 26016KT 9999 FEW015CB BKN016 29/27 Q1005 NOSIG
WADD 181000Z 25012KT 9999 BKN017 29/26 Q1004 NOSIG
WADD 180930Z 25010KT 9999 SCT017 30/26 Q1004 NOSIG
WADD 180900Z 26009KT 9999 SCT017 30/26 Q1004 NOSIG
WADD 180830Z 25009KT 210V270 9999 SCT017 30/26 Q1004 NOSIG
WADD 180800Z 26012KT 9999 SCT017 30/27 Q1004 NOSIG
WADD 180730Z 26013KT 9999 SCT017 31/27 Q1004 NOSIG
WADD 180700Z 25011KT 9999 SCT017 31/27 Q1004 NOSIG
WADD 180630Z 25011KT 9999 FEW017 31/26 Q1004 NOSIG
WADD 180600Z 25011KT 9999 FEW017 31/26 Q1005 NOSIG
WADD 180530Z 25008KT 9999 FEW017 31/27 Q1005 NOSIG</description><pubDate>Sun, 19 Jan 2025 05:21:14 </pubDate></item></channel></rss>