<rss version="2.0"><channel><title>Aviation Weather METAR Data for WADD</title><link>https://aviationweather.gov/api/data/metar?ids=WADD&amp;hours=24</link><description>Latest METAR data for WADD</description><item><title>2026-04-05 03:30:47Z</title><link>https://aviationweather.gov/api/data/metar?ids=WADD&amp;hours=24</link><description>METAR WADD 050300Z 11010KT 9999 SCT016 31/26 Q1010 NOSIG
METAR WADD 050230Z 11011KT 9999 SCT016 31/26 Q1010 NOSIG
METAR WADD 050200Z 10011KT 9999 SCT016 31/26 Q1010 NOSIG
METAR WADD 050130Z 10009KT 9999 FEW015CB SCT016 31/26 Q1010 NOSIG RMK CB IN APCH
METAR WADD 050100Z 11008KT 9999 SCT016 30/26 Q1010 NOSIG
METAR WADD 050030Z 10008KT 9999 SCT016 29/26 Q1010 NOSIG
METAR WADD 050000Z 10007KT 9999 FEW017 29/26 Q1010 NOSIG
METAR WADD 042330Z 10005KT 9999 FEW017 28/26 Q1009 NOSIG
METAR WADD 042300Z 09005KT 9999 FEW017 27/26 Q1009 NOSIG
METAR WADD 042230Z 10005KT 9999 FEW017 27/26 Q1009 NOSIG
METAR WADD 042200Z 09005KT 9999 FEW017 27/26 Q1009 NOSIG
METAR WADD 042130Z 09006KT 9999 FEW017 27/25 Q1009 NOSIG
METAR WADD 042100Z 10006KT 9999 FEW017 27/26 Q1008 NOSIG
METAR WADD 042030Z 09005KT 9999 FEW017 27/25 Q1008 NOSIG
METAR WADD 042000Z 08006KT 9999 FEW017 27/25 Q1008 NOSIG
METAR WADD 041930Z 08007KT 9999 FEW016CB SCT017 27/26 Q1008 NOSIG
METAR WADD 041900Z 08008KT 9999 FEW016CB SCT017 27/26 Q1008 NOSIG
METAR WADD 041830Z 10007KT 9999 FEW016CB SCT017 27/26 Q1008 NOSIG
METAR WADD 041800Z 10005KT 9999 FEW016CB SCT017 27/26 Q1009 NOSIG
METAR WADD 041730Z 11007KT 9999 FEW016CB SCT017 28/26 Q1009 NOSIG
METAR WADD 041700Z 10007KT 9999 FEW016CB SCT017 28/26 Q1009 NOSIG
METAR WADD 041630Z 11006KT 9999 FEW016CB SCT017 28/26 Q1010 NOSIG
METAR WADD 041600Z 09005KT 9999 FEW016CB SCT017 28/26 Q1010 NOSIG
METAR WADD 041530Z 08005KT 9999 FEW016CB SCT017 27/26 Q1010 NOSIG
METAR WADD 041500Z 09005KT 9999 FEW016CB SCT017 28/26 Q1010 NOSIG
METAR WADD 041430Z 11005KT 9999 FEW016CB SCT017 28/26 Q1010 NOSIG
METAR WADD 041400Z 12006KT 9999 FEW017 28/27 Q1010 NOSIG
METAR WADD 041330Z 12008KT 9999 FEW017 28/27 Q1010 NOSIG
METAR WADD 041300Z 13008KT 9999 FEW017 28/26 Q1010 NOSIG
METAR WADD 041230Z 12007KT 9999 SCT016 28/26 Q1009 NOSIG
METAR WADD 041200Z 13009KT 9999 SCT016 29/26 Q1009 NOSIG
METAR WADD 041130Z 13008KT 9999 SCT016 29/26 Q1009 NOSIG
METAR WADD 041100Z 12007KT 9999 SCT016 29/26 Q1008 NOSIG
METAR WADD 041030Z 13010KT 9999 SCT016 29/26 Q1008 NOSIG
METAR WADD 041000Z 14011KT 9999 SCT016 29/26 Q1007 NOSIG
METAR WADD 040930Z 13013KT 9999 SCT016 30/26 Q1007 NOSIG
METAR WADD 040900Z 13013KT 9999 SCT016 30/26 Q1007 NOSIG
METAR WADD 040830Z 13016KT 9999 SCT016 30/26 Q1007 NOSIG
METAR WADD 040800Z 14016KT 9999 FEW016 31/26 Q1007 NOSIG
METAR WADD 040730Z 15017KT 9999 FEW016 31/26 Q1007 NOSIG
METAR WADD 040700Z 13015KT 9999 FEW016 31/25 Q1007 NOSIG
METAR WADD 040630Z 13013KT 9999 FEW016 32/26 Q1007 NOSIG
METAR WADD 040600Z 12013KT 9999 FEW016 31/25 Q1008 NOSIG
METAR WADD 040530Z 12012KT 9999 FEW016 31/26 Q1008 NOSIG
METAR WADD 040500Z 12012KT 9999 FEW016 32/26 Q1008 NOSIG
METAR WADD 040430Z 11011KT 9999 FEW016 32/25 Q1009 NOSIG
METAR WADD 040400Z 10012KT 9999 SCT016 31/26 Q1009 NOSIG</description><pubDate>Sun, 05 Apr 2026 03:30:47 </pubDate></item></channel></rss>