<rss version="2.0"><channel><title>Aviation Weather METAR Data for WADD</title><link>https://aviationweather.gov/api/data/metar?ids=WADD&amp;hours=24</link><description>Latest METAR data for WADD</description><item><title>2025-09-18 05:41:25Z</title><link>https://aviationweather.gov/api/data/metar?ids=WADD&amp;hours=24</link><description>METAR WADD 180530Z 16006KT 6000 -RA FEW015CB BKN016 25/25 Q1011 TEMPO TL0630 6000 -RA
METAR WADD 180500Z 17014KT 3000 RA FEW015CB BKN016 25/25 Q1012 TEMPO TL0600 3000 RA
METAR WADD 180430Z 17010KT 5000 -RA FEW015CB 24/24 Q1012 TEMPO TL0530 5000 -RA
METAR WADD 180400Z 15009KT 120V190 0600 +RA FEW015CB BKN016 25/25 Q1013 TEMPO TL0500 0600 +RA
METAR WADD 180330Z 21007KT 4000 RA FEW015CB BKN016 25/25 Q1013 TEMPO TL0430 4000 RA
METAR WADD 180300Z 26003KT 4000 RA FEW015CB BKN016 24/24 Q1014 TEMPO TL0400 4000 RA
METAR WADD 180230Z 01004KT 0500 +RA FEW015CB BKN016 24/24 Q1014 TEMPO TL0330 0500 +RA
METAR WADD 180200Z 01009KT 1300 +RA FEW015CB BKN016 25/25 Q1014 TEMPO TL0300 1300 +RA
METAR WADD 180130Z 04004KT 030V110 6000 -RA FEW015CB BKN016 25/25 Q1014 TEMPO TL0230 6000 -RA
METAR WADD 180100Z 11005KT 050V140 3000 RA FEW015CB BKN016 26/24 Q1014 TEMPO TL0200 3000 RA
METAR WADD 180030Z 14005KT 8000 -RA FEW015CB BKN016 26/25 Q1013 TEMPO TL0130 -RA
METAR WADD 180000Z 15004KT 9999 FEW015CB BKN016 26/25 Q1013 RERA NOSIG
METAR WADD 172330Z 15006KT 8000 -RA FEW015CB BKN016 26/24 Q1013 TEMPO TL2430 -RA
METAR WADD 172300Z 15008KT 9999 FEW016CB BKN016 26/24 Q1013 NOSIG
METAR WADD 172230Z 16009KT 9999 FEW016CB BKN016 26/24 Q1012 NOSIG RMK CB IN CLIMB-OUT
METAR WADD 172200Z 15009KT 9999 FEW016CB BKN016 26/24 Q1012 NOSIG
METAR WADD 172130Z 15010KT 9999 FEW016CB BKN016 26/24 Q1012 NOSIG
METAR WADD 172100Z 16011KT 9999 FEW016CB BKN016 26/24 Q1011 NOSIG
METAR WADD 172030Z 16010KT 9999 BKN016 26/24 Q1011 NOSIG
METAR WADD 172000Z 15010KT 9999 BKN016 26/24 Q1011 NOSIG
METAR WADD 171930Z 15010KT 9999 BKN016 26/24 Q1011 NOSIG
METAR WADD 171900Z 16009KT 9999 BKN016 26/24 Q1011 NOSIG
METAR WADD 171830Z 16010KT 9999 SCT016 26/24 Q1012 NOSIG
METAR WADD 171800Z 17006KT 9999 SCT016 26/24 Q1012 NOSIG
METAR WADD 171730Z 15007KT 9999 SCT016 26/24 Q1012 NOSIG
METAR WADD 171700Z 15007KT 9999 SCT016 26/24 Q1012 NOSIG
METAR WADD 171630Z 14006KT 9999 FEW017 26/24 Q1013 NOSIG
METAR WADD 171600Z 14007KT 9999 FEW017 26/24 Q1013 NOSIG
METAR WADD 171530Z 15008KT 9999 SCT017 26/24 Q1013 NOSIG
METAR WADD 171500Z 14008KT 9999 SCT017 26/24 Q1013 NOSIG
METAR WADD 171430Z 14008KT 9999 SCT017 26/24 Q1014 NOSIG
METAR WADD 171400Z 14007KT 9999 SCT017 27/24 Q1014 NOSIG
METAR WADD 171330Z 14009KT 9999 FEW017 27/24 Q1013 NOSIG
METAR WADD 171300Z 13009KT 9999 SCT017 27/24 Q1013 NOSIG
METAR WADD 171230Z 13009KT 9999 SCT017 27/24 Q1013 NOSIG
METAR WADD 171200Z 13010KT 9999 SCT017 27/24 Q1012 NOSIG
METAR WADD 171130Z 13010KT 9999 FEW017 27/24 Q1012 NOSIG
METAR WADD 171100Z 14012KT 9999 FEW017 27/24 Q1011 NOSIG
METAR WADD 171030Z 14011KT 9999 SCT017 27/24 Q1011 NOSIG
METAR WADD 171000Z 14012KT 9999 SCT017 27/24 Q1011 NOSIG
METAR WADD 170930Z 15012KT 9999 SCT017 28/23 Q1010 NOSIG
METAR WADD 170900Z 15012KT 9999 SCT017 28/23 Q1010 NOSIG
METAR WADD 170830Z 15010KT 9999 SCT017 29/24 Q1010 NOSIG
METAR WADD 170800Z 16014KT 9999 SCT017 29/24 Q1009 NOSIG
METAR WADD 170730Z 14012KT 9999 SCT017 29/24 Q1009 NOSIG
METAR WADD 170700Z 14011KT 9999 SCT017 28/23 Q1010 NOSIG
METAR WADD 170630Z 16012KT 9999 SCT017 29/24 Q1010 NOSIG
METAR WADD 170600Z 15013KT 9999 SCT017 29/23 Q1010 NOSIG</description><pubDate>Thu, 18 Sep 2025 05:41:25 </pubDate></item></channel></rss>