<rss version="2.0"><channel><title>Aviation Weather METAR Data for WADD</title><link>https://aviationweather.gov/api/data/metar?ids=WADD&amp;hours=24</link><description>Latest METAR data for WADD</description><item><title>2026-07-09 11:14:47Z</title><link>https://aviationweather.gov/api/data/metar?ids=WADD&amp;hours=24</link><description>METAR WADD 091100Z 12015KT 9999 FEW017 26/22 Q1014 NOSIG
METAR WADD 091030Z 12014KT 9999 FEW017 27/22 Q1014 NOSIG
METAR WADD 091000Z 12016KT 9999 FEW017 27/22 Q1013 NOSIG
METAR WADD 090930Z 12015KT 9999 FEW017 27/22 Q1013 NOSIG
METAR WADD 090900Z 12017KT 9999 FEW017 28/22 Q1013 NOSIG
METAR WADD 090830Z 13018KT 9999 FEW017 28/22 Q1013 NOSIG
METAR WADD 090800Z 12018KT 9999 FEW017 28/22 Q1012 NOSIG
METAR WADD 090730Z 12018KT 9999 FEW017 28/22 Q1012 NOSIG
METAR WADD 090700Z 12019KT 9999 FEW017 28/22 Q1013 NOSIG
METAR WADD 090630Z 11017KT 9999 FEW017 29/22 Q1013 NOSIG
METAR WADD 090600Z 13021KT 9999 FEW016 28/22 Q1013 NOSIG
METAR WADD 090530Z 13021KT 9999 FEW016 29/22 Q1013 NOSIG
METAR WADD 090500Z 12019KT 9999 FEW016 29/22 Q1014 NOSIG
METAR WADD 090430Z 13020KT 9999 FEW016 29/21 Q1015 NOSIG
METAR WADD 090400Z 11018KT 9999 FEW016 29/21 Q1015 NOSIG
METAR WADD 090330Z 11017KT 9999 FEW016 29/23 Q1015 NOSIG
METAR WADD 090300Z 12015KT 9999 SCT016 29/23 Q1015 NOSIG
METAR WADD 090230Z 12017KT 9999 SCT016 28/22 Q1015 NOSIG
METAR WADD 090200Z 12015KT 9999 SCT016 27/23 Q1015 NOSIG
METAR WADD 090130Z 12016KT 9999 SCT016 27/23 Q1015 NOSIG
METAR WADD 090100Z 11015KT 9999 SCT016 28/23 Q1015 NOSIG
METAR WADD 090030Z 12013KT 9999 SCT016 27/23 Q1015 NOSIG
METAR WADD 090000Z 12010KT 9999 SCT016 26/23 Q1015 NOSIG
METAR WADD 082330Z 11011KT 9999 SCT016 26/22 Q1015 NOSIG
METAR WADD 082300Z 11013KT 9999 SCT017 26/22 Q1014 NOSIG
METAR WADD 082230Z 11014KT 9999 SCT016 26/22 Q1014 NOSIG
METAR WADD 082200Z 11013KT 9999 FEW017 26/22 Q1014 NOSIG
METAR WADD 082130Z 11014KT 9999 FEW017 26/22 Q1014 NOSIG
METAR WADD 082100Z 12014KT 9999 FEW017 26/23 Q1014 NOSIG
METAR WADD 082030Z 12013KT 9999 FEW017 26/22 Q1013 NOSIG
METAR WADD 082000Z 12014KT 9999 FEW017 26/22 Q1013 NOSIG
METAR WADD 081930Z 12015KT 9999 FEW017 26/22 Q1013 NOSIG
METAR WADD 081900Z 12014KT 9999 FEW017 26/23 Q1013 NOSIG
METAR WADD 081830Z 12014KT 9999 FEW017 26/23 Q1013 NOSIG
METAR WADD 081800Z 12016KT 9999 FEW017 26/22 Q1014 NOSIG
METAR WADD 081730Z 12013KT 9999 FEW017 26/23 Q1014 NOSIG
METAR WADD 081700Z 12013G23KT 9999 FEW017 26/22 Q1014 NOSIG
METAR WADD 081630Z 12014KT 9999 FEW017 26/22 Q1014 NOSIG
METAR WADD 081600Z 13016KT 9999 FEW017 26/22 Q1014 NOSIG
METAR WADD 081530Z 13015KT 9999 SCT016 26/23 Q1014 NOSIG
METAR WADD 081500Z 12012KT 9999 FEW015CB SCT015 26/23 Q1014 NOSIG
METAR WADD 081430Z 10005KT 9999 FEW015CB SCT015 26/23 Q1015 NOSIG RMK CB IN APCH
METAR WADD 081400Z 11008KT 9999 FEW017 26/22 Q1015 NOSIG
METAR WADD 081330Z 12009KT 9999 FEW017 26/22 Q1014 NOSIG
METAR WADD 081300Z 12010KT 9999 FEW017 26/22 Q1014 NOSIG
METAR WADD 081230Z 12011KT 9999 FEW017 26/22 Q1014 NOSIG
METAR WADD 081200Z 13012KT 9999 FEW017 27/22 Q1014 NOSIG
METAR WADD 081130Z 12010KT 9999 SCT016 27/22 Q1013 NOSIG</description><pubDate>Thu, 09 Jul 2026 11:14:47 </pubDate></item></channel></rss>