<rss version="2.0"><channel><title>Aviation Weather METAR Data for WADD</title><link>https://aviationweather.gov/api/data/metar?ids=WADD&amp;hours=24</link><description>Latest METAR data for WADD</description><item><title>2025-12-21 11:23:04Z</title><link>https://aviationweather.gov/api/data/metar?ids=WADD&amp;hours=24</link><description>METAR WADD 211100Z 24004KT 9999 SCT016 29/25 Q1007 NOSIG
METAR WADD 211030Z 24004KT 9999 SCT016 29/25 Q1006 NOSIG
METAR WADD 211000Z 22005KT 9999 SCT016 30/25 Q1006 NOSIG
METAR WADD 210930Z 25006KT 9999 FEW015CB SCT016 29/26 Q1006 NOSIG
METAR WADD 210900Z 24006KT 9999 FEW015CB SCT016 29/26 Q1006 NOSIG
METAR WADD 210830Z 25008KT 9999 FEW016 31/26 Q1005 NOSIG
METAR WADD 210800Z 25008KT 9999 FEW016 31/26 Q1005 NOSIG
METAR WADD 210730Z 26007KT 9999 FEW016 30/26 Q1005 NOSIG
METAR WADD 210700Z 25007KT 9999 FEW016 30/25 Q1005 NOSIG
METAR WADD 210630Z 26007KT 9999 FEW016 30/25 Q1006 NOSIG
METAR WADD 210600Z 26007KT 9999 FEW016 30/25 Q1006 NOSIG
METAR WADD 210530Z 25007KT 9999 FEW016 31/26 Q1006 NOSIG
METAR WADD 210500Z 26007KT 9999 FEW016 30/25 Q1007 NOSIG
METAR WADD 210430Z 24007KT 9999 FEW016 30/24 Q1007 NOSIG
METAR WADD 210400Z 24007KT 9999 FEW016 31/24 Q1007 NOSIG
METAR WADD 210330Z 28006KT 250V320 9999 FEW016 31/24 Q1007 NOSIG
METAR WADD 210300Z 26004KT 9999 FEW016 31/26 Q1007 NOSIG
METAR WADD 210230Z 27005KT 9999 FEW016 31/26 Q1008 NOSIG
METAR WADD 210200Z VRB02KT 9999 FEW016 30/26 Q1008 NOSIG
METAR WADD 210130Z 35003KT 9999 FEW016 29/25 Q1008 NOSIG
METAR WADD 210100Z 33004KT 9999 FEW016 29/26 Q1008 NOSIG
METAR WADD 210030Z 32003KT 9999 FEW016 29/26 Q1008 NOSIG
METAR WADD 210000Z 33003KT 9999 FEW016 29/26 Q1007 NOSIG
METAR WADD 202330Z 34003KT 9999 FEW016 28/26 Q1007 NOSIG
METAR WADD 202300Z 01003KT 9999 FEW016 27/26 Q1007 NOSIG
METAR WADD 202230Z 03003KT 9999 SCT016 27/26 Q1007 NOSIG
METAR WADD 202200Z 35004KT 9999 SCT016 27/26 Q1007 NOSIG
METAR WADD 202130Z 02005KT 9999 SCT016 26/26 Q1006 NOSIG
METAR WADD 202100Z 03003KT 9999 SCT016 26/25 Q1006 NOSIG
METAR WADD 202030Z 01003KT 9999 SCT016 27/25 Q1006 NOSIG
METAR WADD 202000Z 02003KT 9999 SCT016 26/26 Q1005 NOSIG
METAR WADD 201930Z 03003KT 9999 SCT016 26/26 Q1005 NOSIG
METAR WADD 201900Z 05002KT 9999 SCT016 26/26 Q1005 NOSIG
METAR WADD 201830Z 05002KT 9999 SCT016 27/26 Q1005 NOSIG
METAR WADD 201800Z 14003KT 9999 SCT016 27/26 Q1006 NOSIG
METAR WADD 201730Z 13004KT 9999 SCT016 28/26 Q1006 NOSIG
METAR WADD 201700Z 09004KT 9999 SCT016 27/26 Q1006 NOSIG
METAR WADD 201630Z 05004KT 9999 SCT016 27/26 Q1007 NOSIG
METAR WADD 201600Z 03003KT 9999 SCT016 27/26 Q1007 NOSIG
METAR WADD 201530Z VRB02KT 9999 SCT016 27/26 Q1007 NOSIG
METAR WADD 201500Z 12004KT 9999 SCT016 28/26 Q1007 NOSIG
METAR WADD 201430Z 12003KT 9999 SCT016 28/26 Q1008 NOSIG
METAR WADD 201400Z 13003KT 9999 SCT016 27/26 Q1008 NOSIG
METAR WADD 201330Z 09003KT 9999 SCT016 27/26 Q1008 NOSIG
METAR WADD 201300Z 12003KT 9999 SCT016 28/26 Q1008 NOSIG
METAR WADD 201230Z 12003KT 9999 SCT016 28/26 Q1007 NOSIG
METAR WADD 201200Z 12003KT 9999 SCT016 28/26 Q1007 NOSIG
METAR WADD 201130Z 14005KT 9999 SCT016 28/26 Q1007 NOSIG</description><pubDate>Sun, 21 Dec 2025 11:23:04 </pubDate></item></channel></rss>