<rss version="2.0"><channel><title>Aviation Weather METAR Data for WADD</title><link>https://aviationweather.gov/api/data/metar?ids=WADD&amp;hours=24</link><description>Latest METAR data for WADD</description><item><title>2026-01-31 22:32:58Z</title><link>https://aviationweather.gov/api/data/metar?ids=WADD&amp;hours=24</link><description>METAR WADD 312200Z 32005KT 9999 FEW016CB SCT016 26/24 Q1009 NOSIG
METAR WADD 312130Z 32005KT 9999 FEW016CB SCT016 25/24 Q1008 NOSIG
METAR WADD 312100Z 34005KT 9999 SCT016 25/24 Q1008 NOSIG
METAR WADD 312030Z 34005KT 9999 SCT016 25/24 Q1009 NOSIG
METAR WADD 312000Z 32006KT 9999 BKN015 25/24 Q1009 NOSIG
METAR WADD 311930Z 32009KT 9000 -RA FEW015CB BKN016 25/24 Q1009 TEMPO TL2030 -RA
METAR WADD 311900Z 30008KT 260V330 8000 -RA FEW015CB BKN015 25/25 Q10 09 TEMPO TL2000 -RA
METAR WADD 311830Z 25012G21KT 4000 RA FEW015CB BKN015 25/25 Q1009 TEMPO TL1930 5000 RA
METAR WADD 311800Z 30014KT 8000 -RA FEW015CB BKN015 26/24 Q1010 RETS TEMPO TL1900 -RA
METAR WADD 311730Z 30017G25KT 7000 -TSRA FEW015CB BKN015 25/24 Q1010 TEMPO TL1830 7000 -TSRA
METAR WADD 311700Z 31018G29KT 270V340 1000 +RA FEW013CB BKN013 25/24 Q1010 TEMPO TL1800 3000 RA RMK CB IN APCH AND CLIMB-OUT
METAR WADD 311630Z 30011KT 9999 FEW015CB BKN015 26/24 Q1010 RERA NOSIG RMK CB IN CLIMB-OUT
METAR WADD 311600Z COR 27014KT 250V320 6000 -RA FEW013CB BKN013 28/25 Q1011 TEMPO TL1700 3000 RA RMK CB IN CLIMB-OUT
METAR WADD 311530Z 26010KT 9999 FEW015CB SCT016 29/25 Q1011 NOSIG
METAR WADD 311500Z 26009KT 9999 FEW016CB SCT016 29/25 Q1011 NOSIG
METAR WADD 311430Z 26010KT 9999 SCT016 29/24 Q1011 NOSIG
METAR WADD 311400Z 25008KT 9999 SCT016 28/25 Q1011 NOSIG
METAR WADD 311330Z 25009KT 9999 FEW016CB SCT016 28/25 Q1010 NOSIG
METAR WADD 311300Z 24007KT 9999 FEW015CB SCT016 28/25 Q1010 NOSIG
METAR WADD 311230Z 24008KT 9999 FEW015CB SCT016 28/25 Q1010 NOSIG
METAR WADD 311200Z 24008KT 210V280 9999 FEW015CB SCT016 28/25 Q1010 N OSIG
METAR WADD 311130Z 24010KT 9999 FEW015CB SCT016 29/25 Q1010 NOSIG
METAR WADD 311100Z 25010KT 9999 SCT016 29/25 Q1009 NOSIG
METAR WADD 311030Z 25009KT 210V270 9999 FEW017 29/25 Q1009 NOSIG
METAR WADD 311000Z 24010KT 9999 FEW017 29/25 Q1009 NOSIG
METAR WADD 310930Z 25010KT 9999 FEW017 30/25 Q1009 NOSIG
METAR WADD 310900Z 24011KT 9999 FEW017 30/25 Q1008 NOSIG
METAR WADD 310830Z 25010KT 9999 FEW017 30/25 Q1008 NOSIG
METAR WADD 310800Z 25010KT 9999 FEW017 30/25 Q1008 NOSIG
METAR WADD 310730Z 25010KT 9999 FEW017 30/25 Q1008 NOSIG
METAR WADD 310700Z 26010KT 9999 FEW017 30/24 Q1008 NOSIG
METAR WADD 310630Z 25009KT 9999 FEW017 30/25 Q1008 NOSIG
METAR WADD 310600Z 26009KT 9999 SCT017 30/24 Q1009 NOSIG
METAR WADD 310530Z 25010KT 9999 FEW017 31/24 Q1009 NOSIG
METAR WADD 310500Z 26010KT 230V300 9999 FEW017 31/24 Q1010 NOSIG
METAR WADD 310430Z 26009KT 9999 FEW017 31/25 Q1010 NOSIG
METAR WADD 310400Z 28009KT 250V310 9999 FEW017 31/25 Q1011 NOSIG
METAR WADD 310330Z 28009KT 250V310 9999 SCT017 30/25 Q1011 NOSIG
METAR WADD 310300Z 28008KT 9999 SCT017 29/25 Q1011 NOSIG
METAR WADD 310230Z 29007KT 9999 SCT016 29/25 Q1011 NOSIG
METAR WADD 310200Z 28008KT 9999 SCT016 28/24 Q1012 NOSIG
METAR WADD 310130Z 27010KT 9999 SCT016 28/24 Q1012 NOSIG
METAR WADD 310100Z 27009KT 9999 SCT016 28/23 Q1012 NOSIG
METAR WADD 310030Z 25009KT 9999 FEW015CB SCT016 28/23 Q1012 NOSIG
METAR WADD 310000Z 26008KT 9999 FEW015CB SCT016 28/23 Q1012 RETS NOSI G
METAR WADD 302330Z 30008KT 270V330 9999 FEW015CB SCT016 28/25 Q1011 N OSIG
METAR WADD 302300Z 31005KT 9999 FEW015CB SCT016 28/24 Q1011 NOSIG</description><pubDate>Sat, 31 Jan 2026 22:32:58 </pubDate></item></channel></rss>