<rss version="2.0"><channel><title>Aviation Weather METAR Data for WADD</title><link>https://aviationweather.gov/api/data/metar?ids=WADD&amp;hours=24</link><description>Latest METAR data for WADD</description><item><title>2026-02-06 19:58:16Z</title><link>https://aviationweather.gov/api/data/metar?ids=WADD&amp;hours=24</link><description>METAR WADD 061930Z 27016KT 9999 SCT016 28/24 Q1007 NOSIG
METAR WADD 061900Z 27013KT 9999 SCT016 28/24 Q1007 NOSIG
METAR WADD 061830Z 27015KT 9999 SCT016 28/24 Q1007 NOSIG
METAR WADD 061800Z 28012KT 9999 FEW015CB SCT016 28/24 Q1007 NOSIG
METAR WADD 061730Z 28013KT 9999 FEW015CB SCT016 28/25 Q1008 NOSIG
METAR WADD 061700Z 28013KT 9999 FEW015CB SCT016 28/24 Q1008 NOSIG
METAR WADD 061630Z 28011KT 9999 FEW015CB SCT016 28/24 Q1008 NOSIG
METAR WADD 061600Z 28012KT 9999 FEW016 28/25 Q1009 NOSIG
METAR WADD 061500Z 29013KT 9999 FEW016 28/25 Q1009 NOSIG
METAR WADD 061430Z 28014KT 9999 FEW016 28/25 Q1009 NOSIG
METAR WADD 061400Z 29014KT 9999 FEW016 29/25 Q1009 NOSIG
METAR WADD 061330Z 27016KT 9999 FEW015CB SCT016 28/24 Q1009 NOSIG
METAR WADD 061300Z 28014KT 9999 FEW015CB SCT016 29/25 Q1009 NOSIG
METAR WADD 061230Z 27013KT 9999 SCT016 28/25 Q1008 NOSIG
METAR WADD 061200Z 27014KT 9999 FEW015CB SCT016 28/25 Q1008 NOSIG
METAR WADD 061130Z 26010KT 9999 FEW015CB BKN016 29/25 Q1008 NOSIG
METAR WADD 061100Z 26012KT 9999 FEW015CB BKN016 29/25 Q1007 NOSIG
METAR WADD 061030Z 26010KT 9999 BKN016 29/25 Q1007 NOSIG
METAR WADD 061000Z 26011KT 9999 BKN016 29/25 Q1007 NOSIG
METAR WADD 060930Z 25011KT 9999 FEW017 30/25 Q1007 NOSIG
METAR WADD 060900Z 26012KT 9999 FEW017 30/25 Q1007 NOSIG
METAR WADD 060830Z 26013KT 9999 FEW017 30/24 Q1007 NOSIG
METAR WADD 060800Z 25014KT 9999 FEW017 31/25 Q1007 NOSIG
METAR WADD 060730Z 25014KT 9999 FEW017 31/25 Q1007 NOSIG
METAR WADD 060700Z 25014KT 9999 FEW017 31/25 Q1007 NOSIG
METAR WADD 060630Z 25011KT 9999 FEW017 31/26 Q1007 NOSIG
METAR WADD 060600Z 26010KT 9999 FEW017 30/25 Q1007 NOSIG
METAR WADD 060530Z 26009KT 9999 FEW016 30/25 Q1008 NOSIG
METAR WADD 060500Z 27012KT 9999 FEW016 31/25 Q1008 NOSIG
METAR WADD 060430Z 27013KT 9999 FEW016 31/25 Q1008 NOSIG
METAR WADD 060400Z 28013KT 9999 FEW016 31/25 Q1009 NOSIG
METAR WADD 060330Z 30011KT 9999 FEW016 31/25 Q1009 NOSIG
METAR WADD 060300Z 29012KT 9999 FEW016 30/25 Q1009 NOSIG
METAR WADD 060230Z 30009KT 260V330 9999 FEW016 30/25 Q1010 NOSIG
METAR WADD 060200Z 31011KT 9999 FEW016 29/26 Q1010 NOSIG
METAR WADD 060130Z 29013KT 9999 SCT016 29/24 Q1010 NOSIG
METAR WADD 060100Z 31009KT 9999 SCT016 28/25 Q1010 NOSIG
METAR WADD 060030Z 27011KT 9999 SCT016 28/25 Q1010 NOSIG
METAR WADD 060000Z 28009KT 9999 SCT016 28/24 Q1010 NOSIG
METAR WADD 052330Z 29008KT 9999 SCT016 26/24 Q1010 RETS NOSIG
METAR WADD 052300Z 29010KT 9999 TS FEW014CB BKN015 26/24 Q1009 RERA TEMPO TL2400 TS
METAR WADD 052230Z 29011KT 6000 -TSRA FEW014CB BKN015 26/24 Q1009 TEMPO TL2300 6000 -TSRA
METAR WADD 052200Z 29012KT 4000 TSRA FEW014CB BKN014 25/24 Q1010 TEMPO TL2300 5000 TSRA RMK CB IN APCH AND CLIMB-OUT
METAR WADD 052130Z 30011KT 4000 TSRA FEW014CB BKN014 25/24 Q1010 TEMPO TL2200 5000 TSRA RMK CB IN APCH AND CLIMB-OUT
METAR WADD 052100Z 30012KT 4000 TSRA FEW014CB BKN014 25/23 Q1009 TEMPO TL2200 5000 TSRA RMK CB IN APCH AND CLIMB-OUT
METAR WADD 052030Z 29014KT 4000 TSRA FEW014CB BKN014 24/24 Q1010 TEMPO TL2100 5000 TSRA RMK CB IN APCH AND CLIMB-OUT
METAR WADD 052000Z 29024KT 4000 TSRA FEW014CB BKN014 25/24 Q1010 TEMPO TL2100 5000 TSRA RMK CB IN APCH AND CLIMB-OUT</description><pubDate>Fri, 06 Feb 2026 19:58:16 </pubDate></item></channel></rss>