<rss version="2.0"><channel><title>Aviation Weather METAR Data for WADD</title><link>https://aviationweather.gov/api/data/metar?ids=WADD&amp;hours=24</link><description>Latest METAR data for WADD</description><item><title>2025-01-18 06:42:25Z</title><link>https://aviationweather.gov/api/data/metar?ids=WADD&amp;hours=24</link><description>WADD 180630Z 25011KT 9999 FEW017 31/26 Q1004 NOSIG
WADD 180600Z 25011KT 9999 FEW017 31/26 Q1005 NOSIG
WADD 180530Z 25008KT 9999 FEW017 31/27 Q1005 NOSIG
WADD 180500Z 25009KT 9999 FEW017 31/26 Q1005 NOSIG
WADD 180430Z 25009KT 9999 FEW017 31/26 Q1005 NOSIG
WADD 180400Z 26009KT 9999 FEW017 31/26 Q1005 NOSIG
WADD 180330Z 24007KT 220V300 9999 FEW017 31/26 Q1006 NOSIG
WADD 180300Z 23007KT 200V270 9999 FEW017 31/26 Q1006 NOSIG
WADD 180230Z 24007KT 210V280 9999 FEW017 31/26 Q1006 NOSIG
WADD 180200Z 29007KT 9999 FEW017 31/26 Q1007 NOSIG
WADD 180130Z 29008KT 270V330 9999 FEW017 30/27 Q1007 NOSIG
WADD 180100Z 31009KT 9999 FEW017 30/27 Q1007 NOSIG
WADD 180030Z 28012KT 9999 FEW017 30/26 Q1007 NOSIG
WADD 180000Z 28010KT 9999 FEW017 29/26 Q1006 NOSIG
WADD 172330Z 29009KT 9999 FEW017 29/26 Q1006 NOSIG
WADD 172300Z 30007KT 270V340 9999 FEW017 28/26 Q1005 NOSIG
WADD 172230Z 28009KT 9999 FEW017 27/25 Q1005 NOSIG
WADD 172200Z 28007KT 9999 FEW017 28/26 Q1004 NOSIG
WADD 172130Z 29008KT 9999 FEW017 28/25 Q1004 NOSIG
WADD 172100Z 27010KT 9999 SCT017 27/25 Q1004 NOSIG
WADD 172030Z 28009KT 9999 SCT016 28/26 Q1004 NOSIG
WADD 172000Z 29010KT 9999 FSCT017 28/26 Q1005 NOSIG
WADD 171930Z 28009KT 9999 SCT017 27/26 Q1005 NOSIG
WADD 171900Z 29012KT 9999 SCT017 28/26 Q1005 NOSIG
WADD 171830Z 29010KT 9999 FEW017 28/26 Q1005 NOSIG
WADD 171800Z 27011KT 9999 FEW017 28/26 Q1005 NOSIG
WADD 171730Z 26010KT 9999 FEW017 28/26 Q1005 NOSIG
WADD 171700Z 28012KT 9999 SCT017 28/26 Q1005 NOSIG
WADD 171630Z 29010KT 9999 SCT017 28/26 Q1006 NOSIG
WADD 171600Z 29011KT 9999 SCT017 28/26 Q1006 NOSIG
WADD 171530Z 28012KT 9999 SCT017 29/26 Q1006 NOSIG
WADD 171500Z 28011KT 9999 SCT017 29/26 Q1007 NOSIG
WADD 171430Z 29012KT 9999 SCT017 29/26 Q1007 NOSIG
WADD 171400Z 29013KT 9999 SCT017 29/26 Q1006 NOSIG
WADD 171330Z 28014KT 9999 SCT017 29/26 Q1006 NOSIG
WADD 171300Z 28014KT 9999 SCT017 28/25 Q1006 NOSIG
WADD 171230Z 27013KT 9999 SCT017 28/26 Q1005 NOSIG
WADD 171200Z 26012KT 9999 SCT016 28/26 Q1006 NOSIG
WADD 171130Z 26011KT 9999 SCT016 28/26 Q1005 NOSIG
WADD 171100Z 25012KT 9999 SCT016 28/26 Q1005 NOSIG
WADD 171030Z 25012KT 9999 SCT016 29/26 Q1004 NOSIG
WADD 171000Z 25012KT 9999 SCT016 29/26 Q1004 NOSIG
WADD 170930Z 25012G21KT 210V270 9999 SCT017 30/27 Q1004 NOSIG
WADD 170900Z 25014KT 9999 FEW017 30/26 Q1004 NOSIG
WADD 170830Z 26015KT 9999 FEW017 31/26 Q1004 NOSIG
WADD 170800Z 25015KT 9999 FEW017 31/26 Q1004 NOSIG
WADD 170730Z 25015KT 9999 FEW017 31/26 Q1004 NOSIG
WADD 170700Z 25013KT 9999 FEW017 31/26 Q1004 NOSIG</description><pubDate>Sat, 18 Jan 2025 06:42:25 </pubDate></item></channel></rss>