<rss version="2.0"><channel><title>Aviation Weather METAR Data for WADD</title><link>https://aviationweather.gov/api/data/metar?ids=WADD&amp;hours=24</link><description>Latest METAR data for WADD</description><item><title>2026-06-29 21:54:24Z</title><link>https://aviationweather.gov/api/data/metar?ids=WADD&amp;hours=24</link><description>METAR WADD 292130Z 04003KT 9999 FEW017 22/20 Q1012 NOSIG
METAR WADD 292100Z VRB02KT 9999 FEW017 22/20 Q1012 NOSIG
METAR WADD 292030Z 03004KT 9999 FEW017 23/20 Q1012 NOSIG
METAR WADD 292000Z 02002KT 9999 FEW017 23/20 Q1012 NOSIG
METAR WADD 291930Z 01004KT 9999 FEW017 24/21 Q1012 NOSIG
METAR WADD 291900Z 01003KT 9999 FEW017 23/21 Q1012 NOSIG
METAR WADD 291830Z 04003KT 9999 FEW017 23/21 Q1012 NOSIG
METAR WADD 291800Z 13002KT 9999 FEW017 24/21 Q1012 NOSIG
METAR WADD 291730Z 14003KT 9999 FEW017 25/22 Q1012 NOSIG
METAR WADD 291700Z 16004KT 9999 FEW017 25/22 Q1012 NOSIG
METAR WADD 291630Z 13003KT 9999 FEW017 25/21 Q1013 NOSIG
METAR WADD 291600Z 14004KT 9999 FEW017 25/21 Q1013 NOSIG
METAR WADD 291530Z 15003KT 9999 FEW017 25/22 Q1013 NOSIG
METAR WADD 291500Z 14003KT 9999 FEW017 25/21 Q1013 NOSIG
METAR WADD 291430Z 14003KT 9999 FEW017 25/21 Q1013 NOSIG
METAR WADD 291400Z 12004KT 9999 FEW017 25/21 Q1013 NOSIG
METAR WADD 291330Z 12004KT 9999 FEW017 25/21 Q1013 NOSIG
METAR WADD 291300Z 13004KT 9999 FEW017 25/21 Q1012 NOSIG
METAR WADD 291230Z 13006KT 9999 FEW017 26/21 Q1012 NOSIG
METAR WADD 291200Z 14007KT 9999 FEW017 26/21 Q1012 NOSIG
METAR WADD 291130Z 14007KT 9999 FEW017 26/21 Q1011 NOSIG
METAR WADD 291100Z 13006KT 9999 FEW017 26/21 Q1011 NOSIG
METAR WADD 291030Z 14010KT 9999 FEW017 26/21 Q1011 NOSIG
METAR WADD 291000Z 14012KT 9999 FEW017 27/22 Q1010 NOSIG
METAR WADD 290930Z 14013KT 9999 FEW017 27/21 Q1010 NOSIG
METAR WADD 290900Z 14012KT 9999 FEW017 28/22 Q1010 NOSIG
METAR WADD 290830Z 13011KT 9999 FEW017 28/22 Q1010 NOSIG
METAR WADD 290800Z 13012KT 9999 FEW017 28/22 Q1010 NOSIG
METAR WADD 290730Z 11011KT 9999 FEW017 29/21 Q1010 NOSIG
METAR WADD 290700Z 12012KT 9999 FEW017 29/21 Q1010 NOSIG
METAR WADD 290630Z 11011KT 9999 FEW016 29/22 Q1011 NOSIG
METAR WADD 290600Z 11011KT 9999 FEW016 29/22 Q1011 NOSIG
METAR WADD 290530Z 12011KT 9999 FEW016 29/22 Q1012 NOSIG
METAR WADD 290500Z 10012KT 9999 SCT016 30/22 Q1012 NOSIG
METAR WADD 290430Z 11012KT 9999 SCT016 29/22 Q1012 NOSIG
METAR WADD 290400Z 11010KT 9999 SCT016 30/22 Q1012 NOSIG
METAR WADD 290330Z 12010KT 070V150 9999 SCT016 30/22 Q1013 NOSIG
METAR WADD 290300Z 11011KT 9999 SCT016 29/22 Q1013 NOSIG
METAR WADD 290230Z 12010KT 9999 SCT016 29/22 Q1013 NOSIG
METAR WADD 290200Z 12009KT 9999 SCT016 29/22 Q1014 NOSIG
METAR WADD 290130Z 12007KT 9999 SCT016 29/23 Q1014 NOSIG
METAR WADD 290100Z 11005KT 070V140 9999 SCT016 29/23 Q1014 NOSIG
METAR WADD 290030Z 01004KT 9999 SCT016 26/22 Q1013 NOSIG
METAR WADD 290000Z 36003KT 9999 BKN016 25/22 Q1013 NOSIG
METAR WADD 282330Z 01003KT 9999 SCT016 24/22 Q1013 NOSIG
METAR WADD 282300Z 36004KT 9999 SCT016 23/21 Q1013 NOSIG
METAR WADD 282230Z 36004KT 9999 FEW017 23/22 Q1012 NOSIG
METAR WADD 282200Z 36002KT 9999 FEW017 23/21 Q1012 NOSIG</description><pubDate>Mon, 29 Jun 2026 21:54:24 </pubDate></item></channel></rss>