<rss version="2.0"><channel><title>Aviation Weather METAR Data for WADD</title><link>https://aviationweather.gov/api/data/metar?ids=WADD&amp;hours=24</link><description>Latest METAR data for WADD</description><item><title>2026-03-01 19:29:58Z</title><link>https://aviationweather.gov/api/data/metar?ids=WADD&amp;hours=24</link><description>METAR WADD 011900Z 28012KT 9999 SCT016 27/26 Q1005 NOSIG
METAR WADD 011830Z 28013KT 9999 SCT016 27/25 Q1006 NOSIG
METAR WADD 011800Z 27009KT 9999 SCT016 27/26 Q1006 RERA NOSIG
METAR WADD 011730Z 28010KT 7000 -RA FEW015CB SCT016 28/26 Q1007 TEMPO TL1830 7000 -RA RMK CB IN APCH
METAR WADD 011700Z 29009KT 9999 FEW015CB SCT016 28/26 Q1007 NOSIG
METAR WADD 011630Z 28011KT 9999 FEW015CB SCT016 28/26 Q1007 NOSIG
METAR WADD 011600Z 29013KT 9999 FEW015CB FEW016 28/25 Q1008 NOSIG
METAR WADD 011530Z 29011KT 9999 FEW015CB FEW016 28/25 Q1008 NOSIG
METAR WADD 011500Z 29010KT 9999 SCT016 28/25 Q1008 NOSIG
METAR WADD 011430Z 27008KT 9999 SCT016 28/26 Q1008 NOSIG
METAR WADD 011400Z 27008KT 9999 FEW016 28/26 Q1008 NOSIG
METAR WADD 011330Z 27009KT 9999 FEW016 28/26 Q1008 NOSIG
METAR WADD 011300Z 27009KT 9999 FEW015 28/25 Q1007 NOSIG
METAR WADD 011230Z 27013KT 9999 FEW015 28/25 Q1007 NOSIG
METAR WADD 011200Z 27011KT 9999 FEW015 28/25 Q1007 NOSIG
METAR WADD 011130Z 27013KT 9999 FEW015 28/25 Q1006 NOSIG
METAR WADD 011100Z 27012KT 9999 FEW015 28/25 Q1006 NOSIG
METAR WADD 011030Z 27013KT 9999 SCT020 28/25 Q1005 NOSIG
METAR WADD 011000Z 27015KT 9999 FEW014 28/25 Q1005 NOSIG
METAR WADD 010930Z 27013KT 9999 FEW016 28/25 Q1005 NOSIG
METAR WADD 010900Z 27015KT 9999 FEW016 29/25 Q1004 NOSIG
METAR WADD 010830Z 26011KT 9999 SCT016 29/26 Q1004 NOSIG
METAR WADD 010800Z 26009KT 9999 SCT016 29/26 Q1004 NOSIG
METAR WADD 010730Z 27012KT 9999 SCT016 29/25 Q1004 NOSIG
METAR WADD 010700Z 27012KT 9999 SCT016 29/25 Q1004 NOSIG
METAR WADD 010630Z 26013KT 9999 SCT016 29/26 Q1005 NOSIG
METAR WADD 010600Z 26013KT 9999 SCT016 29/25 Q1005 NOSIG
METAR WADD 010530Z 28014KT 9999 SCT016 29/26 Q1005 NOSIG
METAR WADD 010500Z 28012KT 9999 SCT016 29/26 Q1006 NOSIG
METAR WADD 010430Z 28012KT 9999 SCT016 29/26 Q1006 NOSIG
METAR WADD 010400Z 29011KT 9999 SCT016 28/26 Q1007 NOSIG
METAR WADD 010330Z 30009KT 9999 SCT016 27/26 Q1007 NOSIG
METAR WADD 010300Z 30011KT 9999 FEW015CB SCT016 26/25 Q1008 RERA NOSI G
METAR WADD 010230Z COR 29013KT 5000 -RA FEW014CB BKN015 29/26 Q1008 TEMPO TL0330 -RA RMK CB IN APCH AND CLIMB-OUT
METAR WADD 010200Z 28014KT 9999 FEW015CB BKN016 28/26 Q1008 NOSIG
METAR WADD 010130Z 29013KT 9999 FEW015CB SCT016 28/26 Q1008 RERA NOSI G
METAR WADD 010100Z 28012KT 9999 FEW015CB SCT016 29/25 Q1008 NOSIG
METAR WADD 010030Z 27014KT 9999 SCT016 28/25 Q1008 NOSIG
METAR WADD 010000Z 27013KT 9999 SCT016 28/24 Q1007 NOSIG
METAR WADD 282330Z 27014KT 9999 SCT016 27/24 Q1007 NOSIG
METAR WADD 282300Z 28014KT 9999 SCT016 27/24 Q1007 NOSIG
METAR WADD 282230Z 28014KT 9999 BKN015 27/24 Q1006 NOSIG
METAR WADD 282200Z 28013KT 9999 BKN015 26/24 Q1006 NOSIG
METAR WADD 282130Z 28012KT 9999 BKN015 26/24 Q1006 NOSIG
METAR WADD 282100Z 28014KT 9999 BKN015 26/24 Q1006 NOSIG
METAR WADD 282030Z 29014KT 9999 BKN015 26/24 Q1006 NOSIG
METAR WADD 282000Z 29014KT 9999 BKN015 26/24 Q1006 NOSIG
METAR WADD 281930Z 32007KT 9999 BKN015 25/23 Q1006 RERA NOSIG</description><pubDate>Sun, 01 Mar 2026 19:29:58 </pubDate></item></channel></rss>