<rss version="2.0"><channel><title>Aviation Weather METAR Data for WADD</title><link>https://aviationweather.gov/api/data/metar?ids=WADD&amp;hours=24</link><description>Latest METAR data for WADD</description><item><title>2025-01-03 23:21:51Z</title><link>https://aviationweather.gov/api/data/metar?ids=WADD&amp;hours=24</link><description>WADD 032300Z 33004KT 9999 BKN016 26/25 Q1008 NOSIG
WADD 032230Z 35004KT 9999 BKN015 25/25 Q1008 NOSIG
WADD 032200Z 35004KT 8000 -RA FEW015CB BKN016 25/24 Q1008 TEMPO TL2300 -RA RMK CB IN APCH
WADD 032130Z 01004KT 9999 FEW015CB BKN016 25/24 Q1007 NOSIG
WADD 032100Z 31004KT 9999 BKN016 25/24 Q1007 NOSIG
WADD 032030Z 35004KT 9999 SCT016 25/24 Q1007 NOSIG
WADD 032000Z 33005KT 9999 BKN016 24/24 Q1007 NOSIG
WADD 031930Z 32004KT 9999 BKN016 25/24 Q1007 NOSIG
WADD 031900Z VRB02KT 9999 BKN016 24/24 Q1008 NOSIG
WADD 031830Z 33005KT 9999 BKN016 24/24 Q1008 NOSIG
WADD 031800Z 36004KT 320V020 9999 FEW015CB BKN016 24/24 Q1008 RERA NOSIG
WADD 031730Z 31007KT 280V360 7000 -RA FEW015CB BKN016 25/24 Q1009 TEMPO TL1830 -RA RMK CB IN APCH
WADD 031700Z 32005KT 280V350 8000 -RA FEW015CB BKN016 25/24 Q1009 TEMPO TL1800 -RA
WADD 031630Z 34005KT 300V010 9999 FEW015CB BKN016 25/24 Q1009 RERA NOSIG
WADD 031600Z 36007KT 320V030 8000 -RA FEW015CB BKN016 25/24 Q1009 TEMPO TL1700 -RA
WADD 031530Z 35006KT 290V040 9999 FEW015CB BKN016 26/25 Q1010 NOSIG
WADD 031500Z 36005KT 310V030 9999 FEW015CB BKN016 26/25 Q1010 NOSIG
WADD 031430Z VRB02KT 9999 FEW015CB BKN016 26/25 Q1010 NOSIG
WADD 031400Z VRB01KT 9000 -RA FEW015CB BKN016 26/25 Q1010 TEMPO TL1500 -RA
WADD 031330Z VRB02KT 9999 FEW015CB BKN016 26/25 Q1009 NOSIG
WADD 031300Z 15003KT 9999 FEW015CB BKN015 26/25 Q1009 NOSIG
WADD 031230Z VRB01KT 9999 FEW015CB BKN015 26/25 Q1009 RERA NOSIG
WADD 031200Z 25004KT 210V270 8000 -RA FEW015CB BKN015 26/25 Q1009 TEMPO TL1300 -RA RMK CB IN CLIMB-OUT
WADD 031130Z 25004KT 8000 -RA FEW015CB BKN016 26/25 Q1008 TEMPO TL1230 -RA
WADD 031100Z 24005KT 9999 BKN016 27/25 Q1008 RERA NOSIG
WADD 031030Z 24005KT 8000 -RA BKN015 27/25 Q1008 TEMPO TL1130 -RA
WADD 031000Z 24005KT 9999 BKN016 27/25 Q1008 RERA NOSIG
WADD 030930Z 23005KT 200V270 8000 -RA FEW015CB BKN016 28/25 Q1008 TEMPO TL1030 -RA
WADD 030900Z 24007KT 7000 -RA FEW015CB BKN016 27/25 Q1007 TEMPO TL1000 -RA
WADD 030830Z 24007KT 9999 BKN016 28/25 Q1007 NOSIG
WADD 030800Z 24007KT 9999 BKN016 28/25 Q1007 NOSIG
WADD 030730Z 25009KT 9999 SCT016 28/25 Q1007 NOSIG
WADD 030700Z 26009KT 9999 SCT016 29/26 Q1007 NOSIG
WADD 030630Z 25008KT 210V270 9999 SCT016 28/26 Q1008 NOSIG
WADD 030600Z 26009KT 9999 SCT016 28/25 Q1008 NOSIG
WADD 030530Z 26009KT 9999 SCT016 28/25 Q1009 NOSIG
WADD 030500Z 26011KT 9999 SCT016 29/25 Q1009 NOSIG
WADD 030430Z 26013KT 9999 SCT016 28/26 Q1009 NOSIG
WADD 030400Z 26011KT 9999 BKN016 28/25 Q1009 NOSIG
WADD 030330Z 26010KT 9999 BKN016 28/25 Q1009 NOSIG
WADD 030300Z 28010KT 9999 BKN015 27/26 Q1010 NOSIG
WADD 030230Z 30007KT 9999 BKN016 26/25 Q1010 RERA NOSIG
WADD 030200Z 31009KT 8000 -RA BKN016 26/25 Q1010 TEMPO TL0300 -RA
WADD 030130Z 28013KT 5000 RA FEW015CB BKN016 26/25 Q1010 TEMPO TL0230 5000 RA RMK CB IN CLIMB-OUT
WADD 030100Z 28003KT 9999 FEW016CB BKN016 27/25 Q1010 NOSIG RMK CB IN CLIMB-OUT
WADD 030030Z 25008G15KT 8000 -RA FEW016CB BKN016 25/23 Q1009 TEMPO TL0130 -RA
WADD 030000Z 30006KT 9999 FEW015CB SCT016 FEW160 27/26 Q1009 NOSIG
WADD 022330Z 32004KT 9999 SCT016 27/25 Q1009 NOSIG</description><pubDate>Fri, 03 Jan 2025 23:21:51 </pubDate></item></channel></rss>