<rss version="2.0"><channel><title>Aviation Weather METAR Data for WADD</title><link>https://aviationweather.gov/api/data/metar?ids=WADD&amp;hours=24</link><description>Latest METAR data for WADD</description><item><title>2025-12-20 04:50:37Z</title><link>https://aviationweather.gov/api/data/metar?ids=WADD&amp;hours=24</link><description>METAR WADD 200430Z 11009KT 9999 FEW017 30/27 Q1007 NOSIG
METAR WADD 200400Z 11009KT 9999 FEW017 30/27 Q1007 NOSIG
METAR WADD 200330Z 10008KT 9999 FEW017 31/27 Q1007 NOSIG
METAR WADD 200300Z 12006KT 9999 FEW017 31/28 Q1007 NOSIG
METAR WADD 200230Z VRB02KT 9999 FEW017 30/27 Q1007 NOSIG
METAR WADD 200200Z 21003KT 9999 FEW017 30/27 Q1007 NOSIG
METAR WADD 200130Z 15003KT 9999 FEW017 29/27 Q1008 NOSIG
METAR WADD 200100Z 01003KT 9999 FEW017 28/27 Q1007 NOSIG
METAR WADD 200030Z 07003KT 9999 FEW016 28/26 Q1007 NOSIG
METAR WADD 200000Z 09005KT 9999 FEW016 27/26 Q1008 NOSIG
METAR WADD 192330Z 08004KT 9999 FEW016 27/26 Q1007 NOSIG
METAR WADD 192300Z 35004KT 9999 FEW016 27/26 Q1007 NOSIG
METAR WADD 192230Z 34006KT 9999 SCT016 27/26 Q1007 NOSIG
METAR WADD 192200Z 34005KT 9999 SCT016 27/27 Q1006 NOSIG
METAR WADD 192130Z 35003KT 9999 SCT016 27/26 Q1006 NOSIG
METAR WADD 192100Z 34006KT 9999 SCT016 27/26 Q1006 NOSIG
METAR WADD 192030Z 36004KT 9999 SCT016 27/26 Q1006 NOSIG
METAR WADD 192000Z 29005KT 9999 SCT016 28/26 Q1006 NOSIG
METAR WADD 191930Z 29002KT 9999 FEW016 27/26 Q1006 NOSIG
METAR WADD 191900Z 27003KT 9999 FEW016 28/26 Q1006 NOSIG
METAR WADD 191830Z 26003KT 9999 FEW016 28/26 Q1006 NOSIG
METAR WADD 191800Z VRB02KT 9999 FEW016 28/26 Q1006 NOSIG
METAR WADD 191730Z VRB02KT 9999 FEW016 28/26 Q1006 NOSIG
METAR WADD 191700Z 03003KT 9999 FEW016 27/26 Q1006 NOSIG
METAR WADD 191630Z 02005KT 9999 FEW016 27/26 Q1007 NOSIG
METAR WADD 191600Z 02006KT 9000 FEW016 27/26 Q1007 NOSIG
METAR WADD 191530Z 02005KT 9000 FEW017 27/25 Q1007 NOSIG
METAR WADD 191500Z 03004KT 9999 SCT016 27/26 Q1007 NOSIG
METAR WADD 191430Z 09002KT 9999 SCT016 27/26 Q1007 NOSIG
METAR WADD 191400Z 09002KT 9999 FEW017 27/26 Q1007 NOSIG
METAR WADD 191330Z 13004KT 9999 FEW017 28/27 Q1007 NOSIG
METAR WADD 191300Z 12004KT 9999 FEW017 28/26 Q1007 NOSIG
METAR WADD 191230Z VRB02KT 9999 FEW017 28/26 Q1007 NOSIG
METAR WADD 191200Z VRB02KT 9999 FEW017 28/26 Q1007 NOSIG
METAR WADD 191130Z 11002KT 9999 FEW017 27/26 Q1007 NOSIG
METAR WADD 191100Z VRB01KT 9999 FEW017 28/25 Q1006 NOSIG
METAR WADD 191030Z VRB01KT 9999 FEW017 28/25 Q1006 NOSIG
METAR WADD 191000Z VRB02KT 9999 FEW017 28/25 Q1006 NOSIG
METAR WADD 190930Z VRB01KT 9999 FEW017 28/25 Q1005 NOSIG
METAR WADD 190900Z 13003KT 9999 FEW017 28/26 Q1005 NOSIG
METAR WADD 190830Z 36003KT 9999 SCT016 28/26 Q1005 NOSIG
METAR WADD 190800Z 03005KT 9999 SCT016 27/26 Q1005 NOSIG
METAR WADD 190730Z VRB02KT 9999 SCT016 27/26 Q1005 RERA NOSIG
METAR WADD 190700Z 14005KT 9000 -RA FEW015CB BKN016 27/26 Q1005 RETS TEMPO TL0800 -RA
METAR WADD 190630Z VRB03KT 7000 -TSRA FEW014CB BKN015 25/24 Q1005 TEM PO TL0730 7000 -TSRA
METAR WADD 190600Z 04012KT 0300 +TSRA BKN011 FEW014CB 26/25 Q1006 TEMPO TL0700 0300 +TSRA RMK CB IN APCH AND CLIMB-OUT
METAR WADD 190530Z VRB02KT 0800 TSRA FEW014CB BKN015 29/25 Q1007 TEMPO TL0630 4000 -TSRA RMK CB IN APCH AND CLIMB-OUT
METAR WADD 190500Z VRB02KT 9999 TS FEW015CB SCT016 29/25 Q1007 TEMPO TL0600 TS</description><pubDate>Sat, 20 Dec 2025 04:50:37 </pubDate></item></channel></rss>