<rss version="2.0"><channel><title>Aviation Weather METAR Data for WADD</title><link>https://aviationweather.gov/api/data/metar?ids=WADD&amp;hours=24</link><description>Latest METAR data for WADD</description><item><title>2025-12-27 06:41:49Z</title><link>https://aviationweather.gov/api/data/metar?ids=WADD&amp;hours=24</link><description>METAR WADD 270630Z 27015KT 6000 -RA FEW014CB BKN014 27/25 Q1007 TEMPO TL0730 -RA RMK CB IN APCH AND CLIMB-OUT
METAR WADD 270600Z 26011KT 7000 -RA FEW015CB BKN015 28/26 Q1007 TEMPO TL0700 -RA
METAR WADD 270530Z 27011KT 140V310 6000 FEW011CB BKN012 28/27 Q1007 NOSIG RMK CB IN APCH
SPECI WADD 270518Z 14003KT 6000 FEW011CB BKN012 26/26 Q1007 RERA NOSIG RMK CB IN APCH
METAR WADD 270500Z 12005KT 070V200 2000 1000E RA FEW015CB BKN016 26/2 6 Q1008 TEMPO TL0530 1000 RA RMK CB IN APCH
SPECI WADD 270447Z VRB02KT 6000 FEW015CB BKN016 26/25 Q1008 RERA NOSIG RMK CB IN APCH
METAR WADD 270430Z 02007KT 280V050 4000 RA FEW015CB BKN016 27/26 Q1008 TEMPO TL0500 4000 RA RMK CB IN APCH
METAR WADD 270400Z 31011KT 8000 FEW015CB BKN016 27/26 Q1008 RETSRA NOSIG CB IN APCH
METAR WADD 270330Z 03005KT 290V060 6000 -TSRA FEW014CB BKN015 25/23 Q1009 TEMPO TL0400 6000 -TSRA RMK CB IN APCH
METAR WADD 270300Z 29014KT 3000 RA FEW012CB BKN013 27/26 Q1009 TEMPO TL0330 3000 RA RMK CB IN APCH AND CLIMB-OUT
METAR WADD 270230Z 32007KT 270V030 3000 TSRA FEW012CB BKN013 27/26 Q1009 TEMPO TL0300 3000 TSRA RMK CB IN APCH AND CLIMB-OUT
METAR WADD 270200Z 31009G18KT 250V010 2000 RA FEW013CB BKN014 26/25 Q1008 TEMPO TL0230 2000 RA RMK CB IN APCH AND CLIMB-OUT
METAR WADD 270130Z 29012KT 3000 RA FEW013CB BKN015 28/26 Q1008 TEMPO TL0200 3000 RA RMK CB IN APCH AND CLIMB-OUT
SPECI WADD 270127Z 29017KT 3000 RA FEW013CB BKN015 28/26 Q1008 TEMPO FM0130 3000 RA RMK CB IN CLIMB-OUT
METAR WADD 270100Z 29017KT 8000 FEW013CB BKN015 28/26 Q1008 RERA TEMPO FM0130 3000 RA CB IN APCH
METAR WADD 270030Z 29015KT 5000 -RA FEW013CB BKN014 28/26 Q1008 TEMPO TL0100 5000 -RA RMK CB IN APCH
METAR WADD 270000Z 29014KT 3000 RA FEW013CB BKN014 28/26 Q1008 TEMPO TL0100 3000 RA RMK CB IN APCH
METAR WADD 262330Z 29015KT 8000 TS FEW013CB BKN014 28/26 Q1008 RETS NOSIG RMK CB IN APCH
METAR WADD 262300Z 28018KT 9999 TS FEW014CB BKN014 28/26 Q1008 TEMPO TL2330 TS RMK CB IN APCH AND CLIMB-OUT
METAR WADD 262230Z 28018KT 9999 TS FEW014CB BKN014 27/26 Q1007 RE RA TEMPO TL2330 TS RMK CB IN APCH AND CLIMB-OUT
METAR WADD 262200Z 29013KT 8000 -TSRA FEW015CB BKN015 27/26 Q1006 TEM PO TL2230 8000 -TSRA
METAR WADD 262130Z 27016KT 6000 TSRA FEW015CB BKN015 25/25 Q1006 TEMPO TL2230 7000 TSRA RMK CB IN APCH AND CLIMB-OUT
METAR WADD 262100Z 24012G26KT 190V260 7000 TSRA FEW015CB BKN015 26/25 Q1006 TEMPO TL2230 7000 TSRA
METAR WADD 262030Z 27015KT 9999 FEW015CB BKN015 28/26 Q1006 NOSIG
METAR WADD 262000Z 26015KT 9999 FEW015CB BKN015 28/26 Q1005 NOSIG
SPECI WADD 261930Z 28014KT 9999 FEW015CB BKN015 28/26 Q1005 NOSIG
METAR WADD 261900Z 27012KT 9999 FEW015CB BKN015 28/26 Q1005 RERA NOSI G
METAR WADD 261830Z 28011KT 8000 -RA FEW015CB BKN015 28/26 Q1006 TEMPO TL2000 8000 -RA
METAR WADD 261800Z 27012KT 9999 FEW015CB BKN015 28/26 Q1006 NOSIG
METAR WADD 261730Z 27014KT 9999 FEW015CB BKN015 28/26 Q1006 RERA NOSI G
METAR WADD 261700Z 28013KT 8000 -RA FEW015CB BKN015 27/26 Q1006 TEMPO TL1800 8000 -RA
METAR WADD 261630Z 27013KT 9999 FEW015CB BKN015 28/26 Q1007 NOSIG
METAR WADD 261600Z 27015KT 9999 FEW015CB BKN015 27/26 Q1007 RERA NOSI G
METAR WADD 261530Z 28018KT 8000 -RA FEW015CB BKN015 27/25 Q1007 TEMPO TL1700 8000 -RA
METAR WADD 261500Z 28017KT 9999 SCT015 29/26 Q1007 NOSIG
METAR WADD 261430Z 29014KT 9999 BKN015 29/26 Q1007 NOSIG
METAR WADD 261400Z 28015KT 9999 BKN015 29/26 Q1008 NOSIG
METAR WADD 261330Z 27013KT 9999 BKN015 29/26 Q1007 NOSIG
METAR WADD 261300Z 28015KT 9999 BKN015 28/25 Q1007 NOSIG
METAR WADD 261230Z 26010KT 9999 BKN015 29/25 Q1007 NOSIG
METAR WADD 261200Z 26010KT 9999 BKN015 29/25 Q1007 NOSIG
METAR WADD 261130Z 26009KT 9999 BKN015 29/24 Q1007 NOSIG
METAR WADD 261100Z VRB02KT 9999 FEW015CB BKN016 26/25 Q1007 RETS NOSI G
METAR WADD 261030Z 27011KT 9999 BKN015 29/25 Q1006 NOSIG
METAR WADD 261000Z 26013KT 9999 BKN015 29/25 Q1006 NOSIG
METAR WADD 260930Z 26012KT 9999 BKN015 29/26 Q1006 NOSIG
METAR WADD 260900Z 26013KT 9999 FEW015CB SCT016 30/26 Q1005 NOSIG
METAR WADD 260830Z 27014KT 9999 FEW015CB SCT016 30/26 Q1005 NOSIG
METAR WADD 260800Z 26012KT 9999 FEW015CB SCT016 30/26 Q1005 NOSIG
METAR WADD 260730Z 26012KT 9999 FEW015CB SCT016 30/26 Q1006 NOSIG
METAR WADD 260700Z 27014KT 9999 FEW015CB SCT016 29/24 Q1006 NOSIG</description><pubDate>Sat, 27 Dec 2025 06:41:49 </pubDate></item></channel></rss>