<rss version="2.0"><channel><title>Aviation Weather METAR Data for WADD</title><link>https://aviationweather.gov/api/data/metar?ids=WADD&amp;hours=24</link><description>Latest METAR data for WADD</description><item><title>2026-07-23 19:56:35Z</title><link>https://aviationweather.gov/api/data/metar?ids=WADD&amp;hours=24</link><description>METAR WADD 231930Z 13012KT 9999 SCT017 25/20 Q1013 NOSIG
METAR WADD 231900Z 13011KT 9999 SCT017 25/21 Q1013 NOSIG
METAR WADD 231830Z 13010KT 9999 SCT017 25/21 Q1013 NOSIG
METAR WADD 231800Z 12014KT 9999 SCT017 25/20 Q1014 NOSIG
METAR WADD 231730Z 13015KT 9999 SCT017 25/21 Q1014 NOSIG
METAR WADD 231700Z 09013KT 9999 SCT017 25/20 Q1014 NOSIG
METAR WADD 231630Z 12010KT 9999 SCT017 25/21 Q1014 NOSIG
METAR WADD 231600Z 12012KT 9999 SCT017 26/20 Q1015 NOSIG
METAR WADD 231530Z 11012KT 9999 SCT017 25/21 Q1015 NOSIG
METAR WADD 231500Z 10009KT 9999 SCT017 25/20 Q1015 NOSIG
METAR WADD 231430Z 11010KT 9999 FEW017 25/21 Q1015 NOSIG
METAR WADD 231400Z 12010KT 9999 FEW017 25/21 Q1015 NOSIG
METAR WADD 231330Z 11009KT 9999 SCT016 25/21 Q1014 NOSIG
METAR WADD 231300Z 12010KT 9999 SCT016 25/21 Q1014 NOSIG
METAR WADD 231230Z 12012KT 9999 SCT016 26/21 Q1014 NOSIG
METAR WADD 231200Z 11013KT 9999 SCT016 26/21 Q1014 RERA NOSIG
METAR WADD 231130Z 13010KT 8000 -RA BKN016 26/21 Q1013 TEMPO TL1230 -RA
METAR WADD 231100Z 13011KT 9999 SCT017 26/20 Q1013 NOSIG
METAR WADD 231030Z 13012KT 9999 SCT017 26/20 Q1013 NOSIG
METAR WADD 231000Z 13012KT 9999 SCT017 27/21 Q1012 NOSIG
METAR WADD 230930Z 13012KT 9999 SCT017 27/21 Q1012 NOSIG
METAR WADD 230900Z 13015KT 9999 SCT017 27/21 Q1012 NOSIG
METAR WADD 230830Z 13015KT 9999 SCT017 27/20 Q1011 NOSIG
METAR WADD 230800Z 13016KT 9999 SCT017 28/21 Q1012 NOSIG
METAR WADD 230730Z 14017KT 9999 SCT016 28/21 Q1012 NOSIG
METAR WADD 230700Z 13014KT 9999 SCT016 27/21 Q1012 NOSIG
METAR WADD 230630Z 11013KT 9999 SCT016 28/21 Q1012 NOSIG
METAR WADD 230600Z 14015G22KT 9999 SCT016 28/21 Q1012 NOSIG
METAR WADD 230530Z 14014KT 9999 SCT016 28/21 Q1013 NOSIG
METAR WADD 230500Z 12014KT 090V160 9999 SCT016 28/21 Q1013 NOSIG
METAR WADD 230430Z 12013KT 9999 SCT016 29/21 Q1014 NOSIG
METAR WADD 230400Z 11013KT 9999 SCT016 29/21 Q1014 NOSIG
METAR WADD 230330Z 12015KT 9999 SCT016 29/21 Q1015 NOSIG
METAR WADD 230300Z 11013KT 9999 SCT016 29/20 Q1015 NOSIG
METAR WADD 230230Z 13014KT 9999 SCT016 29/21 Q1015 NOSIG
METAR WADD 230200Z 12013KT 9999 SCT016 28/21 Q1016 NOSIG
METAR WADD 230130Z 11013KT 9999 SCT016 28/21 Q1016 NOSIG
METAR WADD 230100Z 11012KT 9999 SCT016 27/21 Q1016 NOSIG
METAR WADD 230030Z 12012KT 9999 BKN016 26/21 Q1015 NOSIG
METAR WADD 230000Z 13013KT 9999 BKN016 26/21 Q1015 NOSIG
METAR WADD 222330Z 13012KT 9999 BKN016 26/21 Q1015 NOSIG
METAR WADD 222300Z 13012KT 9999 BKN016 25/21 Q1015 NOSIG
METAR WADD 222230Z 13012KT 9999 BKN016 25/21 Q1014 NOSIG
METAR WADD 222200Z 12013KT 9999 SCT016 25/20 Q1014 NOSIG
METAR WADD 222130Z 13014KT 9999 BKN016 26/21 Q1014 NOSIG
METAR WADD 222100Z 12013KT 9999 SCT016 26/21 Q1014 NOSIG
METAR WADD 222030Z 12013KT 9999 SCT016 26/21 Q1014 NOSIG
METAR WADD 222000Z 11014KT 9999 SCT016 26/21 Q1014 NOSIG</description><pubDate>Thu, 23 Jul 2026 19:56:35 </pubDate></item></channel></rss>