<rss version="2.0"><channel><title>Aviation Weather METAR Data for WADD</title><link>https://aviationweather.gov/api/data/metar?ids=WADD&amp;hours=24</link><description>Latest METAR data for WADD</description><item><title>2025-12-07 18:36:05Z</title><link>https://aviationweather.gov/api/data/metar?ids=WADD&amp;hours=24</link><description>METAR WADD 071830Z VRB02KT 9999 FEW015CB SCT016 28/26 Q1008 NOSIG
METAR WADD 071800Z VRB02KT 9999 FEW015CB SCT016 28/26 Q1008 NOSIG
METAR WADD 071730Z VRB02KT 9999 FEW015CB SCT016 28/26 Q1009 NOSIG
METAR WADD 071700Z VRB02KT 9999 FEW015CB SCT016 28/26 Q1009 NOSIG
METAR WADD 071630Z VRB02KT 9999 FEW015CB FEW016 28/25 Q1009 NOSIG
METAR WADD 071600Z VRB01KT 9999 FEW015CB FEW016 27/25 Q1009 NOSIG
METAR WADD 071530Z VRB01KT 9999 FEW015CB FEW016 28/25 Q1009 NOSIG
METAR WADD 071500Z VRB02KT 9999 FEW015CB FEW016 28/25 Q1010 NOSIG
METAR WADD 071430Z 23003KT 9999 FEW015CB FEW016 28/26 Q1009 NOSIG
METAR WADD 071400Z VRB02KT 9999 FEW015CB FEW016 29/26 Q1009 NOSIG
METAR WADD 071330Z VRB02KT 9999 FEW016 29/26 Q1009 NOSIG
METAR WADD 071300Z 23003KT 9999 SCT016 29/26 Q1009 NOSIG
METAR WADD 071230Z 22003KT 9999 SCT016 29/26 Q1009 NOSIG
METAR WADD 071200Z 23003KT 9999 SCT016 29/26 Q1009 NOSIG
METAR WADD 071130Z 23004KT 190V260 9999 FEW015CB SCT016 29/26 Q1008 N OSIG
METAR WADD 071100Z 24005KT 9999 SCT016 29/26 Q1008 NOSIG
METAR WADD 071030Z 23004KT 180V270 9999 SCT016 29/25 Q1008 NOSIG
METAR WADD 071000Z 23004KT 170V260 9999 SCT016 30/25 Q1007 NOSIG
METAR WADD 070930Z 20005KT 140V250 9999 FEW015CB SCT016 30/25 Q1007 N OSIG
METAR WADD 070900Z 16005KT 130V200 9999 FEW015CB SCT016 31/25 Q1007 N OSIG
METAR WADD 070830Z VRB04KT 9999 FEW015CB SCT016 31/25 Q1007 NOSIG
METAR WADD 070800Z 15006KT 120V180 9999 FEW015CB SCT016 31/25 Q1007 N OSIG
METAR WADD 070730Z 15007KT 100V210 9999 FEW015CB SCT016 31/25 Q1007 N OSIG
METAR WADD 070700Z 15007KT 9999 FEW015CB SCT016 31/25 Q1007 NOSIG
METAR WADD 070630Z 14006KT 110V200 9999 BKN016 31/26 Q1007 RERA NOSIG
METAR WADD 070600Z 25007KT 9999 SCT016 30/26 Q1007 NOSIG
METAR WADD 070530Z 26009KT 9999 SCT016 30/26 Q1008 NOSIG
METAR WADD 070500Z 26008KT 230V290 9999 SCT016 31/26 Q1008 NOSIG
METAR WADD 070430Z 26008KT 210V280 9999 FEW016 30/26 Q1009 NOSIG
METAR WADD 070400Z 25008KT 200V280 9999 FEW016 30/26 Q1009 NOSIG
METAR WADD 070330Z 25007KT 210V280 9999 FEW016 30/26 Q1009 NOSIG
METAR WADD 070300Z 26008KT 220V280 9999 SCT016 30/26 Q1009 NOSIG
METAR WADD 070230Z 27007KT 240V320 9999 SCT016 30/25 Q1010 NOSIG
METAR WADD 070200Z 25006KT 220V280 9999 SCT016 29/25 Q1010 NOSIG
METAR WADD 070130Z 29007KT 260V320 9999 SCT016 29/26 Q1010 NOSIG
METAR WADD 070100Z 29006KT 260V330 9999 FEW016 29/26 Q1010 NOSIG
METAR WADD 070030Z 30006KT 9999 FEW016 29/25 Q1010 NOSIG
METAR WADD 070000Z 30006KT 9999 FEW016 28/25 Q1010 NOSIG
METAR WADD 062330Z 31006KT 9999 FEW016 28/25 Q1010 NOSIG
METAR WADD 062300Z 32004KT 290V350 9999 SCT016 27/25 Q1009 NOSIG
METAR WADD 062230Z VRB02KT 9999 SCT016 26/24 Q1009 NOSIG
METAR WADD 062200Z 35004KT 9999 SCT016 26/24 Q1009 NOSIG
METAR WADD 062130Z 32005KT 9999 SCT016 26/24 Q1009 NOSIG
METAR WADD 062100Z 36003KT 9999 SCT016 26/24 Q1009 NOSIG
METAR WADD 062030Z 02004KT 9999 SCT016 26/24 Q1009 NOSIG
METAR WADD 062000Z VRB02KT 9999 SCT016 26/24 Q1009 NOSIG
METAR WADD 061930Z 34003KT 9999 SCT016 26/24 Q1008 NOSIG
METAR WADD 061900Z 33002KT 9999 SCT016 26/24 Q1008 NOSIG</description><pubDate>Sun, 07 Dec 2025 18:36:05 </pubDate></item></channel></rss>