<rss version="2.0"><channel><title>Aviation Weather METAR Data for WADD</title><link>https://aviationweather.gov/api/data/metar?ids=WADD&amp;hours=24</link><description>Latest METAR data for WADD</description><item><title>2026-03-17 02:49:39Z</title><link>https://aviationweather.gov/api/data/metar?ids=WADD&amp;hours=24</link><description>METAR WADD 170230Z 27009KT 230V300 9999 SCT016 30/27 Q1011 NOSIG
METAR WADD 170200Z 29008KT 260V320 9999 SCT016 30/26 Q1011 NOSIG
METAR WADD 170130Z 29009KT 9999 SCT016 30/26 Q1011 NOSIG
METAR WADD 170100Z 29010KT 9999 SCT016 30/26 Q1011 NOSIG
METAR WADD 170030Z 29009KT 9999 SCT016 30/26 Q1011 NOSIG
METAR WADD 170000Z 28007KT 9999 SCT016 29/26 Q1010 NOSIG
METAR WADD 162330Z 28006KT 9999 SCT016 28/26 Q1010 NOSIG
METAR WADD 162300Z 28007KT 9999 SCT016 27/26 Q1010 NOSIG
METAR WADD 162230Z 28006KT 9999 SCT016 26/26 Q1010 NOSIG
METAR WADD 162200Z 26006KT 9999 SCT016 27/26 Q1009 NOSIG
METAR WADD 162130Z 26006KT 9999 SCT016 27/26 Q1009 NOSIG
METAR WADD 162100Z 27008KT 9999 SCT016 27/26 Q1009 NOSIG
METAR WADD 162030Z 34004KT 260V030 9999 SCT016 26/26 Q1009 NOSIG
METAR WADD 162000Z 32006KT 9999 SCT016 26/26 Q1009 RETS NOSIG
METAR WADD 161930Z 27008KT 9999 TS FEW016CB SCT016 27/26 Q1009 NOSIG
SPECI WADD 161914Z 27006KT 9999 TS FEW016CB SCT016 27/26 Q1009 RERA NOSIG RMK CB IN APCH
METAR WADD 161900Z 28006KT 8000 -RA FEW016CB SCT016 27/27 Q1009 NOSIG
METAR WADD 161830Z 34004KT 9999 FEW016CB SCT016 27/26 Q1010 NOSIG
METAR WADD 161800Z 34004KT 9999 SCT016 27/26 Q1010 NOSIG
METAR WADD 161730Z VRB01KT 9999 SCT016 26/26 Q1010 NOSIG
METAR WADD 161700Z VRB01KT 9999 SCT016 26/26 Q1010 NOSIG
METAR WADD 161630Z VRB02KT 9999 BKN016 27/26 Q1011 RERA NOSIG
METAR WADD 161600Z 29004KT 8000 -RA BKN016 27/26 Q1011 NOSIG
METAR WADD 161530Z 23003KT 9999 FEW016CB SCT016 27/26 Q1011 NOSIG
METAR WADD 161500Z 12003KT 9999 FEW016CB SCT016 27/26 Q1011 NOSIG RMK CB IN APCH
METAR WADD 161430Z 35003KT 9999 FEW016CB SCT016 27/25 Q1011 RERA NOSI G RMK CB IN APCH
SPECI WADD 161410Z COR 30005KT 280V360 7000 -RA FEW016CB SCT016 28/26 Q1011 NOSIG RMK CB IN APCH
METAR WADD 161400Z 26004KT 240V310 9999 FEW016CB SCT016 28/26 Q1011 NOSIG RMK CB IN APCH
METAR WADD 161330Z 25005KT 9999 FEW016CB FEW016 28/26 Q1011 NOSIG
METAR WADD 161300Z 24003KT 9999 FEW016CB FEW016 28/26 Q1010 NOSIG
METAR WADD 161230Z 23003KT 9999 FEW016 28/26 Q1010 NOSIG
METAR WADD 161200Z 25005KT 220V280 9999 FEW016 28/26 Q1010 NOSIG
METAR WADD 161130Z 26005KT 9999 FEW016 28/27 Q1009 NOSIG
METAR WADD 161100Z 25006KT 9999 FEW016 28/26 Q1009 NOSIG
METAR WADD 161030Z 25006KT 9999 FEW016 29/26 Q1009 NOSIG
METAR WADD 161000Z 25007KT 9999 FEW017 30/26 Q1008 NOSIG
METAR WADD 160930Z 26009KT 9999 FEW017 30/26 Q1008 NOSIG
METAR WADD 160900Z 26009KT 9999 FEW016 31/26 Q1008 NOSIG
METAR WADD 160830Z 26009KT 9999 FEW017 31/26 Q1008 NOSIG
METAR WADD 160800Z 25009KT 9999 NCD 31/26 Q1007 NOSIG
METAR WADD 160730Z 25009KT 9999 FEW016 32/26 Q1008 NOSIG
METAR WADD 160700Z 25010KT 9999 FEW016 31/26 Q1008 NOSIG
METAR WADD 160630Z 24008KT 9999 FEW016 31/26 Q1008 NOSIG
METAR WADD 160600Z 25008KT 9999 SCT016 31/26 Q1008 NOSIG
METAR WADD 160530Z 26010KT 220V280 9999 FEW017 31/26 Q1009 NOSIG
METAR WADD 160500Z 25009KT 220V280 9999 FEW017 31/27 Q1009 NOSIG
METAR WADD 160430Z 26009KT 9999 FEW017 30/27 Q1010 NOSIG
METAR WADD 160400Z 26009KT 220V280 9999 SCT016 31/26 Q1010 NOSIG
METAR WADD 160330Z 26008KT 220V290 9999 SCT016 31/26 Q1010 NOSIG
METAR WADD 160300Z 26007KT 210V290 9999 SCT016 30/26 Q1010 NOSIG</description><pubDate>Tue, 17 Mar 2026 02:49:39 </pubDate></item></channel></rss>