<rss version="2.0"><channel><title>Aviation Weather METAR Data for WADD</title><link>https://aviationweather.gov/api/data/metar?ids=WADD&amp;hours=24</link><description>Latest METAR data for WADD</description><item><title>2025-01-21 14:42:04Z</title><link>https://aviationweather.gov/api/data/metar?ids=WADD&amp;hours=24</link><description>WADD 211430Z 16019KT 6000 -RA FEW015CB SCT016 26/26 Q1010 TEMPO TL1530 RA RMK CB IN CLIMB-OUT
WADD 211400Z 11004KT 9999 FEW015CB SCT016 27/27 Q1009 NOSIG
WADD 211330Z 09004KT 9999 SCT016 27/26 Q1009 NOSIG
WADD 211300Z 06004KT 9999 SCT016 27/26 Q1009 NOSIG
WADD 211230Z 06005KT 9999 SCT016 27/26 Q1009 NOSIG
WADD 211200Z 05006KT 9999 SCT016 27/26 Q1008 NOSIG
WADD 211130Z 08005KT 9999 SCT016 27/26 Q1008 NOSIG
WADD 211100Z 10005KT 9999 SCT016 27/27 Q1007 NOSIG
WADD 211030Z 10004KT 9999 SCT016 28/26 Q1007 NOSIG
WADD 211000Z 09003KT 9999 SCT016 28/25 Q1007 NOSIG
WADD 210930Z 09003KT 9999 SCT016 28/25 Q1007 NOSIG
WADD 210900Z 07002KT 9999 SCT016 28/26 Q1006 NOSIG
WADD 210830Z VRB01KT 9999 SCT016 28/26 Q1006 NOSIG
WADD 210800Z VRB02KT 9999 BKN016 28/26 Q1006 RERA NOSIG
WADD 210730Z 13003KT 8000 -RA BKN015 27/26 Q1007 TEMPO TL0830 -RA
WADD 210700Z 15004KT 100V200 8000 -RA BKN015 28/26 Q1007 TEMPO TL0800 -RA
WADD 210630Z VRB03KT 9999 BKN016 28/25 Q1007 RERA NOSIG
WADD 210600Z 18003KT 8000 -RA BKN015 28/26 Q1007 TEMPO TL0700 -RA
WADD 210530Z 24003KT 9999 BKN016 28/25 Q1007 NOSIG
WADD 210500Z 24003KT 9999 BKN016 28/25 Q1007 NOSIG
WADD 210430Z 26005KT 220V290 9999 BKN015 28/25 Q1008 NOSIG
WADD 210400Z 22004KT 160V270 9999 BKN015 28/25 Q1008 NOSIG
WADD 210330Z 21004KT 120V260 9999 FEW015CB BKN015 27/26 Q1008 RERA NOSIG
WADD 210300Z 23006KT 7000 -RA FEW014CB BKN014 26/25 Q1009 TEMPO TL0400 7000 -RA
WADD 210230Z 22006KT 7000 -RA FEW014CB BKN014 26/25 Q1009 TEMPO TL0400 7000 -RA
WADD 210200Z 30005KT 240V330 9999 FEW014CB BKN014 29/25 Q1009 NOSIG
WADD 210130Z 30005KT 260V340 9999 BKN015 29/26 Q1009 NOSIG
WADD 210100Z VRB01KT 9999 BKN015 28/26 Q1008 NOSIG
WADD 210030Z VRB02KT 9999 BKN015 27/26 Q1008 NOSIG
WADD 210000Z 10002KT 9999 BKN015 26/26 Q1008 NOSIG
WADD 202330Z 15002KT 9999 BKN015 26/26 Q1008 NOSIG
WADD 202300Z VRB02KT 9999 SCT016 25/25 Q1007 NOSIG
WADD 202230Z 02002KT 9999 SCT016 25/25 Q1007 NOSIG
WADD 202200Z VRB01KT 9999 SCT016 25/25 Q1007 NOSIG
WADD 202130Z VRB02KT 9999 SCT016 25/25 Q1007 NOSIG
WADD 202100Z VRB01KT 9999 BKN016 25/25 Q1007 NOSIG
WADD 202030Z VRB01KT 9999 BKN015 25/25 Q1007 NOSIG
WADD 202000Z VRB02KT 9999 BKN015 25/25 Q1007 NOSIG
WADD 201930Z VRB02KT 9999 BKN015 25/25 Q1007 RERA NOSIG
WADD 201900Z VRB02KT 7000 -RA BKN015 25/25 Q1007 TEMPO TL2000 -RA
WADD 201830Z VRB04KT 7000 -RA FEW014CB BKN014 25/25 Q1007 TEMPO TL1930 -RA
WADD 201800Z VRB01KT 7000 -RA FEW014CB BKN014 25/25 Q1007 TEMPO TL1930 -RA
WADD 201730Z 35004KT 310V020 7000 -RA FEW014CB BKN014 25/25 Q1008 TEMPO TL1830 -RA
WADD 201700Z 35004KT 290V020 7000 -RA FEW014CB BKN014 25/25 Q1008 TEMPO TL1830 -RA
WADD 201630Z 01004KT 320V030 7000 -RA BKN014 25/25 Q1008 TEMPO TL1730 -RA
WADD 201600Z 03004KT 330V050 7000 -RA BKN014 25/25 Q1009 TEMPO TL1630 -RA
WADD 201530Z 07005KT 010V130 7000 -RA BKN014 25/25 Q1009 TEMPO TL1630 -RA
WADD 201500Z 25003KT 7000 -RA BKN014 26/25 Q1009 TEMPO TL1630 -RA</description><pubDate>Tue, 21 Jan 2025 14:42:04 </pubDate></item></channel></rss>