<rss version="2.0"><channel><title>Aviation Weather METAR Data for WADD</title><link>https://aviationweather.gov/api/data/metar?ids=WADD&amp;hours=24</link><description>Latest METAR data for WADD</description><item><title>2026-01-22 11:47:30Z</title><link>https://aviationweather.gov/api/data/metar?ids=WADD&amp;hours=24</link><description>METAR WADD 221130Z 27012G22KT 9999 FEW014CB BKN015 27/26 Q1006 RERA NOSIG RMK CB IN APCH
METAR WADD 221100Z 29015KT 250V330 4000 RA FEW014CB BKN015 26/25 Q1006 TEMPO TL1200 4000 RA RMK CB IN APCH
METAR WADD 221030Z 28011KT 7000 -RA FEW014CB BKN015 28/25 Q1006 TEMPO TL1130 7000 -RA RMK CB IN CLIMB-OUT
METAR WADD 221000Z 28011KT 9999 FEW015CB SCT016 28/24 Q1006 NOSIG
METAR WADD 220930Z 28014KT 9999 SCT016 28/25 Q1005 NOSIG
METAR WADD 220900Z 25013KT 9999 SCT016 27/25 Q1005 NOSIG
METAR WADD 220830Z 24012G22KT 9999 SCT016 27/25 Q1005 NOSIG
METAR WADD 220800Z 25011KT 9999 SCT016 27/25 Q1005 NOSIG
METAR WADD 220730Z 24010KT 210V270 9999 SCT016 27/24 Q1005 NOSIG
METAR WADD 220700Z 24012KT 9999 SCT016 27/24 Q1005 NOSIG
METAR WADD 220630Z 25012KT 9999 BKN016 27/24 Q1006 NOSIG
METAR WADD 220600Z 25011KT 9999 BKN016 27/24 Q1006 NOSIG
METAR WADD 220530Z 26016G24KT 9999 FEW016CB SCT017 31/26 Q1006 NOSIG
METAR WADD 220500Z 26012KT 9999 SCT016 27/24 Q1006 RERA NOSIG
METAR WADD 220430Z 26011KT 8000 -RA BKN015 27/24 Q1007 TEMPO TL0530 8 000 -RA
METAR WADD 220400Z 25013KT 8000 -RA FEW015CB BKN015 26/24 Q1007 TEMPO TL0500 8000 -RA
METAR WADD 220330Z 25015G26KT 1400 RA FEW014CB BKN014 25/24 Q1007 TEM PO TL0430 1400 RA RMK CB IN CLIMB-OUT
METAR WADD 220300Z 25016G31KT 7000 -RA FEW014CB BKN014 25/24 Q1007 TEMPO TL0400 7000 -RA RMK CB IN CLIMB-OUT AND APCH
METAR WADD 220230Z 26015KT 9999 FEW015CB BKN015 27/25 Q1007 NOSIG
SPECI WADD 220223Z 26017G27KT 9999 FEW015CB BKN015 27/24 Q1007 RERA NOSIG
METAR WADD 220200Z 28016KT 9999 FEW015CB SCT015 29/24 Q1007 NOSIG RMK CB IN APCH
METAR WADD 220130Z 28016KT 9999 SCT016 28/24 Q1007 NOSIG
METAR WADD 220100Z 28014KT 9999 SCT015 28/24 Q1007 NOSIG
METAR WADD 220030Z 27014KT 9999 FEW015CB BKN015 27/24 Q1007 NOSIG
METAR WADD 220000Z 25012G24KT 9999 FEW015CB BKN015 26/24 Q1007 RERA N OSIG
METAR WADD 212330Z 27017KT 8000 -RA FEW015CB BKN015 27/24 Q1006 TEMPO TL0030 8000 -RA
METAR WADD 212300Z 26014KT 8000 -RA FEW014CB BKN014 26/25 Q1006 TEMPO TL2400 8000 -RA
METAR WADD 212230Z 25014G25KT 8000 RA FEW014CB BKN014 26/25 Q1006 RETS TEMPO TL2300 8000 RA
METAR WADD 212200Z 23017G27KT 4000 TSRA FEW014CB SCT014 25/25 Q1006 TEMPO TL2300 4000 TSRA
METAR WADD 212130Z 24016KT 4000 TSRA FEW014CB SCT014 26/25 Q1006 TEMP O TL2300 4000 TSRA
METAR WADD 212100Z 25012G21KT 4000 TSRA FEW014CB SCT014 25/25 Q1005 TEMPO TL2200 4000 TSRA
METAR WADD 212030Z 27027G36KT 8000 -RA FEW015CB SCT016 27/24 Q1005 TEMPO TL2200 8000 -RA
METAR WADD 212000Z 28022G30KT 9999 FEW015CB SCT016 27/24 Q1005 NOSIG
METAR WADD 211930Z 27022KT 9999 FEW015CB SCT016 27/24 Q1005 NOSIG
METAR WADD 211900Z 27021KT 9999 FEW015CB BKN015 27/24 Q1005 NOSIG
METAR WADD 211830Z 27019KT 9999 FEW014CB BKN014 27/24 Q1005 NOSIG RMK CB IN APCH AND CLIMB-OUT
METAR WADD 211800Z 28021G28KT 9999 FEW014CB BKN014 27/25 Q1005 RERA NOSIG RMK CB IN APCH AND CLIMB-OUT
METAR WADD 211730Z 29021G27KT 8000 -RA FEW014CB BKN014 27/25 Q1005 TEMPO TL1900 8000 -RA
METAR WADD 211700Z 29027KT 8000 -RA FEW014CB BKN014 27/24 Q1005 TEMPO TL1900 8000 -RA RMK CB IN APCH AND CLIMB-OUT
METAR WADD 211630Z 28020KT 9999 FEW014CB BKN014 27/24 Q1006 RETS NOSI G
METAR WADD 211600Z 29017KT 9999 TS FEW014CB BKN014 26/25 Q1007 RERA TEMPO TL1630 TS
METAR WADD 211530Z 30017KT 4000 TSRA FEW014CB BKN014 25/24 Q1007 TEMP O TL1630 4000 TSRA RMK CB IN APCH AND CLIMB-OUT
METAR WADD 211500Z 28026KT 4000 TSRA FEW014CB BKN014 25/24 Q1007 TEMP O TL1630 4000 TSRA RMK CB IN APCH AND CLIMB-OUT
METAR WADD 211430Z 29020G30KT 5000 TSRA FEW014CB BKN014 25/24 Q1007 TEMPO TL1530 5000 RA RMK CB IN APCH AND CLIMB-OUT
METAR WADD 211400Z 28018KT 5000 TSRA FEW014CB BKN014 24/24 Q1007 TEMP O TL1530 5000 RA RMK CB IN APCH AND CLIMB-OUT
METAR WADD 211330Z 29017KT 5000 RA FEW015CB SCT016 26/24 Q1006 TEMPO TL1500 5000 RA
METAR WADD 211300Z 26015KT 9999 FEW015CB SCT016 28/24 Q1006 NOSIG
METAR WADD 211230Z 26016KT 9999 FEW015CB SCT016 27/24 Q1006 NOSIG
METAR WADD 211200Z 26018G28KT 9999 FEW015CB SCT016 27/25 Q1006 NOSIG</description><pubDate>Thu, 22 Jan 2026 11:47:30 </pubDate></item></channel></rss>