<rss version="2.0"><channel><title>Aviation Weather METAR Data for WADD</title><link>https://aviationweather.gov/api/data/metar?ids=WADD&amp;hours=24</link><description>Latest METAR data for WADD</description><item><title>2026-07-17 06:40:45Z</title><link>https://aviationweather.gov/api/data/metar?ids=WADD&amp;hours=24</link><description>METAR WADD 170630Z 13015KT 9999 FEW017 29/24 Q1012 NOSIG
METAR WADD 170600Z 11014KT 9999 FEW017 30/23 Q1012 NOSIG
METAR WADD 170530Z 12013KT 9999 SCT017 29/23 Q1013 NOSIG
METAR WADD 170500Z 13014KT 9999 SCT017 29/24 Q1013 NOSIG
METAR WADD 170430Z 11014KT 9999 SCT016 29/25 Q1013 NOSIG
METAR WADD 170400Z 11013KT 9999 SCT016 30/25 Q1014 NOSIG
METAR WADD 170330Z 10012KT 9999 SCT016 30/25 Q1014 NOSIG
METAR WADD 170300Z 10014KT 9999 SCT016 29/25 Q1014 NOSIG
METAR WADD 170230Z 12012KT 9999 SCT016 28/24 Q1014 NOSIG
METAR WADD 170200Z 11012KT 9999 SCT016 29/24 Q1015 NOSIG
METAR WADD 170130Z 09012KT 9999 SCT016 29/24 Q1015 NOSIG
METAR WADD 170100Z 11012KT 9999 SCT016 28/24 Q1015 NOSIG
METAR WADD 170030Z 09012KT 9999 SCT016 28/24 Q1014 NOSIG
METAR WADD 170000Z 09008KT 9999 SCT016 26/24 Q1014 NOSIG
METAR WADD 162330Z 07008KT 9999 SCT016 26/24 Q1014 NOSIG
METAR WADD 162300Z 05009KT 9999 SCT015 25/24 Q1014 NOSIG
METAR WADD 162230Z 08007KT 9999 SCT015 25/24 Q1013 NOSIG
METAR WADD 162200Z 12009KT 9999 SCT015 26/24 Q1013 NOSIG
METAR WADD 162130Z 12010KT 9999 SCT015 26/24 Q1013 NOSIG
METAR WADD 162100Z 12009KT 9999 FEW016 26/24 Q1013 NOSIG
METAR WADD 162030Z 11009KT 9999 FEW016 26/24 Q1013 NOSIG
METAR WADD 162000Z 13010KT 9999 FEW016 26/24 Q1013 NOSIG
METAR WADD 161930Z 12009KT 9999 FEW016 26/24 Q1014 NOSIG
METAR WADD 161900Z 12009KT 9999 FEW016 26/24 Q1014 NOSIG
METAR WADD 161830Z 12010KT 9999 FEW016 26/24 Q1014 NOSIG
METAR WADD 161800Z 11007KT 9999 FEW016 26/24 Q1014 NOSIG
METAR WADD 161730Z 09007KT 9999 FEW016 26/24 Q1014 NOSIG
METAR WADD 161700Z 10007KT 9999 FEW016 26/24 Q1015 NOSIG
METAR WADD 161630Z 10007KT 9999 FEW016 26/24 Q1014 NOSIG
METAR WADD 161600Z 11008KT 9999 FEW016 26/24 Q1015 NOSIG
METAR WADD 161530Z 13006KT 9999 FEW016 26/25 Q1015 NOSIG
METAR WADD 161500Z 12007KT 9999 FEW016 26/24 Q1015 NOSIG
METAR WADD 161430Z 12009KT 9999 FEW016 26/24 Q1015 NOSIG
METAR WADD 161400Z 12010KT 9999 FEW016 26/24 Q1015 NOSIG
METAR WADD 161330Z 13008KT 9999 FEW017 26/25 Q1015 NOSIG
METAR WADD 161300Z 12008KT 9999 FEW017 26/25 Q1014 NOSIG
METAR WADD 161230Z 12009KT 9999 FEW017 26/25 Q1014 NOSIG
METAR WADD 161200Z 12010KT 9999 FEW017 26/25 Q1014 NOSIG
METAR WADD 161130Z 13011KT 9999 FEW017 26/25 Q1013 NOSIG
METAR WADD 161100Z 13013KT 9999 FEW017 27/24 Q1013 NOSIG
METAR WADD 161030Z 14013KT 9999 FEW017 27/24 Q1013 NOSIG
METAR WADD 161000Z 14014KT 9999 FEW017 27/24 Q1013 NOSIG
METAR WADD 160930Z 14015KT 9999 FEW017 28/24 Q1013 NOSIG
METAR WADD 160900Z 14016KT 9999 FEW017 28/24 Q1012 NOSIG
METAR WADD 160830Z 13015KT 9999 FEW017 29/24 Q1012 NOSIG
METAR WADD 160800Z 12016KT 9999 FEW017 29/24 Q1012 NOSIG
METAR WADD 160730Z 12018KT 9999 FEW017 29/24 Q1012 NOSIG
METAR WADD 160700Z 12017KT 9999 FEW017 29/23 Q1012 NOSIG</description><pubDate>Fri, 17 Jul 2026 06:40:45 </pubDate></item></channel></rss>