<rss version="2.0"><channel><title>Aviation Weather METAR Data for WADD</title><link>https://aviationweather.gov/api/data/metar?ids=WADD&amp;hours=24</link><description>Latest METAR data for WADD</description><item><title>2025-02-24 19:18:47Z</title><link>https://aviationweather.gov/api/data/metar?ids=WADD&amp;hours=24</link><description>WADD 241830Z 36003KT 9999 FEW017 26/26 Q1011 NOSIG
WADD 241800Z VRB01KT 9999 SCT016 27/26 Q1012 NOSIG
WADD 241730Z VRB01KT 9999 SCT016 27/26 Q1012 NOSIG
WADD 241700Z VRB02KT 9999 SCT016 27/25 Q1012 NOSIG
WADD 241630Z VRB02KT 9999 FEW017 27/25 Q1012 NOSIG
WADD 241600Z VRB01KT 9999 FEW017 27/26 Q1013 NOSIG
WADD 241530Z 04003KT 9999 FEW017 27/26 Q1013 NOSIG
WADD 241500Z 03003KT 9999 FEW017 27/26 Q1013 NOSIG
WADD 241430Z 04005KT 010V080 9999 FEW017 27/26 Q1013 NOSIG
WADD 241400Z 04005KT 9999 FEW017 27/26 Q1013 NOSIG
WADD 241330Z 04005KT 9999 FEW017 27/26 Q1013 NOSIG
WADD 241300Z 06010KT 9999 SCT016 27/27 Q1012 NOSIG
WADD 241230Z 09005KT 9999 SCT016 28/27 Q1012 NOSIG
WADD 241200Z 06005KT 030V110 9999 FEW017 28/26 Q1012 NOSIG
WADD 241130Z 08007KT 9999 SCT016 28/26 Q1012 NOSIG
WADD 241100Z 11006KT 9999 SCT016 29/27 Q1011 NOSIG
WADD 241030Z 12006KT 9999 SCT016 29/27 Q1011 NOSIG
WADD 241000Z 12007KT 9999 SCT016 29/27 Q1010 NOSIG
WADD 240930Z 12008KT 9999 SCT016 29/26 Q1010 NOSIG
WADD 240900Z 14010KT 9999 SCT016 30/27 Q1010 NOSIG
WADD 240830Z 13009KT 9999 SCT016 30/27 Q1010 NOSIG
WADD 240800Z 14010KT 9999 SCT016 30/27 Q1009 NOSIG
WADD 240730Z 15006KT 100V170 9999 SCT016 31/27 Q1010 NOSIG
WADD 240700Z 14007KT 9999 SCT016 30/27 Q1010 NOSIG
WADD 240630Z 16008KT 9999 SCT016 30/27 Q1010 NOSIG
WADD 240600Z VRB04KT 9999 SCT016 30/27 Q1011 NOSIG
WADD 240530Z 11008KT 070V140 9999 SCT017 31/25 Q1011 NOSIG
WADD 240500Z VRB03KT 9999 SCT016 30/26 Q1011 NOSIG
WADD 240430Z 24004KT 210V280 9999 SCT016 30/26 Q1012 RETS NOSIG
WADD 240400Z 25005KT 220V290 9999 TS FEW014CB SCT015 29/26 Q1012 RERA TEMPO TL0500 TS
WADD 240330Z 21004KT 130V260 5000 -TSRA FEW013CB BKN014 29/26 Q1013 TEMPO TL0430 7000 -TSRA RMK CB IN CLIMB-OUT
WADD 240300Z VRB11G21KT 0300 +RA FEW013CB BKN013 26/24 Q1013 TEMPO TL0430 2000 RA RMK CB IN APCH AND CLIMB-OUT
WADD 240230Z 26009KT 6000 -RA FEW014CB BKN015 29/26 Q1013 TEMPO TL0400 -RA
WADD 240200Z 28007KT 220V330 9999 FEW014CB BKN015 29/26 Q1013 NOSIG
WADD 240130Z 32009KT 300V010 9999 FEW014CB BKN015 28/27 Q1013 NOSIG
WADD 240100Z 36008KT 9999 SCT016 29/27 Q1013 NOSIG
WADD 240030Z 03007KT 9999 SCT016 28/27 Q1013 NOSIG
WADD 240000Z 03004KT 9999 SCT016 28/26 Q1012 NOSIG
WADD 232330Z 36004KT 300V060 9999 SCT016 27/26 Q1012 NOSIG
WADD 232300Z 29003KT 9999 SCT016 27/25 Q1012 NOSIG
WADD 232230Z 04001KT 9999 SCT016 26/25 Q1011 NOSIG
WADD 232200Z 01002KT 9999 SCT016 26/25 Q1011 NOSIG
WADD 232130Z 02003KT 9999 FEW017 26/25 Q1011 NOSIG
WADD 232100Z 03003KT 9999 SCT016 26/25 Q1011 NOSIG
WADD 232030Z 01002KT 9999 SCT016 27/26 Q1011 NOSIG
WADD 232000Z VRB02KT 9999 FEW017 27/25 Q1011 NOSIG
WADD 231930Z 34003KT 9999 FEW017 26/26 Q1011 NOSIG</description><pubDate>Mon, 24 Feb 2025 19:18:47 </pubDate></item></channel></rss>