<rss version="2.0"><channel><title>Aviation Weather METAR Data for WADD</title><link>https://aviationweather.gov/api/data/metar?ids=WADD&amp;hours=24</link><description>Latest METAR data for WADD</description><item><title>2025-03-10 03:39:32Z</title><link>https://aviationweather.gov/api/data/metar?ids=WADD&amp;hours=24</link><description>WADD 100330Z 24005KT 9999 FEW017 31/28 Q1011 NOSIG
WADD 100300Z 27005KT 220V300 9999 FEW017 30/27 Q1011 NOSIG
WADD 100230Z 18003KT 9999 FEW017 30/27 Q1011 NOSIG
WADD 100200Z 23003KT 9999 FEW018 29/27 Q1012 NOSIG
WADD 100130Z VRB03KT 9999 FEW017 29/27 Q1011 NOSIG
WADD 100100Z 11004KT 060V150 9999 FEW017 29/27 Q1011 NOSIG
WADD 100030Z VRB02KT 9999 FEW017 28/26 Q1011 NOSIG
WADD 100000Z 11003KT 9999 FEW017 28/26 Q1011 NOSIG
WADD 092330Z 09002KT 9999 FEW017 27/26 Q1010 NOSIG
WADD 092300Z 04003KT 9999 FEW017 26/25 Q1010 NOSIG
WADD 092230Z 07004KT 9999 FEW017 25/24 Q1010 NOSIG
WADD 092200Z 07003KT 9999 FEW017 26/25 Q1009 NOSIG
WADD 092130Z 03003KT 9999 FEW017 26/25 Q1009 NOSIG
WADD 092100Z 05003KT 9999 FEW017 26/25 Q1009 NOSIG
WADD 092030Z 01002KT 9999 FEW017 27/26 Q1009 NOSIG
WADD 092000Z 36002KT 9999 FEW017 27/26 Q1009 NOSIG
WADD 091930Z VRB01KT 9999 FEW017 27/26 Q1009 NOSIG
WADD 091900Z 03003KT 9999 FEW017 27/26 Q1009 NOSIG
WADD 091830Z 07004KT 9999 FEW017 27/26 Q1010 NOSIG
WADD 091800Z 10005KT 9999 SCT016 27/26 Q1010 NOSIG
WADD 091730Z 09004KT 9999 SCT016 27/26 Q1010 NOSIG
WADD 091700Z 05003KT 9999 SCT016 27/26 Q1010 NOSIG
WADD 091630Z 02005KT 350V070 9999 SCT016 28/27 Q1011 NOSIG
WADD 091600Z 03004KT 350V070 9999 SCT016 28/27 Q1011 NOSIG
WADD 091530Z 03004KT 9999 SCT016 28/27 Q1011 NOSIG
WADD 091500Z 03004KT 360V080 9999 SCT016 28/27 Q1011 NOSIG
WADD 091430Z 03004KT 360V060 9999 SCT016 28/27 Q1011 NOSIG
WADD 091400Z 04005KT 010V080 9999 SCT016 28/27 Q1011 NOSIG
WADD 091330Z 06006KT 9999 FEW017 28/27 Q1010 NOSIG
WADD 091300Z 09006KT 9999 FEW017 28/26 Q1010 NOSIG
WADD 091230Z 11005KT 070V140 9999 SCT016 28/26 Q1010 NOSIG
WADD 091200Z 13004KT 090V170 9999 SCT016 28/26 Q1009 NOSIG
WADD 091130Z VRB02KT 9999 SCT016 28/25 Q1009 NOSIG
WADD 091100Z VRB02KT 9999 SCT016 28/25 Q1008 NOSIG
WADD 091030Z 31005KT 9999 SCT016 29/25 Q1008 NOSIG
WADD 091000Z 29005KT 260V320 9999 SCT016 29/25 Q1008 NOSIG
WADD 090930Z 27005KT 9999 SCT016 29/25 Q1008 NOSIG
WADD 090900Z 26005KT 9999 SCT016 29/24 Q1008 NOSIG
WADD 090830Z 27009KT 9999 SCT016 29/25 Q1007 NOSIG
WADD 090800Z 26007KT 230V290 9999 SCT016 29/26 Q1007 NOSIG
WADD 090730Z 25007KT 9999 BKN016 29/25 Q1007 NOSIG
WADD 090700Z 25005KT 9999 BKN016 28/26 Q1008 RETS NOSIG
WADD 090630Z 26005KT 9999 TS FEW015CB BKN016 27/27 Q1008 RERA TEMPO TL0730 TS
WADD 090600Z 32011KT 290V350 6000 -TSRA FEW015CB BKN016 26/26 Q1008 TEMPO TL0700 6000 -TSRA RMK CB IN APCH AND CLIMB-OUT
WADD 090530Z 31012KT 260V350 8000 -RA FEW015CB BKN016 30/27 Q1009 TEMPO TL0630 5000 RA RMK CB IN APCH AND CLIMB-OUT
WADD 090500Z 09012KT 9999 FEW015CB SCT016 31/27 Q1009 NOSIG
WADD 090430Z 12010KT 9999 SCT016 31/27 Q1009 NOSIG
WADD 090400Z 13010KT 9999 SCT016 31/27 Q1010 NOSIG</description><pubDate>Mon, 10 Mar 2025 03:39:32 </pubDate></item></channel></rss>