<rss version="2.0"><channel><title>Aviation Weather METAR Data for WADD</title><link>https://aviationweather.gov/api/data/metar?ids=WADD&amp;hours=24</link><description>Latest METAR data for WADD</description><item><title>2025-12-24 23:26:53Z</title><link>https://aviationweather.gov/api/data/metar?ids=WADD&amp;hours=24</link><description>METAR WADD 242300Z 26010KT 9999 SCT016 29/26 Q1007 NOSIG
METAR WADD 242230Z 26009KT 9999 SCT016 28/26 Q1007 NOSIG
METAR WADD 242200Z 28009KT 9999 BKN016 27/25 Q1006 NOSIG
METAR WADD 242130Z 27009KT 9999 SCT016 28/26 Q1006 NOSIG
METAR WADD 242100Z 26008KT 9999 SCT016 28/25 Q1006 NOSIG
METAR WADD 242030Z 26008KT 9999 SCT016 28/25 Q1005 NOSIG
METAR WADD 242000Z 26010KT 9999 SCT016 28/25 Q1005 NOSIG
METAR WADD 241930Z 26010KT 9999 SCT016 28/25 Q1005 NOSIG
METAR WADD 241900Z 26011KT 9999 SCT016 29/25 Q1006 NOSIG
METAR WADD 241830Z 26011KT 9999 SCT016 29/25 Q1006 NOSIG
METAR WADD 241800Z 26009KT 9999 SCT016 28/25 Q1006 NOSIG
METAR WADD 241730Z 27011KT 9999 SCT016 28/25 Q1006 NOSIG
METAR WADD 241700Z 26010KT 9999 SCT017 28/25 Q1006 NOSIG
METAR WADD 241630Z 26011KT 9999 SCT017 29/25 Q1007 NOSIG
METAR WADD 241600Z 26009KT 9999 SCT017 29/25 Q1007 NOSIG
METAR WADD 241530Z 26009KT 9999 SCT017 29/25 Q1007 NOSIG
METAR WADD 241500Z 26009KT 9999 SCT017 28/25 Q1008 NOSIG
METAR WADD 241430Z 26008KT 9999 SCT017 29/25 Q1008 NOSIG
METAR WADD 241400Z 25010KT 9999 SCT017 29/25 Q1008 NOSIG
METAR WADD 241330Z 26011KT 9999 SCT017 29/25 Q1008 NOSIG
METAR WADD 241300Z 26011KT 9999 SCT017 29/25 Q1007 NOSIG
METAR WADD 241230Z 26011KT 9999 SCT017 29/25 Q1007 NOSIG
METAR WADD 241200Z 26010KT 9999 SCT017 29/25 Q1007 NOSIG
METAR WADD 241130Z 26010KT 9999 SCT016 29/25 Q1007 NOSIG
METAR WADD 241100Z 26009KT 9999 SCT016 29/25 Q1006 NOSIG
METAR WADD 241030Z 26011KT 9999 SCT016 29/25 Q1006 NOSIG
METAR WADD 241000Z 26009KT 9999 SCT016 29/25 Q1006 NOSIG
METAR WADD 240930Z 26011KT 9999 SCT016 29/25 Q1006 NOSIG
METAR WADD 240900Z 26011KT 9999 SCT016 29/25 Q1005 NOSIG
METAR WADD 240830Z 26011KT 9999 SCT016 29/25 Q1005 NOSIG
METAR WADD 240800Z 26011KT 9999 SCT016 30/25 Q1005 NOSIG
METAR WADD 240730Z 26011KT 9999 SCT016 30/25 Q1005 NOSIG
METAR WADD 240700Z 25011KT 9999 SCT016 30/25 Q1005 NOSIG
METAR WADD 240630Z 26012KT 9999 SCT016 30/25 Q1006 NOSIG
METAR WADD 240600Z 26013KT 9999 SCT016 30/25 Q1006 NOSIG
METAR WADD 240530Z 26015KT 9999 SCT016 30/25 Q1006 NOSIG
METAR WADD 240500Z 26016KT 9999 SCT016 30/25 Q1006 NOSIG
METAR WADD 240430Z 26014KT 9999 SCT016 31/26 Q1007 NOSIG
METAR WADD 240400Z 26014KT 9999 SCT016 31/26 Q1007 NOSIG
METAR WADD 240330Z 26015KT 9999 SCT016 30/26 Q1007 NOSIG
METAR WADD 240300Z 26015KT 9999 SCT016 31/26 Q1007 NOSIG
METAR WADD 240230Z 26011KT 9999 BKN016 30/26 Q1007 RERA NOSIG
METAR WADD 240200Z 26013KT 9999 SCT016 31/25 Q1007 NOSIG
METAR WADD 240130Z 26014KT 9999 SCT016 30/25 Q1007 NOSIG
METAR WADD 240100Z 27015KT 9999 SCT016 30/25 Q1007 NOSIG
METAR WADD 240030Z 26014KT 9999 SCT016 29/25 Q1007 NOSIG
METAR WADD 240000Z 27013KT 9999 SCT016 29/25 Q1007 NOSIG
METAR WADD 232330Z 29012G22KT 9999 BKN016 28/25 Q1006 RERA NOSIG</description><pubDate>Wed, 24 Dec 2025 23:26:53 </pubDate></item></channel></rss>