<rss version="2.0"><channel><title>Aviation Weather METAR Data for WADD</title><link>https://aviationweather.gov/api/data/metar?ids=WADD&amp;hours=24</link><description>Latest METAR data for WADD</description><item><title>2025-09-22 20:27:23Z</title><link>https://aviationweather.gov/api/data/metar?ids=WADD&amp;hours=24</link><description>METAR WADD 222000Z VRB01KT 9999 FEW017 25/24 Q1011 NOSIG
METAR WADD 221930Z VRB01KT 9999 FEW017 24/24 Q1011 NOSIG
METAR WADD 221900Z VRB02KT 9999 FEW017 24/24 Q1011 NOSIG
METAR WADD 221830Z 25002KT 9999 FEW017 24/24 Q1011 NOSIG
METAR WADD 221800Z 24001KT 9999 FEW017 24/23 Q1011 NOSIG
METAR WADD 221730Z VRB01KT 9999 FEW017 25/24 Q1011 NOSIG
METAR WADD 221700Z 22002KT 9999 FEW017 25/24 Q1011 NOSIG
METAR WADD 221630Z VRB02KT 9999 FEW017 25/24 Q1011 NOSIG
METAR WADD 221600Z VRB01KT 9999 FEW017 25/24 Q1011 NOSIG
METAR WADD 221530Z VRB01KT 9999 FEW017 25/23 Q1012 NOSIG
METAR WADD 221500Z VRB01KT 9999 FEW017 26/24 Q1012 NOSIG
METAR WADD 221430Z VRB01KT 9999 FEW017 26/24 Q1012 NOSIG
METAR WADD 221400Z VRB02KT 9999 FEW017 26/24 Q1012 NOSIG
METAR WADD 221330Z 17003KT 9999 FEW017 26/24 Q1012 NOSIG
METAR WADD 221300Z VRB02KT 9999 FEW017 26/24 Q1011 NOSIG
METAR WADD 221230Z VRB01KT 9999 FEW017 26/24 Q1011 NOSIG
METAR WADD 221200Z VRB01KT 9999 FEW018 26/24 Q1011 NOSIG
METAR WADD 221130Z 14002KT 9999 FEW018 27/24 Q1011 NOSIG
METAR WADD 221100Z 14004KT 110V190 9999 FEW018 27/24 Q1010 NOSIG
METAR WADD 221030Z 16004KT 130V220 9999 SCT018 27/23 Q1010 NOSIG
METAR WADD 221000Z 17005KT 120V230 9999 FEW018 28/23 Q1010 NOSIG
METAR WADD 220930Z 17007KT 090V210 9999 FEW018 28/23 Q1009 NOSIG
METAR WADD 220900Z VRB06KT 9999 FEW018 29/24 Q1009 NOSIG
METAR WADD 220830Z 16008KT 130V210 9999 FEW018 29/23 Q1009 NOSIG
METAR WADD 220800Z 16005KT 100V250 9999 FEW018 30/23 Q1009 NOSIG
METAR WADD 220730Z 16006KT 120V190 9999 FEW018 30/24 Q1009 NOSIG
METAR WADD 220700Z 26009KT 9999 FEW018 29/24 Q1009 NOSIG
METAR WADD 220630Z 26009KT 9999 FEW018 29/24 Q1009 NOSIG
METAR WADD 220600Z 26009KT 9999 FEW018 30/24 Q1010 NOSIG
METAR WADD 220530Z 25008KT 9999 FEW018 29/24 Q1010 NOSIG
METAR WADD 220500Z 25007KT 9999 FEW018 30/25 Q1011 NOSIG
METAR WADD 220430Z 25010KT 9999 FEW016 29/25 Q1011 NOSIG
METAR WADD 220400Z 24009KT 9999 FEW016 29/25 Q1012 NOSIG
METAR WADD 220330Z 25007KT 9999 FEW016 29/25 Q1012 NOSIG
METAR WADD 220300Z 26007KT 250V310 9999 FEW016 29/25 Q1013 NOSIG
METAR WADD 220230Z 26005KT 230V340 9999 FEW016 28/25 Q1013 NOSIG
METAR WADD 220200Z 29006KT 9999 FEW016 27/25 Q1014 NOSIG
METAR WADD 220130Z 30005KT 9999 FEW016 27/25 Q1014 NOSIG
METAR WADD 220100Z 31005KT 270V340 9999 SCT016 27/25 Q1014 NOSIG
METAR WADD 220030Z 31005KT 9999 SCT016 27/25 Q1014 NOSIG
METAR WADD 220000Z VRB01KT 9999 FEW016 27/25 Q1014 NOSIG
 WADD 212330Z VRB01KT 9999 FEW017 26/24 Q1014 NOSIG
 WADD 212300Z VRB01KT 9999 FEW017 25/25 Q1013 NOSIG
METAR WADD 212230Z 18003KT 9999 FEW017 25/24 Q1013 NOSIG
 WADD 212200Z 18003KT 9999 FEW017 26/24 Q1013 NOSIG
 WADD 212130Z VRB02KT 9999 FEW017 25/24 Q1012 NOSIG
 WADD 212100Z VRB01KT 9999 FEW017 25/24 Q1012 NOSIG
 WADD 212030Z VRB01KT 9999 FEW017 25/24 Q1012 NOSIG</description><pubDate>Mon, 22 Sep 2025 20:27:23 </pubDate></item></channel></rss>