<rss version="2.0"><channel><title>Aviation Weather METAR Data for WADD</title><link>https://aviationweather.gov/api/data/metar?ids=WADD&amp;hours=24</link><description>Latest METAR data for WADD</description><item><title>2025-03-04 12:48:40Z</title><link>https://aviationweather.gov/api/data/metar?ids=WADD&amp;hours=24</link><description>WADD 041230Z 09006KT 9999 FEW017 28/28 Q1008 NOSIG
WADD 041200Z 10007KT 9999 FEW017 29/28 Q1008 NOSIG
WADD 041130Z 12009KT 9999 FEW017 29/27 Q1008 NOSIG
WADD 041100Z 12008KT 9999 FEW017 29/27 Q1007 NOSIG
WADD 041030Z 12009KT 9999 FEW017 30/27 Q1007 NOSIG
WADD 041000Z 10007KT 9999 FEW017 30/26 Q1007 NOSIG
WADD 040930Z 10007KT 9999 FEW017 30/26 Q1006 NOSIG
WADD 040900Z 12008KT 9999 FEW017 31/27 Q1006 NOSIG
WADD 040830Z 12010KT 9999 FEW017 31/27 Q1006 NOSIG
WADD 040800Z 11010KT 9999 FEW017 31/27 Q1006 NOSIG
WADD 040730Z 10009KT 9999 FEW017 32/27 Q1006 NOSIG
WADD 040700Z 12007KT 9999 FEW017 32/27 Q1006 NOSIG
WADD 040630Z 12008KT 090V150 9999 FEW017 32/28 Q1007 NOSIG
WADD 040600Z 11010KT 9999 FEW017 31/27 Q1007 NOSIG
WADD 040530Z 11010KT 9999 FEW017 31/28 Q1007 NOSIG
WADD 040500Z 11010KT 9999 FEW017 31/27 Q1007 NOSIG
WADD 040430Z 11011KT 9999 FEW017 31/28 Q1008 NOSIG
WADD 040400Z 11010KT 9999 FEW017 31/28 Q1008 NOSIG
WADD 040330Z 10011KT 9999 FEW017 31/28 Q1009 NOSIG
WADD 040300Z 12012KT 9999 FEW017 30/28 Q1009 NOSIG
WADD 040230Z 09010KT 9999 FEW017 30/29 Q1009 NOSIG
WADD 040200Z 09010KT 9999 FEW017 30/29 Q1009 NOSIG
WADD 040130Z 10010KT 9999 FEW017 30/29 Q1009 NOSIG
WADD 040100Z 09008KT 9999 SCT016 29/29 Q1009 NOSIG
WADD 040030Z 13004KT 080V150 9999 SCT016 28/28 Q1009 NOSIG
WADD 040000Z 08004KT 9999 SCT015 27/27 Q1009 RERA NOSIG
WADD 032330Z 12004KT 6000 -RA FEW014CB BKN015 27/26 Q1009 TEMPO TL2430 6000 -RA
WADD 032300Z 13003KT 9999 FEW015CB SCT016 28/27 Q1008 NOSIG
WADD 032230Z 04003KT 9999 FEW015CB FEW016 27/26 Q1008 NOSIG
WADD 032200Z 05003KT 9999 FEW015CB SCT016 26/26 Q1008 NOSIG
WADD 032130Z 08004KT 9999 FEW015CB FEW016 27/27 Q1007 NOSIG
WADD 032100Z 07005KT 9999 FEW016 27/27 Q1008 NOSIG
WADD 032030Z 06002KT 9999 FEW016 27/27 Q1007 NOSIG
WADD 032000Z 07004KT 9999 FEW016 27/27 Q1007 NOSIG
WADD 031930Z 06003KT 9999 FEW016 27/27 Q1007 NOSIG
WADD 031900Z 09004KT 9999 SCT016 28/27 Q1007 NOSIG
WADD 031830Z 03003KT 9999 SCT016 28/28 Q1007 NOSIG
WADD 031800Z 08004KT 9999 FEW016 27/27 Q1007 NOSIG
WADD 031730Z 09004KT 9999 FEW016 28/28 Q1007 NOSIG
WADD 031700Z 10004KT 9999 FEW017 28/28 Q1008 NOSIG
WADD 031630Z 11004KT 9999 FEW017 28/28 Q1008 NOSIG
WADD 031600Z 10004KT 9999 FEW016 28/28 Q1008 NOSIG
WADD 031530Z 10005KT 9999 FEW016 28/28 Q1008 NOSIG
WADD 031500Z 09007KT 9999 FEW016 28/28 Q1008 NOSIG
WADD 031430Z 09006KT 9999 SCT016 28/28 Q1008 NOSIG
WADD 031400Z 10006KT 9999 SCT016 28/28 Q1008 NOSIG
WADD 031330Z 10006KT 9999 SCT016 29/28 Q1008 NOSIG
WADD 031300Z 12005KT 9999 SCT016 29/28 Q1008 NOSIG</description><pubDate>Tue, 04 Mar 2025 12:48:40 </pubDate></item></channel></rss>