<rss version="2.0"><channel><title>Aviation Weather METAR Data for WADD</title><link>https://aviationweather.gov/api/data/metar?ids=WADD&amp;hours=24</link><description>Latest METAR data for WADD</description><item><title>2025-01-01 11:18:23Z</title><link>https://aviationweather.gov/api/data/metar?ids=WADD&amp;hours=24</link><description>WADD 011100Z 33005KT 290V360 9999 SCT016 28/26 Q1007 NOSIG
WADD 011030Z 32004KT 280V350 9999 SCT016 28/26 Q1007 NOSIG
WADD 011000Z 30005KT 280V340 9999 SCT016 28/26 Q1007 NOSIG
WADD 010930Z 27004KT 220V300 9999 SCT016 28/26 Q1007 NOSIG
WADD 010900Z 30006KT 9999 SCT016 28/25 Q1006 NOSIG
WADD 010830Z 31005KT 280V350 9999 BKN016 28/25 Q1006 NOSIG
WADD 010800Z 29004KT 250V320 9999 SCT016 28/25 Q1006 NOSIG
WADD 010730Z 31005KT 270V350 9999 SCT016 28/26 Q1006 NOSIG
WADD 010700Z 31004KT 230V050 9999 SCT016 28/26 Q1006 NOSIG
WADD 010630Z 30003KT 9999 BKN016 28/26 Q1007 NOSIG
WADD 010600Z VRB02KT 9999 BKN016 28/26 Q1007 NOSIG
WADD 010530Z 05003KT 9999 BKN016 28/26 Q1007 NOSIG
WADD 010500Z VRB01KT 9999 FEW015CB BKN016 28/26 Q1008 NOSIG
WADD 010430Z VRB01KT 9999 FEW015CB BKN016 28/26 Q1008 NOSIG
WADD 010400Z VRB01KT 9999 FEW015CB BKN016 28/26 Q1009 NOSIG
WADD 010330Z VRB01KT 9999 FEW015CB BKN016 28/26 Q1009 NOSIG
WADD 010300Z 00000KT 9999 FEW015CB BKN016 28/26 Q1009 NOSIG
WADD 010230Z 25003KT 9999 FEW015CB BKN016 28/26 Q1009 NOSIG
WADD 010200Z 31005KT 250V350 9999 FEW015CB SCT016 28/26 Q1009 NOSIG
WADD 010130Z 31005KT 9999 BKN016 27/26 Q1009 NOSIG
WADD 010100Z 33004KT 300V020 9999 FEW015CB BKN016 27/26 Q1009 NOSIG
WADD 010030Z VRB02KT 9999 BKN015 27/26 Q1009 NOSIG
WADD 010000Z 34003KT 9999 BKN015 27/26 Q1009 NOSIG
WADD 312330Z 34004KT 300V010 9999 SCT016 27/26 Q1009 NOSIG
WADD 312300Z VRB01KT 9999 FEW017 26/26 Q1008 NOSIG
WADD 312230Z VRB01KT 9999 SCT016 26/26 Q1008 NOSIG
WADD 312200Z 02002KT 9999 SCT016 26/25 Q1008 NOSIG
WADD 312130Z 33003KT 9999 SCT016 26/26 Q1007 NOSIG
WADD 312100Z VRB01KT 9999 SCT016 26/25 Q1007 NOSIG
WADD 312030Z VRB02KT 9999 BKN014 26/25 Q1007 RERA NOSIG
WADD 312000Z 03003KT 7000 -RA BKN014 26/25 Q1007 TEMPO TL2100 7000 -RA
WADD 311930Z 33004KT 290V020 7000 -RA BKN014 26/25 Q1007 TEMPO TL2030 7000 -RA
WADD 311900Z VRB02KT 7000 -RA FEW014CB BKN014 26/26 Q1008 TEMPO TL2000 7000 -RA
WADD 311830Z 26003KT 8000 FEW014CB BKN014 26/26 Q1008 NOSIG
WADD 311800Z VRB02KT 8000 SCT016 26/25 Q1008 NOSIG
WADD 311730Z VRB01KT 8000 SCT016 26/26 Q1008 NOSIG
WADD 311703Z 33003KT 8000 SCT016 26/25 Q1009 NOSIG
WADD 311700Z 33003KT 8000 SCT016 26/25 Q1009 NOSIG
WADD 311630Z 35004KT 300V020 SCT016 26/25 Q1009 NOSIG
WADD 311600Z 06004KT 020V100 9999 SCT016 27/25 Q1009 NOSIG
WADD 311530Z 10002KT 9999 SCT016 26/25 Q1009 NOSIG
WADD 311500Z 11003KT 9999 SCT016 26/25 Q1010 NOSIG
WADD 311430Z 12003KT 9999 SCT016 26/25 Q1010 NOSIG
WADD 311400Z 14004KT 110V180 9999 BKN015 26/25 Q1009 NOSIG
WADD 311330Z 13005KT 080V150 9999 BKN014 26/25 Q1009 RERA NOSIG
WADD 311300Z 17004KT 140V220 7000 -RA FEW014CB BKN014 25/25 Q1009 TEMPO TL1400 7000 -RA
WADD 311230Z 22004KT 170V260 7000 -RA FEW014CB BKN014 25/25 Q1009 RETS TEMPO TL1330 7000 -RA
WADD 311200Z 35005KT 250V030 6000 -TSRA FEW014CB BKN014 26/26 Q1008 NOSIG TEMPO TL1300 6000 -TSRA RMK CB IN CLIMB-OUT
WADD 311130Z 02007KT 340V070 6000 -TSRA FEW015CB BKN016 26/26 Q1008 TEMPO TL1230 6000 -TSRA</description><pubDate>Wed, 01 Jan 2025 11:18:23 </pubDate></item></channel></rss>