<rss version="2.0"><channel><title>Aviation Weather METAR Data for WADD</title><link>https://aviationweather.gov/api/data/metar?ids=WADD&amp;hours=24</link><description>Latest METAR data for WADD</description><item><title>2026-01-17 17:43:40Z</title><link>https://aviationweather.gov/api/data/metar?ids=WADD&amp;hours=24</link><description>METAR WADD 171730Z 30008KT 9999 SCT016 27/25 Q1005 NOSIG
METAR WADD 171700Z 30009KT 9999 SCT016 28/25 Q1006 NOSIG
METAR WADD 171630Z 32003KT 9999 SCT016 27/24 Q1006 NOSIG
METAR WADD 171600Z 34005KT 300V010 9999 SCT016 28/24 Q1006 NOSIG
METAR WADD 171530Z 33006KT 9999 SCT015 28/24 Q1006 NOSIG
METAR WADD 171500Z 30009KT 9999 FEW015CB BKN015 28/25 Q1007 NOSIG RMK CB IN APCH
METAR WADD 171430Z 28014KT 9999 FEW015CB BKN015 28/26 Q1007 NOSIG RMK CB IN APCH
METAR WADD 171400Z 25010KT 9999 FEW015CB BKN015 29/26 Q1007 NOSIG RMK CB IN APCH
METAR WADD 171330Z 26009KT 9999 FEW015CB BKN015 29/26 Q1006 NOSIG
METAR WADD 171300Z 26008KT 9999 FEW015CB SCT016 29/25 Q1006 NOSIG
METAR WADD 171230Z 25007KT 9999 FEW015CB SCT016 29/25 Q1006 NOSIG
METAR WADD 171200Z 26007KT 9999 FEW015CB FEW016 28/25 Q1005 NOSIG
METAR WADD 171130Z 25008KT 9999 FEW015CB FEW016 29/25 Q1005 NOSIG
METAR WADD 171100Z 26009KT 9999 FEW017 29/25 Q1005 NOSIG
METAR WADD 171030Z 26010KT 9999 FEW017 29/25 Q1004 NOSIG
METAR WADD 171000Z 25010KT 9999 FEW017 29/25 Q1004 NOSIG
METAR WADD 170930Z 27013KT 9999 FEW017 30/25 Q1004 NOSIG
METAR WADD 170900Z 26015KT 9999 FEW017 30/24 Q1004 NOSIG
METAR WADD 170830Z 26013KT 9999 FEW017 31/24 Q1003 NOSIG
METAR WADD 170800Z 25013KT 9999 FEW017 31/25 Q1003 NOSIG
METAR WADD 170730Z 25010KT 9999 FEW017 30/25 Q1004 NOSIG
METAR WADD 170700Z 25010KT 9999 FEW017 31/25 Q1004 NOSIG
METAR WADD 170630Z 26010KT 9999 FEW017 30/25 Q1004 NOSIG
METAR WADD 170600Z 26009KT 9999 FEW017 30/25 Q1004 NOSIG
METAR WADD 170530Z 26011KT 9999 FEW017 30/25 Q1005 NOSIG
METAR WADD 170500Z 26012KT 9999 FEW017 31/26 Q1005 NOSIG
METAR WADD 170430Z 26012KT 9999 FEW017 30/25 Q1005 NOSIG
METAR WADD 170400Z 27012KT 9999 FEW017 30/25 Q1006 NOSIG
METAR WADD 170330Z 29010KT 9999 FEW017 30/25 Q1006 NOSIG
METAR WADD 170300Z 28010KT 9999 FEW017 30/25 Q1007 NOSIG
METAR WADD 170230Z 27009KT 9999 SCT016 29/25 Q1007 NOSIG
METAR WADD 170200Z 26008KT 9999 SCT016 29/25 Q1007 NOSIG
METAR WADD 170130Z 26007KT 9999 SCT016 29/25 Q1007 NOSIG
METAR WADD 170100Z 26008KT 9999 SCT016 28/25 Q1007 NOSIG
METAR WADD 170030Z 26008KT 9999 SCT016 28/25 Q1007 NOSIG
SPECI WADD 170016Z 26008KT 9999 SCT016 27/25 Q1007 RERA NOSIG
METAR WADD 170000Z 25007KT 8000 -RA SCT016 27/25 Q1007 TEMPO TL0100 -RA
METAR WADD 162330Z 28013KT 9999 FEW015CB SCT016 28/24 Q1006 NOSIG
METAR WADD 162300Z 29008KT 9999 SCT016 28/25 Q1006 NOSIG
METAR WADD 162230Z 29008KT 9999 FEW017 27/25 Q1006 NOSIG
METAR WADD 162200Z 30007KT 9999 FEW017 27/25 Q1006 NOSIG
METAR WADD 162130Z 30006KT 9999 FEW017 27/25 Q1005 NOSIG
METAR WADD 162100Z 28009KT 9999 FEW016 27/24 Q1005 NOSIG
METAR WADD 162030Z 34003KT 9999 SCT016 27/24 Q1006 NOSIG
METAR WADD 162000Z 34005KT 9999 SCT016 27/24 Q1006 NOSIG
METAR WADD 161930Z 29010KT 9999 FEW016 27/25 Q1005 NOSIG
METAR WADD 161900Z 28011KT 9999 FEW016 27/25 Q1005 NOSIG
METAR WADD 161830Z 29013KT 9999 BKN016 27/25 Q1005 NOSIG
METAR WADD 161800Z 28014KT 9999 BKN016 27/25 Q1005 NOSIG</description><pubDate>Sat, 17 Jan 2026 17:43:40 </pubDate></item></channel></rss>