<rss version="2.0"><channel><title>Aviation Weather METAR Data for WADD</title><link>https://aviationweather.gov/api/data/metar?ids=WADD&amp;hours=24</link><description>Latest METAR data for WADD</description><item><title>2025-01-24 17:39:34Z</title><link>https://aviationweather.gov/api/data/metar?ids=WADD&amp;hours=24</link><description>WADD 241730Z 00000KT 9999 SCT016 27/25 Q1008 NOSIG
WADD 241700Z VRB03KT 9999 SCT016 27/25 Q1008 NOSIG
WADD 241630Z 32004KT 270V350 9999 SCT016 27/25 Q1008 NOSIG
WADD 241600Z 32005KT 9999 SCT016 27/25 Q1008 NOSIG
WADD 241530Z 34004KT 310V010 9999 SCT016 27/26 Q1009 NOSIG
WADD 241500Z 34003KT 9999 SCT016 28/26 Q1008 NOSIG
WADD 241430Z 23002KT 9999 SCT016 28/26 Q1008 NOSIG
WADD 241400Z 24003KT 9999 SCT016 28/25 Q1008 NOSIG
WADD 241330Z 25002KT 9999 SCT016 27/26 Q1008 NOSIG
WADD 241300Z VRB02KT 9999 SCT016 28/26 Q1007 NOSIG
WADD 241230Z 22002KT 9999 SCT016 28/26 Q1007 NOSIG
WADD 241200Z 24002KT 9999 SCT016 28/26 Q1007 NOSIG
WADD 241130Z 25005KT 9999 SCT016 28/25 Q1007 NOSIG
WADD 241100Z 25004KT 9999 SCT016 28/26 Q1007 NOSIG
WADD 241030Z 25005KT 9999 SCT016 28/25 Q1006 NOSIG
WADD 241000Z 25005KT 9999 SCT016 29/25 Q1006 NOSIG
WADD 240930Z 24005KT 200V270 9999 FEW015CB BKN016 29/25 Q1006 NOSIG
WADD 240900Z 25006KT 9999 FEW015CB SCT016 29/26 Q1006 NOSIG
WADD 240830Z 26006KT 9999 FEW015CB SCT016 29/26 Q1006 RETS NOSIG
WADD 240800Z 26006KT 9999 TS FEW015CB SCT016 29/26 Q1006 TEMPO TL0900 TS
WADD 240730Z 25006KT 9999 TS FEW015CB SCT016 29/26 Q1006 TEMPO TL0830 TS
WADD 240700Z 27007KT 9999 FEW015CB SCT016 29/26 Q1006 NOSIG
WADD 240630Z 26005KT 220V300 9999 FEW015CB SCT016 29/26 Q1007 NOSIG
WADD 240600Z 26006KT 9999 FEW015CB SCT016 28/25 Q1007 NOSIG
WADD 240530Z 27006KT 220V280 9999 FEW015CB SCT016 29/25 Q1007 NOSIG
WADD 240500Z 26007KT 9999 SCT016 29/26 Q1007 NOSIG
WADD 240430Z 27008KT 9999 BKN016 28/26 Q1008 NOSIG
WADD 240400Z 30008KT 9999 BKN016 29/26 Q1008 NOSIG
WADD 240330Z 32008KT 9999 FEW014CB BKN015 28/25 Q1008 NOSIG
WADD 240300Z 32008KT 9999 FEW014CB BKN015 28/26 Q1009 NOSIG
WADD 240230Z 32007KT 290V010 9999 FEW014CB BKN015 29/26 Q1009 NOSIG
WADD 240200Z 34007KT 290V020 9999 BKN015 28/26 Q1009 NOSIG
WADD 240130Z 33007KT 9999 FEW014CB BKN015 28/27 Q1009 NOSIG
WADD 240100Z 32007KT 9999 FEW014CB BKN015 27/26 Q1009 NOSIG
WADD 240030Z 32004KT 290V350 9999 FEW014CB BKN015 27/26 Q1008 NOSIG
WADD 240000Z 36005KT 320V030 9999 FEW014CB BKN015 27/26 Q1008 NOSIG
WADD 232330Z 36003KT 9999 FEW014CB BKN014 26/26 Q1007 RERA NOSIG
WADD 232300Z 33003KT 4000 RA FEW014CB BKN014 26/25 Q1007 TEMPO TL2400 4000 RA RMK CB IN APCH AND CLIMB-OUT
WADD 232230Z 03004KT 350V050 4000 RA FEW014CB BKN014 26/25 Q1007 TEMPO TL2300 4000 RA RMK CB IN APCH AND CLIMB-OUT
WADD 232200Z 07003KT 8000 -RA FEW014CB BKN014 26/26 Q1007 TEMPO TL2300 8000 -RA RMK CB IN APCH AND CLIMB-OUT
WADD 232130Z VRB01KT 8000 -RA BKN015 26/26 Q1007 TEMPO TL2300 8000 -RA
WADD 232100Z 36003KT 9999 BKN015 26/25 Q1006 NOSIG
WADD 232030Z VRB01KT 9999 BKN015 26/26 Q1007 NOSIG
WADD 232000Z VRB01KT 9999 BKN015 26/26 Q1007 NOSIG
WADD 231930Z VRB02KT 9999 BKN015 26/26 Q1007 NOSIG
WADD 231900Z 25003KT 9999 BKN015 26/26 Q1007 RERA NOSIG
WADD 231830Z VRB02KT 6000 -RA SCT016 26/25 Q1007 TEMPO TL2000 6000 -RA
WADD 231800Z VRB02KT 9999 SCT016 26/25 Q1007 NOSIG</description><pubDate>Fri, 24 Jan 2025 17:39:34 </pubDate></item></channel></rss>