<rss version="2.0"><channel><title>Aviation Weather METAR Data for WADD</title><link>https://aviationweather.gov/api/data/metar?ids=WADD&amp;hours=24</link><description>Latest METAR data for WADD</description><item><title>2025-03-28 19:39:35Z</title><link>https://aviationweather.gov/api/data/metar?ids=WADD&amp;hours=24</link><description>WADD 281930Z 24004KT 8000 -RA FEW014CB BKN015 25/24 Q1006 TEMPO TL2000 8000 -RA
WADD 281900Z 23005KT 6000 -RA FEW014CB BKN015 25/24 Q1006 TEMPO TL2000 6000 -RA
WADD 281830Z 22005KT 170V250 3000 RA FEW014CB BKN015 25/25 Q1007 TEMPO TL1930 3000 RA
WADD 281800Z 22006KT 170V270 8000 -RA FEW014CB BKN015 25/25 Q1007 TEMPO TL1900 8000 -RA
WADD 281730Z 23010G20KT 6000 -RA FEW014CB BKN015 25/25 Q1007 TREND TEMPO TL1830 6000 -RA
WADD 281700Z 24021KT 8000 -RA FEW014CB BKN015 27/27 Q1007 TREND TEMPO TL1800 8000 -RA
WADD 281630Z VRB01KT 9999 FEW015CB SCT016 28/27 Q1007 NOSIG
WADD 281600Z 13003KT 9999 SCT016 29/27 Q1007 NOSIG
WADD 281530Z 03003KT 9999 SCT016 28/26 Q1007 NOSIG
WADD 281500Z 08005KT 9999 SCT016 28/26 Q1008 NOSIG
WADD 281430Z 07003KT 9999 SCT016 28/27 Q1008 NOSIG
WADD 281400Z 10003KT 9999 SCT016 28/27 Q1008 NOSIG
WADD 281330Z 11002KT 9999 SCT016 29/27 Q1008 NOSIG
WADD 281300Z 13005KT 9999 SCT016 29/28 Q1007 NOSIG
WADD 281230Z 13004KT 9999 SCT016 29/27 Q1007 NOSIG
WADD 281200Z 13004KT 9999 SCT016 29/27 Q1007 NOSIG
WADD 281130Z 12003KT 9999 SCT016 29/27 Q1006 NOSIG
WADD 281100Z 07005KT 050V120 9999 SCT016 29/26 Q1006 NOSIG
WADD 281030Z 10004KT 9999 SCT016 29/27 Q1006 NOSIG
WADD 281000Z 10004KT 9999 SCT016 29/27 Q1005 NOSIG
WADD 280930Z 11006KT 9999 SCT016 29/27 Q1005 NOSIG
WADD 280900Z 08007KT 040V120 9999 SCT016 29/27 Q1005 NOSIG
WADD 280830Z 24005KT 200V260 9999 FEW017 31/27 Q1004 NOSIG
WADD 280800Z VRB03KT 9999 FEW017 31/25 Q1004 NOSIG
WADD 280730Z 26006KT 230V290 9999 SCT017 31/25 Q1004 NOSIG
WADD 280700Z 25007KT 210V300 9999 SCT017 32/25 Q1004 NOSIG
WADD 280630Z VRB05KT 9999 SCT017 32/25 Q1004 NOSIG
WADD 280600Z 13004KT 080V170 9999 FEW017 31/26 Q1005 NOSIG
WADD 280530Z VRB04KT 9999 SCT016 32/26 Q1005 NOSIG
WADD 280500Z 25006KT 210V290 9999 FEW016 31/26 Q1005 NOSIG
WADD 280430Z 26007KT 210V290 9999 SCT016 30/26 Q1006 NOSIG
WADD 280400Z 27006KT 210V310 9999 FEW016CB SCT017 31/26 Q1007 RMK CB IN APCH NOSIG
WADD 280330Z 29006KT 250V330 9999 FEW016CB SCT017 31/25 Q1007 RMK CB IN APCH NOSIG
WADD 280300Z 30008KT 260V330 9999 FEW016CB SCT017 31/25 Q1007 NOSIG
WADD 280230Z 29008KT 260V320 9999 FEW017 31/26 Q1007 NOSIG
WADD 280200Z 29007KT 9999 FEW017 31/26 Q1007 NOSIG
WADD 280130Z 29007KT 260V320 9999 FEW017 30/25 Q1007 NOSIG
WADD 280100Z 29007KT 9999 FEW017 30/26 Q1007 NOSIG
WADD 280030Z 32006KT 9999 SCT016 29/26 Q1007 NOSIG
WADD 280000Z 33004KT 300V360 9999 SCT016 28/25 Q1007 NOSIG
WADD 272330Z VRB02KT 9999 SCT017 27/25 Q1006 NOSIG
WADD 272300Z VRB02KT 9999 SCT017 26/25 Q1006 NOSIG
WADD 272230Z 14003KT 9999 SCT017 26/25 Q1006 NOSIG
WADD 272200Z VRB01KT 9999 FEW017 26/24 Q1005 NOSIG
WADD 272130Z 35004KT 9999 FEW017 26/26 Q1005 NOSIG
WADD 272100Z 03003KT 9999 FEW017 26/26 Q1005 NOSIG
WADD 272030Z 01004KT 9999 FEW017 26/26 Q1004 NOSIG
WADD 272000Z VRB02KT 9999 FEW017 27/26 Q1005 NOSIG</description><pubDate>Fri, 28 Mar 2025 19:39:35 </pubDate></item></channel></rss>