<rss version="2.0"><channel><title>Aviation Weather METAR Data for WADD</title><link>https://aviationweather.gov/api/data/metar?ids=WADD&amp;hours=24</link><description>Latest METAR data for WADD</description><item><title>2025-08-20 07:26:10Z</title><link>https://aviationweather.gov/api/data/metar?ids=WADD&amp;hours=24</link><description>WADD 200700Z 13012KT 9999 FEW017 30/24 Q1010 NOSIG
WADD 200630Z 11011KT 9999 FEW017 30/24 Q1010 NOSIG
WADD 200600Z 11011KT 9999 FEW017 30/24 Q1010 NOSIG
WADD 200530Z 12011KT 9999 FEW017 30/24 Q1010 NOSIG
WADD 200500Z 11010KT 9999 FEW017 29/25 Q1010 NOSIG
WADD 200430Z 12011KT 9999 FEW017 29/25 Q1011 NOSIG
WADD 200400Z 12009KT 9999 FEW017 29/25 Q1011 NOSIG
WADD 200330Z 11011KT 9999 FEW017 29/25 Q1011 NOSIG
WADD 200300Z 12010KT 9999 FEW017 29/24 Q1012 NOSIG
WADD 200230Z 10009KT 9999 FEW017 29/24 Q1012 NOSIG
WADD 200200Z 10006KT 9999 FEW017 29/24 Q1013 NOSIG
WADD 200130Z 11005KT 070V140 9999 FEW017 28/24 Q1013 NOSIG
WADD 200100Z 12004KT 070V180 9999 FEW017 28/24 Q1013 NOSIG
WADD 200030Z 07004KT 330V110 9999 FEW017 Q1013 NOSIG
WADD 200000Z 01005KT 9999 FEW017 26/25 Q1012 NOSIG
WADD 192330Z 07003KT 9999 FEW017 26/25 Q1012 NOSIG
WADD 192300Z 09002KT 9999 FEW017 25/24 Q1012 NOSIG
WADD 192230Z 15003KT 9999 FEW017 26/25 Q1012 NOSIG
WADD 192200Z 19004KT 9999 FEW017 26/25 Q1012 NOSIG
WADD 192130Z 18003KT 9999 FEW017 26/25 Q1012 NOSIG
WADD 192100Z 17003KT 9999 FEW017 25/25 Q1012 NOSIG
WADD 192030Z 15004KT 9999 FEW017 26/25 Q1011 NOSIG
WADD 192000Z 15003KT 9999 FEW017 26/25 Q1011 NOSIG
WADD 191930Z 15004KT 9999 FEW017 26/25 Q1011 NOSIG
WADD 191900Z 13004KT 9999 FEW017 26/25 Q1011 NOSIG
WADD 191830Z 11004KT 9999 FEW017 26/24 Q1011 NOSIG
WADD 191800Z 13004KT 9999 FEW017 26/25 Q1012 NOSIG
WADD 191730Z 12005KT 9999 FEW017 26/24 Q1012 NOSIG
WADD 191700Z 10007KT 9999 FEW017 26/24 Q1012 NOSIG
WADD 191630Z 10008KT 9999 FEW017 26/24 Q1012 NOSIG
WADD 191600Z 10010KT 9999 SCT016 26/24 Q1012 NOSIG
WADD 191530Z 10011KT 9999 SCT016 26/24 Q1012 NOSIG
WADD 191500Z 10012KT 9999 SCT016 27/25 Q1013 NOSIG
WADD 191430Z 11011KT 9999 SCT016 27/25 Q1013 NOSIG
WADD 191400Z 11011KT 9999 SCT016 27/25 Q1012 NOSIG
WADD 191330Z 11012KT 9999 SCT016 27/25 Q1012 NOSIG
WADD 191300Z 11014KT 9999 SCT016 27/25 Q1012 NOSIG
WADD 191230Z 12012KT 9999 SCT016 27/25 Q1012 NOSIG
WADD 191200Z 13014KT 9999 SCT016 27/25 Q1011 NOSIG
WADD 191130Z 13012KT 9999 SCT016 27/26 Q1011 NOSIG
WADD 191100Z 13012KT 9999 SCT016 27/25 Q1011 NOSIG
WADD 191030Z 13012KT 9999 FEW014CB BKN015 27/26 Q1011 RERA NOSIG
WADD 191000Z 13015KT 9999 BKN016 28/25 Q1010 NOSIG
WADD 190930Z 13016KT 9999 BKN016 28/25 Q1010 NOSIG
WADD 190900Z 13014KT 9999 SCT016 28/25 Q1010 NOSIG
WADD 190830Z 14015KT 9999 SCT016 29/26 Q1009 NOSIG
WADD 190800Z 14016KT 9999 SCT016 29/25 Q1010 NOSIG
WADD 190730Z 14015KT 9999 FEW017 29/25 Q1010 NOSIG</description><pubDate>Wed, 20 Aug 2025 07:26:10 </pubDate></item></channel></rss>