<rss version="2.0"><channel><title>Aviation Weather METAR Data for WADD</title><link>https://aviationweather.gov/api/data/metar?ids=WADD&amp;hours=24</link><description>Latest METAR data for WADD</description><item><title>2025-11-25 07:42:25Z</title><link>https://aviationweather.gov/api/data/metar?ids=WADD&amp;hours=24</link><description>METAR WADD 250700Z 25010KT 9999 FEW017 31/25 Q1005 NOSIG
METAR WADD 250630Z 25011KT 9999 FEW017 31/25 Q1005 NOSIG
METAR WADD 250600Z 26013KT 9999 FEW017 31/25 Q1005 NOSIG
METAR WADD 250530Z 26012KT 9999 FEW016 31/25 Q1006 NOSIG
METAR WADD 250500Z 26012KT 9999 FEW016 31/25 Q1006 NOSIG
METAR WADD 250430Z 26012KT 9999 SCT016 31/26 Q1006 NOSIG
METAR WADD 250400Z 26012KT 9999 SCT016 31/26 Q1007 NOSIG
METAR WADD 250330Z 27011KT 9999 SCT015 31/26 Q1007 NOSIG
METAR WADD 250300Z 26009KT 230V300 9999 SCT015 31/26 Q1007 NOSIG
METAR WADD 250230Z 27009KT 9999 SCT015 31/26 Q1008 NOSIG
METAR WADD 250200Z 28010KT 9999 SCT015 30/25 Q1008 NOSIG
METAR WADD 250130Z 26008KT 220V290 9999 SCT015 31/26 Q1008 NOSIG
METAR WADD 250100Z 27008KT 9999 SCT014 29/26 Q1008 NOSIG
METAR WADD 250030Z 30007KT 9999 SCT014 29/26 Q1008 NOSIG
METAR WADD 250000Z 30007KT 9999 SCT014 29/26 Q1008 NOSIG
METAR WADD 242330Z 32005KT 9999 SCT014 28/26 Q1008 NOSIG
METAR WADD 242300Z 31005KT 9999 SCT016 27/26 Q1007 NOSIG
METAR WADD 242230Z VRB02KT 9999 FEW015CB BKN016 26/24 Q1007 RERA NOSI G
METAR WADD 242200Z VRB02KT 7000 -RA FEW015CB BKN016 26/25 Q1007 TEMPO TL2300 -RA RMK CB OVER THE FIELD
METAR WADD 242130Z VRB05KT 9999 FEW015CB SCT016 26/25 Q1007 NOSIG
METAR WADD 242100Z VRB02KT 9999 FEW015CB SCT016 26/25 Q1007 NOSIG
METAR WADD 242030Z 01005KT 9999 FEW015CB SCT016 26/24 Q1007 NOSIG
METAR WADD 242000Z 33005KT 9999 FEW015CB SCT016 27/25 Q1007 RETS NOSI G
METAR WADD 241930Z 31007KT 9999 TS FEW015CB SCT016 27/25 Q1007 TEMPO TL2030 TS
METAR WADD 241900Z 36004KT 310V070 9999 TS FEW015CB BKN015 26/25 Q100 6 TEMPO TL2000 TS
METAR WADD 241830Z VRB03KT 9999 TS FEW015CB BKN015 26/25 Q1007 RERA TEMPO TL1930 TS
METAR WADD 241800Z 33008KT 290V010 8000 -TSRA FEW015CB BKN015 27/25 Q1007 TEMPO TL1900 -TSRA
METAR WADD 241730Z 29010KT 7000 -TSRA FEW015CB BKN015 26/24 Q1007 TEMPO TL1830 -TSRA RMK CB IN CLIMB-OUT
METAR WADD 241700Z 27013KT 6000 -TSRA FEW015CB BKN015 27/24 Q1007 TEMPO TL1800 -TSRA RMK CB IN CLIMB-OUT
METAR WADD 241630Z 29010KT 9999 FEW015CB SCT016 28/25 Q1007 NOSIG
METAR WADD 241600Z 28009KT 9999 SCT016 28/25 Q1007 NOSIG
METAR WADD 241530Z 27008KT 9999 SCT016 28/25 Q1008 NOSIG
METAR WADD 241500Z 27007KT 9999 FEW017 28/25 Q1008 NOSIG
METAR WADD 241430Z 27009KT 9999 FEW017 28/25 Q1008 NOSIG
METAR WADD 241400Z 27009KT 9999 FEW017 28/25 Q1008 NOSIG
METAR WADD 241330Z 27010KT 9999 FEW017 28/25 Q1008 NOSIG
METAR WADD 241300Z 27009KT 9999 SCT016 28/25 Q1008 NOSIG
METAR WADD 241230Z 26008KT 9999 SCT016 28/25 Q1007 NOSIG
METAR WADD 241200Z 26006KT 9999 FEW017 28/25 Q1007 NOSIG
METAR WADD 241130Z 25005KT 9999 FEW017 28/25 Q1007 NOSIG
METAR WADD 241100Z 26004KT 9999 FEW017 28/25 Q1007 NOSIG
METAR WADD 241030Z 26006KT 9999 FEW017 28/25 Q1007 NOSIG
METAR WADD 241000Z 27007KT 9999 FEW017 29/25 Q1007 NOSIG
METAR WADD 240930Z 26008KT 9999 FEW017 29/25 Q1006 NOSIG
METAR WADD 240900Z 26008KT 9999 FEW017 30/25 Q1006 NOSIG
METAR WADD 240830Z 25007KT 9999 FEW017 30/25 Q1006 NOSIG
METAR WADD 240800Z 26007KT 220V280 9999 FEW017 29/25 Q1006 NOSIG
METAR WADD 240730Z 26008KT 9999 FEW017 29/25 Q1006 NOSIG</description><pubDate>Tue, 25 Nov 2025 07:42:25 </pubDate></item></channel></rss>