<rss version="2.0"><channel><title>Aviation Weather METAR Data for WADD</title><link>https://aviationweather.gov/api/data/metar?ids=WADD&amp;hours=24</link><description>Latest METAR data for WADD</description><item><title>2025-02-16 17:39:32Z</title><link>https://aviationweather.gov/api/data/metar?ids=WADD&amp;hours=24</link><description>WADD 161730Z 07006KT 9999 FEW015CB BKN016 27/27 Q1009 NOSIG
WADD 161700Z 05007KT 9999 FEW015CB BKN016 28/27 Q1009 NOSIG
WADD 161630Z 05006KT 9999 FEW015CB BKN016 28/27 Q1010 NOSIG
WADD 161600Z 03005KT 9999 FEW015CB BKN016 28/26 Q1011 NOSIG
WADD 161530Z 06005KT 9999 FEW015CB BKN016 28/27 Q1011 NOSIG
WADD 161500Z 04004KT 9999 FEW015CB BKN016 28/27 Q1011 NOSIG
WADD 161430Z 05005KT 9999 FEW015CB BKN016 28/27 Q1011 NOSIG
WADD 161400Z 09005KT 9999 FEW015CB BKN016 28/27 Q1011 NOSIG
WADD 161330Z 09004KT 9999 SCT016 28/26 Q1011 NOSIG
WADD 161300Z 09004KT 9999 SCT016 28/26 Q1010 NOSIG
WADD 161230Z 12004KT 9999 SCT016 28/27 Q1010 NOSIG
WADD 161200Z 11004KT 9999 BKN016 28/27 Q1010 NOSIG
WADD 161130Z 10004KT 9999 BKN016 28/27 Q1009 NOSIG
WADD 161100Z 09006KT 9999 BKN016 28/27 Q1009 NOSIG
WADD 161030Z 09007KT 9999 BKN016 28/27 Q1008 RERA NOSIG
WADD 161000Z 09009KT 8000 -RA BKN016 29/27 Q1008 TEMPO TL1100 -RA
WADD 160930Z 08008KT 9999 BKN016 29/26 Q1007 NOSIG
WADD 160900Z 26007KT 9999 BKN016 30/26 Q1007 NOSIG
WADD 160830Z 27007KT 9999 SCT016 31/26 Q1007 NOSIG
WADD 160800Z 27008KT 9999 FEW015CB SCT016 31/27 Q1007 NOSIG
WADD 160730Z 25008KT 9999 FEW015CB SCT016 31/27 Q1007 NOSIG
WADD 160700Z 25009KT 9999 SCT016 FEW015CB 31/26 Q1007 NOSIG
WADD 160630Z 25008KT 9999 SCT17 31/26 Q1008 NOSIG
WADD 160600Z 25010KT 9999 SCT017 31/27 Q1008 NOSIG
WADD 160530Z 25011KT 9999 FEW017 31/26 Q1008 NOSIG
WADD 160500Z 25010KT 9999 FEW017 31/27 Q1008 NOSIG
WADD 160430Z 25009KT 210V290 9999 FEW017 31/27 Q1009 NOSIG
WADD 160400Z 25007KT 9999 FEW017 30/26 Q1009 NOSIG
WADD 160330Z 26006KT 220V290 9999 FEW017 31/26 Q1009 NOSIG
WADD 160300Z 26006KT 9999 FEW017 30/26 Q1010 NOSIG
WADD 160230Z 26007KT 9999 FEW017 30/26 Q1010 NOSIG
WADD 160200Z 26007KT 9999 FEW017 30/26 Q1010 NOSIG
WADD 160130Z 27006KT 220V290 9999 SCT016 29/26 Q1010 NOSIG
WADD 160100Z 25005KT 210V290 9999 SCT016 29/26 Q1010 NOSIG
WADD 160030Z VRB01KT 9999 SCT016 28/26 Q1010 NOSIG
WADD 160000Z VRB02KT 9999 SCT016 28/26 Q1010 NOSIG
WADD 152330Z 13002KT 9999 BKN016 27/26 Q1009 NOSIG
WADD 152300Z 08003KT 9999 BKN016 27/26 Q1009 NOSIG
WADD 152230Z 04003KT 9999 SCT016 26/25 Q1009 NOSIG
WADD 152200Z 07002KT 9999 SCT016 26/25 Q1008 NOSIG
WADD 152130Z VRB02KT 9999 SCT016 27/25 Q1008 NOSIG
WADD 152100Z 22004KT 9999 BKN016 27/26 Q1008 NOSIG
WADD 152030Z 23004KT 210V270 9999 BKN016 27/26 Q1008 NOSIG
WADD 152000Z 27009KT 9999 BKN016 27/26 Q1008 NOSIG
WADD 151930Z 26010KT 9999 BKN016 27/26 Q1008 NOSIG
WADD 151900Z 25007KT 9999 BKN016 27/26 Q1008 NOSIG
WADD 151830Z 27007KT 9999 BKN016 27/26 Q1008 NOSIG
WADD 151800Z 29007KT 9999 BKN016 27/26 Q1008 NOSIG</description><pubDate>Sun, 16 Feb 2025 17:39:32 </pubDate></item></channel></rss>