<rss version="2.0"><channel><title>Aviation Weather METAR Data for WADD</title><link>https://aviationweather.gov/api/data/metar?ids=WADD&amp;hours=24</link><description>Latest METAR data for WADD</description><item><title>2026-01-06 02:22:45Z</title><link>https://aviationweather.gov/api/data/metar?ids=WADD&amp;hours=24</link><description>METAR WADD 060200Z 28014KT 9999 SCT016 30/26 Q1010 NOSIG
METAR WADD 060130Z 28015KT 9999 FEW017 30/26 Q1010 NOSIG
METAR WADD 060100Z 29014KT 9999 FEW017 29/26 Q1010 NOSIG
METAR WADD 060030Z 30013KT 9999 SCT016 29/26 Q1010 NOSIG
METAR WADD 060000Z 27008KT 9999 BKN016 29/26 Q1010 NOSIG
METAR WADD 052330Z 28013KT 9999 BKN016 28/25 Q1010 RERA NOSIG
METAR WADD 052300Z 29015KT 6000 -RA FEW015CB BKN016 27/25 Q1010 TEMPO TL2400 6000 -RA RMK CB IN APCH
METAR WADD 052230Z 29015KT 8000 -RA FEW015CB BKN016 26/24 Q1009 TEMPO TL2330 -RA
METAR WADD 052200Z 29008KT 8000 -RA FEW015CB BKN016 26/25 Q1009 TEMPO TL2300 -RA
METAR WADD 052130Z 28009KT 8000 -RA BKN016 27/25 Q1009 TEMPO TL2230 -RA
METAR WADD 052100Z 28014KT 8000 -RA BKN016 27/25 Q1009 TEMPO TL2200 -RA
METAR WADD 052030Z 27008KT 9999 BKN016 28/25 Q1008 NOSIG
METAR WADD 052000Z 27011KT 9999 SCT016 28/25 Q1008 RERA NOSIG
METAR WADD 051930Z 26009KT 8000 -RA BKN016 28/25 Q1008 TEMPO TL2030 -RA
METAR WADD 051900Z 25007KT 9999 SCT016 28/26 Q1008 NOSIG
METAR WADD 051830Z 24007KT 9999 BKN016 28/25 Q1009 NOSIG
METAR WADD 051800Z 26010KT 9999 SCT016 28/25 Q1009 NOSIG
METAR WADD 051730Z 27011KT 9999 SCT016 28/26 Q1009 NOSIG
METAR WADD 051700Z 26011KT 9999 SCT016 29/25 Q1009 NOSIG
METAR WADD 051630Z 27011KT 9999 SCT016 29/25 Q1010 NOSIG
METAR WADD 051600Z 27012KT 9999 SCT016 28/25 Q1010 NOSIG
METAR WADD 051530Z 27011KT 9999 SCT016 28/25 Q1010 NOSIG
METAR WADD 051500Z 27010KT 9999 SCT016 28/25 Q1010 RERA NOSIG
METAR WADD 051430Z 28011KT 8000 -RA BKN016 28/26 Q1010 TEMPO TL1530 -RA
METAR WADD 051400Z 28010KT 9999 SCT017 29/25 Q1010 NOSIG
METAR WADD 051330Z COR 27009KT 9999 SCT017 29/25 Q1010 NOSIG
METAR WADD 051300Z 27009KT 9999 SCT017 29/25 Q1010 NOSIG
METAR WADD 051230Z 25008KT 9999 FEW017 29/25 Q1010 NOSIG
METAR WADD 051200Z 26010KT 9999 FEW017 29/24 Q1009 NOSIG
METAR WADD 051130Z 26010KT 9999 FEW017 29/25 Q1009 NOSIG
METAR WADD 051100Z 26010KT 9999 FEW017 29/24 Q1009 NOSIG
METAR WADD 051030Z 27013KT 9999 FEW017 29/25 Q1008 NOSIG
METAR WADD 051000Z 27012KT 9999 FEW017 29/25 Q1008 NOSIG
METAR WADD 050930Z 28013KT 9999 FEW016 30/25 Q1008 NOSIG
METAR WADD 050900Z 28012KT 9999 FEW016 30/25 Q1008 NOSIG
METAR WADD 050830Z 27013KT 9999 FEW016 30/25 Q1008 NOSIG
METAR WADD 050800Z 28011KT 9999 FEW016 30/25 Q1008 NOSIG
METAR WADD 050730Z 30011KT 9999 FEW016 30/25 Q1008 NOSIG
METAR WADD 050700Z 29010KT 9999 FEW016 30/25 Q1009 NOSIG
METAR WADD 050630Z 29012KT 9999 SCT016 30/25 Q1009 NOSIG
METAR WADD 050600Z 30011KT 9999 SCT016 30/25 Q1009 NOSIG
METAR WADD 050530Z 30011KT 9999 FEW015CB BKN015 30/25 Q1010 NOSIG
METAR WADD 050500Z 29010KT 9999 FEW015CB BKN015 29/25 Q1010 RERA NOSI G
METAR WADD 050430Z 29010KT 8000 -RA FEW015CB BKN015 28/25 Q1010 TEMPO TL0530 8000 -RA
METAR WADD 050400Z 29009KT 8000 -RA FEW015CB BKN015 27/25 Q1011 TEMPO TL0530 8000 -RA
METAR WADD 050330Z 30012KT 8000 -RA FEW015CB BKN015 27/25 Q1011 TEMPO TL0400 8000 -RA
METAR WADD 050300Z 29010KT 8000 -RA FEW015CB BKN015 28/25 Q1011 TEMPO TL0400 8000 -RA
METAR WADD 050230Z 30011KT 9999 FEW015CB BKN015 28/25 Q1011 RERA NOSI G</description><pubDate>Tue, 06 Jan 2026 02:22:45 </pubDate></item></channel></rss>