<rss version="2.0"><channel><title>Aviation Weather METAR Data for WADD</title><link>https://aviationweather.gov/api/data/metar?ids=WADD&amp;hours=24</link><description>Latest METAR data for WADD</description><item><title>2026-01-29 11:39:05Z</title><link>https://aviationweather.gov/api/data/metar?ids=WADD&amp;hours=24</link><description>METAR WADD 291130Z 13006KT 9999 FEW017 29/26 Q1010 NOSIG
METAR WADD 291100Z 13007KT 9999 FEW017 29/26 Q1010 NOSIG
METAR WADD 291030Z 13008KT 9999 FEW017 30/26 Q1009 NOSIG
METAR WADD 291000Z 12007KT 9999 FEW017 30/26 Q1009 NOSIG
METAR WADD 290930Z 14007KT 9999 FEW017 30/26 Q1009 NOSIG
METAR WADD 290900Z 13006KT 9999 FEW017 30/26 Q1009 NOSIG
METAR WADD 290830Z 11006KT 9999 FEW017 30/25 Q1009 NOSIG
METAR WADD 290800Z 11006KT 9999 FEW017 30/25 Q1009 NOSIG
METAR WADD 290730Z 10007KT 9999 FEW017 31/25 Q1009 NOSIG
METAR WADD 290700Z 11009KT 9999 FEW017 31/25 Q1009 NOSIG
METAR WADD 290630Z 11010KT 9999 FEW017 32/25 Q1010 NOSIG
METAR WADD 290600Z 27014KT 9999 FEW017 31/25 Q1007 NOSIG
METAR WADD 290530Z 11010KT 9999 FEW017 32/24 Q1010 NOSIG
METAR WADD 290500Z 23005KT 9999 FEW017 32/26 Q1010 NOSIG
METAR WADD 290430Z 22007KT 9999 FEW017 32/26 Q1011 NOSIG
METAR WADD 290400Z 15007KT 080V220 9999 FEW017 33/26 Q1011 NOSIG
METAR WADD 290330Z 18003KT 9999 FEW017 33/26 Q1012 NOSIG
METAR WADD 290300Z 19005KT 9999 FEW017 31/26 Q1012 NOSIG
METAR WADD 290230Z 16004KT 9999 FEW017 31/26 Q1012 NOSIG
METAR WADD 290200Z 15003KT 9999 FEW017 30/27 Q1012 NOSIG
METAR WADD 290130Z 14005KT 9999 FEW017 29/28 Q1012 NOSIG
METAR WADD 290100Z 12004KT 010V150 9999 FEW017 27/27 Q1012 NOSIG
METAR WADD 290030Z 04005KT 9999 FEW016 26/26 Q1012 NOSIG
METAR WADD 290000Z VRB02KT 9999 FEW016 26/24 Q1012 NOSIG
METAR WADD 282330Z 05004KT 360V090 9999 FEW016 26/24 Q1011 NOSIG
METAR WADD 282300Z 05003KT 9999 FEW016 25/24 Q1011 NOSIG
METAR WADD 282230Z 02004KT 9999 SCT016 25/24 Q1011 NOSIG
METAR WADD 282200Z 05003KT 9999 SCT016 24/24 Q1010 NOSIG
METAR WADD 282130Z 04002KT 9999 SCT016 25/24 Q1010 NOSIG
METAR WADD 282100Z 07002KT 9999 SCT016 25/24 Q1010 NOSIG
METAR WADD 282030Z VRB01KT 9999 SCT016 25/24 Q1010 NOSIG
METAR WADD 282000Z VRB01KT 9999 SCT016 25/24 Q1010 NOSIG
METAR WADD 281930Z 03002KT 9999 SCT016 25/24 Q1011 NOSIG
METAR WADD 281900Z VRB01KT 9999 SCT016 25/24 Q1011 NOSIG
METAR WADD 281830Z VRB02KT 9999 SCT016 24/24 Q1011 NOSIG
METAR WADD 281800Z VRB02KT 9999 SCT016 25/24 Q1011 NOSIG
METAR WADD 281730Z 13003KT 9999 SCT016 25/24 Q1011 NOSIG
METAR WADD 281700Z 12002KT 9999 BKN016 25/24 Q1012 NOSIG
METAR WADD 281630Z VRB02KT 9999 BKN016 25/24 Q1012 NOSIG
METAR WADD 281600Z 25003KT 9999 BKN016 25/24 Q1012 NOSIG
METAR WADD 281530Z 30003KT 9999 BKN016 25/23 Q1013 RERA NOSIG
METAR WADD 281500Z 30006KT 8000 -RA FEW015CB BKN015 25/23 Q1013 TEMPO TL1600 8000 -RA
METAR WADD 281430Z 26004KT 8000 -RA FEW015CB BKN015 25/24 Q1013 TEMPO TL1530 8000 -RA
METAR WADD 281330Z 31007KT 270V340 7000 -TSRA FEW015CB BKN015 26/24 Q1013 TEMPO TL1430 7000 -TSRA RMK CB IN APCH
METAR WADD 281300Z 01007KT 340V050 9999 FEW015CB BKN015 26/25 Q1013 NOSIG RMK CB IN APCH
METAR WADD 281230Z 01005KT 9999 FEW015CB SCT015 27/25 Q1012 NOSIG
METAR WADD 281200Z 05006KT 350V070 9999 SCT015 27/25 Q1012 NOSIG</description><pubDate>Thu, 29 Jan 2026 11:39:05 </pubDate></item></channel></rss>