<rss version="2.0"><channel><title>Aviation Weather METAR Data for WADD</title><link>https://aviationweather.gov/api/data/metar?ids=WADD&amp;hours=24</link><description>Latest METAR data for WADD</description><item><title>2025-01-11 19:39:15Z</title><link>https://aviationweather.gov/api/data/metar?ids=WADD&amp;hours=24</link><description>WADD 111930Z 30008KT 9999 SCT016 27/25 Q1008 NOSIG
WADD 111900Z 29007KT 9999 FEW020 BKN060 BKN230 27/25 Q1008 NOSIG
WADD 111830Z 29008KT 9999 SCT016 27/25 Q1008 NOSIG
WADD 111800Z 28009KT 9999 SCT016 27/25 Q1009 NOSIG
WADD 111730Z 27008KT 9999 SCT016 27/26 Q1009 NOSIG
WADD 111700Z 28010KT 9999 BKN015 27/25 Q1009 NOSIG
WADD 111630Z 29011KT 9999 BKN015 27/26 Q1009 NOSIG
WADD 111600Z 29008KT 9999 BKN015 27/26 Q1010 RERA NOSIG
WADD 111530Z 29009KT 9999 SCT016 27/26 Q1010 NOSIG
WADD 111500Z 26008KT 9999 SCT016 27/25 Q1010 NOSIG
WADD 111430Z 26009KT 9999 SCT016 27/26 Q1010 NOSIG
WADD 111400Z 28007KT 9999 SCT016 26/26 Q1010 NOSIG
WADD 111330Z 29005KT 9999 SCT016 26/25 Q1010 RERA NOSIG
WADD 111300Z 26006KT 6000 -RA BKN015 26/25 Q1010 TEMPO TL1430 5000 RA
WADD 111230Z 35004KT 300V010 9999 SCT016 26/25 Q1009 NOSIG
WADD 111200Z 33003KT 9999 SCT016 26/25 Q1009 NOSIG
WADD 111130Z 33004KT 280V010 9999 BKN015 26/25 Q1009 NOSIG
WADD 111100Z VRB01KT 9999 BKN015 26/25 Q1009 NOSIG
WADD 111030Z VRB02KT 9999 BKN015 26/25 Q1009 NOSIG
WADD 111000Z 02003KT 9999 BKN015 26/25 Q1008 RERA NOSIG
WADD 110931Z 31004KT 9000 -RA BKN015 26/25 Q1008 TEMPO TL1000 9000 -RA
WADD 110930Z 31004KT 9000 -RA BKN015 26/25 Q1008 TEMPO TL1000 9000 -RA
WADD 110900Z 32004KT 9000 BKN015 25/24 Q1008 TEMPO TL1000 9000 -RA
WADD 110830Z VRB02KT 8000 -RA FEW014CB BKN015 24/24 Q1008 TEMPO TL0930 8000 -RA
WADD 110800Z VRB03KT 6000 RA FEW014CB BKN015 25/24 Q1008 TEMPO TL0900 6000 RA
WADD 110730Z 13004KT 090V200 6000 RA FEW014CB BKN015 25/25 Q1009 TEMPO TL0900 9000 RA
WADD 110700Z 10005KT 5000 RA FEW014CB BKN015 25/25 Q1010 TEMPO TL0900 5000 RA
WADD 110630Z 05003KT 5000 RA FEW014CB BKN015 25/25 Q1010 TEMPO TL0800 5000 RA
WADD 110600Z 34004KT 290V010 7000 -RA FEW014CB BKN015 25/25 Q1010 TEMPO TL0800 7000 -RA
WADD 110530Z 35005KT 310V020 6000 -RA FEW014CB BKN015 25/25 Q1010 TEMPO TL0630 6000 -RA
WADD 110500Z 36004KT 290V010 6000 -RA FEW014CB BKN015 26/26 Q1011 TEMPO TL0600 6000 -RA
WADD 110430Z 30010KT 8000 -RA FEW014CB BKN015 26/25 Q1010 RETS TEMPO TL0530 -RA
WADD 110400Z 29009KT 8000 -TSRA FEW014CB BKN015 27/25 Q1011 TEMPO TL0500 -TSRA
WADD 110330Z 29014KT 8000 -TSRA FEW014CB BKN015 27/25 Q1010 TEMPO TL0430 -TSRA
WADD 110300Z 30012G23KT 8000 -TSRA FEW014CB BKN015 27/26 Q1011 TEMPO TL0400 -TSRA
WADD 110230Z 30016KT 8000 -RA FEW014CB BKN015 27/26 Q1011 RETS TEMPO TL0330 -RA
WADD 110200Z 29017KT 6000 -TSRA FEW014CB BKN015 27/26 Q1010 TEMPO TL0300 6000 -TSRA
WADD 110130Z 30018KT 1200 +TSRA FEW014CB BKN015 26/26 Q1010 TEMPO TL0230 12000 +TSRA
WADD 110100Z 27017KT 7000 -TSRA FEW014CB BKN015 26/25 Q1010 TEMPO TL0200 7000 -TSRA
WADD 110030Z 26011KT 4000 RA FEW014CB BKN015 26/26 Q1010 TEMPO TL0130 4000 RA
WADD 110000Z VRB04KT 4000 RA FEW014CB BKN015 26/26 Q1010 TEMPO TL0100 4000 RA
WADD 102330Z 33006KT 290V360 7000 -RA FEW014CB BKN015 26/25 Q1010 TEMPO TL2430 -RA
WADD 102300Z VRB03KT 6000 -RA FEW014CB BKN015 26/25 Q1009 TEMPO TL2400 -RA
WADD 102230Z 32003KT 7000 -RA FEW014CB BKN015 25/24 Q1009 RETS TEMPO TL2330 -RA
WADD 102200Z 34003KT 5000 TSRA FEW014CB BKN015 25/24 Q1009 TEMPO TL2300 TSRA RMK CB IN APCH
WADD 102130Z 27008KT 1000 +TSRA FEW014CB BKN015 24/24 Q1009 TEMPO TL2230 TSRA RMK CB IN APCH
WADD 102100Z 02005KT 7000 -TSRA FEW014CB BKN015 25/25 Q1009 TEMPO TL2200 TSRA
WADD 102030Z VRB02KT 9999 TS FEW014CB BKN015 25/25 Q1009 TEMPO TL2130 TS
WADD 102000Z 01004KT 9000 TS FEW014CB BKN015 25/25 Q1009 RERA TEMPO TL2100 TS RMK CB IN APCH</description><pubDate>Sat, 11 Jan 2025 19:39:15 </pubDate></item></channel></rss>