<rss version="2.0"><channel><title>Aviation Weather METAR Data for WADD</title><link>https://aviationweather.gov/api/data/metar?ids=WADD&amp;hours=24</link><description>Latest METAR data for WADD</description><item><title>2026-03-22 13:10:28Z</title><link>https://aviationweather.gov/api/data/metar?ids=WADD&amp;hours=24</link><description>METAR WADD 221230Z 22004KT 180V240 9999 SCT016 28/26 Q1009 NOSIG
METAR WADD 221130Z 21003KT 9999 SCT016 29/25 Q1009 NOSIG
METAR WADD 221100Z 22004KT 180V250 9999 SCT016 29/25 Q1009 NOSIG
METAR WADD 221030Z 23005KT 180V260 9999 SCT016 29/25 Q1008 NOSIG
METAR WADD 221000Z 25006KT 210V280 9999 SCT016 30/25 Q1008 NOSIG
METAR WADD 220930Z 25007KT 9999 FEW016 31/25 Q1007 NOSIG
METAR WADD 220830Z 26007KT 200V270 9999 FEW016 31/24 Q1007 NOSIG
METAR WADD 220800Z 26007KT 9999 FEW016 31/24 Q1008 NOSIG
METAR WADD 220730Z 25007KT 9999 SCT016 31/25 Q1008 NOSIG
METAR WADD 220630Z 26009KT 9999 SCT016 32/25 Q1008 NOSIG
METAR WADD 220530Z 27009KT 9999 FEW016 32/26 Q1008 NOSIG
METAR WADD 220500Z 25009KT 210V290 9999 FEW014 31/26 Q1009 NOSIG
METAR WADD 220430Z 25008KT 210V280 9999 SCT014 32/27 Q1009 NOSIG
METAR WADD 220400Z 27008KT 9999 SCT016 32/26 Q1010 NOSIG
METAR WADD 220330Z 26007KT 9999 SCT016 32/27 Q1010 NOSIG
METAR WADD 220300Z 25006KT 220V290 9999 SCT016 31/26 Q1010 NOSIG
METAR WADD 220230Z 25005KT 200V280 9999 SCT016 30/26 Q1010 NOSIG
METAR WADD 220200Z 25004KT 190V280 9999 SCT016 32/26 Q1010 NOSIG
METAR WADD 220130Z 08003KT 9999 SCT014 30/26 Q1010 NOSIG
METAR WADD 220100Z 12004KT 080V150 9999 SCT014 31/26 Q1010 NOSIG
METAR WADD 220030Z COR VRB01KT 9999 SCT014 31/27 Q1010 NOSIG
METAR WADD 220000Z VRB02KT 9999 FEW015 28/27 Q1010 NOSIG
METAR WADD 212330Z VRB01KT 9999 SCT015 26/26 Q1010 NOSIG
METAR WADD 212300Z VRB02KT 9999 FEW017 25/25 Q1009 NOSIG
METAR WADD 212230Z VRB01KT 9999 FEW017 25/25 Q1009 NOSIG
METAR WADD 212200Z 13002KT 9999 FEW017 25/25 Q1009 NOSIG
METAR WADD 212130Z VRB02KT 9999 FEW017 25/25 Q1009 NOSIG
METAR WADD 212100Z 36003KT 9999 FEW017 25/25 Q1009 NOSIG
METAR WADD 212030Z 01005KT 9999 FEW017 25/25 Q1008 NOSIG
METAR WADD 211930Z VRB02KT 9999 FEW017 26/26 Q1008 NOSIG
METAR WADD 211900Z 05002KT 9999 FEW017 26/26 Q1009 NOSIG
METAR WADD 211830Z 15002KT 9999 FEW017 26/26 Q1009 NOSIG
METAR WADD 211800Z VRB01KT 9999 FEW017 26/26 Q1009 NOSIG
METAR WADD 211730Z 12001KT 9999 FEW017 26/26 Q1009 NOSIG
METAR WADD 211700Z 11001KT 9999 FEW017 26/26 Q1009 NOSIG
METAR WADD 211630Z VRB01KT 9999 FEW017 26/26 Q1009 NOSIG
METAR WADD 211600Z 00000KT 9999 FEW017 26/25 Q1010 NOSIG
METAR WADD 211530Z VRB01KT 9999 FEW017 27/26 Q1010 NOSIG
METAR WADD 211500Z VRB02KT 9999 FEW017 27/26 Q1010 NOSIG
METAR WADD 211430Z VRB01KT 9999 FEW017 26/25 Q1010 NOSIG
METAR WADD 211400Z VRB01KT 9999 FEW017 27/25 Q1010 NOSIG
METAR WADD 211330Z VRB02KT 9999 FEW017 27/25 Q1010 NOSIG</description><pubDate>Sun, 22 Mar 2026 13:10:28 </pubDate></item></channel></rss>