<rss version="2.0"><channel><title>Aviation Weather METAR Data for WADD</title><link>https://aviationweather.gov/api/data/metar?ids=WADD&amp;hours=24</link><description>Latest METAR data for WADD</description><item><title>2025-05-22 03:56:53Z</title><link>https://aviationweather.gov/api/data/metar?ids=WADD&amp;hours=24</link><description>WADD 220330Z 11015KT 9999 SCT016 29/26 Q1008 NOSIG
WADD 220300Z 10011KT 9999 SCT016 28/27 Q1009 NOSIG
WADD 220230Z 09010KT 9999 SCT016 29/27 Q1009 NOSIG
WADD 220200Z 09008KT 050V120 9999 BKN015 28/26 Q1009 NOSIG
WADD 220130Z 05005KT 020V090 9999 FEW015CB BKN015 28/27 Q1010 RERA NOSIG
WADD 220100Z 07007KT 360V120 8000 -RA FEW014CB BKN014 27/26 Q1010 TEMPO TL0200 8000 -RA
WADD 220030Z 13008KT 9999 FEW014CB BKN014 28/26 Q1010 NOSIG
WADD 220000Z 13008KT 9999 BKN015 28/26 Q1009 NOSIG
WADD 212330Z 12008KT 9999 FEW015CB BKN015 28/25 Q1009 NOSIG
WADD 212300Z 13009KT 9999 FEW015CB BKN016 28/25 Q1009 NOSIG
WADD 212230Z 13009KT 9999 FEW015CB BKN016 27/25 Q1009 NOSIG
WADD 212200Z 13008KT 9999 SCT06 27/25 Q1008 NOSIG
WADD 212130Z 13011KT 9999 SCT016 27/25 Q1008 NOSIG
WADD 212100Z 13011KT 9999 SCT016 27/25 Q1008 NOSIG
WADD 212030Z 13009KT 9999 SCT016 27/25 Q1008 NOSIG
WADD 212000Z 13010KT 9999 FEW016 27/25 Q1008 NOSIG
WADD 211930Z 13010KT 9999 FEW016 27/25 Q1008 NOSIG
WADD 211900Z 13010KT 9999 FEW016 27/24 Q1008 NOSIG
WADD 211830Z 13011KT 9999 FEW016 27/24 Q1009 NOSIG
WADD 211800Z 12011KT 9999 FEW016 27/24 Q1009 NOSIG
WADD 211730Z 12012KT 9999 FEW016 27/24 Q1009 NOSIG
WADD 211700Z 13011KT 9999 FEW016 27/24 Q1009 NOSIG
WADD 211630Z 13012KT 9999 FEW016 27/24 Q1010 NOSIG
WADD 211600Z 13012KT 9999 FEW016 27/24 Q1010 NOSIG
WADD 211530Z 12012KT 9999 FEW016 27/24 Q1010 NOSIG
WADD 211500Z 12011KT 9999 FEW016 28/24 Q1010 NOSIG
WADD 211430Z 13011KT 9999 FEW016 28/24 Q1010 NOSIG
WADD 211400Z 12013KT 9999 FEW016 28/24 Q1010 NOSIG
WADD 211330Z 12013KT 9999 FEW016 28/24 Q1010 NOSIG
WADD 211300Z 12012KT 9999 FEW016 28/24 Q1010 NOSIG
WADD 211230Z 12016KT 9999 SCT016 28/24 Q1010 NOSIG
WADD 211200Z 13014KT 9999 SCT016 28/25 Q1010 NOSIG
WADD 211130Z 13013KT 9999 SCT016 28/25 Q1009 NOSIG
WADD 211100Z 12013KT 9999 SCT016 28/25 Q1009 NOSIG
WADD 211030Z 12013KT 9999 SCT016 28/25 Q1009 NOSIG
WADD 211000Z 13014KT 9999 SCT016 28/25 Q1008 NOSIG
WADD 210930Z 12014KT 9999 SCT016 28/25 Q1008 NOSIG
WADD 210900Z 12016KT 9999 SCT016 29/25 Q1008 NOSIG
WADD 210830Z 12014KT 9999 SCT016 29/25 Q1007 NOSIG
WADD 210800Z 12013KT 9999 SCT016 29/25 Q1007 NOSIG
WADD 210730Z 12014KT 9999 SCT016 29/25 Q1007 NOSIG
WADD 210700Z 12015KT 9999 SCT016 29/25 Q1007 NOSIG
WADD 210630Z 11016KT 9999 BKN016 29/24 Q1008 NOSIG
WADD 210600Z 12018KT 9999 BKN016 29/24 Q1008 NOSIG
WADD 210530Z 11016KT 9999 SCT016 29/24 Q1008 NOSIG
WADD 210500Z 12017KT 9999 SCT016 29/25 Q1008 NOSIG
WADD 210430Z 12018KT 9999 SCT016 29/25 Q1009 NOSIG
WADD 210400Z 11016KT 9999 SCT016 30/25 Q1009 NOSIG</description><pubDate>Thu, 22 May 2025 03:56:53 </pubDate></item></channel></rss>