<rss version="2.0"><channel><title>Aviation Weather METAR Data for WADD</title><link>https://aviationweather.gov/api/data/metar?ids=WADD&amp;hours=24</link><description>Latest METAR data for WADD</description><item><title>2025-07-19 16:33:06Z</title><link>https://aviationweather.gov/api/data/metar?ids=WADD&amp;hours=24</link><description>WADD 191600Z 11008KT 9999 FEW016 25/22 Q1010 NOSIG
WADD 191530Z 10007KT 9999 FEW016 25/22 Q1010 NOSIG
WADD 191500Z 11008KT 9999 FEW016 25/22 Q1010 NOSIG
WADD 191430Z 12008KT 9999 FEW016 25/22 Q1010 NOSIG
WADD 191400Z 12007KT 9999 FEW016 25/22 Q1011 NOSIG
WADD 191330Z 13007KT 9999 FEW016 25/22 Q1011 NOSIG
WADD 191300Z 13007KT 9999 FEW017 25/22 Q1010 NOSIG
WADD 191230Z 13007KT 9999 FEW017 26/22 Q1010 NOSIG
WADD 191200Z 13008KT 9999 FEW017 26/22 Q1010 NOSIG
WADD 191130Z 13008KT 9999 FEW017 26/22 Q1010 NOSIG
WADD 191100Z 14009KT 9999 FEW017 26/22 Q1009 NOSIG
WADD 191030Z 13007KT 9999 FEW017 26/22 Q1009 NOSIG
WADD 191000Z 14012KT 9999 FEW017 26/22 Q1008 NOSIG
WADD 190930Z 14010KT 9999 FEW017 27/22 Q1008 NOSIG
WADD 190900Z 14011KT 9999 FEW017 27/22 Q1008 NOSIG
WADD 190830Z 13011KT 9999 FEW017 28/22 Q1008 NOSIG
WADD 190800Z 12010KT 9999 FEW017 28/22 Q1008 NOSIG
WADD 190730Z 10010KT 9999 FEW017 28/22 Q1008 NOSIG
WADD 190700Z 12008KT 9999 FEW017 28/22 Q1008 NOSIG
WADD 190630Z 10010KT 9999 FEW017 28/21 Q1008 NOSIG
WADD 190600Z 11010KT 9999 FEW017 28/22 Q1009 NOSIG
WADD 190530Z 10010KT 9999 FEW017 29/22 Q1009 NOSIG
WADD 190500Z 09010KT 9999 FEW017 29/22 Q1009 NOSIG
WADD 190430Z 11009KT 9999 FEW017 29/22 Q1010 NOSIG
WADD 190400Z 10007KT 060V140 9999 FEW017 28/22 Q1010 NOSIG
WADD 190330Z 11008KT 9999 FEW017 28/21 Q1011 NOSIG
WADD 190300Z 12008KT 9999 FEW017 28/21 Q1011 NOSIG
WADD 190230Z 10007KT 060V130 9999 FEW017 28/22 Q1011 NOSIG
WADD 190200Z 12005KT 080V180 9999 FEW017 27/22 Q1012 NOSIG
WADD 190100Z 22003KT 9999 FEW017 25/22 Q1012 NOSIG
WADD 190030Z VRB01KT 9999 FEW017 25/21 Q1012 NOSIG
WADD 190000Z VRB01KT 9999 FEW017 24/21 Q1011 NOSIG
WADD 182330Z VRB01KT 9999 FEW017 23/21 Q1011 NOSIG
WADD 182300Z VRB01KT 9999 FEW017 22/20 Q1011 NOSIG
WADD 182230Z 05002KT 9999 FEW017 22/20 Q1011 NOSIG
WADD 182200Z VRB02KT 9999 FEW017 22/20 Q1011 NOSIG
WADD 182130Z 01005KT 9999 FEW017 22/21 Q1010 NOSIG
WADD 182100Z 01004KT 9999 FEW017 22/21 Q1010 NOSIG
WADD 182030Z 01005KT 9999 FEW017 22/21 Q1010 NOSIG
WADD 182000Z 36004KT 9999 FEW017 22/21 Q1010 NOSIG
WADD 181930Z 36004KT 9999 FEW017 23/22 Q1010 NOSIG
WADD 181900Z 35004KT 9999 FEW017 23/22 Q1010 NOSIG
WADD 181830Z 12005KT 9999 FEW017 25/22 Q1010 NOSIG
WADD 181800Z 12006KT 9999 FEW017 25/23 Q1011 NOSIG
WADD 181730Z 11005KT 9999 FEW017 25/22 Q1011 NOSIG
WADD 181700Z 13005KT 9999 FEW017 25/23 Q1011 NOSIG</description><pubDate>Sat, 19 Jul 2025 16:33:06 </pubDate></item></channel></rss>