<rss version="2.0"><channel><title>Aviation Weather METAR Data for WADD</title><link>https://aviationweather.gov/api/data/metar?ids=WADD&amp;hours=24</link><description>Latest METAR data for WADD</description><item><title>2026-05-06 20:53:07Z</title><link>https://aviationweather.gov/api/data/metar?ids=WADD&amp;hours=24</link><description>METAR WADD 062030Z 12011KT 9999 FEW017 27/25 Q1009 NOSIG
METAR WADD 062000Z 12012KT 9999 FEW017 28/25 Q1009 NOSIG
METAR WADD 061930Z 11012KT 9999 FEW017 28/25 Q1009 NOSIG
METAR WADD 061900Z 12012KT 9999 FEW017 28/25 Q1009 NOSIG
METAR WADD 061830Z 11011KT 9999 FEW017 28/26 Q1009 NOSIG
METAR WADD 061800Z 12011KT 9999 FEW017 28/25 Q1009 NOSIG
METAR WADD 061730Z 12010KT 9999 FEW017 28/26 Q1009 NOSIG
METAR WADD 061700Z 12009KT 9999 FEW017 28/26 Q1009 NOSIG
METAR WADD 061630Z 13010KT 9999 FEW017 28/26 Q1010 NOSIG
METAR WADD 061600Z 13009KT 9999 FEW017 28/26 Q1010 NOSIG
METAR WADD 061530Z 13011KT 9999 FEW017 28/26 Q1010 NOSIG
METAR WADD 061500Z 13011KT 9999 FEW017 28/25 Q1010 NOSIG
METAR WADD 061430Z 13013KT 9999 FEW017 28/26 Q1010 NOSIG
METAR WADD 061400Z 14013KT 9999 FEW017 28/26 Q1010 NOSIG
METAR WADD 061330Z 13013KT 9999 FEW017 28/26 Q1010 NOSIG
METAR WADD 061300Z 13012KT 9999 FEW017 28/26 Q1010 NOSIG
METAR WADD 061230Z 13013KT 9999 FEW017 28/26 Q1010 NOSIG
METAR WADD 061200Z 13012KT 9999 FEW017 28/26 Q1010 NOSIG
METAR WADD 061130Z 13012KT 9999 FEW017 28/26 Q1009 NOSIG
METAR WADD 061100Z 12011KT 9999 FEW017 28/26 Q1009 NOSIG
METAR WADD 061030Z 12012KT 9999 FEW017 28/26 Q1008 NOSIG
METAR WADD 061000Z 13014KT 9999 FEW017 29/26 Q1008 NOSIG
METAR WADD 060930Z 12016KT 9999 FEW017 29/26 Q1008 NOSIG
METAR WADD 060900Z 13015KT 9999 FEW017 29/26 Q1008 NOSIG
METAR WADD 060830Z 13015KT 9999 FEW017 30/26 Q1007 NOSIG
METAR WADD 060800Z 12016KT 9999 FEW017 30/26 Q1007 NOSIG
METAR WADD 060730Z 12016KT 9999 FEW017 30/26 Q1007 NOSIG
METAR WADD 060700Z 13016KT 9999 FEW017 30/26 Q1007 NOSIG
METAR WADD 060630Z 11014KT 9999 FEW017 31/26 Q1008 NOSIG
METAR WADD 060600Z 12016KT 9999 FEW017 30/26 Q1008 NOSIG
METAR WADD 060530Z 11014KT 9999 FEW017 31/26 Q1008 NOSIG
METAR WADD 060500Z 12015KT 9999 FEW017 31/26 Q1009 NOSIG
METAR WADD 060430Z 11015KT 9999 FEW017 31/26 Q1009 NOSIG
METAR WADD 060400Z 10012KT 9999 SCT017 31/26 Q1010 NOSIG
METAR WADD 060330Z 11013KT 9999 SCT017 31/26 Q1010 NOSIG
METAR WADD 060300Z 11014KT 9999 SCT017 31/25 Q1010 NOSIG
METAR WADD 060230Z 11013KT 9999 FEW017 31/26 Q1011 NOSIG
METAR WADD 060200Z 11012KT 9999 FEW017 30/25 Q1011 NOSIG
METAR WADD 060130Z 11011KT 9999 SCT016 30/25 Q1011 NOSIG
METAR WADD 060100Z 12012KT 9999 SCT016 30/26 Q1011 NOSIG
METAR WADD 060030Z COR 12009KT 9999 SCT016 30/26 Q1011 NOSIG
METAR WADD 060000Z 11008KT 9999 FEW016 29/26 Q1011 NOSIG
METAR WADD 052330Z 11007KT 9999 FEW016 29/26 Q1010 NOSIG
METAR WADD 052300Z 12007KT 9999 FEW017 28/26 Q1010 NOSIG
METAR WADD 052230Z 12007KT 9999 FEW017 27/25 Q1010 NOSIG
METAR WADD 052200Z 12007KT 9999 FEW017 27/25 Q1010 NOSIG
METAR WADD 052130Z 12008KT 9999 FEW017 27/26 Q1009 NOSIG
METAR WADD 052100Z 12007KT 9999 FEW017 27/26 Q1009 NOSIG</description><pubDate>Wed, 06 May 2026 20:53:07 </pubDate></item></channel></rss>