<rss version="2.0"><channel><title>Aviation Weather METAR Data for WADD</title><link>https://aviationweather.gov/api/data/metar?ids=WADD&amp;hours=24</link><description>Latest METAR data for WADD</description><item><title>2026-02-01 07:56:58Z</title><link>https://aviationweather.gov/api/data/metar?ids=WADD&amp;hours=24</link><description>METAR WADD 010730Z 27015KT 9999 SCT016 30/25 Q1008 NOSIG
METAR WADD 010700Z 27015KT 9999 SCT016 30/25 Q1008 NOSIG
METAR WADD 010630Z 25016G26KT 9999 FEW015CB SCT016 28/24 Q1008 NOSIG
SPECI WADD 010608Z 26020G31KT 9999 FEW015CB SCT016 30/25 Q1008 NOSIG
METAR WADD 010600Z 26019KT 9999 FEW015CB SCT016 30/25 Q1008 NOSIG
METAR WADD 010530Z 26018KT 9999 FEW015CB SCT016 31/25 Q1009 NOSIG
METAR WADD 010500Z 26015KT 9999 FEW015CB BKN015 30/26 Q1009 NOSIG
METAR WADD 010430Z 29017KT 9999 FEW015CB SCT016 31/25 Q1009 NOSIG
METAR WADD 010400Z 29018KT 9999 FEW016 31/25 Q1009 NOSIG
METAR WADD 010330Z 29017KT 9999 FEW016 31/25 Q1009 NOSIG
METAR WADD 010300Z 28018KT 9999 FEW016 30/26 Q1010 NOSIG
METAR WADD 010230Z 29016KT 9999 FEW015 29/25 Q1010 NOSIG
METAR WADD 010200Z 29013KT 9999 SCT015 29/25 Q1010 NOSIG
METAR WADD 010130Z 29011KT 9999 SCT015 28/25 Q1011 NOSIG
METAR WADD 010100Z 29008KT 9999 SCT015 28/25 Q1011 RERA NOSIG
METAR WADD 010030Z 28010KT 8000 -RA BKN015 27/25 Q1011 TEMPO TL0130 8000 -RA
METAR WADD 010000Z 27008KT 7000 -RA FEW014CB BKN014 26/25 Q1011 TEMPO TL0100 7000 -RA
METAR WADD 312330Z 27008KT 7000 -RA FEW014CB BKN014 26/25 Q1010 TEMPO TL0000 5000 RA
METAR WADD 312300Z 28007KT 7000 -RA FEW014CB BKN014 27/25 Q1010 TEMPO TL0000 5000 RA
METAR WADD 312230Z 28011KT 7000 -RA FEW014CB BKN014 27/24 Q1009 TEMPO TL2330 5000 RA
METAR WADD 312200Z 32005KT 9999 FEW016CB SCT016 26/24 Q1009 NOSIG
METAR WADD 312130Z 32005KT 9999 FEW016CB SCT016 25/24 Q1008 NOSIG
METAR WADD 312100Z 34005KT 9999 SCT016 25/24 Q1008 NOSIG
METAR WADD 312030Z 34005KT 9999 SCT016 25/24 Q1009 NOSIG
METAR WADD 312000Z 32006KT 9999 BKN015 25/24 Q1009 NOSIG
METAR WADD 311930Z 32009KT 9000 -RA FEW015CB BKN016 25/24 Q1009 TEMPO TL2030 -RA
METAR WADD 311900Z 30008KT 260V330 8000 -RA FEW015CB BKN015 25/25 Q10 09 TEMPO TL2000 -RA
METAR WADD 311830Z 25012G21KT 4000 RA FEW015CB BKN015 25/25 Q1009 TEMPO TL1930 5000 RA
METAR WADD 311800Z 30014KT 8000 -RA FEW015CB BKN015 26/24 Q1010 RETS TEMPO TL1900 -RA
METAR WADD 311730Z 30017G25KT 7000 -TSRA FEW015CB BKN015 25/24 Q1010 TEMPO TL1830 7000 -TSRA
METAR WADD 311700Z 31018G29KT 270V340 1000 +RA FEW013CB BKN013 25/24 Q1010 TEMPO TL1800 3000 RA RMK CB IN APCH AND CLIMB-OUT
METAR WADD 311630Z 30011KT 9999 FEW015CB BKN015 26/24 Q1010 RERA NOSIG RMK CB IN CLIMB-OUT
METAR WADD 311600Z COR 27014KT 250V320 6000 -RA FEW013CB BKN013 28/25 Q1011 TEMPO TL1700 3000 RA RMK CB IN CLIMB-OUT
METAR WADD 311530Z 26010KT 9999 FEW015CB SCT016 29/25 Q1011 NOSIG
METAR WADD 311500Z 26009KT 9999 FEW016CB SCT016 29/25 Q1011 NOSIG
METAR WADD 311430Z 26010KT 9999 SCT016 29/24 Q1011 NOSIG
METAR WADD 311400Z 25008KT 9999 SCT016 28/25 Q1011 NOSIG
METAR WADD 311330Z 25009KT 9999 FEW016CB SCT016 28/25 Q1010 NOSIG
METAR WADD 311300Z 24007KT 9999 FEW015CB SCT016 28/25 Q1010 NOSIG
METAR WADD 311230Z 24008KT 9999 FEW015CB SCT016 28/25 Q1010 NOSIG
METAR WADD 311200Z 24008KT 210V280 9999 FEW015CB SCT016 28/25 Q1010 N OSIG
METAR WADD 311130Z 24010KT 9999 FEW015CB SCT016 29/25 Q1010 NOSIG
METAR WADD 311100Z 25010KT 9999 SCT016 29/25 Q1009 NOSIG
METAR WADD 311030Z 25009KT 210V270 9999 FEW017 29/25 Q1009 NOSIG
METAR WADD 311000Z 24010KT 9999 FEW017 29/25 Q1009 NOSIG
METAR WADD 310930Z 25010KT 9999 FEW017 30/25 Q1009 NOSIG
METAR WADD 310900Z 24011KT 9999 FEW017 30/25 Q1008 NOSIG
METAR WADD 310830Z 25010KT 9999 FEW017 30/25 Q1008 NOSIG
METAR WADD 310800Z 25010KT 9999 FEW017 30/25 Q1008 NOSIG</description><pubDate>Sun, 01 Feb 2026 07:56:58 </pubDate></item></channel></rss>