<rss version="2.0"><channel><title>Aviation Weather METAR Data for WADD</title><link>https://aviationweather.gov/api/data/metar?ids=WADD&amp;hours=24</link><description>Latest METAR data for WADD</description><item><title>2025-02-02 20:22:11Z</title><link>https://aviationweather.gov/api/data/metar?ids=WADD&amp;hours=24</link><description>WADD 022000Z VRB01KT 9999 SCT016 26/26 Q1004 NOSIG
WADD 021930Z VRB01KT 9999 SCT016 26/26 Q1004 NOSIG
WADD 021900Z VRB01KT 9999 SCT016 27/26 Q1004 NOSIG
WADD 021830Z 22003KT 9999 SCT016 27/26 Q1004 NOSIG
WADD 021800Z VRB01KT 9999 SCT016 27/26 Q1004 NOSIG
WADD 021730Z VRB02KT 9999 SCT016 27/26 Q1004 NOSIG
WADD 021700Z 03004KT 340V060 9999 SCT016 27/26 Q1004 NOSIG
WADD 021630Z 10002KT 9999 SCT016 27/26 Q1005 NOSIG
WADD 021600Z 01004KT 300V070 9999 SCT016 28/26 Q1005 NOSIG
WADD 021530Z 36003KT 9999 SCT016 27/25 Q1005 NOSIG
WADD 021500Z 33004KT 270V010 9999 SCT016 28/25 Q1006 NOSIG
WADD 021430Z 30006KT 280V360 9999 FEW015CB BKN015 28/26 Q1006 NOSIG
WADD 021400Z VRB02KT 9999 FEW015CB BKN015 27/26 Q1006 RERA NOSIG
WADD 021330Z 28006KT 260V320 8000 -RA FEW014CB BKN014 26/24 Q1006 TEMPO TL1430 8000 -RA RMK CB IN APCH AND CLIMB-OUT
WADD 021300Z 28005KT 260V320 9999 FEW016CB SCT016 29/26 Q1005 NOSIG
WADD 021230Z 25005KT 9999 SCT016 29/27 Q1005 NOSIG
WADD 021200Z 24004KT 9999 SCT016 29/27 Q1005 NOSIG
WADD 021130Z 24004KT 9999 SCT016 29/27 Q1004 NOSIG
WADD 021100Z 25005KT 9999 SCT016 29/26 Q1004 NOSIG
WADD 021030Z 25005KT 9999 SCT016 29/26 Q1004 NOSIG
WADD 021000Z 25004KT 9999 SCT016 30/26 Q1003 NOSIG
WADD 020930Z 24004KT 210V270 9999 FEW017 30/26 Q1003 NOSIG
WADD 020900Z 24005KT 9999 FEW017 30/26 Q1003 NOSIG
WADD 020830Z 26007KT 9999 FEW017 30/27 Q1002 NOSIG
WADD 020800Z 25007KT 9999 FEW017 30/26 Q1002 NOSIG
WADD 020730Z 28009KT 9999 FEW017 30/26 Q1002 NOSIG
WADD 020700Z 27010KT 9999 FEW017 30/26 Q1003 NOSIG
WADD 020630Z 26010KT 9999 FEW017 30/26 Q1003 NOSIG
WADD 020600Z 25009KT 9999 FEW017 31/27 Q1003 NOSIG
WADD 020530Z 25010KT 9999 FEW017 31/27 Q1004 NOSIG
WADD 020500Z 26011KT 9999 FEW017 31/27 Q1004 NOSIG
WADD 020430Z 27008KT 9999 FEW017 31/27 Q1004 NOSIG
WADD 020400Z 26008KT 9999 FEW017 30/27 Q1005 NOSIG
WADD 020330Z 28008KT 9999 FEW017 30/26 Q1005 NOSIG
WADD 020300Z 26008KT 9999 FEW017 30/26 Q1006 NOSIG
WADD 020230Z 26008KT 9999 FEW017 30/27 Q1006 NOSIG
WADD 020200Z 27009KT 9999 FEW017 30/27 Q1006 NOSIG
WADD 020130Z 28008KT 9999 FEW017 29/27 Q1006 NOSIG
WADD 020100Z 27006KT 240V310 9999 FEW017 29/27 Q1006 NOSIG
WADD 020030Z 27003KT 9999 FEW017 28/26 Q1006 NOSIG
WADD 020000Z 27002KT 9999 FEW017 28/26 Q1006 NOSIG
WADD 012330Z VRB01KT 9999 FEW017 27/25 Q1005 NOSIG
WADD 012300Z VRB01KT 7000 BR FEW017 25/25 Q1005 NOSIG
WADD 012230Z VRB01KT 8000 FEW017 25/25 Q1005 NOSIG
WADD 012200Z VRB01KT 8000 FEW017 25/25 Q1005 NOSIG
WADD 012130Z VRB01KT 9999 FEW017 25/25 Q1004 NOSIG
WADD 012100Z VRB02KT 9999 SCT016 25/25 Q1004 NOSIG
WADD 012030Z VRB01KT 9999 SCT016 26/25 Q1004 NOSIG</description><pubDate>Sun, 02 Feb 2025 20:22:11 </pubDate></item></channel></rss>