<rss version="2.0"><channel><title>Aviation Weather METAR Data for WADD</title><link>https://aviationweather.gov/api/data/metar?ids=WADD&amp;hours=24</link><description>Latest METAR data for WADD</description><item><title>2025-12-23 15:30:59Z</title><link>https://aviationweather.gov/api/data/metar?ids=WADD&amp;hours=24</link><description>METAR WADD 231500Z 26012KT 9999 FEW016CB SCT017 29/25 Q1007 NOSIG
METAR WADD 231430Z 27012KT 9999 SCT017 29/25 Q1007 NOSIG
METAR WADD 231400Z 27013KT 9999 SCT017 29/25 Q1007 NOSIG
METAR WADD 231330Z 26012KT 9999 SCT017 29/25 Q1007 NOSIG
METAR WADD 231300Z 26010KT 9999 FEW017 29/25 Q1007 NOSIG
METAR WADD 231230Z 26011KT 9999 FEW017 29/25 Q1006 NOSIG
METAR WADD 231200Z 26011KT 9999 FEW017 29/25 Q1006 NOSIG
METAR WADD 231130Z 26009KT 9999 FEW016CB SCT017 29/25 Q1006 NOSIG
METAR WADD 231100Z 26010KT 9999 FEW016CB SCT017 29/25 Q1006 NOSIG
METAR WADD 231030Z 26010KT 9999 SCT017 29/25 Q1006 NOSIG
METAR WADD 231000Z 26013KT 9999 SCT017 29/25 Q1005 NOSIG
METAR WADD 230930Z 26012KT 9999 FEW017 30/25 Q1005 NOSIG
METAR WADD 230900Z 26013KT 9999 FEW017 30/25 Q1005 NOSIG
METAR WADD 230830Z 26012KT 9999 FEW017 31/26 Q1005 NOSIG
METAR WADD 230800Z 26013KT 9999 FEW017 31/26 Q1005 NOSIG
METAR WADD 230730Z 26014KT 9999 FEW017 31/26 Q1005 NOSIG
METAR WADD 230700Z 26013KT 9999 FEW017 31/26 Q1005 NOSIG
METAR WADD 230630Z 26014KT 9999 FEW017 31/26 Q1005 NOSIG
METAR WADD 230600Z 26014KT 9999 SCT017 31/26 Q1005 NOSIG
METAR WADD 230530Z 26013KT 9999 SCT016 32/26 Q1006 NOSIG
METAR WADD 230500Z 26013KT 9999 SCT016 31/26 Q1006 NOSIG
METAR WADD 230430Z 26014KT 9999 SCT016 31/26 Q1006 NOSIG
METAR WADD 230400Z 26015KT 9999 SCT016 31/26 Q1006 NOSIG
METAR WADD 230330Z 26015KT 9999 SCT016 30/25 Q1006 NOSIG
METAR WADD 230300Z 26015KT 9999 SCT016 31/26 Q1007 NOSIG
METAR WADD 230230Z 26014G24KT 9999 SCT016 31/25 Q1007 NOSIG
METAR WADD 230200Z 26014KT 9999 SCT016 31/26 Q1007 NOSIG
METAR WADD 230130Z 26014KT 9999 FEW015CB SCT016 30/26 Q1007 NOSIG
METAR WADD 230100Z 26012KT 9999 FEW015CB SCT016 30/26 Q1007 NOSIG
METAR WADD 230030Z 25013KT 9999 SCT016 30/25 Q1007 NOSIG
METAR WADD 230000Z 26013KT 9999 SCT016 30/25 Q1007 NOSIG
METAR WADD 222330Z 26013KT 9999 SCT016 29/25 Q1007 NOSIG
METAR WADD 222300Z 26012KT 9999 SCT016 29/25 Q1007 NOSIG
METAR WADD 222230Z 26011KT 9999 SCT016 28/25 Q1007 NOSIG
METAR WADD 222200Z 27012KT 9999 SCT016 28/25 Q1007 NOSIG
METAR WADD 222130Z 26014KT 9999 SCT016 28/25 Q1006 NOSIG
METAR WADD 222100Z 26012KT 9999 SCT017 28/25 Q1006 NOSIG
METAR WADD 222030Z 26014KT 9999 SCT016 28/25 Q1006 RERA NOSIG
METAR WADD 222000Z 26011KT 9999 SCT017 28/25 Q1006 NOSIG
METAR WADD 221930Z 26015KT 9999 SCT017 29/25 Q1006 NOSIG
METAR WADD 221900Z 27014KT 9999 SCT017 28/25 Q1006 NOSIG
METAR WADD 221830Z 27015KT 9999 FEW017 28/25 Q1006 NOSIG
METAR WADD 221800Z 27013KT 9999 FEW017 29/25 Q1006 NOSIG
METAR WADD 221730Z 26014KT 9999 FEW017 29/25 Q1006 NOSIG
METAR WADD 221700Z 26015KT 9999 FEW017 28/25 Q1006 NOSIG
METAR WADD 221630Z 27013KT 9999 FEW017 28/25 Q1007 NOSIG
METAR WADD 221600Z 27013KT 9999 FEW017 28/25 Q1007 NOSIG</description><pubDate>Tue, 23 Dec 2025 15:30:59 </pubDate></item></channel></rss>