<rss version="2.0"><channel><title>Aviation Weather METAR Data for WADD</title><link>https://aviationweather.gov/api/data/metar?ids=WADD&amp;hours=24</link><description>Latest METAR data for WADD</description><item><title>2025-04-05 23:40:21Z</title><link>https://aviationweather.gov/api/data/metar?ids=WADD&amp;hours=24</link><description>WADD 052330Z VRB02KT 9999 FEW017 27/24 Q1011 NOSIG
WADD 052300Z VRB02KT 9999 FEW017 25/23 Q1010 NOSIG
WADD 052230Z 07002KT 9999 FEW017 25/23 Q1010 NOSIG
WADD 052200Z 10003KT 9999 FEW017 25/23 Q1010 NOSIG
WADD 052130Z 08003KT 9999 FEW017 25/23 Q1010 NOSIG
WADD 052100Z 03004KT 010V070 9999 FEW017 25/24 Q1009 NOSIG
WADD 052030Z 02004KT 9999 FEW017 25/24 Q1009 NOSIG
WADD 052000Z 03005KT 9999 FEW017 25/24 Q1009 NOSIG
WADD 051930Z 02004KT 9999 FEW017 26/24 Q1009 NOSIG
WADD 051900Z 02004KT 9999 FEW017 26/24 Q1009 NOSIG
WADD 051830Z 02004KT 9999 FEW017 26/24 Q1009 NOSIG
WADD 051800Z 02004KT 9999 FEW017 26/24 Q1010 NOSIG
WADD 051730Z 02004KT 010V090 9999 FEW017 27/24 Q1010 NOSIG
WADD 051700Z VRB02KT 9999 FEW017 27/24 Q1010 NOSIG
WADD 051630Z VRB02KT 9999 FEW017 27/25 Q1010 NOSIG
WADD 051600Z VRB01KT 9999 FEW017 27/25 Q1010 NOSIG
WADD 051530Z 13002KT 9999 FEW017 26/25 Q1010 NOSIG
WADD 051500Z 12003KT 9999 FEW017 28/25 Q1010 NOSIG
WADD 051430Z 11003KT 9999 FEW017 28/25 Q1010 NOSIG
WADD 051400Z 12003KT 9999 FEW017 27/25 Q1010 NOSIG
WADD 051330Z 12004KT 9999 FEW017 28/25 Q1010 NOSIG
WADD 051300Z 13006KT 9999 FEW017 28/26 Q1010 NOSIG
WADD 051230Z 13006KT 9999 FEW017 28/26 Q1010 NOSIG
WADD 051200Z 12005KT 9999 FEW017 28/25 Q1010 NOSIG
WADD 051130Z 13005KT 9999 FEW017 29/25 Q1009 NOSIG
WADD 051100Z 13005KT 9999 FEW017 29/25 Q1009 NOSIG
WADD 051030Z 14007KT 9999 FEW017 29/25 Q1009 NOSIG
WADD 051000Z 15008KT 9999 FEW017 29/25 Q1008 NOSIG
WADD 050930Z 14007KT 9999 FEW017 30/25 Q1008 NOSIG
WADD 050900Z 15008KT 9999 FEW017 30/25 Q1008 NOSIG
WADD 050830Z 17007KT 9999 FEW017 30/25 Q1008 NOSIG
WADD 050800Z 17008KT 9999 FEW017 31/25 Q1007 NOSIG
WADD 050730Z 12007KT 100V170 9999 FEW017 31/25 Q1007 NOSIG
WADD 050700Z 16007KT 100V180 9999 FEW017 31/26 Q1008 NOSIG
WADD 050630Z 16006KT 100V230 9999 FEW017 31/25 Q1008 NOSIG
WADD 050600Z 23007KT 9999 FEW017 31/26 Q1008 NOSIG
WADD 050530Z 24009KT 9999 FEW017 31/26 Q1008 NOSIG
WADD 050500Z 23008KT 9999 FEW017 31/27 Q1009 NOSIG
WADD 050430Z 24008KT 9999 FEW017 30/26 Q1009 NOSIG
WADD 050400Z 23006KT 9999 FEW017 30/26 Q1009 NOSIG
WADD 050330Z 23005KT 210V270 9999 FEW017 30/26 Q1010 NOSIG
WADD 050300Z 14003KT 9999 FEW017 31/25 Q1010 NOSIG
WADD 050230Z 13005KT 9999 FEW017 30/24 Q1010 NOSIG
WADD 050200Z 16004KT 9999 FEW017 30/25 Q1011 NOSIG
WADD 050130Z VRB02KT 9999 FEW017 29/25 Q1011 NOSIG
WADD 050100Z VRB02KT 9999 FEW017 28/24 Q1010 NOSIG
WADD 050030Z 15002KT 9999 FEW017 27/23 Q1010 NOSIG
WADD 050000Z VRB02KT 9999 FEW017 26/22 Q1010 NOSIG</description><pubDate>Sat, 05 Apr 2025 23:40:21 </pubDate></item></channel></rss>