<rss version="2.0"><channel><title>Aviation Weather METAR Data for WADD</title><link>https://aviationweather.gov/api/data/metar?ids=WADD&amp;hours=24</link><description>Latest METAR data for WADD</description><item><title>2025-01-25 18:42:05Z</title><link>https://aviationweather.gov/api/data/metar?ids=WADD&amp;hours=24</link><description>WADD 251830Z 30008KT 9999 SCT017 28/26 Q1007 NOSIG
WADD 251800Z 30006KT 9999 SCT017 27/26 Q1007 NOSIG
WADD 251730Z 32007KT 9999 SCT017 28/26 Q1007 NOSIG
WADD 251700Z 32004KT 9999 SCT017 28/26 Q1008 NOSIG
WADD 251630Z VRB01KT 9999 SCT017 27/26 Q1008 NOSIG
WADD 251600Z VRB02KT 9999 SCT017 28/26 Q1008 NOSIG
WADD 251530Z 22002KT 9999 SCT017 28/26 Q1009 NOSIG
WADD 251500Z VRB01KT 9999 SCT017 28/26 Q1009 NOSIG
WADD 251430Z VRB01KT 9999 SCT017 28/26 Q1008 NOSIG
WADD 251400Z VRB02KT 9999 SCT017 28/26 Q1008 NOSIG
WADD 251330Z VRB02KT 9999 FEW016CB SCT017 29/25 Q1008 NOSIG
WADD 251300Z 24003KT 9999 FEW016CB SCT017 28/26 Q1008 NOSIG
WADD 251230Z 25004KT 9999 FEW016CB SCT017 28/26 Q1007 NOSIG
WADD 251200Z 23003KT 9999 FEW016CB SCT017 29/26 Q1007 NOSIG
WADD 251130Z 23003KT 9999 FEW016CB SCT016 29/26 Q1007 NOSIG
WADD 251100Z 22005KT 160V270 9999 FEW016CB SCT017 29/26 Q1006 NOSIG
WADD 251030Z 22004KT 9999 SCT017 29/26 Q1006 NOSIG
WADD 251000Z 23005KT 170V260 9999 SCT017 30/26 Q1005 NOSIG
WADD 250930Z 24006KT 210V270 9999 SCT017 30/26 Q1005 NOSIG
WADD 250900Z 24007KT 210V270 9999 SCT017 31/26 Q1005 NOSIG
WADD 250830Z 25009KT 9999 FEW017 31/27 Q1005 NOSIG
WADD 250800Z 25010KT 9999 FEW017 30/26 Q1005 NOSIG
WADD 250730Z 26010KT 9999 FEW017 30/27 Q1005 NOSIG
WADD 250700Z 26009KT 9999 FEW017 30/26 Q1005 NOSIG
WADD 250630Z 26008KT 9999 FEW017 30/26 Q1006 NOSIG
WADD 250600Z 26009KT 210V290 9999 FEW017 30/27 Q1006 NOSIG
WADD 250530Z 26009KT 9999 FEW017 30/27 Q1007 NOSIG
WADD 250500Z 27009KT 9999 FEW017 30/27 Q1007 NOSIG
WADD 250430Z 26009KT 9999 FEW017 30/26 Q1007 NOSIG
WADD 250400Z 26009KT 9999 FEW017 30/27 Q1008 NOSIG
WADD 250330Z 26009KT 9999 FEW017 30/26 Q1008 NOSIG
WADD 250300Z 28009KT 240V320 9999 FEW017 30/26 Q1008 NOSIG
WADD 250230Z 29010KT 9999 FEW017 30/27 Q1008 NOSIG
WADD 250200Z 30009KT 9999 FEW017 30/26 Q1009 NOSIG
WADD 250130Z 29006KT 250V320 9999 FEW017 29/26 Q1009 NOSIG
WADD 250100Z 27005KT 9999 FEW017 28/26 Q1009 NOSIG
WADD 250030Z 28005KT 9999 FEW017 28/26 Q1009 NOSIG
WADD 250000Z 30005KT 9999 FEW016 28/25 Q1008 NOSIG
WADD 242330Z VRB01KT 9999 SCT016 27/26 Q1008 NOSIG
WADD 242300Z VRB01KT 9999 FEW016 25/25 Q1008 NOSIG
WADD 242230Z VRB01KT 9999 FEW016 25/25 Q1008 NOSIG
WADD 242200Z 34002KT 9999 FEW016 25/25 Q1008 NOSIG
WADD 242130Z VRB01KT 9999 SCT016 25/25 Q1007 NOSIG
WADD 242100Z VRB02KT 9999 SCT016 26/25 Q1007 NOSIG
WADD 242030Z VRB01KT 9999 SCT016 26/26 Q1007 RERA NOSIG
WADD 242000Z VRB02KT 5000 -RA BKN016 26/25 Q1007 TEMPO TL2100 -RA
WADD 241930Z 24002KT 9999 SCT016 27/25 Q1007 NOSIG
WADD 241900Z 31005KT 9999 SCT016 27/25 Q1007 RERA NOSIG</description><pubDate>Sat, 25 Jan 2025 18:42:05 </pubDate></item></channel></rss>