<rss version="2.0"><channel><title>Aviation Weather METAR Data for WADD</title><link>https://aviationweather.gov/api/data/metar?ids=WADD&amp;hours=24</link><description>Latest METAR data for WADD</description><item><title>2025-01-22 22:41:10Z</title><link>https://aviationweather.gov/api/data/metar?ids=WADD&amp;hours=24</link><description>WADD 222230Z 32007KT 9999 BKN015 25/24 Q1008 NOSIG
WADD 222200Z 32007KT 9999 BKN015 25/24 Q1008 NOSIG
WADD 222130Z 32008KT 9999 BKN015 25/24 Q1008 NOSIG
WADD 222100Z 32009KT 9999 BKN015 25/24 Q1007 RERA NOSIG
WADD 222030Z 31012KT 5000 -RA BKN014 25/25 Q1007 TEMPO TL2130 -RA
WADD 222000Z 29014KT 5000 -RA FEW014CB BKN014 26/25 Q1008 TEMPO TL2130 -RA
WADD 221930Z 27013KT 5000 -RA FEW014CB BKN014 26/25 Q1008 TEMPO TL2030 -RA RMK CB IN APCH AND CLIMB-OUT
WADD 221900Z 28010KT 5000 -RA FEW014CB BKN014 26/25 Q1008 TEMPO TL2030 -RA RMK CB IN APCH AND CLIMB-OUT
WADD 221830Z 29010KT 3000 RA FEW014CB BKN014 26/25 Q1008 TEMPO TL1930 5000 -RA
WADD 221800Z 28010KT 7000 -RA FEW014CB BKN014 25/25 Q1008 TEMPO TL1930 -RA
WADD 221730Z 30007KT 6000 -RA FEW013CB BKN014 25/25 Q1009 TEMPO TL1830 -RA
WADD 221700Z 29010KT 260V320 5000 -RA FEW015CB BKN015 26/25 Q1009 TEMPO TL1830 -RA RMK CB IN CLIMB-OUT
WADD 221630Z 23004KT 140V280 5000 -RA FEW015CB BKN015 26/25 Q1009 TEMPO TL1730 -RA RMK CB IN CLIMB-OUT
WADD 221600Z VRB04KT 7000 3000W -RA FEW015CB BKN015 27/25 Q1009 TEMPO TL1730 -RA RMK CB IN CLIMB-OUT
WADD 221530Z VRB02KT 9999 SCT016 27/25 Q1009 NOSIG
WADD 221500Z 34003KT 9999 SCT017 28/25 Q1009 NOSIG
WADD 221430Z 36003KT 9999 SCT017 28/25 Q1010 NOSIG
WADD 221400Z 02005KT 320V060 9999 SCT017 28/26 Q1009 NOSIG
WADD 221330Z VRB04KT 9999 SCT017 27/26 Q1009 NOSIG
WADD 221300Z 12003KT 9999 SCT017 28/26 Q1009 NOSIG
WADD 221230Z 14003KT 9999 SCT017 28/26 Q1009 NOSIG
WADD 221200Z 17004KT 9999 SCT017 28/27 Q1008 NOSIG
WADD 221130Z 22004KT 9999 SCT016 28/26 Q1008 NOSIG
WADD 221100Z 23003KT 9999 SCT016 28/26 Q1008 NOSIG
WADD 221030Z 22005KT 9999 SCT016 28/26 Q1008 NOSIG
WADD 221000Z 23004KT 9999 SCT016 29/26 Q1008 NOSIG
WADD 220930Z 24004KT 210V270 9999 SCT016 29/26 Q1007 NOSIG
WADD 220900Z 25005KT 9999 SCT016 29/26 Q1007 NOSIG
WADD 220830Z 27007KT 9999 SCT016 29/26 Q1007 NOSIG
WADD 220800Z 26006KT 9999 BKN016 29/26 Q1007 NOSIG
WADD 220730Z 26006KT 9999 BKN016 30/26 Q1007 NOSIG
WADD 220700Z 27008KT 9999 BKN016 30/26 Q1007 NOSIG
WADD 220630Z 27009KT 9999 BKN016 30/26 Q1007 NOSIG
WADD 220600Z 26007KT 9999 BKN016 29/25 Q1008 NOSIG
WADD 220530Z 24005KT 9999 SCT016 29/26 Q1008 NOSIG
WADD 220500Z 25004KT 9999 SCT016 29/26 Q1008 NOSIG
WADD 220430Z 29004KT 230V330 9999 SCT016 29/25 Q1008 NOSIG
WADD 220400Z 27003KT 9999 SCT016 28/26 Q1009 NOSIG
WADD 220330Z 25003KT 9999 SCT016 28/26 Q1009 NOSIG
WADD 220300Z 24003KT 9999 SCT016 28/26 Q1009 NOSIG
WADD 220230Z 27003KT 9999 SCT016 27/26 Q1009 NOSIG
WADD 220200Z VRB04KT 9999 SCT016 27/26 Q1009 NOSIG
WADD 220130Z 34005KT 9999 SCT016 27/26 Q1009 NOSIG
WADD 220100Z 36007KT 260V050 9999 SCT016 26/26 Q1009 NOSIG
WADD 220030Z 36007KT 9999 SCT016 26/25 Q1009 RERA NOSIG
WADD 220000Z 31010KT 290V350 7000 -RA BKN015 26/25 Q1009 TEMPO TL0100 -RA
WADD 212330Z 26015KT 6000 RA BKN015 26/25 Q1009 TEMPO TL2400 5000 RA
WADD 212300Z 29008KT 8000 BKN015 25/25 Q1009 NOSIG</description><pubDate>Wed, 22 Jan 2025 22:41:10 </pubDate></item></channel></rss>