<rss version="2.0"><channel><title>Aviation Weather METAR Data for WADD</title><link>https://aviationweather.gov/api/data/metar?ids=WADD&amp;hours=24</link><description>Latest METAR data for WADD</description><item><title>2026-06-10 00:21:40Z</title><link>https://aviationweather.gov/api/data/metar?ids=WADD&amp;hours=24</link><description>METAR WADD 100000Z 03006KT 9999 FEW017 27/21 Q1014 NOSIG
METAR WADD 092330Z 04007KT 9999 FEW017 26/21 Q1014 NOSIG
METAR WADD 092300Z 03006KT 9999 FEW017 24/21 Q1014 NOSIG
METAR WADD 092230Z 04005KT 9999 FEW017 24/21 Q1013 NOSIG
METAR WADD 092200Z 06006KT 9999 FEW017 25/22 Q1013 NOSIG
METAR WADD 092130Z 10006KT 9999 FEW017 25/21 Q1013 NOSIG
METAR WADD 092100Z 12005KT 9999 FEW017 26/22 Q1013 NOSIG
METAR WADD 092030Z 13006KT 9999 FEW017 26/22 Q1013 NOSIG
METAR WADD 092000Z 14007KT 9999 FEW017 26/22 Q1013 NOSIG
METAR WADD 091930Z 15008KT 9999 FEW017 26/22 Q1013 NOSIG
METAR WADD 091900Z 14008KT 9999 FEW017 26/22 Q1012 NOSIG
METAR WADD 091830Z 13007KT 9999 FEW017 26/22 Q1013 NOSIG
METAR WADD 091800Z 12008KT 9999 FEW017 26/22 Q1013 NOSIG
METAR WADD 091730Z 12009KT 9999 FEW017 26/22 Q1013 NOSIG
METAR WADD 091700Z 12010KT 9999 FEW017 26/22 Q1013 NOSIG
METAR WADD 091630Z 12010KT 9999 FEW017 27/23 Q1013 NOSIG
METAR WADD 091600Z 13010KT 9999 FEW017 27/23 Q1013 NOSIG
METAR WADD 091530Z 12011KT 9999 FEW017 27/23 Q1013 NOSIG
METAR WADD 091500Z 13011KT 9999 FEW017 27/22 Q1013 NOSIG
METAR WADD 091430Z 13011KT 9999 FEW017 27/22 Q1013 NOSIG
METAR WADD 091400Z 13011KT 9999 FEW017 27/23 Q1013 NOSIG
METAR WADD 091330Z 13013KT 9999 FEW017 27/23 Q1013 NOSIG
METAR WADD 091300Z 13013KT 9999 FEW017 27/23 Q1013 NOSIG
METAR WADD 091230Z 14013KT 9999 FEW016 27/23 Q1012 NOSIG
METAR WADD 091200Z 14013KT 9999 FEW013 27/23 Q1012 NOSIG
METAR WADD 091130Z 13013KT 9999 FEW016 27/23 Q1012 NOSIG
METAR WADD 091100Z 13012KT 9999 FEW016 27/23 Q1012 NOSIG
METAR WADD 091030Z 14013KT 9999 FEW016 28/23 Q1011 NOSIG
METAR WADD 091000Z 14017KT 9999 FEW016 28/23 Q1011 NOSIG
METAR WADD 090930Z 14018KT 9999 FEW016 28/23 Q1011 NOSIG
METAR WADD 090900Z 14017KT 9999 FEW016 28/24 Q1010 NOSIG
METAR WADD 090830Z 14017KT 9999 FEW016 29/23 Q1010 NOSIG
METAR WADD 090800Z 14012KT 9999 FEW016 29/23 Q1010 NOSIG
METAR WADD 090730Z 12012KT 9999 FEW016 30/23 Q1010 NOSIG
METAR WADD 090700Z 11014KT 9999 FEW016 30/23 Q1010 NOSIG
METAR WADD 090630Z 11011KT 9999 FEW016 30/23 Q1010 NOSIG
METAR WADD 090600Z 11012KT 9999 FEW016 30/23 Q1011 NOSIG
METAR WADD 090530Z 12012KT 9999 FEW016 30/23 Q1011 NOSIG
METAR WADD 090500Z 12012KT 9999 FEW016 30/22 Q1012 NOSIG
METAR WADD 090430Z 10011KT 9999 FEW016 30/23 Q1012 NOSIG
METAR WADD 090400Z 11013KT 9999 FEW016 30/23 Q1013 NOSIG
METAR WADD 090330Z 11014KT 9999 FEW016 30/23 Q1013 NOSIG
METAR WADD 090300Z 11012KT 9999 FEW016 30/23 Q1013 NOSIG
METAR WADD 090230Z 09011KT 9999 FEW016 30/24 Q1014 NOSIG
METAR WADD 090200Z 11011KT 9999 FEW016 30/23 Q1014 NOSIG
METAR WADD 090130Z 10009KT 050V130 9999 SCT016 30/23 Q1014 NOSIG
METAR WADD 090100Z 09006KT 9999 SCT016 29/23 Q1014 NOSIG
METAR WADD 090030Z 11004KT 070V150 9999 SCT016 28/22 Q1014 NOSIG</description><pubDate>Wed, 10 Jun 2026 00:21:40 </pubDate></item></channel></rss>