<rss version="2.0"><channel><title>Aviation Weather METAR Data for WADD</title><link>https://aviationweather.gov/api/data/metar?ids=WADD&amp;hours=24</link><description>Latest METAR data for WADD</description><item><title>2026-01-30 05:55:38Z</title><link>https://aviationweather.gov/api/data/metar?ids=WADD&amp;hours=24</link><description>METAR WADD 300530Z 25010KT 220V290 9999 FEW017 31/26 Q1010 NOSIG
METAR WADD 300500Z 27010KT 230V290 9999 FEW017 31/26 Q1011 NOSIG
METAR WADD 300430Z 26009KT 9999 FEW017 31/26 Q1011 NOSIG
METAR WADD 300400Z 26009KT 9999 FEW017 31/26 Q1011 NOSIG
METAR WADD 300330Z 26008KT 9999 FEW015CB FEW017 31/27 Q1012 NOSIG
METAR WADD 300300Z 26009KT 9999 FEW017 30/26 Q1012 NOSIG
METAR WADD 300230Z 25007KT 220V280 9999 FEW017 30/26 Q1012 NOSIG
METAR WADD 300200Z 26006KT 220V300 9999 FEW017 30/26 Q1012 NOSIG
METAR WADD 300130Z 28006KT 240V300 9999 FEW017 30/25 Q1012 NOSIG
METAR WADD 300100Z 32005KT 270V350 9999 FEW017 29/25 Q1012 NOSIG
METAR WADD 300030Z 36004KT 320V050 9999 FEW017 29/27 Q1012 NOSIG
METAR WADD 300000Z 01005KT 9999 FEW017 28/27 Q1012 NOSIG
METAR WADD 292330Z 01005KT 9999 FEW015CB FEW016 27/26 Q1012 NOSIG RMK CB IN APCH
METAR WADD 292300Z VRB02KT 9999 FEW015CB FEW016 27/26 Q1012 NOSIG RMK CB IN APCH
METAR WADD 292230Z 03004KT 9999 FEW015CB FEW016 26/25 Q1011 NOSIG
METAR WADD 292200Z 05003KT 9999 FEW015CB FEW016 26/25 Q1011 NOSIG
METAR WADD 292130Z 07004KT 9999 FEW015CB FEW016 27/25 Q1011 NOSIG
METAR WADD 292100Z 08004KT 9999 FEW017 27/25 Q1011 NOSIG
METAR WADD 292030Z 36002KT 9999 FEW017 28/26 Q1011 NOSIG
METAR WADD 292000Z 32003KT 9999 FEW017 28/26 Q1011 NOSIG
METAR WADD 291930Z 30007KT 9999 FEW017 28/25 Q1011 NOSIG
METAR WADD 291900Z 30007KT 9999 FEW017 27/25 Q1011 NOSIG
METAR WADD 291830Z 31007KT 9999 FEW017 28/26 Q1011 NOSIG
METAR WADD 291800Z 31007KT 9999 FEW017 28/26 Q1011 NOSIG
METAR WADD 291730Z 29003KT 9999 FEW017 28/26 Q1011 NOSIG
METAR WADD 291700Z VRB02KT 9999 FEW017 28/26 Q1011 NOSIG
METAR WADD 291630Z 34003KT 9999 FEW017 28/26 Q1011 NOSIG
METAR WADD 291600Z VRB02KT 9999 FEW017 28/26 Q1012 NOSIG
METAR WADD 291530Z 01003KT 9999 FEW017 28/26 Q1012 NOSIG
METAR WADD 291500Z 35003KT 330V030 9999 FEW017 28/26 Q1012 NOSIG
METAR WADD 291430Z 02004KT 360V070 9999 FEW017 28/26 Q1012 NOSIG
METAR WADD 291400Z 11004KT 9999 FEW017 28/26 Q1012 NOSIG
METAR WADD 291330Z 07003KT 9999 FEW017 28/26 Q1011 NOSIG
METAR WADD 291300Z 09003KT 9999 FEW017 28/26 Q1011 NOSIG
METAR WADD 291230Z 07005KT 050V110 9999 FEW017 28/26 Q1011 NOSIG
METAR WADD 291200Z 15006KT 9999 FEW017 29/26 Q1010 NOSIG
METAR WADD 291130Z 13006KT 9999 FEW017 29/26 Q1010 NOSIG
METAR WADD 291100Z 13007KT 9999 FEW017 29/26 Q1010 NOSIG
METAR WADD 291030Z 13008KT 9999 FEW017 30/26 Q1009 NOSIG
METAR WADD 291000Z 12007KT 9999 FEW017 30/26 Q1009 NOSIG
METAR WADD 290930Z 14007KT 9999 FEW017 30/26 Q1009 NOSIG
METAR WADD 290900Z 13006KT 9999 FEW017 30/26 Q1009 NOSIG
METAR WADD 290830Z 11006KT 9999 FEW017 30/25 Q1009 NOSIG
METAR WADD 290800Z 11006KT 9999 FEW017 30/25 Q1009 NOSIG
METAR WADD 290730Z 10007KT 9999 FEW017 31/25 Q1009 NOSIG
METAR WADD 290700Z 11009KT 9999 FEW017 31/25 Q1009 NOSIG
METAR WADD 290630Z 11010KT 9999 FEW017 32/25 Q1010 NOSIG
METAR WADD 290600Z 27014KT 9999 FEW017 31/25 Q1007 NOSIG</description><pubDate>Fri, 30 Jan 2026 05:55:38 </pubDate></item></channel></rss>