<rss version="2.0"><channel><title>Aviation Weather METAR Data for WADD</title><link>https://aviationweather.gov/api/data/metar?ids=WADD&amp;hours=24</link><description>Latest METAR data for WADD</description><item><title>2025-04-14 17:23:43Z</title><link>https://aviationweather.gov/api/data/metar?ids=WADD&amp;hours=24</link><description>WADD 141700Z 15003KT 9999 FEW017 28/27 Q1010 NOSIG
WADD 141630Z 16003KT 9999 FEW017 28/27 Q1010 NOSIG
WADD 141600Z VRB02KT 9999 FEW017 28/27 Q1010 NOSIG
WADD 141530Z VRB02KT 9999 FEW017 27/26 Q1010 NOSIG
WADD 141500Z VRB02KT 9999 FEW017 27/26 Q1010 NOSIG
WADD 141430Z 07003KT 9999 FEW017 27/26 Q1010 NOSIG
WADD 141400Z 10003KT 9999 FEW017 27/26 Q1010 NOSIG
WADD 141330Z 09002KT 9999 FEW017 28/26 Q1010 NOSIG
WADD 141300Z 10002KT 9999 FEW017 27/26 Q1010 NOSIG
WADD 141230Z 12002KT 9999 FEW017 28/26 Q1009 NOSIG
WADD 141200Z 10003KT 9999 FEW017 28/26 Q1009 NOSIG
WADD 141130Z 17004KT 9999 FEW016 29/27 Q1009 NOSIG
WADD 141100Z 16005KT 9999 SCT016 29/27 Q1008 NOSIG
WADD 141030Z 15007KT 9999 FEW015CB SCT016 29/27 Q1008 NOSIG
WADD 141000Z 18008KT 9999 FEW015CB SCT016 29/27 Q1008 NOSIG
WADD 140930Z 19008KT 9999 FEW015CB SCT016 30/27 Q1007 NOSIG
WADD 140900Z 19010KT 9999 FEW015CB SCT016 30/27 Q1007 NOSIG
WADD 140830Z 20010KT 9999 FEW015CB SCT016 31/28 Q1007 NOSIG
WADD 140800Z 22003KT 9999 FEW015CB SCT016 31/27 Q1007 NOSIG
WADD 140730Z 26005KT 210V290 9999 FEW015CB SCT016 31/28 Q1007 NOSIG
WADD 140700Z 24003KT 9999 SCT016 31/28 Q1007 NOSIG
WADD 140630Z 15005KT 9999 SCT016 31/28 Q1007 NOSIG
WADD 140600Z 19005KT 9999 SCT016 30/27 Q1008 NOSIG
WADD 140530Z 18005KT 9999 SCT017 30/28 Q1008 RERA NOSIG
WADD 140500Z 13008KT 8000 -RA FEW014CB SCT015 29/26 Q1009 TEMPO TL0600 -RA
WADD 140430Z 23007KT 8000 -RA FEW014CB BKN015 30/28 Q1009 TEMPO TL0530 5000 RA
WADD 140400Z 25005KT 9999 SCT017 31/27 Q1009 NOSIG
WADD 140330Z 20004KT 9999 SCT017 30/28 Q1010 NOSIG
WADD 140300Z 14005KT 9999 FEW014CB SCT015 30/27 Q1010 NOSIG
WADD 140230Z 10006KT 9999 FEW014CB SCT015 30/27 Q1011 NOSIG
WADD 140200Z 34004KT 300V030 9999 FEW014CB SCT015 29/27 Q1011 NOSIG
WADD 140130Z 34006KT 320V030 9999 FEW014CB SCT015 29/27 Q1011 NOSIG
WADD 140100Z 35005KT 330V030 9999 FEW014CB BKN015 28/27 Q1011 NOSIG
WADD 140030Z 34005KT 320V020 9999 FEW014CB BKN015 27/27 Q1011 RERA NOSIG
WADD 140000Z 07005KT 8000 -RA FEW014CB BKN015 27/26 Q1010 TEMPO TL0100 -RA
WADD 132330Z 01005KT 9999 FEW014CB BKN015 27/26 Q1010 RERA NOSIG
WADD 132300Z 02005KT 7000 -RA FEW014CB BKN014 26/26 Q1010 TEMPO TL2400 7000 -RA
WADD 132230Z 36003KT 9999 FEW014CB BKN014 26/26 Q1009 NOSIG
WADD 132200Z 35002KT 9999 FEW014CB BKN014 26/26 Q1009 NOSIG
WADD 132130Z 04002KT 9999 FEW015CB SCT016 26/26 Q1009 NOSIG
WADD 132100Z 03004KT 9999 FEW015CB SCT016 26/26 Q1009 NOSIG
WADD 132030Z 08005KT 9999 FEW015CB SCT016 26/26 Q1008 NOSIG
WADD 132000Z 08005KT 9999 FEW017 26/26 Q1008 NOSIG
WADD 131930Z 02002KT 9999 SCT016 26/26 Q1009 NOSIG
WADD 131900Z 02003KT 9999 FEW017 27/26 Q1009 NOSIG
WADD 131830Z 03002KT 9999 FEW017 27/26 Q1009 NOSIG
WADD 131800Z 03004KT 9999 FEW016 27/26 Q1009 NOSIG
WADD 131730Z 02004KT 350V090 9999 SCT016 27/27 Q1009 NOSIG</description><pubDate>Mon, 14 Apr 2025 17:23:43 </pubDate></item></channel></rss>