<rss version="2.0"><channel><title>Aviation Weather METAR Data for WADD</title><link>https://aviationweather.gov/api/data/metar?ids=WADD&amp;hours=24</link><description>Latest METAR data for WADD</description><item><title>2025-06-27 10:30:15Z</title><link>https://aviationweather.gov/api/data/metar?ids=WADD&amp;hours=24</link><description>WADD 271000Z 13015KT 9999 SCT016 27/25 Q1010 NOSIG
WADD 270930Z 12016KT 9999 SCT016 28/25 Q1010 NOSIG
WADD 270900Z 12020KT 9999 SCT016 28/25 Q1009 NOSIG
WADD 270830Z 12019KT 9999 SCT016 28/25 Q1009 NOSIG
WADD 270800Z 12019KT 9999 SCT016 29/26 Q1009 NOSIG
WADD 270730Z 12019KT 9999 FEW016 29/26 Q1009 NOSIG
WADD 270700Z 11019KT 9999 FEW016 29/26 Q1009 NOSIG
WADD 270630Z 12020KT 9999 SCT016 29/25 Q1009 NOSIG
WADD 270600Z 12018KT 9999 SCT016 29/26 Q1010 NOSIG
WADD 270530Z 12017KT 9999 SCT016 29/26 Q1010 NOSIG
WADD 270500Z 12018KT 9999 SCT016 29/25 Q1010 NOSIG
WADD 270430Z 12018KT 9999 SCT016 29/26 Q1011 NOSIG
WADD 270400Z 12018KT 9999 SCT016 29/25 Q1011 NOSIG
WADD 270330Z 12020KT 9999 BKN016 29/25 Q1011 NOSIG
WADD 270300Z 12018KT 9999 SCT016 29/25 Q1012 NOSIG
WADD 270230Z 12018KT 9999 FEW015CB SCT016 29/26 Q1012 NOSIG
WADD 270200Z 10018G26KT 9999 FEW015CB SCT016 28/25 Q1012 NOSIG
WADD 270130Z 12017KT 9999 BKN016 28/25 Q1012 NOSIG
WADD 270100Z 11014KT 9999 FEW014CB BKN015 28/26 Q1012 NOSIG
WADD 270030Z 09014KT 9999 FEW014CB BKN015 28/26 Q1012 NOSIG
WADD 270000Z 12014KT 9999 FEW014CB BKN015 27/26 Q1012 NOSIG
WADD 262330Z 12012KT 9999 FEW014CB BKN015 27/26 Q1012 NOSIG
WADD 262300Z 12013KT 9999 FEW014CB BKN015 27/26 Q1011 NOSIG
WADD 262230Z 12013KT 9999 FEW014CB BKN015 27/26 Q1011 NOSIG RMK CB IN APCH AND CLIMB-OUT
WADD 262200Z 12010KT 9999 SCT016 27/26 Q1011 NOSIG
WADD 262130Z 12011KT 9999 SCT016 27/26 Q1011 NOSIG
WADD 262100Z 11011KT 9999 SCT016 27/26 Q1011 NOSIG
WADD 262030Z 11013KT 9999 BKN016 27/26 Q1011 NOSIG
WADD 262000Z 11013KT 9999 BKN016 27/26 Q1011 NOSIG
WADD 261930Z 11014KT 9999 FEW015CB BKN016 27/26 Q1011 NOSIG
WADD 261900Z 11012KT 9999 FEW015CB BKN016 27/26 Q1011 NOSIG
WADD 261830Z 12014KT 9999 FEW015CB BKN016 27/26 Q1011 NOSIG
WADD 261800Z 12012KT 9999 SCT016 27/26 Q1011 NOSIG
WADD 261730Z 12012KT 9999 SCT016 27/26 Q1012 NOSIG
WADD 261700Z 12015KT 9999 FEW015CB SCT016 27/26 Q1011 NOSIG
WADD 261630Z 12013KT 9999 FEW015CB SCT016 27/26 Q1012 NOSIG
WADD 261600Z 12011KT 9999 FEW015CB SCT016 27/26 Q1012 NOSIG
WADD 261530Z 12010KT 9999 SCT016 27/26 Q1012 NOSIG
WADD 261500Z 12012KT 9999 SCT016 27/26 Q1012 NOSIG
WADD 261430Z 12008KT 9999 SCT016 27/26 Q1012 NOSIG
WADD 261400Z 12009KT 9999 SCT016 27/26 Q1012 NOSIG
WADD 261330Z 12009KT 9999 SCT016 27/26 Q1012 NOSIG
WADD 261300Z 12011KT 9999 SCT016 27/26 Q1012 NOSIG
WADD 261230Z 12010KT 9999 SCT016 27/26 Q1012 NOSIG
WADD 261200Z 12012KT 9999 SCT016 27/26 Q1011 NOSIG
WADD 261130Z 13013KT 9999 SCT016 27/26 Q1011 NOSIG
WADD 261100Z 13012KT 9999 SCT016 27/26 Q1011 NOSIG</description><pubDate>Fri, 27 Jun 2025 10:30:15 </pubDate></item></channel></rss>