<rss version="2.0"><channel><title>Aviation Weather METAR Data for WADD</title><link>https://aviationweather.gov/api/data/metar?ids=WADD&amp;hours=24</link><description>Latest METAR data for WADD</description><item><title>2026-07-23 00:08:45Z</title><link>https://aviationweather.gov/api/data/metar?ids=WADD&amp;hours=24</link><description>METAR WADD 230000Z 13013KT 9999 BKN016 26/21 Q1015 NOSIG
METAR WADD 222330Z 13012KT 9999 BKN016 26/21 Q1015 NOSIG
METAR WADD 222300Z 13012KT 9999 BKN016 25/21 Q1015 NOSIG
METAR WADD 222230Z 13012KT 9999 BKN016 25/21 Q1014 NOSIG
METAR WADD 222200Z 12013KT 9999 SCT016 25/20 Q1014 NOSIG
METAR WADD 222130Z 13014KT 9999 BKN016 26/21 Q1014 NOSIG
METAR WADD 222100Z 12013KT 9999 SCT016 26/21 Q1014 NOSIG
METAR WADD 222030Z 12013KT 9999 SCT016 26/21 Q1014 NOSIG
METAR WADD 222000Z 11014KT 9999 SCT016 26/21 Q1014 NOSIG
METAR WADD 221930Z 12016KT 9999 SCT016 26/21 Q1014 NOSIG
METAR WADD 221900Z 12014KT 9999 SCT016 26/21 Q1014 NOSIG
METAR WADD 221830Z 12014KT 9999 SCT016 26/21 Q1014 NOSIG
METAR WADD 221800Z 11010KT 9999 SCT016 26/21 Q1014 NOSIG
METAR WADD 221730Z 12011KT 9999 FEW015CB BKN016 26/21 Q1015 NOSIG
METAR WADD 221700Z 12014KT 9999 FEW015CB BKN016 26/21 Q1015 NOSIG
METAR WADD 221630Z 12013KT 9999 SCT016 26/21 Q1015 NOSIG
METAR WADD 221600Z 12011KT 9999 SCT016 26/21 Q1015 NOSIG
METAR WADD 221530Z 11011KT 9999 SCT016 26/21 Q1015 NOSIG
METAR WADD 221500Z 12012KT 9999 SCT016 26/22 Q1015 NOSIG
METAR WADD 221430Z 12012KT 9999 BKN016 26/22 Q1015 NOSIG
METAR WADD 221400Z 11010KT 9999 BKN015 25/22 Q1015 NOSIG
METAR WADD 221330Z 11013KT 9999 BKN015 25/22 Q1015 RERA NOSIG
METAR WADD 221300Z 12012KT 7000 -RA BKN015 25/22 Q1015 TEMPO TL1400 -RA
SPECI WADD 221244Z 12011KT 7000 -RA BKN015 26/21 Q1015 TEMPO TL1400 -RA
METAR WADD 221230Z 12011KT 9999 BKN016 26/21 Q1015 NOSIG
METAR WADD 221200Z 12010KT 9999 BKN016 26/22 Q1015 NOSIG
METAR WADD 221130Z 12010KT 9999 BKN016 26/21 Q1014 NOSIG
METAR WADD 221100Z 13012KT 9999 BKN016 26/21 Q1014 NOSIG
METAR WADD 221030Z 12012KT 9999 SCT016 26/21 Q1014 NOSIG
METAR WADD 221000Z 13013KT 9999 BKN016 27/21 Q1013 NOSIG
METAR WADD 220930Z 13015KT 9999 BKN016 27/21 Q1013 NOSIG
METAR WADD 220900Z 13015KT 9999 BKN016 27/21 Q1013 NOSIG
METAR WADD 220830Z 13013KT 9999 BKN016 28/22 Q1013 NOSIG
METAR WADD 220800Z 14013KT 9999 BKN016 28/22 Q1013 NOSIG
METAR WADD 220730Z 14016KT 9999 SCT016 28/21 Q1013 NOSIG
METAR WADD 220700Z 14014KT 9999 SCT016 28/21 Q1013 NOSIG
METAR WADD 220630Z 13016KT 9999 SCT016 29/21 Q1013 NOSIG
METAR WADD 220600Z 12013KT 9999 SCT016 28/21 Q1013 NOSIG
METAR WADD 220530Z 13018KT 9999 SCT016 29/21 Q1013 NOSIG
METAR WADD 220500Z 14017KT 9999 SCT016 28/22 Q1014 NOSIG
METAR WADD 220430Z 13017KT 9999 SCT016 29/22 Q1014 NOSIG
METAR WADD 220400Z 13018KT 9999 SCT016 28/20 Q1014 NOSIG
METAR WADD 220330Z 12017KT 9999 SCT016 29/21 Q1015 NOSIG
METAR WADD 220300Z 11015KT 9999 SCT016 29/21 Q1015 NOSIG
METAR WADD 220230Z 11017KT 9999 SCT016 29/21 Q1015 NOSIG
METAR WADD 220200Z 12018KT 8000 FEW016CB SCT016 28/22 Q1015 NOSIG
METAR WADD 220130Z 12017KT 9999 SCT016 28/23 Q1015 NOSIG
METAR WADD 220100Z 12016KT 9999 SCT016 28/22 Q1016 NOSIG
METAR WADD 220030Z COR 13015KT 9999 BKN016 27/22 Q1015 NOSIG</description><pubDate>Thu, 23 Jul 2026 00:08:45 </pubDate></item></channel></rss>