<rss version="2.0"><channel><title>Aviation Weather METAR Data for WADD</title><link>https://aviationweather.gov/api/data/metar?ids=WADD&amp;hours=24</link><description>Latest METAR data for WADD</description><item><title>2025-12-27 22:27:29Z</title><link>https://aviationweather.gov/api/data/metar?ids=WADD&amp;hours=24</link><description>METAR WADD 272200Z 30008KT 9999 FEW014CB BKN015 27/25 Q1007 NOSIG
METAR WADD 272130Z 29011KT 9999 FEW015CB BKN016 27/25 Q1007 RERA NOSI G
METAR WADD 272100Z 29012KT 7000 -RA FEW015CB BKN016 27/26 Q1007 TEMPO TL2200 -RA
METAR WADD 272030Z 29011KT 250V320 7000 -RA FEW015CB BKN016 26/26 Q1007 TEMPO TL2130 -RA
METAR WADD 272000Z 29006G17KT 6000 -RA FEW015CB BKN016 26/25 Q1006 TE MPO TL2100 -RA
METAR WADD 271930Z 25011KT 4000 RA FEW015CB BKN016 26/25 Q1007 TEMPO TL2030 4000 RA RMK CB IN APCH AND CLIMB-OUT
METAR WADD 271900Z 28010KT 9999 FEW015CB BKN016 28/26 Q1006 NOSIG
METAR WADD 271830Z 28013KT 9999 FEW015CB BKN016 28/26 Q1007 RERA NOSI G
METAR WADD 271800Z 27011KT 6000 -RA FEW015CB BKN016 27/26 Q1007 TEMPO TL1900 -RA RMK CB IN APCH
METAR WADD 271730Z 28010KT 9999 FEW015CB SCT016 28/25 Q1007 NOSIG
METAR WADD 271700Z 28013KT 9999 FEW015CB SCT016 28/26 Q1007 NOSIG
METAR WADD 271630Z 28011KT 9999 FEW015CB SCT016 28/25 Q1008 NOSIG
METAR WADD 271600Z 28014KT 9999 FEW015CB BKN016 28/26 Q1008 NOSIG
METAR WADD 271530Z 28015KT 9999 FEW015CB BKN016 28/26 Q1008 RERA NOSI G
METAR WADD 271500Z 28013KT 8000 -RA FEW015CB BKN016 28/26 Q1008 TEMPO TL1600 -RA
METAR WADD 271430Z 28013KT 9999 BKN016 28/26 Q1008 RERA NOSIG
METAR WADD 271400Z 28015KT 9999 SCT016 28/26 Q1008 NOSIG
METAR WADD 271330Z 28014KT 9999 SCT016 28/26 Q1008 NOSIG
METAR WADD 271300Z 28013KT 9999 SCT016 28/26 Q1008 NOSIG
METAR WADD 271230Z 27015KT 9999 BKN016 28/26 Q1008 NOSIG
METAR WADD 271200Z 26012KT 9999 BKN016 29/26 Q1008 NOSIG
METAR WADD 271130Z 26011KT 9999 BKN015 28/26 Q1008 NOSIG
METAR WADD 271100Z 26012KT 9999 BKN015 28/26 Q1007 NOSIG
METAR WADD 271030Z 26012KT 9999 BKN015 28/26 Q1007 NOSIG
METAR WADD 271000Z 27011KT 7000 FEW014CB BKN015 28/26 Q1007 NOSIG
METAR WADD 270930Z 26006KT 7000 FEW013CB BKN014 28/26 Q1006 NOSIG
METAR WADD 270900Z COR 22005KT 170V260 6000 FEW013CB BKN014 28/26 Q1006 RERA NOSIG RMK CB IN APCH AND CLIMB-OUT
METAR WADD 270830Z 27011KT 5000 -RA FEW013CB BKN013 28/27 Q1006 TEMPO TL0930 7000 -RA RMK CB IN APCH AND CLIMB-OUT
METAR WADD 270800Z 24009KT 200V270 0600 +RA FEW013CB BKN013 27/26 Q1007 TEMPO TL0900 2000 RA RMK CB IN APCH AND CLIMB-OUT
METAR WADD 270730Z 26013G23KT 220V280 0600 +RA FEW013CB BKN013 28/26 Q1007 TEMPO TL0830 3000 RA RMK CB IN APCH AND CLIMB-OUT
METAR WADD 270700Z 26014KT 7000 FEW014CB BKN015 28/26 Q1006 RERA NOSIG RMK CB IN APCH
METAR WADD 270630Z 27015KT 6000 -RA FEW014CB BKN014 27/25 Q1007 TEMPO TL0730 -RA RMK CB IN APCH AND CLIMB-OUT
METAR WADD 270600Z 26011KT 7000 -RA FEW015CB BKN015 28/26 Q1007 TEMPO TL0700 -RA
METAR WADD 270530Z 27011KT 140V310 6000 FEW011CB BKN012 28/27 Q1007 NOSIG RMK CB IN APCH
SPECI WADD 270518Z 14003KT 6000 FEW011CB BKN012 26/26 Q1007 RERA NOSIG RMK CB IN APCH
METAR WADD 270500Z 12005KT 070V200 2000 1000E RA FEW015CB BKN016 26/2 6 Q1008 TEMPO TL0530 1000 RA RMK CB IN APCH
SPECI WADD 270447Z VRB02KT 6000 FEW015CB BKN016 26/25 Q1008 RERA NOSIG RMK CB IN APCH
METAR WADD 270430Z 02007KT 280V050 4000 RA FEW015CB BKN016 27/26 Q1008 TEMPO TL0500 4000 RA RMK CB IN APCH
METAR WADD 270400Z 31011KT 8000 FEW015CB BKN016 27/26 Q1008 RETSRA NOSIG CB IN APCH
METAR WADD 270330Z 03005KT 290V060 6000 -TSRA FEW014CB BKN015 25/23 Q1009 TEMPO TL0400 6000 -TSRA RMK CB IN APCH
METAR WADD 270300Z 29014KT 3000 RA FEW012CB BKN013 27/26 Q1009 TEMPO TL0330 3000 RA RMK CB IN APCH AND CLIMB-OUT
METAR WADD 270230Z 32007KT 270V030 3000 TSRA FEW012CB BKN013 27/26 Q1009 TEMPO TL0300 3000 TSRA RMK CB IN APCH AND CLIMB-OUT
METAR WADD 270200Z 31009G18KT 250V010 2000 RA FEW013CB BKN014 26/25 Q1008 TEMPO TL0230 2000 RA RMK CB IN APCH AND CLIMB-OUT
METAR WADD 270130Z 29012KT 3000 RA FEW013CB BKN015 28/26 Q1008 TEMPO TL0200 3000 RA RMK CB IN APCH AND CLIMB-OUT
SPECI WADD 270127Z 29017KT 3000 RA FEW013CB BKN015 28/26 Q1008 TEMPO FM0130 3000 RA RMK CB IN CLIMB-OUT
METAR WADD 270100Z 29017KT 8000 FEW013CB BKN015 28/26 Q1008 RERA TEMPO FM0130 3000 RA CB IN APCH
METAR WADD 270030Z 29015KT 5000 -RA FEW013CB BKN014 28/26 Q1008 TEMPO TL0100 5000 -RA RMK CB IN APCH
METAR WADD 270000Z 29014KT 3000 RA FEW013CB BKN014 28/26 Q1008 TEMPO TL0100 3000 RA RMK CB IN APCH
METAR WADD 262330Z 29015KT 8000 TS FEW013CB BKN014 28/26 Q1008 RETS NOSIG RMK CB IN APCH
METAR WADD 262300Z 28018KT 9999 TS FEW014CB BKN014 28/26 Q1008 TEMPO TL2330 TS RMK CB IN APCH AND CLIMB-OUT
METAR WADD 262230Z 28018KT 9999 TS FEW014CB BKN014 27/26 Q1007 RE RA TEMPO TL2330 TS RMK CB IN APCH AND CLIMB-OUT</description><pubDate>Sat, 27 Dec 2025 22:27:29 </pubDate></item></channel></rss>