<rss version="2.0"><channel><title>Aviation Weather METAR Data for WADD</title><link>https://aviationweather.gov/api/data/metar?ids=WADD&amp;hours=24</link><description>Latest METAR data for WADD</description><item><title>2026-01-13 14:34:57Z</title><link>https://aviationweather.gov/api/data/metar?ids=WADD&amp;hours=24</link><description>METAR WADD 131400Z 26007KT 7000 -RA FEW015CB BKN016 26/25 Q1009 NOSIG RMK CB IN APCH
METAR WADD 131330Z 25006KT 7000 -RA FEW015CB BKN016 26/25 Q1009 NOSIG
METAR WADD 131300Z 23005KT 170V270 7000 -RA FEW015CB BKN016 26/25 Q10 09 RETS NOSIG
METAR WADD 131230Z 25008KT 7000 -TSRA FEW013CB BKN014 26/25 Q1009 NOSIG RMK CB IN APCH
METAR WADD 131200Z 25004KT 5000 -RA FEW013CB BKN014 25/24 Q1008 TEMPO TL1300 7000 -RA RMK CB IN APCH AND CLIMB-OUT
METAR WADD 131130Z 29012G22KT 230V340 1500 RA FEW014CB BKN014 25/23 Q1008 TEMPO TL1230 1500 RA RMK CB IN APCH AND CLIMB-OUT
METAR WADD 131100Z 25008KT 7000 -RA FEW014CB BKN015 28/26 Q1007 TEMPO TL1200 7000 -RA RMK CB OVER THE FIELD
METAR WADD 131030Z 25009KT 9999 FEW014CB SCT015 29/25 Q1007 NOSIG
METAR WADD 131000Z 26011KT 9999 FEW015CB SCT016 29/24 Q1007 NOSIG
METAR WADD 130930Z 25011KT 9999 FEW015CB SCT016 29/24 Q1007 NOSIG
METAR WADD 130900Z 26010KT 9999 FEW015CB SCT016 30/24 Q1006 NOSIG
METAR WADD 130830Z 25009KT 9999 FEW015CB SCT016 29/24 Q1006 NOSIG
METAR WADD 130800Z 25009KT 9999 FEW016 30/25 Q1006 NOSIG
METAR WADD 130730Z 24010KT 9999 SCT016 30/24 Q1006 NOSIG
METAR WADD 130700Z 24010KT 9999 SCT016 30/24 Q1006 NOSIG
METAR WADD 130630Z 24009KT 9999 SCT016 30/24 Q1007 NOSIG
METAR WADD 130600Z 24010KT 9999 FEW017 30/24 Q1007 NOSIG
METAR WADD 130530Z 25009KT 9999 FEW017 31/25 Q1007 NOSIG
METAR WADD 130500Z 25008KT 9999 FEW017 30/25 Q1008 NOSIG
METAR WADD 130430Z 26009KT 9999 FEW017 30/24 Q1009 NOSIG
METAR WADD 130400Z 26010KT 9999 FEW017 31/24 Q1009 NOSIG
METAR WADD 130330Z 26010KT 9999 FEW017 30/24 Q1009 NOSIG
METAR WADD 130230Z 27008KT 9999 FEW016 30/24 Q1010 NOSIG
METAR WADD 130200Z 30007KT 9999 SCT016 30/24 Q1010 NOSIG
METAR WADD 130130Z 32009KT 9999 SCT016 29/24 Q1010 NOSIG
METAR WADD 130100Z 28005KT 9999 SCT016 29/25 Q1010 NOSIG
METAR WADD 130030Z 28004KT 9999 SCT016 28/24 Q1010 NOSIG
METAR WADD 130000Z VRB01KT 9999 SCT016 27/24 Q1009 NOSIG
METAR WADD 122330Z VRB02KT 9999 FEW016 26/24 Q1009 NOSIG
METAR WADD 122300Z VRB02KT 9999 FEW016 26/24 Q1009 NOSIG
METAR WADD 122230Z 02004KT 340V050 9999 SCT016 25/25 Q1008 NOSIG
METAR WADD 122200Z VRB01KT 9999 SCT016 25/25 Q1008 NOSIG
METAR WADD 122130Z VRB02KT 9999 SCT016 25/25 Q1008 NOSIG
METAR WADD 122100Z 34004KT 9999 SCT016 26/24 Q1006 NOSIG
METAR WADD 122030Z 02002KT 9999 SCT016 25/25 Q1008 NOSIG
METAR WADD 122000Z 34003KT 9999 SCT016 25/25 Q1008 NOSIG
METAR WADD 121930Z VRB02KT 9999 SCT016 25/25 Q1008 NOSIG
METAR WADD 121900Z VRB01KT 9999 SCT016 25/24 Q1008 NOSIG
METAR WADD 121830Z VRB01KT 9999 FEW016 25/24 Q1008 NOSIG
METAR WADD 121800Z COR VRB02KT 9999 FEW016 25/24 Q1008 NOSIG
METAR WADD 121730Z COR VRB02KT 9999 TS FEW015CB SCT015 25/24 Q1008 NOSIG
METAR WADD 121700Z 34005KT 300V360 8000 -TSRA FEW015CB BKN015 25/24 Q1009 TEMPO TL1800 8000 -TSRA
METAR WADD 121630Z 32006KT 280V360 4000 RA FEW015CB BKN015 25/24 Q1010 TEMPO TL1730 5000 RA RMK CB IN APCH AND CLIMB-OUT
METAR WADD 121600Z 30007KT 3000 RA FEW015CB BKN015 26/24 Q1010 TEMPO TL1700 5000 RA RMK CB IN APCH
METAR WADD 121530Z 30005KT 8000 FEW015CB BKN015 27/24 Q1010 NOSIG RMK CB IN CLIMB-OUT
METAR WADD 121500Z 27003KT 9999 FEW016CB SCT016 27/23 Q1010 NOSIG</description><pubDate>Tue, 13 Jan 2026 14:34:57 </pubDate></item></channel></rss>