<rss version="2.0"><channel><title>Aviation Weather METAR Data for WADD</title><link>https://aviationweather.gov/api/data/metar?ids=WADD&amp;hours=24</link><description>Latest METAR data for WADD</description><item><title>2025-06-09 05:28:49Z</title><link>https://aviationweather.gov/api/data/metar?ids=WADD&amp;hours=24</link><description>WADD 090500Z 11015KT 9999 FEW016 30/26 Q1009 NOSIG
WADD 090430Z 12015KT 9999 FEW016 30/26 Q1009 NOSIG
WADD 090400Z 11016KT 9999 SCT016 30/26 Q1010 NOSIG
WADD 090330Z 10015KT 9999 SCT016 30/25 Q1010 NOSIG
WADD 090300Z 12009KT 9999 SCT016 29/26 Q1010 NOSIG
WADD 090230Z 12005KT 9999 SCT016 29/26 Q1011 NOSIG NOSIG
WADD 090200Z 13004KT 090V160 9999 SCT016 28/26 Q1011 RERA NOSIG
WADD 090130Z 11003KT 5000 -RA FEW014CB BKN015 27/26 Q1011 TEMPO TL0230 5000 -RA RMK CB IN CLIMB-OUT
WADD 090100Z 18005KT 9000 FEW014CB BKN015 27/25 Q1011 NOSIG
WADD 090030Z VRB02KT 9000 FEW014CB BKN015 27/25 Q1011 RERA NOSIG
WADD 090000Z 04003KT 6000 -RA FEW014CB BKN015 26/25 Q1011 TEMPO TL0100 6000 -RA
WADD 082330Z 35003KT 9999 FEW015CB SCT016 26/24 Q1010 NOSIG
WADD 082300Z 02003KT 9999 SCT016 25/25 Q1010 NOSIG
WADD 082230Z 36003KT 9999 FEW015CB SCT016 25/25 Q1010 RERA NOSIG
WADD 082200Z 11006KT 040V140 7000 -RA FEW015CB BKN016 26/25 Q1010 TEMPO TL2300 -RA
WADD 082130Z 05003KT 9999 FEW015CB SCT016 25/25 Q1009 RERA NOSIG
WADD 082100Z 03006KT 7000 -RA FEW015CB BKN016 26/24 Q1009 TEMPO TL2200 -RA
WADD 082030Z 04005KT 9999 SCT017 26/24 Q1009 NOSIG
WADD 082000Z 03004KT 9999 SCT017 26/24 Q1009 NOSIG
WADD 081930Z 11005KT 070V130 9999 SCT017 27/24 Q1009 NOSIG
WADD 081900Z 12008KT 9999 SCT017 28/25 Q1009 NOSIG
WADD 081830Z 10007KT 9999 SCT017 27/24 Q1009 NOSIG
WADD 081800Z 11009KT 9999 FEW017 28/24 Q1010 NOSIG
WADD 081730Z 12009KT 9999 SCT017 28/24 Q1010 NOSIG
WADD 081700Z 11007KT 9999 FEW017 28/24 Q1010 NOSIG
WADD 081630Z 12012KT 9999 FEW017 28/24 Q1010 NOSIG
WADD 081600Z 12013KT 9999 FEW017 28/24 Q1010 NOSIG
WADD 081530Z 12011KT 9999 SCT017 28/24 Q1011 NOSIG
WADD 081500Z 12012KT 9999 FEW017 28/24 Q1011 NOSIG
WADD 081430Z 11010KT 9999 FEW017 28/24 Q1011 NOSIG
WADD 081400Z 12012KT 9999 SCT017 28/24 Q1011 NOSIG
WADD 081330Z 11012KT 9999 SCT017 28/24 Q1010 NOSIG
WADD 081300Z 11010KT 9999 SCT017 28/25 Q1010 NOSIG
WADD 081230Z 11011KT 9999 SCT017 28/25 Q1010 NOSIG
WADD 081200Z 12011KT 9999 SCT017 28/25 Q1010 NOSIG
WADD 081130Z 12012KT 9999 SCT016 28/25 Q1009 NOSIG
WADD 081100Z 12012KT 9999 SCT016 28/25 Q1009 NOSIG
WADD 081030Z 12014KT 9999 SCT016 29/25 Q1009 NOSIG
WADD 081000Z 12014KT 9999 SCT016 29/25 Q1008 NOSIG
WADD 080930Z 12016KT 9999 SCT016 29/25 Q1008 NOSIG
WADD 080900Z 12017KT 9999 SCT016 29/25 Q1008 NOSIG
WADD 080830Z 13018KT 9999 BKN016 30/25 Q1007 NOSIG
WADD 080800Z 12019KT 9999 SCT016 30/25 Q1007 NOSIG
WADD 080730Z 13018KT 9999 SCT016 30/26 Q1007 NOSIG
WADD 080700Z 13019KT 9999 SCT016 29/25 Q1007 NOSIG
WADD 080630Z 14021KT 9999 FEW015CB BKN016 29/26 Q1007 NOSIG
WADD 080600Z 13018KT 9999 FEW015CB BKN016 29/26 Q1007 NOSIG
WADD 080530Z 15017KT 9999 FEW015CB BKN016 29/26 Q1008 NOSIG</description><pubDate>Mon, 09 Jun 2025 05:28:49 </pubDate></item></channel></rss>