<rss version="2.0"><channel><title>Aviation Weather METAR Data for WADD</title><link>https://aviationweather.gov/api/data/metar?ids=WADD&amp;hours=24</link><description>Latest METAR data for WADD</description><item><title>2025-06-30 18:37:35Z</title><link>https://aviationweather.gov/api/data/metar?ids=WADD&amp;hours=24</link><description>WADD 301830Z 10011KT 9999 FEW017 26/25 Q1010 NOSIG
WADD 301800Z 11013KT 9999 FEW017 26/25 Q1010 NOSIG
WADD 301730Z 11013KT 9999 FEW017 26/25 Q1010 NOSIG
WADD 301700Z 11015KT 9999 FEW017 26/25 Q1010 NOSIG
WADD 301630Z 12013KT 9999 FEW017 26/25 Q1010 NOSIG
WADD 301600Z 12014KT 9999 FEW017 27/25 Q1010 NOSIG
WADD 301530Z 12013KT 9999 FEW017 27/25 Q1011 NOSIG
WADD 301500Z 12016KT 9999 FEW017 27/24 Q1010 NOSIG
WADD 301430Z 12015KT 9999 FEW017 27/24 Q1011 NOSIG
WADD 301400Z 12014KT 9999 FEW017 27/24 Q1011 NOSIG
WADD 301330Z 12015KT 9999 FEW017 27/24 Q1011 NOSIG
WADD 301300Z 12014KT 9999 FEW017 27/25 Q1011 NOSIG
WADD 301230Z 12013KT 9999 FEW017 26/25 Q1011 NOSIG
WADD 301200Z 12013KT 9999 FEW017 26/24 Q1011 NOSIG
WADD 301130Z 12013KT 9999 FEW017 27/24 Q1010 NOSIG
WADD 301100Z 12015KT 9999 FEW017 27/24 Q1010 NOSIG
WADD 301030Z 12013KT 9999 SCT017 27/24 Q1010 NOSIG
WADD 301000Z 12015KT 9999 FEW017 27/24 Q1010 NOSIG
WADD 300930Z 12015KT 9999 SCT016 27/24 Q1010 NOSIG
WADD 300900Z 12016KT 9999 SCT017 28/24 Q1009 NOSIG
WADD 300830Z 13015KT 9999 FEW017 28/24 Q1009 NOSIG
WADD 300800Z 13015KT 9999 FEW017 28/24 Q1009 NOSIG
WADD 300730Z 13015KT 9999 FEW017 28/24 Q1009 NOSIG
WADD 300700Z 12014KT 9999 SCT016 28/24 Q1010 NOSIG
WADD 300630Z 12015KT 9999 FEW016 29/24 Q1010 NOSIG
WADD 300600Z 11014KT 9999 FEW016 29/24 Q1010 NOSIG
WADD 300530Z 11016KT 9999 FEW016 29/24 Q1011 NOSIG
WADD 300500Z 11015KT 9999 SCT016 29/24 Q1011 NOSIG
WADD 300430Z 13017KT 9999 SCT016 29/24 Q1011 NOSIG
WADD 300400Z 12017KT 9999 SCT016 28/24 Q1011 NOSIG
WADD 300330Z 12016G23KT 9999 SCT016 29/24 Q1012 NOSIG
WADD 300300Z 12014KT 9999 SCT016 28/24 Q1012 NOSIG
WADD 300230Z 12015KT 9999 SCT016 28/24 Q1012 NOSIG
WADD 300200Z 13017KT 9999 FEW016 28/24 Q1012 NOSIG
WADD 300130Z 12016KT 9999 FEW016 28/24 Q1012 NOSIG
WADD 300100Z 12015KT 9999 FEW016 27/24 Q1012 NOSIG
WADD 300030Z 12015KT 9999 FEW016 27/24 Q1012 NOSIG
WADD 300000Z 12014KT 9999 FEW016 27/24 Q1012 NOSIG
WADD 292330Z 12014KT 9999 FEW016 26/24 Q1011 NOSIG
WADD 292300Z 12012KT 9999 SCT017 26/24 Q1011 NOSIG
WADD 292230Z 12012KT 9999 SCT017 26/24 Q1010 NOSIG
WADD 292200Z 12013KT 9999 SCT017 26/24 Q1010 NOSIG
WADD 292130Z 12011KT 9999 SCT017 26/23 Q1010 NOSIG
WADD 292100Z 13011KT 9999 SCT017 26/24 Q1010 NOSIG
WADD 292030Z 12011KT 9999 FEW017 26/24 Q1010 NOSIG
WADD 292000Z 12013KT 9999 FEW017 26/24 Q1010 NOSIG
WADD 291930Z 12010KT 9999 FEW017 26/24 Q1010 NOSIG
WADD 291900Z 12014KT 9999 FEW017 26/24 Q1010 NOSIG</description><pubDate>Mon, 30 Jun 2025 18:37:35 </pubDate></item></channel></rss>