<rss version="2.0"><channel><title>Aviation Weather METAR Data for WADD</title><link>https://aviationweather.gov/api/data/metar?ids=WADD&amp;hours=24</link><description>Latest METAR data for WADD</description><item><title>2026-01-11 05:34:05Z</title><link>https://aviationweather.gov/api/data/metar?ids=WADD&amp;hours=24</link><description>METAR WADD 110500Z 25011KT 9999 FEW016 29/26 Q1008 NOSIG
METAR WADD 110430Z 24009KT 9999 FEW016 29/25 Q1009 NOSIG
METAR WADD 110400Z 24010KT 9999 SCT016 29/25 Q1009 NOSIG
METAR WADD 110330Z 24010KT 9999 FEW016CB BKN016 29/25 Q1009 NOSIG
METAR WADD 110300Z 24013KT 9999 FEW015CB BKN016 28/24 Q1010 NOSIG
METAR WADD 110230Z 24014G25KT 9999 FEW015CB BKN016 27/25 Q1010 NOSIG
METAR WADD 110200Z 29010KT 9999 FEW015CB BKN016 29/24 Q1010 NOSIG
METAR WADD 110130Z 28010KT 9999 SCT016 29/24 Q1010 NOSIG
METAR WADD 110100Z 26007KT 9999 FEW016 29/26 Q1010 NOSIG
METAR WADD 110030Z 24004KT 9999 FEW016CB SCT016 27/25 Q1009 RERA NOSI G
METAR WADD 110000Z 23005KT 200V270 6000 -RA FEW014CB BKN014 26/24 Q1009 TEMPO TL0100 6000 -RA
METAR WADD 102330Z 24007G15KT 170V290 6000 -RA FEW013CB BKN013 27/25 Q1009 TEMPO TL0030 5000 RA RMK CB IN CLIMB-OUT
METAR WADD 102300Z 29010KT 9999 FEW014CB BKN015 28/24 Q1008 NOSIG
METAR WADD 102230Z 31007KT 9999 SCT016 28/23 Q1008 NOSIG
METAR WADD 102200Z 29011KT 9999 FEW017 28/23 Q1008 NOSIG
METAR WADD 102130Z 29011KT 9999 FEW017 28/23 Q1008 NOSIG
METAR WADD 102100Z 29010KT 9999 FEW017 28/24 Q1008 NOSIG
METAR WADD 102030Z 28013KT 9999 FEW017 28/23 Q1008 NOSIG
METAR WADD 102000Z 27014KT 9999 FEW017 28/23 Q1008 NOSIG
METAR WADD 101930Z 24005KT 9999 SCT016 28/25 Q1007 NOSIG
METAR WADD 101900Z 28015KT 9999 FEW017 28/23 Q1008 NOSIG
METAR WADD 101830Z 28016KT 9999 FEW017 28/23 Q1008 NOSIG
METAR WADD 101800Z 28014KT 9999 FEW017 28/23 Q1008 NOSIG
METAR WADD 101730Z 29011KT 9999 FEW017 28/24 Q1008 NOSIG
METAR WADD 101700Z 28012KT 9999 FEW017 28/24 Q1008 NOSIG
METAR WADD 101630Z 27013KT 9999 FEW017 28/24 Q1009 NOSIG
METAR WADD 101600Z 28012KT 9999 FEW017 29/25 Q1009 NOSIG
METAR WADD 101530Z 28011KT 9999 FEW017 29/25 Q1009 NOSIG
METAR WADD 101500Z 28012KT 9999 FEW017 29/25 Q1009 NOSIG
METAR WADD 101430Z 27015G26KT 9999 SCT016 29/24 Q1010 NOSIG
METAR WADD 101400Z 29014KT 9999 SCT016 29/24 Q1010 NOSIG
METAR WADD 101330Z 28014KT 9999 SCT017 29/24 Q1010 NOSIG
METAR WADD 101300Z 27013KT 9999 FEW017 29/25 Q1009 NOSIG
METAR WADD 101230Z 28014KT 9999 FEW017 29/24 Q1009 NOSIG
METAR WADD 101200Z 29013KT 9999 FEW017 29/25 Q1009 NOSIG
METAR WADD 101130Z 27012KT 9999 FEW017 29/25 Q1008 NOSIG
METAR WADD 101100Z 27016KT 9999 FEW017 29/25 Q1008 NOSIG
METAR WADD 101030Z 26014KT 9999 FEW017 29/25 Q1007 NOSIG
METAR WADD 101000Z 28010KT 9999 FEW017 29/25 Q1007 NOSIG
METAR WADD 100930Z 28010KT 9999 FEW017 29/25 Q1007 NOSIG
METAR WADD 100900Z 27010KT 9999 FEW017 30/25 Q1007 NOSIG
METAR WADD 100830Z 26010KT 9999 FEW017 30/25 Q1007 NOSIG
METAR WADD 100800Z 27010KT 9999 FEW017 30/25 Q1007 NOSIG
METAR WADD 100730Z 27010KT 9999 FEW017 30/25 Q1007 NOSIG
METAR WADD 100700Z 28011KT 9999 FEW017 31/25 Q1007 NOSIG
METAR WADD 100630Z 28010KT 9999 SCT017 31/26 Q1007 NOSIG
METAR WADD 100600Z 28011KT 9999 SCT017 30/26 Q1007 NOSIG</description><pubDate>Sun, 11 Jan 2026 05:34:05 </pubDate></item></channel></rss>