<rss version="2.0"><channel><title>Aviation Weather METAR Data for WADD</title><link>https://aviationweather.gov/api/data/metar?ids=WADD&amp;hours=24</link><description>Latest METAR data for WADD</description><item><title>2026-04-01 07:46:16Z</title><link>https://aviationweather.gov/api/data/metar?ids=WADD&amp;hours=24</link><description>METAR WADD 010730Z 14016KT 9999 FEW017 31/25 Q1008 NOSIG
METAR WADD 010700Z 13015KT 9999 FEW017 31/25 Q1009 NOSIG
METAR WADD 010630Z 14015KT 9999 FEW017 31/26 Q1009 NOSIG
METAR WADD 010600Z 11014KT 9999 FEW017 31/25 Q1009 NOSIG
METAR WADD 010530Z 12013KT 9999 FEW017 31/25 Q1010 NOSIG
METAR WADD 010500Z 14013KT 9999 FEW017 31/26 Q1010 NOSIG
METAR WADD 010430Z 11011KT 9999 FEW017 32/26 Q1010 NOSIG
METAR WADD 010400Z 12010KT 9999 FEW017 32/25 Q1011 NOSIG
METAR WADD 010330Z 12010KT 9999 FEW017 31/25 Q1011 NOSIG
METAR WADD 010300Z 12010KT 9999 FEW017 31/25 Q1012 NOSIG
METAR WADD 010230Z 11010KT 9999 FEW017 31/26 Q1012 NOSIG
METAR WADD 010200Z 11008KT 9999 FEW017 31/26 Q1012 NOSIG
METAR WADD 010130Z 11008KT 9999 FEW017 30/26 Q1012 NOSIG
METAR WADD 010100Z 10008KT 9999 FEW017 30/26 Q1012 NOSIG
METAR WADD 010030Z 10005KT 070V130 9999 FEW017 29/26 Q1012 NOSIG
METAR WADD 010000Z 08004KT 040V110 9999 SCT016 27/26 Q1012 NOSIG
METAR WADD 312330Z 12005KT 9999 FEW015CB BKN015 27/26 Q1012 NOSIG
METAR WADD 312300Z 14007KT 9999 BKN015 27/26 Q1011 NOSIG
METAR WADD 312230Z 12004KT 9999 SCT016 27/26 Q1011 NOSIG
METAR WADD 312200Z 11004KT 9999 SCT016 26/25 Q1011 NOSIG
METAR WADD 312130Z 10004KT 9999 SCT016 26/25 Q1010 NOSIG
METAR WADD 312100Z 09005KT 9999 SCT016 26/25 Q1010 NOSIG
METAR WADD 312030Z 07005KT 9999 SCT016 26/25 Q1010 NOSIG
METAR WADD 312000Z 07005KT 9999 SCT016 26/25 Q1010 NOSIG
METAR WADD 311930Z 06005KT 9999 SCT016 27/24 Q1010 NOSIG
METAR WADD 311900Z 06006KT 9999 SCT016 27/24 Q1010 NOSIG
METAR WADD 311830Z 08008KT 9999 SCT016 27/24 Q1010 NOSIG
METAR WADD 311800Z 08008KT 9999 SCT016 27/25 Q1010 NOSIG
METAR WADD 311730Z 08009KT 9999 SCT016 28/25 Q1011 NOSIG
METAR WADD 311700Z 11010KT 9999 FEW017 28/25 Q1011 NOSIG
METAR WADD 311630Z 13012KT 9999 FEW017 28/26 Q1011 NOSIG
METAR WADD 311600Z 13009KT 9999 FEW017 28/26 Q1011 NOSIG
METAR WADD 311530Z 13010KT 9999 FEW017 28/26 Q1011 NOSIG
METAR WADD 311500Z 10007KT 9999 FEW017 28/26 Q1011 NOSIG
METAR WADD 311430Z 10008KT 9999 FEW017 28/25 Q1011 NOSIG
METAR WADD 311400Z 10010KT 9999 FEW017 28/25 Q1011 NOSIG
METAR WADD 311330Z 11010KT 9999 FEW017 28/25 Q1011 NOSIG
METAR WADD 311300Z 10010KT 9999 FEW017 28/25 Q1011 NOSIG
METAR WADD 311230Z 11011KT 9999 FEW017 29/25 Q1011 NOSIG
METAR WADD 311200Z 11013KT 9999 FEW017 29/25 Q1010 NOSIG
METAR WADD 311130Z 11013KT 9999 FEW017 29/26 Q1010 NOSIG
METAR WADD 311100Z 12012KT 9999 FEW017 29/26 Q1010 NOSIG
METAR WADD 311030Z 12012KT 9999 FEW017 29/25 Q1010 NOSIG
METAR WADD 311000Z 12014KT 9999 FEW017 29/26 Q1009 NOSIG
METAR WADD 310930Z 12015KT 9999 FEW017 30/26 Q1009 NOSIG
METAR WADD 310900Z 13016KT 9999 FEW017 30/26 Q1008 NOSIG
METAR WADD 310830Z 12014KT 9999 FEW017 31/25 Q1008 NOSIG
METAR WADD 310800Z 11015KT 9999 FEW017 31/25 Q1009 NOSIG</description><pubDate>Wed, 01 Apr 2026 07:46:16 </pubDate></item></channel></rss>