<rss version="2.0"><channel><title>Aviation Weather METAR Data for WADD</title><link>https://aviationweather.gov/api/data/metar?ids=WADD&amp;hours=24</link><description>Latest METAR data for WADD</description><item><title>2025-10-03 04:29:24Z</title><link>https://aviationweather.gov/api/data/metar?ids=WADD&amp;hours=24</link><description>METAR WADD 030400Z 25009KT 9999 FEW017 29/25 Q1012 NOSIG
METAR WADD 030330Z 26008KT 9999 FEW017 29/24 Q1013 NOSIG
METAR WADD 030300Z 26008KT 9999 FEW017 29/24 Q1013 NOSIG
METAR WADD 030230Z 25007KT 9999 FEW017 29/24 Q1013 NOSIG
METAR WADD 030200Z 24005KT 210V290 9999 FEW017 29/24 Q1014 NOSIG
METAR WADD 030130Z 26003KT 9999 FEW017 29/24 Q1014 NOSIG
METAR WADD 030100Z 30004KT 270V330 9999 SCT017 28/24 Q1014 NOSIG
METAR WADD 030030Z 25004KT 220V290 9999 FEW017 28/24 Q1014 NOSIG
METAR WADD 030000Z 32003KT 9999 FEW017 27/24 Q1013 NOSIG
METAR WADD 022330Z 35004KT 320V020 9999 FEW017 27/24 Q1013 NOSIG
METAR WADD 022300Z VRB02KT 9999 FEW017 26/25 Q1013 NOSIG
METAR WADD 022230Z VRB01KT 9999 FEW017 24/23 Q1012 NOSIG
 WADD 022200Z 29002KT 9999 FEW017 24/23 Q1012 NOSIG
 WADD 022130Z 32001KT 9999 FEW017 25/24 Q1012 NOSIG
METAR WADD 022100Z 00000KT 9999 FEW017 25/24 Q1012 NOSIG
 WADD 022030Z 00000KT 9999 FEW017 25/24 Q1011 NOSIG
METAR WADD 022000Z VRB01KT 9999 FEW017 25/24 Q1011 NOSIG
 WADD 021930Z VRB01KT 9999 FEW017 26/24 Q1011 NOSIG
METAR WADD 021900Z VRB03KT 9999 FEW017 26/24 Q1011 NOSIG
 WADD 021830Z 18004KT 9999 FEW017 27/25 Q1011 NOSIG
METAR WADD 021800Z 12004KT 9999 FEW017 27/24 Q1011 NOSIG
METAR WADD 021730Z 13003KT 9999 FEW017 27/24 Q1012 NOSIG
METAR WADD 021700Z 15007KT 9999 FEW017 27/25 Q1012 NOSIG
METAR WADD 021630Z 14005KT 9999 FEW017 27/24 Q1012 NOSIG
METAR WADD 021600Z 13005KT 9999 FEW017 27/24 Q1012 NOSIG
METAR WADD 021500Z 13005KT 9999 FEW017 27/24 Q1013 NOSIG
METAR WADD 021430Z 14006KT 9999 FEW017 27/24 Q1013 NOSIG
METAR WADD 021400Z 15005KT 9999 FEW017 27/24 Q1013 NOSIG
METAR WADD 021330Z 15005KT 9999 FEW017 27/24 Q1013 NOSIG
METAR WADD 021300Z 14006KT 9999 FEW017 28/24 Q1012 NOSIG
METAR WADD 021230Z 15006KT 9999 FEW017 27/24 Q1012 NOSIG
METAR WADD 021200Z 16004KT 9999 FEW017 28/24 Q1012 NOSIG
METAR WADD 021130Z 13004KT 9999 FEW017 28/24 Q1012 NOSIG
METAR WADD 021100Z 13006KT 9999 FEW017 28/24 Q1011 NOSIG
METAR WADD 021030Z 14009KT 9999 FEW017 28/24 Q1011 NOSIG
METAR WADD 021000Z 14012KT 9999 FEW017 28/24 Q1010 NOSIG
METAR WADD 020930Z 14011KT 9999 FEW017 29/24 Q1010 NOSIG
METAR WADD 020900Z 15012KT 9999 FEW017 29/24 Q1009 NOSIG
 WADD 020830Z 16010KT 9999 FEW017 30/24 Q1009 NOSIG
METAR WADD 020800Z 15010KT 9999 FEW017 30/24 Q1009 NOSIG
METAR WADD 020730Z 15010KT 9999 FEW017 30/24 Q1009 NOSIG
METAR WADD 020700Z 16010KT 9999 FEW017 30/24 Q1009 NOSIG
METAR WADD 020630Z 16010KT 9999 FEW017 30/25 Q1009 NOSIG
METAR WADD 020600Z 17011KT 9999 FEW017 30/24 Q1010 NOSIG
METAR WADD 020530Z 16009KT 9999 FEW017 31/24 Q1010 NOSIG
METAR WADD 020500Z 11009KT 9999 FEW017 31/24 Q1010 NOSIG
METAR WADD 020430Z 13008KT 9999 FEW017 31/24 Q1011 NOSIG</description><pubDate>Fri, 03 Oct 2025 04:29:24 </pubDate></item></channel></rss>