<rss version="2.0"><channel><title>Aviation Weather METAR Data for WADD</title><link>https://aviationweather.gov/api/data/metar?ids=WADD&amp;hours=24</link><description>Latest METAR data for WADD</description><item><title>2025-02-06 19:18:58Z</title><link>https://aviationweather.gov/api/data/metar?ids=WADD&amp;hours=24</link><description>WADD 061900Z 28011KT 9999 SCT016 28/26 Q1006 NOSIG
WADD 061830Z 28007KT 9999 FEW017 27/26 Q1006 NOSIG
WADD 061800Z 27007KT 9999 FEW017 28/25 Q1006 NOSIG
WADD 061730Z 26005KT 9999 FEW017 28/25 Q1006 NOSIG
WADD 061700Z 26005KT 9999 FEW017 28/25 Q1007 NOSIG
WADD 061630Z 27007KT 9999 FEW017 28/25 Q1007 NOSIG
WADD 061600Z 26005KT 9999 FEW017 28/25 Q1007 NOSIG
WADD 061530Z 27006KT 9999 FEW017 27/24 Q1007 NOSIG
WADD 061500Z 26004KT 9999 FEW016 28/24 Q1007 NOSIG
WADD 061430Z 26004KT 9999 FEW016 27/24 Q1008 NOSIG
WADD 061400Z 25004KT 9999 FEW016 28/23 Q1007 NOSIG
WADD 061330Z 27003KT 9999 SCT016 27/23 Q1007 NOSIG
WADD 061300Z 31003KT 9999 SCT016 27/22 Q1007 NOSIG
WADD 061230Z VRB02KT 9999 SCT016 27/23 Q1007 NOSIG
WADD 061200Z 35004KT 300V030 9999 SCT016 27/23 Q1007 NOSIG
WADD 061130Z VRB03KT 9999 SCT016 26/23 Q1006 NOSIG
WADD 061100Z 34008G19KT 9999 FEW015CB BKN015 26/23 Q1006 NOSIG
WADD 061030Z 31012KT 9999 FEW015CB BKN015 27/24 Q1006 NOSIG
WADD 061000Z 10005KT 9999 FEW015CB BKN015 30/27 Q1005 NOSIG
WADD 060930Z 11007KT 9999 SCT016 30/27 Q1005 NOSIG
WADD 060900Z 11011KT 9999 SCT016 30/28 Q1004 NOSIG
WADD 060830Z 11008KT 9999 SCT016 30/28 Q1004 NOSIG
WADD 060800Z 10009KT 9999 FEW016CB BKN016 31/28 Q1004 NOSIG
WADD 060730Z 11011KT 9999 TS FEW016CB SCT015 SCT016 31/28 Q1004 TEMPO TL0830 TS
WADD 060700Z 14012KT 9999 TS FEW016CB SCT016 32/28 Q1004 TEMPO TL0800 TS
WADD 060630Z 13012KT 9999 FEW016 32/28 Q1004 NOSIG
WADD 060600Z 11011KT 9999 FEW017 32/28 Q1005 NOSIG
WADD 060530Z 11009KT 9999 FEW017 33/28 Q1005 NOSIG
WADD 060500Z 10010KT 9999 FEW017 33/27 Q1005 NOSIG
WADD 060430Z 11009KT 9999 FEW017 32/28 Q1006 NOSIG
WADD 060400Z 12007KT 9999 FEW017 32/27 Q1006 NOSIG
WADD 060330Z 11007KT 080V140 9999 FEW017 31/26 Q1006 NOSIG
WADD 060300Z 09006KT 040V140 9999 FEW017 31/26 Q1006 NOSIG
WADD 060230Z 27003KT 9999 FEW017 31/25 Q1006 NOSIG
WADD 060200Z 28007KT 9999 FEW017 31/25 Q1006 NOSIG
WADD 060130Z 29009KT 9999 FEW016 31/25 Q1006 NOSIG
WADD 060100Z 29008KT 9999 FEW017 30/25 Q1007 NOSIG
WADD 060030Z 29011KT 9999 FEW017 30/25 Q1006 NOSIG
WADD 060000Z 30007KT 9999 FEW017 29/25 Q1006 NOSIG
WADD 052330Z 32004KT 9999 FEW017 29/25 Q1006 NOSIG
WADD 052300Z 31003KT 9999 FEW017 28/25 Q1006 NOSIG
WADD 052230Z 30004KT 9999 FEW017 27/26 Q1006 NOSIG
WADD 052200Z 31004KT 280V350 9999 FEW017 28/26 Q1005 NOSIG
WADD 052130Z 29004KT 9999 FEW017 28/26 Q1005 NOSIG
WADD 052100Z 31005KT 9999 FEW017 28/27 Q1004 NOSIG
WADD 052030Z 34007KT 9999 FEW017 28/26 Q1004 NOSIG
WADD 052000Z 31011KT 9999 FEW017 28/27 Q1004 NOSIG
WADD 051930Z 28007KT 9999 FEW017 28/27 Q1004 NOSIG</description><pubDate>Thu, 06 Feb 2025 19:18:58 </pubDate></item></channel></rss>