<rss version="2.0"><channel><title>Aviation Weather METAR Data for WADD</title><link>https://aviationweather.gov/api/data/metar?ids=WADD&amp;hours=24</link><description>Latest METAR data for WADD</description><item><title>2026-05-11 04:15:57Z</title><link>https://aviationweather.gov/api/data/metar?ids=WADD&amp;hours=24</link><description>METAR WADD 110400Z 10013KT 9999 SCT016 31/26 Q1010 NOSIG
METAR WADD 110330Z 11014KT 9999 SCT016 31/26 Q1010 NOSIG
METAR WADD 110300Z 11013KT 9999 SCT016 31/26 Q1011 NOSIG
METAR WADD 110230Z 10013KT 9999 SCT016 31/25 Q1011 NOSIG
METAR WADD 110200Z 11012KT 9999 SCT016 31/26 Q1011 NOSIG
METAR WADD 110130Z 09012KT 9999 SCT016 31/26 Q1011 NOSIG
METAR WADD 110100Z 09010KT 9999 SCT016 30/25 Q1011 NOSIG
METAR WADD 110030Z 08009KT 9999 SCT016 30/26 Q1011 NOSIG
METAR WADD 110000Z 07005KT 9999 SCT016 28/25 Q1011 RERA NOSIG
METAR WADD 102330Z 07007KT 8000 -RA FEW015CB BKN016 27/25 Q1011 TEMPO TL2430 -RA
METAR WADD 102300Z 06007KT 8000 -RA FEW015CB BKN016 26/24 Q1011 TEMPO TL2400 -RA
METAR WADD 102230Z 05006KT 9999 FEW016CB SCT017 26/24 Q1010 NOSIG
METAR WADD 102200Z 08008KT 9999 FEW017 27/25 Q1010 NOSIG
METAR WADD 102130Z 10010KT 9999 FEW017 27/25 Q1010 NOSIG
METAR WADD 102100Z 11009KT 9999 FEW017 27/25 Q1009 NOSIG
METAR WADD 102030Z 10009KT 9999 FEW017 27/25 Q1009 NOSIG
METAR WADD 102000Z 12011KT 9999 FEW017 27/25 Q1009 NOSIG
METAR WADD 101930Z 12011KT 9999 FEW017 27/25 Q1009 NOSIG
METAR WADD 101900Z 12009KT 9999 FEW017 27/26 Q1009 NOSIG
METAR WADD 101830Z 11010KT 9999 FEW017 27/26 Q1009 NOSIG
METAR WADD 101800Z 12010KT 9999 FEW017 27/26 Q1009 NOSIG
METAR WADD 101730Z 12009KT 9999 FEW017 27/25 Q1009 NOSIG
METAR WADD 101700Z 12009KT 9999 FEW017 27/25 Q1010 NOSIG
METAR WADD 101630Z 11009KT 9999 FEW017 28/25 Q1010 NOSIG
METAR WADD 101600Z 11010KT 9999 FEW017 28/25 Q1010 NOSIG
METAR WADD 101530Z 12012KT 9999 FEW017 28/25 Q1010 NOSIG
METAR WADD 101500Z 12012KT 9999 FEW017 28/25 Q1010 NOSIG
METAR WADD 101430Z 11012KT 9999 FEW017 28/24 Q1011 NOSIG
METAR WADD 101400Z 11011KT 9999 FEW017 28/25 Q1011 NOSIG
METAR WADD 101330Z 11011KT 9999 FEW017 28/25 Q1011 NOSIG
METAR WADD 101300Z 11011KT 9999 FEW017 28/25 Q1011 NOSIG
METAR WADD 101230Z 12012KT 9999 FEW017 28/24 Q1011 NOSIG
METAR WADD 101200Z 12013KT 9999 FEW017 28/24 Q1010 NOSIG
METAR WADD 101130Z 11012KT 9999 FEW017 28/25 Q1010 NOSIG
METAR WADD 101100Z 12014KT 9999 FEW017 28/25 Q1010 NOSIG
METAR WADD 101030Z 11015KT 9999 FEW017 28/25 Q1009 NOSIG
METAR WADD 101000Z 12016KT 9999 FEW017 28/25 Q1009 NOSIG
METAR WADD 100930Z 11014KT 9999 FEW017 29/25 Q1008 NOSIG
METAR WADD 100900Z 11014KT 9999 FEW017 29/25 Q1008 NOSIG
METAR WADD 100830Z 12017KT 9999 FEW017 29/25 Q1008 NOSIG
METAR WADD 100800Z 12015KT 9999 FEW017 30/25 Q1008 NOSIG
METAR WADD 100730Z 12016KT 9999 FEW017 30/24 Q1008 NOSIG
METAR WADD 100700Z 11017KT 9999 FEW017 30/25 Q1008 NOSIG
METAR WADD 100630Z 11017KT 9999 FEW017 30/25 Q1008 NOSIG
METAR WADD 100600Z 12017KT 9999 FEW017 30/25 Q1009 NOSIG
METAR WADD 100530Z 12017KT 9999 FEW017 30/25 Q1009 NOSIG
METAR WADD 100500Z 11016KT 9999 FEW017 30/25 Q1010 NOSIG
METAR WADD 100430Z 11015KT 9999 FEW017 31/25 Q1010 NOSIG</description><pubDate>Mon, 11 May 2026 04:15:57 </pubDate></item></channel></rss>