<rss version="2.0"><channel><title>Aviation Weather METAR Data for WADD</title><link>https://aviationweather.gov/api/data/metar?ids=WADD&amp;hours=24</link><description>Latest METAR data for WADD</description><item><title>2025-05-31 16:48:42Z</title><link>https://aviationweather.gov/api/data/metar?ids=WADD&amp;hours=24</link><description>WADD 311630Z 14009KT 9999 SCT016 28/27 Q1013 NOSIG
WADD 311600Z 13010KT 9999 SCT016 28/26 Q1013 NOSIG
WADD 311530Z 13010KT 9999 BKN016 28/26 Q1013 NOSIG
WADD 311500Z 13010KT 9999 BKN016 29/27 Q1014 NOSIG
WADD 311430Z 13009KT 9999 BKN016 29/27 Q1014 NOSIG
WADD 311400Z 13010KT 9999 BKN016 29/26 Q1014 NOSIG
WADD 311330Z 12010KT 9999 BKN016 29/26 Q1013 NOSIG
WADD 311300Z 12010KT 9999 BKN016 28/26 Q1013 NOSIG
WADD 311230Z 12012KT 9999 SCT016 29/26 Q1013 NOSIG
WADD 311200Z 12009KT 9999 SCT016 29/26 Q1013 NOSIG
WADD 311130Z 12008KT 9999 BKN014 29/26 Q1012 NOSIG
WADD 311100Z 13010KT 9999 BKN014 29/26 Q1012 NOSIG
WADD 311030Z 13010KT 9999 BKN015 29/26 Q1012 NOSIG
WADD 311000Z 13011KT 9999 SCT014 29/26 Q1011 NOSIG
WADD 310930Z 13011KT 9999 SCT014 29/26 Q1011 NOSIG
WADD 310900Z 13012KT 9999 SCT014 30/26 Q1011 NOSIG
WADD 310830Z 12011G20KT 9999 SCT016 30/26 Q1010 NOSIG
WADD 310800Z 12012KT 9999 SCT019 30/26 Q1010 NOSIG
WADD 310730Z 12010KT 9999 SCT016 31/27 Q1010 NOSIG
WADD 310700Z 12012KT 9999 SCT016 31/27 Q1010 NOSIG
WADD 310630Z 11010KT 9999 SCT016 31/27 Q1010 NOSIG
WADD 310600Z 12009KT 9999 FEW016 31/27 Q1011 NOSIG
WADD 310530Z 11009KT 9999 FEW017 31/27 Q1011 NOSIG
WADD 310500Z 11010KT 9999 SCT016 31/27 Q1011 NOSIG
WADD 310430Z 11008KT 9999 SCT016 31/27 Q1011 NOSIG
WADD 310400Z 11008KT 9999 SCT016 31/27 Q1012 NOSIG
WADD 310330Z 09008KT 9999 SCT016 30/27 Q1012 NOSIG
WADD 310300Z 09008KT 9999 FEW015CB BKN016 30/27 Q1012 NOSIG
WADD 310230Z 10010KT 9999 FEW015CB BKN016 29/28 Q1012 NOSIG
WADD 310200Z 13009KT 9999 FEW014CB BKN014 29/28 Q1013 RERA NOSIG RMK CB IN APCH AND CLIMB-OUT
WADD 310130Z 12010KT 9000 -RA FEW014CB BKN014 28/28 Q1013 TEMPO TL0200 9000 -RA RMK CB IN APCH AND CLIMB-OUT
WADD 310100Z 11006KT 9000 -RA FEW014CB BKN014 28/27 Q1013 TEMPO TL0200 9000 -RA RMK CB IN APCH AND CLIMB-OUT
WADD 310030Z 06008KT 8000 -RA FEW014CB BKN014 28/28 Q1013 TEMPO TL0130 -RA
WADD 310000Z 11006KT 9999 FEW014CB BKN014 28/27 Q1013 RERA NOSIG
WADD 302330Z 07004KT 9999 FEW015CB BKN015 28/28 Q1012 RERA NOSIG
WADD 302300Z 07006KT 030V100 6000 -RA FEW014CB BKN015 27/27 Q1012 TEMPO TL2400 6000 -RA
WADD 302230Z 06008KT 7000 -RA FEW014CB BKN015 27/27 Q1012 TEMPO TL2330 7000 -RA RMK CB IN APCH AND CLIMB-OUT
WADD 302200Z 06007KT 9999 FEW016CB BKN016 27/27 Q1011 NOSIG
WADD 302130Z 07005KT 9999 FEW016CB BKN016 27/27 Q1011 NOSIG
WADD 302100Z 08006KT 050V120 9999 FEW016CB BKN016 27/27 Q1011 NOSIG
WADD 302030Z 08006KT 9999 FEW016CB BKN016 27/27 Q1011 NOSIG
WADD 302000Z 05008KT 9999 FEW016CB BKN016 28/27 Q1011 NOSIG
WADD 301930Z 10008KT 9999 FEW016CB BKN016 28/27 Q1011 NOSIG
WADD 301900Z 11009KT 9999 FEW016CB BKN016 29/27 Q1011 NOSIG
WADD 301830Z 12011KT 9999 FEW016CB SCT016 29/27 Q1011 NOSIG
WADD 301800Z 12012KT 9999 FEW016CB SCT016 29/27 Q1012 NOSIG
WADD 301730Z 12014KT 9999 FEW016CB SCT016 29/27 Q1012 NOSIG
WADD 301700Z 12011KT 9999 FEW016CB SCT016 29/27 Q1012 NOSIG</description><pubDate>Sat, 31 May 2025 16:48:42 </pubDate></item></channel></rss>