<rss version="2.0"><channel><title>Aviation Weather METAR Data for WADD</title><link>https://aviationweather.gov/api/data/metar?ids=WADD&amp;hours=24</link><description>Latest METAR data for WADD</description><item><title>2025-04-25 13:46:26Z</title><link>https://aviationweather.gov/api/data/metar?ids=WADD&amp;hours=24</link><description>WADD 251330Z 13008KT 9999 FEW017 29/27 Q1011 NOSIG
WADD 251300Z 12009KT 9999 FEW017 29/27 Q1011 NOSIG
WADD 251230Z 12009KT 9999 FEW017 29/27 Q1010 NOSIG
WADD 251200Z 13008KT 9999 FEW017 29/28 Q1010 NOSIG
WADD 251130Z 13010KT 9999 FEW017 29/27 Q1009 NOSIG
WADD 251100Z 13009KT 9999 FEW017 29/27 Q1009 NOSIG
WADD 251000Z 12011KT 9999 FEW017 30/27 Q1008 NOSIG
WADD 250930Z 13011KT 9999 FEW017 30/27 Q1008 NOSIG
WADD 250900Z 12010KT 9999 FEW017 31/27 Q1008 NOSIG
WADD 250830Z 11010KT 9999 FEW017 31/27 Q1008 NOSIG
WADD 250800Z 12011KT 9999 FEW017 31/27 Q1008 NOSIG
WADD 250730Z 11009KT 9999 FEW017 32/28 Q1008 NOSIG
WADD 250700Z 10009KT 9999 FEW017 32/27 Q1008 NOSIG
WADD 250600Z 13009KT 9999 FEW017 32/27 Q1008 NOSIG
WADD 250530Z 10010KT 9999 FEW017 32/27 Q1009 NOSIG
WADD 250500Z 10008KT 9999 FEW017 32/28 Q1009 NOSIG
WADD 250430Z 10009KT 9999 FEW017 32/27 Q1010 NOSIG
WADD 250330Z 10007KT 060V140 9999 FEW017 32/28 Q1011 NOSIG
WADD 250300Z 11007KT 060V130 9999 FEW017 31/28 Q1011 NOSIG
WADD 250230Z 11008KT 9999 FEW017 31/27 Q1011 NOSIG
WADD 250200Z 12005KT 090V180 9999 FEW017 30/27 Q1011 NOSIG
WADD 250130Z 11005KT 080V140 9999 FEW017 30/27 Q1011 NOSIG
WADD 250100Z VRB01KT 9999 FEW017 29/27 Q1012 NOSIG
WADD 250030Z VRB02KT 9999 FEW017 29/26 Q1012 NOSIG
WADD 250000Z VRB02KT 9999 FEW017 29/26 Q1011 NOSIG
WADD 242300Z 09002KT 9999 FEW017 27/26 Q1011 NOSIG
WADD 242230Z 03003KT 9999 FEW017 27/26 Q1011 NOSIG
WADD 242200Z 05005KT 9999 FEW017 26/26 Q1010 NOSIG
WADD 242100Z 09004KT 9999 FEW017 27/26 Q1009 NOSIG
WADD 242030Z 11005KT 9999 FEW017 28/27 Q1009 NOSIG
WADD 242000Z VRB02KT 9999 FEW017 28/27 Q1009 NOSIG
WADD 241930Z 15004KT 9999 FEW017 28/27 Q1009 NOSIG
WADD 241900Z 14004KT 9999 FEW017 28/27 Q1010 NOSIG
WADD 241830Z 13004KT 9999 FEW017 28/27 Q1010 NOSIG
WADD 241800Z 11003KT 9999 FEW017 27/27 Q1010 NOSIG
WADD 241730Z 14005KT 9999 FEW017 28/27 Q1011 NOSIG
WADD 241700Z 11003KT 9999 FEW017 27/26 Q1011 NOSIG
WADD 241630Z VRB02KT 9999 FEW017 27/26 Q1011 NOSIG
WADD 241600Z 14005KT 9999 FEW017 28/27 Q1011 NOSIG
WADD 241530Z 13005KT 9999 FEW017 28/27 Q1011 NOSIG
WADD 241500Z 13006KT 9999 FEW017 28/27 Q1012 NOSIG
WADD 241400Z 11003KT 9999 FEW017 28/26 Q1012 NOSIG</description><pubDate>Fri, 25 Apr 2025 13:46:26 </pubDate></item></channel></rss>