<rss version="2.0"><channel><title>Aviation Weather METAR Data for WADD</title><link>https://aviationweather.gov/api/data/metar?ids=WADD&amp;hours=24</link><description>Latest METAR data for WADD</description><item><title>2026-03-09 19:24:05Z</title><link>https://aviationweather.gov/api/data/metar?ids=WADD&amp;hours=24</link><description>METAR WADD 091830Z 26009KT 9999 FEW017 28/25 Q1009 NOSIG
METAR WADD 091800Z 26009KT 9999 FEW017 28/25 Q1009 NOSIG
METAR WADD 091730Z 26010KT 9999 FEW017 28/25 Q1010 NOSIG
METAR WADD 091700Z 25007KT 210V270 9999 FEW017 28/26 Q1010 NOSIG
METAR WADD 091630Z 23004KT 210V270 9999 FEW017 28/26 Q1011 NOSIG
METAR WADD 091600Z 25007KT 9999 FEW017 28/25 Q1011 NOSIG
METAR WADD 091530Z 25007KT 9999 FEW017 28/25 Q1011 NOSIG
METAR WADD 091500Z 25007KT 9999 FEW017 28/25 Q1011 NOSIG
METAR WADD 091430Z 26007KT 9999 FEW017 28/26 Q1011 NOSIG
METAR WADD 091400Z 26006KT 9999 FEW017 28/26 Q1011 NOSIG
METAR WADD 091330Z 26006KT 9999 FEW017 28/25 Q1010 NOSIG
METAR WADD 091300Z 26008KT 9999 FEW017 28/25 Q1010 NOSIG
METAR WADD 091230Z 27008KT 9999 FEW017 28/25 Q1010 NOSIG
METAR WADD 091200Z 27008KT 9999 FEW017 28/26 Q1009 NOSIG
METAR WADD 091130Z 27007KT 9999 FEW017 28/26 Q1009 NOSIG
METAR WADD 091100Z 26006KT 9999 FEW017 28/26 Q1009 NOSIG
METAR WADD 091030Z 25005KT 9999 SCT016 29/25 Q1009 NOSIG
METAR WADD 091000Z 26007KT 9999 SCT016 30/25 Q1009 NOSIG
METAR WADD 090930Z 29007KT 260V320 9999 SCT016 30/26 Q1008 NOSIG
METAR WADD 090900Z 26009KT 230V290 9999 SCT016 31/26 Q1008 NOSIG
METAR WADD 090830Z 26010KT 9999 SCT016 31/26 Q1008 NOSIG
METAR WADD 090800Z 27010KT 230V300 9999 SCT016 31/26 Q1008 NOSIG
METAR WADD 090730Z 29011KT 9999 SCT016 31/26 Q1008 NOSIG
METAR WADD 090700Z 29010KT 9999 SCT016 31/26 Q1008 NOSIG
METAR WADD 090630Z 29010KT 250V310 9999 SCT016 31/27 Q1008 NOSIG
METAR WADD 090600Z 28010KT 9999 SCT016 31/27 Q1008 NOSIG
METAR WADD 090530Z 28008KT 240V320 9999 SCT016 31/27 Q1009 NOSIG
METAR WADD 090500Z 30008KT 9999 SCT016 30/26 Q1010 NOSIG
METAR WADD 090430Z 29009KT 9999 SCT016 29/26 Q1010 NOSIG
METAR WADD 090400Z 28011KT 9999 SCT016 29/25 Q1011 NOSIG
METAR WADD 090330Z 29010KT 9999 FEW014CB SCT015 29/26 Q1011 RETS NOSI G
METAR WADD 090300Z 26005KT 9999 TS FEW014CB SCT015 28/26 Q1011 TEMPO TL0400 TS
METAR WADD 090230Z 24006KT 9999 TS FEW014CB SCT015 28/26 Q1011 TEMPO TL0330 TS
METAR WADD 090200Z 25007KT 7000 -RA FEW014CB SCT015 27/26 Q1011 TEMPO TL0300 7000 -RA
METAR WADD 090130Z 24009G19KT 7000 -RA FEW014CB BKN015 27/25 Q1011 TEMPO TL0230 7000 -RA RMK CB IN CLIMB-OUT
SPECI WADD 090118Z COR 23012KT 7000 -RA FEW014CB BKN015 29/25 Q1011 TEMPO TL0218 7000 -RA RMK CB IN CLIMB-OUT
METAR WADD 090100Z 26008KT 9999 FEW015CB SCT016 30/26 Q1011 NOSIG
METAR WADD 090030Z 27008KT 9999 SCT016 29/26 Q1011 NOSIG
METAR WADD 090000Z 27009KT 9999 SCT016 29/25 Q1011 NOSIG
METAR WADD 082330Z 26007KT 9999 FEW015CB SCT016 28/25 Q1010 NOSIG
METAR WADD 082300Z 26008KT 9999 SCT016 27/26 Q1010 NOSIG
METAR WADD 082230Z 28007KT 9999 SCT016 27/26 Q1010 NOSIG
METAR WADD 082200Z 27007KT 9999 SCT016 27/26 Q1010 NOSIG
METAR WADD 082130Z 27007KT 9999 FEW016CB SCT016 27/25 Q1010 NOSIG
METAR WADD 082100Z 27010KT 9999 FEW016CB SCT016 27/25 Q1009 NOSIG
METAR WADD 082030Z 26010KT 9999 FEW016CB SCT016 27/25 Q1009 NOSIG
METAR WADD 082000Z 26009KT 9999 FEW016CB SCT016 27/26 Q1009 NOSIG
METAR WADD 081930Z 26008KT 9999 FEW016CB SCT016 28/26 Q1009 NOSIG</description><pubDate>Mon, 09 Mar 2026 19:24:05 </pubDate></item></channel></rss>