<rss version="2.0"><channel><title>Aviation Weather METAR Data for WADD</title><link>https://aviationweather.gov/api/data/metar?ids=WADD&amp;hours=24</link><description>Latest METAR data for WADD</description><item><title>2025-03-21 03:35:27Z</title><link>https://aviationweather.gov/api/data/metar?ids=WADD&amp;hours=24</link><description>WADD 210300Z VRB02KT 7000 -RA BKN015 25/24 Q1011 TEMPO TL0400 7000 -RA
WADD 210230Z 31009KT 260V040 1000 +RA FEW014CB BKN014 27/25 Q1012 TEMPO TL0330 1000 +RA RMK CB IN APCH AND CLIMB-OUT
WADD 210200Z 31005KT 260V340 7000 -RA FEW015CB BKN015 28/25 Q1011 TEMPO TL0300 7000 -RA RMK CB IN CLIMB-OUT
WADD 210130Z 34005KT 310V040 9999 SCT016 28/26 Q1011 NOSIG
WADD 210100Z 34005KT 300V020 9999 SCT016 27/25 Q1011 NOSIG
WADD 210030Z 02004KT 350V090 9999 SCT016 27/26 Q1011 NOSIG
WADD 210000Z 08003KT 9999 SCT016 26/25 Q1011 NOSIG
WADD 202330Z VRB02KT 9999 SCT016 26/25 Q1010 NOSIG
WADD 202300Z VRB02KT 9999 SCT016 25/25 Q1010 NOSIG
WADD 202230Z 05004KT 9999 SCT016 25/24 Q1010 NOSIG
WADD 202200Z 04003KT 9000 BKN014 25/24 Q1010 RERA NOSIG
WADD 202130Z 31007KT 8000 -RA BKN014 26/24 Q1009 TEMPO TL2230 -RA
WADD 202100Z 30010KT 7000 -RA BKN014 26/24 Q1009 TEMPO TL2230 -RA
WADD 202030Z 29015KT 7000 -RA BKN014 26/24 Q1009 TEMPO TL2130 -RA
WADD 202000Z 29019KT 7000 -RA FEW014CB BKN014 25/24 Q1009 TEMPO TL2130 -RA
WADD 201930Z 30019KT 6000 -RA FEW014CB BKN014 26/25 Q1010 RETS TEMPO TL2030 -RA
WADD 201900Z 29021KT 6000 -TSRA FEW014CB BKN014 26/25 Q1010 TEMPO TL2030 -TSRA
WADD 201830Z 26025KT 6000 -TSRA FEW014CB BKN014 26/25 Q1009 TEMPO TL1930 -TSRA
WADD 201800Z 26027G37KT 6000 -TSRA FEW014CB BKN014 25/25 Q1009 TEMPO TL1930 -TSRA
WADD 201730Z 25016G39KT 5000 2000W TSRA FEW014CB BKN014 26/25 Q1010 TEMPO TL1830 5000 TSRA
WADD 201700Z 27013KT 6000 -TSRA FEW014CB BKN014 25/24 Q1010 TEMPO TL1800 -TSRA
WADD 201600Z 29011KT 9999 FEW014CB BKN014 28/26 Q1010 NOSIG
WADD 201530Z 29010KT 9999 FEW014CB BKN014 27/26 Q1011 NOSIG
WADD 201500Z 22004KT 9999 FEW014CB BKN014 26/26 Q1011 RERA NOSIG
WADD 201430Z 27010KT 5000 -RA FEW014CB BKN014 25/25 Q1011 TEMPO TL1530 7000 -RA RMK CB IN CLIMB-OUT
WADD 201400Z 25006KT 5000 -RA FEW014CB BKN014 26/25 Q1011 TEMPO TL1530 7000 -RA RMK CB IN CLIMB-OUT
WADD 201330Z 24007KT 6000 -RA FEW014CB BKN014 25/24 Q1011 TEMPO TL1430 -RA RMK CB IN APCH AND CLIMB-OUT
WADD 201300Z 23017G27KT 170V260 1500 +RA FEW014CB BKN014 24/24 Q1012 TEMPO TL1430 4000 RA RMK CB IN APCH AND CLIMB-OUT
WADD 201230Z VRB04KT 4000 RA FEW014CB BKN014 26/25 Q1011 TEMPO TL1330 6000 -RA RMK CB IN APCH
WADD 201200Z 19004KT 160V260 4000 RA FEW014CB BKN014 26/25 Q1011 TEMPO TL1330 6000 -RA RMK CB IN APCH
WADD 201130Z 26015KT 7000 -RA FEW014CB BKN014 29/26 Q1010 TEMPO TL1230 5000 RA
WADD 201100Z 26017KT 9999 BKN016 29/26 Q1009 NOSIG
WADD 201030Z 26013KT 9999 BKN016 29/26 Q1009 NOSIG
WADD 201000Z 26009KT 9999 FEW015CB BKN016 28/25 Q1008 RERA NOSIG
WADD 200930Z 26017G27KT 3000 RA FEW015CB BKN016 29/26 Q1008 TEMPO TL1030 3000 RA
WADD 200900Z 26015KT 9999 SCT017 30/26 Q1008 NOSIG
WADD 200830Z 26016KT 9999 FEW017 31/26 Q1008 NOSIG
WADD 200800Z 26015KT 9999 FEW017 31/26 Q1008 NOSIG
WADD 200730Z 26016KT 9999 FEW017 31/26 Q1008 NOSIG
WADD 200700Z 26016KT 9999 FEW017 31/26 Q1008 NOSIG
WADD 200630Z 26015KT 9999 SCT017 31/26 Q1008 NOSIG
WADD 200600Z 26015KT 9999 FEW017 31/26 Q1009 NOSIG
WADD 200530Z 26014KT 9999 FEW017 32/26 Q1009 NOSIG
WADD 200500Z 27015KT 9999 FEW017 31/26 Q1009 NOSIG
WADD 200430Z 30013KT 9999 FEW017 31/27 Q1010 NOSIG
WADD 200400Z 29013KT 9999 FEW016 31/27 Q1010 NOSIG</description><pubDate>Fri, 21 Mar 2025 03:35:27 </pubDate></item></channel></rss>