<rss version="2.0"><channel><title>Aviation Weather METAR Data for WADD</title><link>https://aviationweather.gov/api/data/metar?ids=WADD&amp;hours=24</link><description>Latest METAR data for WADD</description><item><title>2025-01-06 21:21:41Z</title><link>https://aviationweather.gov/api/data/metar?ids=WADD&amp;hours=24</link><description>WADD 062100Z 05002KT 8000 FEW017 25/25 Q1007 NOSIG
WADD 062030Z 07003KT 8000 FEW017 25/25 Q1007 NOSIG
WADD 062000Z 03001KT 8000 FEW017 25/25 Q1007 NOSIG
WADD 061930Z 04002KT 8000 FEW017 25/25 Q1007 NOSIG
WADD 061900Z VRB01KT 9000 FEW017 25/25 Q1007 NOSIG
WADD 061830Z VRB01KT 9999 FEW017 26/25 Q1007 NOSIG
WADD 061800Z VRB01KT 9999 FEW017 26/25 Q1007 NOSIG
WADD 061730Z VRB02KT 9000 FEW017 26/25 Q1007 NOSIG
WADD 061700Z 03003KT 9999 FEW017 26/25 Q1008 NOSIG
WADD 061630Z VRB01KT 9999 FEW017 26/25 Q1008 NOSIG
WADD 061600Z VRB02KT 9999 FEW017 27/25 Q1008 NOSIG
WADD 061530Z 11002KT 9999 FEW017 27/25 Q1009 NOSIG
WADD 061500Z VRB02KT 9999 FEW017 27/25 Q1009 NOSIG
WADD 061430Z 05003KT 9999 SCT017 27/25 Q1009 NOSIG
WADD 061400Z VRB02KT 9999 FEW017 27/25 Q1009 NOSIG
WADD 061330Z VRB01KT 9999 FEW017 27/25 Q1009 NOSIG
WADD 061300Z 10002KT 9999 FEW017 27/25 Q1009 NOSIG
WADD 061230Z 09003KT 9999 FEW017 27/25 Q1008 NOSIG
WADD 061200Z 09003KT 9999 FEW016 27/25 Q1008 NOSIG
WADD 061130Z VRB02KT 9999 FEW016 27/25 Q1007 NOSIG
WADD 061100Z 09003KT 9999 FEW016 27/25 Q1007 NOSIG
WADD 061030Z 10004KT 9999 SCT016 27/25 Q1007 NOSIG
WADD 061000Z 08005KT 9999 SCT016 27/25 Q1006 NOSIG
WADD 060930Z 10006KT 9000 -RA FEW015CB SCT016 27/25 Q1006 RETS TEMPO TL1030 -RA
WADD 060900Z 07008KT 040V110 9999 TS FEW015CB BKN016 28/25 Q1006 TEMPO TL1000 TS
WADD 060830Z 25006KT 210V280 9999 TS FEW015CB BKN016 29/26 Q1006 TEMPO TL0930 TS RMK CB IN APCH
WADD 060800Z 26008KT 220V290 9999 TS FEW015CB SCT016 29/26 Q1006 TEMPO TL0900 TS RMK CB IN APCH
WADD 060730Z 25008KT 9999 FEW015CB SCT016 29/26 Q1006 NOSIG
WADD 060700Z 25008KT 9999 FEW015CB SCT016 29/26 Q1006 NOSIG
WADD 060630Z 26010KT 9999 SCT016 29/26 Q1006 NOSIG
WADD 060600Z 26009KT 9999 BKN015 28/26 Q1007 NOSIG
WADD 060530Z 26008KT 220V280 9999 SCT016 29/27 Q1007 NOSIG
WADD 060500Z 26008KT 9999 SCT016 29/26 Q1007 NOSIG
WADD 060430Z 25006KT 9999 SCT016 29/26 Q1008 NOSIG
WADD 060400Z 25007KT 9999 SCT016 28/25 Q1008 NOSIG
WADD 060330Z 25006KT 220V280 9999 SCT016 29/26 Q1009 NOSIG
WADD 060300Z 26004KT 230V290 9999 SCT016 28/25 Q1009 NOSIG
WADD 060230Z 28005KT 250V310 9999 SCT016 28/25 Q1009 NOSIG
WADD 060200Z VRB02KT 9999 SCT016 28/25 Q1009 NOSIG
WADD 060130Z 35003KT 9999 SCT016 27/25 Q1009 NOSIG
WADD 060100Z VRB02KT 9999 SCT016 27/25 Q1009 NOSIG
WADD 060030Z 29003KT 9999 SCT016 26/25 Q1009 NOSIG
WADD 060000Z 32003KT 9999 SCT016 26/25 Q1009 NOSIG
WADD 052330Z VRB01KT 9999 SCT016 25/24 Q1009 NOSIG
WADD 052300Z 32003KT 9999 SCT017 25/24 Q1008 NOSIG
WADD 052230Z 30001KT 9999 SCT017 24/24 Q1008 NOSIG
WADD 052200Z 34004KT 9999 SCT017 24/24 Q1008 RERA NOSIG
WADD 052130Z 33005KT 8000 -RA BKN017 25/24 Q1008 TEMPO TL2230 -RA</description><pubDate>Mon, 06 Jan 2025 21:21:41 </pubDate></item></channel></rss>