<rss version="2.0"><channel><title>Aviation Weather METAR Data for WADD</title><link>https://aviationweather.gov/api/data/metar?ids=WADD&amp;hours=24</link><description>Latest METAR data for WADD</description><item><title>2026-04-29 01:17:08Z</title><link>https://aviationweather.gov/api/data/metar?ids=WADD&amp;hours=24</link><description>METAR WADD 290100Z 08004KT 050V140 9999 SCT016 30/27 Q1010 NOSIG
METAR WADD 290030Z 08004KT 050V120 9999 SCT016 29/27 Q1009 NOSIG
METAR WADD 290000Z VRB01KT 9999 SCT016 29/27 Q1009 NOSIG
METAR WADD 282330Z 10003KT 9999 FEW015CB SCT016 28/26 Q1009 NOSIG
METAR WADD 282300Z COR VRB02KT 9999 FEW015CB SCT016 27/26 Q1009 NOSIG
METAR WADD 282230Z 07004KT 9999 SCT016 27/25 Q1009 NOSIG
METAR WADD 282200Z 15006KT 9999 FEW015CB SCT016 27/26 Q1009 NOSIG
METAR WADD 282130Z 14006KT 9999 FEW015CB SCT016 27/26 Q1008 NOSIG
METAR WADD 282100Z 14008KT 9999 FEW015CB SCT016 27/25 Q1008 NOSIG
METAR WADD 282030Z 14010KT 9999 FEW015CB SCT016 28/26 Q1008 NOSIG
METAR WADD 282000Z 04002KT 9999 SCT016 28/26 Q1008 NOSIG
METAR WADD 281930Z 12006KT 9999 SCT016 28/26 Q1008 NOSIG
METAR WADD 281900Z 12006KT 9999 SCT016 28/26 Q1008 NOSIG
METAR WADD 281830Z 12008KT 9999 SCT016 28/26 Q1008 NOSIG
METAR WADD 281800Z 11005KT 9999 SCT016 28/26 Q1009 NOSIG
METAR WADD 281730Z 11006KT 9999 SCT016 28/26 Q1009 NOSIG
METAR WADD 281700Z 12008KT 9999 FEW017 28/26 Q1009 NOSIG
METAR WADD 281630Z 12007KT 9999 FEW017 28/26 Q1009 NOSIG
METAR WADD 281600Z 12007KT 9999 FEW017 28/26 Q1009 NOSIG
METAR WADD 281530Z 13008KT 9999 FEW017 29/27 Q1010 NOSIG
METAR WADD 281500Z 13008KT 9999 FEW017 29/27 Q1010 NOSIG
METAR WADD 281430Z 13009KT 9999 FEW017 29/27 Q1010 NOSIG
METAR WADD 281400Z 13010KT 9999 FEW017 29/27 Q1010 NOSIG
METAR WADD 281330Z 13009KT 9999 FEW017 29/27 Q1010 NOSIG
METAR WADD 281300Z 11011KT 9999 FEW017 29/27 Q1009 NOSIG
METAR WADD 281230Z 12011KT 9999 FEW017 29/27 Q1009 NOSIG
METAR WADD 281200Z 13011KT 9999 FEW017 29/27 Q1009 NOSIG
METAR WADD 281130Z 12011KT 9999 FEW017 29/27 Q1008 NOSIG
METAR WADD 281100Z 12011KT 9999 FEW017 29/27 Q1008 NOSIG
METAR WADD 281030Z 12010KT 9999 FEW017 29/27 Q1008 NOSIG
METAR WADD 280930Z 12013KT 9999 FEW017 30/27 Q1007 NOSIG
METAR WADD 280900Z 12012KT 9999 FEW017 31/26 Q1006 NOSIG
METAR WADD 280830Z 11011KT 9999 FEW017 31/26 Q1006 NOSIG
METAR WADD 280800Z 12009KT 9999 FEW017 31/26 Q1006 NOSIG
METAR WADD 280730Z 12010KT 9999 FEW017 31/26 Q1006 NOSIG
METAR WADD 280700Z 10009KT 9999 FEW017 32/26 Q1006 NOSIG
METAR WADD 280630Z 12009KT 9999 FEW017 31/26 Q1007 NOSIG
METAR WADD 280600Z 11010KT 9999 FEW017 32/26 Q1007 NOSIG
METAR WADD 280530Z 13008KT 9999 FEW017 32/27 Q1007 NOSIG
METAR WADD 280500Z 11010KT 9999 FEW017 32/26 Q1008 NOSIG
METAR WADD 280430Z 12011KT 9999 FEW016 31/26 Q1009 NOSIG
METAR WADD 280400Z 29004KT 220V320 9999 FEW015 32/26 Q1009 NOSIG
METAR WADD 280330Z 34008KT 300V080 9999 FEW015 32/26 Q1009 NOSIG
METAR WADD 280300Z 11007KT 9999 FEW016 31/26 Q1010 NOSIG
METAR WADD 280230Z 10004KT 040V140 9999 FEW016 31/26 Q1010 NOSIG
METAR WADD 280200Z 09006KT 9999 SCT015 29/26 Q1010 NOSIG
METAR WADD 280130Z 11005KT 9999 FEW016 28/26 Q1010 NOSIG</description><pubDate>Wed, 29 Apr 2026 01:17:08 </pubDate></item></channel></rss>