<rss version="2.0"><channel><title>Aviation Weather METAR Data for WADD</title><link>https://aviationweather.gov/api/data/metar?ids=WADD&amp;hours=24</link><description>Latest METAR data for WADD</description><item><title>2025-02-14 15:40:44Z</title><link>https://aviationweather.gov/api/data/metar?ids=WADD&amp;hours=24</link><description>WADD 141530Z VRB01KT 9999 SCT016 27/26 Q1009 NOSIG
WADD 141500Z VRB02KT 9999 SCT016 27/26 Q1009 NOSIG
WADD 141430Z VRB02KT 9999 SCT016 27/26 Q1009 NOSIG
WADD 141400Z VRB02KT 9999 FEW015CB SCT016 28/26 Q1009 RERA NOSIG
WADD 141330Z 34004KT 270V030 5000 -RA FEW015CB SCT015 27/26 Q1009 TEMPO TL1430 5000 -RA RMK CB IN APCH
WADD 141300Z 03003KT 9999 FEW015CB SCT016 28/26 Q1008 NOSIG
WADD 141230Z VRB02KT 9999 SCT016 29/26 Q1008 NOSIG
WADD 141200Z VRB01KT 9999 SCT016 28/25 Q1008 NOSIG
WADD 141130Z VRB02KT 9999 SCT016 28/25 Q1008 NOSIG
WADD 141100Z 25004KT 9999 SCT016 28/25 Q1007 NOSIG
WADD 141030Z 26007KT 9999 SCT016 28/26 Q1007 NOSIG
WADD 141000Z 24004KT 190V280 9999 SCT016 29/25 Q1007 NOSIG
WADD 140930Z VRB03KT 9999 SCT016 30/25 Q1007 NOSIG
WADD 140900Z 22004KT 140V280 9999 SCT016 30/25 Q1006 NOSIG
WADD 140830Z 23008KT 9999 SCT016 30/25 Q1006 NOSIG
WADD 140800Z 24007KT 9999 FEW015CB SCT016 30/25 Q1006 RETS NOSIG
WADD 140730Z 26008KT 220V280 9999 TS FEW015CB SCT015 31/26 Q1006 TEMPO TL0900 TS RMK CB IN APCH
WADD 140700Z 25007KT 210V280 9999 TS FEW015CB SCT016 31/26 Q1007 TEMPO TL0800 TS
WADD 140630Z 25008KT 9999 TS FEW015CB SCT016 30/27 Q1007 TEMPO TL0800 TS
WADD 140600Z 25009KT 9999 SCT016 30/27 Q1007 NOSIG
WADD 140530Z 25008KT 9999 SCT016 30/26 Q1007 NOSIG
WADD 140500Z 26007KT 9999 SCT016 30/27 Q1008 NOSIG
WADD 140430Z 26008KT 9999 SCT016 30/27 Q1008 NOSIG
WADD 140400Z 24006KT 190V270 9999 SCT016 30/27 Q1009 NOSIG
WADD 140330Z 21003KT 9999 SCT016 30/26 Q1009 NOSIG
WADD 140300Z 31005KT 230V020 9999 SCT016 30/26 Q1009 NOSIG
WADD 140230Z 30004KT 220V360 9999 SCT016 30/26 Q1009 NOSIG
WADD 140200Z VRB02KT 9999 SCT016 30/26 Q1009 NOSIG
WADD 140130Z 08004KT 060V140 9999 SCT016 29/26 Q1009 NOSIG
WADD 140100Z VRB02KT 9999 SCT016 28/26 Q1008 NOSIG
WADD 140030Z VRB02KT 9999 SCT016 28/25 Q1008 NOSIG
WADD 140000Z VRB01KT 9999 SCT016 27/25 Q1008 NOSIG
WADD 132330Z 04003KT 9999 SCT016 27/25 Q1007 NOSIG
WADD 132300Z 23003KT 9999 SCT016 26/25 Q1007 NOSIG
WADD 132230Z VRB01KT 9999 SCT016 26/25 Q1007 NOSIG
WADD 132200Z 35003KT 9999 SCT016 26/25 Q1007 NOSIG
WADD 132130Z VRB02KT 9999 SCT016 26/25 Q1007 NOSIG
WADD 132100Z 32002KT 9999 SCT016 26/25 Q1008 NOSIG
WADD 132030Z VRB01KT 9999 SCT016 27/25 Q1008 NOSIG
WADD 132000Z VRB01KT 9999 SCT016 27/26 Q1008 NOSIG
WADD 131930Z 09003KT 9999 SCT016 27/26 Q1008 NOSIG
WADD 131900Z 04004KT 9999 SCT016 27/26 Q1008 NOSIG
WADD 131830Z 03003KT 9999 SCT016 27/25 Q1008 NOSIG
WADD 131800Z 31004KT 9999 SCT016 28/26 Q1008 NOSIG
WADD 131730Z 29007KT 9999 SCT016 28/26 Q1008 NOSIG
WADD 131700Z 27010KT 9999 SCT016 28/26 Q1009 NOSIG
WADD 131630Z 28009KT 9999 SCT016 28/26 Q1009 NOSIG
WADD 131600Z 29008KT 9999 SCT016 28/26 Q1009 NOSIG</description><pubDate>Fri, 14 Feb 2025 15:40:44 </pubDate></item></channel></rss>