<rss version="2.0"><channel><title>Aviation Weather METAR Data for WADD</title><link>https://aviationweather.gov/api/data/metar?ids=WADD&amp;hours=24</link><description>Latest METAR data for WADD</description><item><title>2026-01-10 23:26:45Z</title><link>https://aviationweather.gov/api/data/metar?ids=WADD&amp;hours=24</link><description>METAR WADD 102300Z 29010KT 9999 FEW014CB BKN015 28/24 Q1008 NOSIG
METAR WADD 102230Z 31007KT 9999 SCT016 28/23 Q1008 NOSIG
METAR WADD 102200Z 29011KT 9999 FEW017 28/23 Q1008 NOSIG
METAR WADD 102130Z 29011KT 9999 FEW017 28/23 Q1008 NOSIG
METAR WADD 102100Z 29010KT 9999 FEW017 28/24 Q1008 NOSIG
METAR WADD 102030Z 28013KT 9999 FEW017 28/23 Q1008 NOSIG
METAR WADD 102000Z 27014KT 9999 FEW017 28/23 Q1008 NOSIG
METAR WADD 101930Z 24005KT 9999 SCT016 28/25 Q1007 NOSIG
METAR WADD 101900Z 28015KT 9999 FEW017 28/23 Q1008 NOSIG
METAR WADD 101830Z 28016KT 9999 FEW017 28/23 Q1008 NOSIG
METAR WADD 101800Z 28014KT 9999 FEW017 28/23 Q1008 NOSIG
METAR WADD 101730Z 29011KT 9999 FEW017 28/24 Q1008 NOSIG
METAR WADD 101700Z 28012KT 9999 FEW017 28/24 Q1008 NOSIG
METAR WADD 101630Z 27013KT 9999 FEW017 28/24 Q1009 NOSIG
METAR WADD 101600Z 28012KT 9999 FEW017 29/25 Q1009 NOSIG
METAR WADD 101530Z 28011KT 9999 FEW017 29/25 Q1009 NOSIG
METAR WADD 101500Z 28012KT 9999 FEW017 29/25 Q1009 NOSIG
METAR WADD 101430Z 27015G26KT 9999 SCT016 29/24 Q1010 NOSIG
METAR WADD 101400Z 29014KT 9999 SCT016 29/24 Q1010 NOSIG
METAR WADD 101330Z 28014KT 9999 SCT017 29/24 Q1010 NOSIG
METAR WADD 101300Z 27013KT 9999 FEW017 29/25 Q1009 NOSIG
METAR WADD 101230Z 28014KT 9999 FEW017 29/24 Q1009 NOSIG
METAR WADD 101200Z 29013KT 9999 FEW017 29/25 Q1009 NOSIG
METAR WADD 101130Z 27012KT 9999 FEW017 29/25 Q1008 NOSIG
METAR WADD 101100Z 27016KT 9999 FEW017 29/25 Q1008 NOSIG
METAR WADD 101030Z 26014KT 9999 FEW017 29/25 Q1007 NOSIG
METAR WADD 101000Z 28010KT 9999 FEW017 29/25 Q1007 NOSIG
METAR WADD 100930Z 28010KT 9999 FEW017 29/25 Q1007 NOSIG
METAR WADD 100900Z 27010KT 9999 FEW017 30/25 Q1007 NOSIG
METAR WADD 100830Z 26010KT 9999 FEW017 30/25 Q1007 NOSIG
METAR WADD 100800Z 27010KT 9999 FEW017 30/25 Q1007 NOSIG
METAR WADD 100730Z 27010KT 9999 FEW017 30/25 Q1007 NOSIG
METAR WADD 100700Z 28011KT 9999 FEW017 31/25 Q1007 NOSIG
METAR WADD 100630Z 28010KT 9999 SCT017 31/26 Q1007 NOSIG
METAR WADD 100600Z 28011KT 9999 SCT017 30/26 Q1007 NOSIG
METAR WADD 100530Z 28011KT 9999 FEW017 30/26 Q1008 NOSIG
METAR WADD 100500Z 29011KT 9999 FEW017 31/26 Q1008 NOSIG
METAR WADD 100430Z 29012KT 9999 FEW017 30/25 Q1008 NOSIG
METAR WADD 100400Z 31011KT 9999 FEW017 30/25 Q1008 NOSIG
METAR WADD 100330Z 31008KT 9999 FEW017 30/24 Q1009 NOSIG
METAR WADD 100300Z 30007KT 9999 FEW017 29/24 Q1009 NOSIG
METAR WADD 100230Z 30007KT 9999 SCT016 28/24 Q1009 NOSIG
METAR WADD 100200Z 31006KT 9999 SCT016 27/23 Q1009 NOSIG
METAR WADD 100130Z 31007KT 9999 SCT016 27/23 Q1009 NOSIG
METAR WADD 100100Z 31006KT 9999 SCT016 27/23 Q1009 NOSIG
METAR WADD 100030Z 32004KT 300V360 9999 SCT016 26/23 Q1009 NOSIG
METAR WADD 100000Z 32007KT 9999 BKN016 25/23 Q1009 RERA NOSIG
METAR WADD 092330Z 32009KT 8000 -RA BKN014 25/24 Q1009 TEMPO TL2430 -RA</description><pubDate>Sat, 10 Jan 2026 23:26:45 </pubDate></item></channel></rss>