<rss version="2.0"><channel><title>Aviation Weather METAR Data for WADD</title><link>https://aviationweather.gov/api/data/metar?ids=WADD&amp;hours=24</link><description>Latest METAR data for WADD</description><item><title>2025-05-27 02:05:50Z</title><link>https://aviationweather.gov/api/data/metar?ids=WADD&amp;hours=24</link><description>WADD 270130Z 20003KT 9999 SCT016 29/27 Q1011 NOSIG
WADD 270100Z VRB02KT 9999 SCT017 28/27 Q1011 NOSIG
WADD 270030Z 09004KT 040V120 9999 FEW017 29/27 Q1010 NOSIG
WADD 270000Z 09006KT 9999 FEW017 28/27 Q1010 NOSIG
WADD 262330Z 09005KT 9999 FEW017 27/27 Q1009 NOSIG
WADD 262300Z 12003KT 9999 FEW017 26/26 Q1009 NOSIG
WADD 262230Z 07004KT 9999 FEW017 26/26 Q1009 NOSIG
WADD 262200Z 08005KT 9999 FEW017 26/26 Q1009 NOSIG
WADD 262130Z 18003KT 9999 SCT016 28/27 Q1009 NOSIG
WADD 262100Z VRB01KT 9999 SCT016 27/26 Q1008 NOSIG
WADD 262030Z 27002KT 9999 FEW016 27/26 Q1008 NOSIG
WADD 262000Z VRB02KT 9999 FEW016 27/26 Q1008 NOSIG
WADD 261930Z 32003KT 9999 FEW016 27/26 Q1008 NOSIG
WADD 261900Z 35005KT 9999 FEW016 27/26 Q1008 NOSIG
WADD 261830Z 34004KT 9999 FEW016 27/26 Q1009 NOSIG
WADD 261800Z 36003KT 9999 27/26 Q1009 NOSIG
WADD 261730Z 01003KT 9999 FEW016 27/26 Q1009 NOSIG
WADD 261700Z 06005KT 9999 FEW016 27/26 Q1009 NOSIG
WADD 261630Z 04005KT 9999 FEW016 28/26 Q1010 NOSIG
WADD 261600Z 08004KT 020V100 9999 FEW016 27/26 Q1010 NOSIG
WADD 261530Z 12003KT 9999 FEW016 28/27 Q1010 NOSIG
WADD 261500Z 14004KT 9999 FEW016 29/26 Q1010 NOSIG
WADD 261430Z 14006KT 9999 SCT016 29/26 Q1010 NOSIG
WADD 261400Z 16004KT 9999 SCT016 29/26 Q1010 NOSIG
WADD 261330Z 14004KT 9999 SCT016 28/26 Q1009 NOSIG
WADD 261300Z 14005KT 9999 SCT016 28/26 Q1009 NOSIG
WADD 261230Z 14008KT 9999 SCT016 28/27 Q1009 NOSIG
WADD 261200Z 13007KT 9999 SCT016 28/26 Q1009 NOSIG
WADD 261130Z 15006KT 9999 SCT016 28/26 Q1008 NOSIG
WADD 261100Z 08008KT 9999 BKN015 27/26 Q1008 NOSIG
WADD 261030Z 12004KT 9000 FEW014CB BKN015 29/27 Q1007 NOSIG
WADD 261000Z 11004KT 9000 FEW014CB BKN015 28/26 Q1007 RERA NOSIG
WADD 260930Z 27004KT 210V310 9999 FEW014CB BKN015 29/26 Q1008 RMK CB IN APCH
WADD 260900Z 24005KT 9999 FEW015CB SCT016 30/27 Q1007 NOSIG
WADD 260830Z 24004KT 9999 SCT016 30/27 Q1007 NOSIG
WADD 260800Z 25006KT 9999 FEW015CB SCT016 30/27 Q1007 NOSIG
WADD 260730Z 24008KT 9999 FEW015CB SCT016 30/27 Q1007 NOSIG
WADD 260700Z 24010KT 9999 SCT017 30/27 Q1007 NOSIG
WADD 260630Z 24008KT 9999 SCT017 30/27 Q1007 NOSIG
WADD 260600Z 24008KT 9999 SCT017 30/27 Q1007 NOSIG
WADD 260530Z 24007KT 9999 FEW017 30/27 Q1007 NOSIG
WADD 260500Z 23005KT 9999 FEW017 31/27 Q1008 NOSIG
WADD 260430Z 23005KT 9999 FEW017 30/27 Q1008 NOSIG
WADD 260400Z 25006KT 9999 FEW017 30/27 Q1009 NOSIG
WADD 260330Z 25007KT 9999 FEW017 30/27 Q1009 NOSIG
WADD 260300Z 24004KT 9999 FEW017 30/27 Q1009 NOSIG
WADD 260230Z 21003KT 9999 FEW017 30/27 Q1009 NOSIG</description><pubDate>Tue, 27 May 2025 02:05:50 </pubDate></item></channel></rss>