<rss version="2.0"><channel><title>Aviation Weather METAR Data for WADD</title><link>https://aviationweather.gov/api/data/metar?ids=WADD&amp;hours=24</link><description>Latest METAR data for WADD</description><item><title>2025-02-10 07:22:21Z</title><link>https://aviationweather.gov/api/data/metar?ids=WADD&amp;hours=24</link><description>WADD 100700Z 31016KT 6000 -RA FEW014CB BKN014 26/26 Q1005 TEMPO TL0900 6000 -RA
WADD 100630Z 30018KT 1500 +RA FEW014CB BKN014 26/26 Q1006 TEMPO TL0830 1500 +RA RMK CB IN APCH AND CLIMB-OUT
WADD 100600Z 29019KT 2000 +RA FEW014CB BKN014 26/25 Q1007 TEMPO TL0800 2000 +RA
WADD 100530Z 30017G27KT 8000 -RA FEW014CB BKN014 26/26 Q1007 TEMPO TL0700 8000 -RA
WADD 100500Z 29017KT 7000 -RA BKN014 25/25 Q1007 TEMPO TL0700 7000 -RA
WADD 100430Z 28024G34KT 0500 +RA FEW014CB BKN014 25/24 Q1007 TEMPO TL0530 0500 +RA
WADD 100400Z 30015KT 8000 -RA SCT014 26/26 Q1007 TEMPO TL0500 8000 -RA
WADD 100330Z 30017KT 6000 -RA BKN014 26/25 Q1008 TEMPO TL0430 6000 -RA
WADD 100300Z 28020G30KT 6000 -RA BKN014 25/25 Q1008 TEMPO TL0400 6000 -RA
WADD 100230Z 27020G30KT 7000 -RA FEW014CB BKN014 25/25 Q1008 TEMPO TL0330 7000 -RA
WADD 100200Z 28011G23KT 7000 -RA FEW014CB BKN014 25/24 Q1008 TEMPO TL0300 7000 -RA CB IN CLIMB-OUT
WADD 100130Z 30013G32KT 0500 +RA FEW014CB BKN014 27/26 Q1008 TEMPO TL0230 0500 +RA RMK CB IN APCH AND CLIMB-OUT
WADD 100100Z 28018KT 9999 FEW015CB BKN014 27/26 Q1008 RERA NOSIG
WADD 100030Z 27016G28KT 8000 -RA FEW014CB BKN014 27/25 Q1007 TEMPO TL0130 8000 -RA
WADD 100000Z 26014G24KT 8000 -RA FEW014CB BKN014 29/26 Q1007 RETS TEMPO TL0100 8000 -RA RMK CB IN CLIMB-OUT AND APCH
WADD 092330Z 27019G30KT 8000 -TSRA FEW014CB BKN014 28/26 Q1006 TEMPO TL2430 -TSRA
WADD 092300Z 26012KT 8000 -TSRA FEW014CB BKN014 26/25 Q1006 TEMPO TL2400 -TSRA RMK CB OVER THE FIELD
WADD 092230Z 29016KT 260V340 7000 -TSRA FEW014CB BKN014 27/26 Q1006 TEMPO TL2330 -TSRA RMK CB IN APCH AND CLIMB-OUT
WADD 092200Z 29013KT 5000 RA FEW014CB BKN014 27/26 Q1005 TEMPO TL2300 RA RMK CB IN CLIMB-OUT
WADD 092130Z 29015KT 9999 FEW014CB BKN014 27/26 Q1006 NOSIG
WADD 092100Z 27019KT 9999 FEW014CB BKN014 26/25 Q1005 RERA NOSIG
WADD 092030Z 27023KT 5000 -RA FEW014CB BKN014 25/25 Q1005 TEMPO TL2130 -RA
WADD 092000Z 27019KT 4000 RA FEW014CB BKN014 27/25 Q1005 TEMPO TL2100 RA
WADD 091930Z 25017KT 210V280 8000 -RA FEW014CB BKN014 27/25 Q1005 TEMPO TL2030 -RA
WADD 091900Z 26017G27KT 9999 FEW014CB BKN014 28/26 Q1005 NOSIG
WADD 091830Z 27020KT 9999 FEW014CB BKN014 28/26 Q1005 NOSIG
WADD 091800Z 27018KT 9999 FEW014CB BKN014 28/26 Q1005 NOSIG
WADD 091730Z 26019G29KT 9999 FEW014CB BKN014 29/26 Q1006 NOSIG
WADD 091700Z 26018KT 9999 FEW014CB BKN014 28/26 Q1006 NOSIG
WADD 091630Z 26012KT 8000 -RA FEW014CB BKN014 26/24 Q1007 TEMPO TL1730 -RA
WADD 091600Z 27019G29KT 6000 -RA FEW014CB BKN014 26/25 Q1007 TEMPO TL1700 -RA
WADD 091530Z 26015KT 9999 FEW015CB BKN015 29/26 Q1007 NOSIG
WADD 091500Z 26015KT 9999 BKN015 29/26 Q1007 NOSIG
WADD 091430Z 26018KT 9999 FEW014CB BKN015 29/26 Q1007 NOSIG
WADD 091400Z 27017KT 9999 FEW014CB BKN014 28/26 Q1007 NOSIG
WADD 091330Z 28018G26KT 9000 -RA FEW014CB BKN014 27/25 Q1007 RETS TEMPO TL1430 -RA
WADD 091300Z 28021KT 4000 -RA FEW014CB BKN014 27/26 Q1006 TEMPO TL1400 -RA RMK CB IN APCH AND CLIMB-OUT
WADD 091230Z 28011KT 240V310 8000 -RA FEW014CB BKN015 27/26 Q1006 TEMPO TL1330 -RA RMK CB IN APCH AND CLIMB-OUT
WADD 091200Z 29013KT 8000 -RA FEW014CB BKN015 27/26 Q1006 TEMPO TL1300 -RA
WADD 091130Z 30012KT 8000 -RA FEW014CB BKN015 28/26 Q1005 TEMPO TL1230 -RA
WADD 091100Z 29014KT 4000 RA FEW014CB BKN015 28/26 Q1005 TEMPO TL1200 4000 RA
WADD 091030Z 27016KT 9999 SCT015 28/25 Q1004 NOSIG
WADD 091000Z 28015KT 9999 SCT015 28/26 Q1004 NOSIG
WADD 090930Z 30016KT 9999 BKN015 28/26 Q1004 NOSIG
WADD 090900Z 29017KT 9999 BKN015 28/26 Q1004 NOSIG
WADD 090830Z 31014KT 9999 BKN015 27/25 Q1004 NOSIG
WADD 090800Z 29019KT 9000 -RA BKN015 28/25 Q1004 TEMPO TL0900 -RA
WADD 090730Z 27022KT 9000 -RA BKN015 28/25 Q1005 RETS TEMPO TL0830 -RA</description><pubDate>Mon, 10 Feb 2025 07:22:21 </pubDate></item></channel></rss>