<rss version="2.0"><channel><title>Aviation Weather METAR Data for WADD</title><link>https://aviationweather.gov/api/data/metar?ids=WADD&amp;hours=24</link><description>Latest METAR data for WADD</description><item><title>2026-01-19 09:44:49Z</title><link>https://aviationweather.gov/api/data/metar?ids=WADD&amp;hours=24</link><description>METAR WADD 190930Z 28014KT 9999 SCT016 30/25 Q1005 NOSIG
METAR WADD 190900Z 26017KT 9999 SCT016 30/25 Q1005 NOSIG
METAR WADD 190830Z 26018KT 9999 SCT016 31/25 Q1005 NOSIG
METAR WADD 190800Z 26017G35KT 9999 SCT016 31/26 Q1005 NOSIG
METAR WADD 190730Z 26018KT 9999 SCT016 31/26 Q1005 NOSIG
METAR WADD 190700Z 26016KT 9999 SCT016 31/26 Q1005 NOSIG
METAR WADD 190630Z 29014KT 9999 SCT016 31/26 Q1005 NOSIG
METAR WADD 190600Z 28014KT 9999 SCT016 30/25 Q1006 NOSIG
METAR WADD 190530Z 27014KT 9999 SCT016 30/25 Q1006 NOSIG
METAR WADD 190500Z 28014KT 9999 SCT016 31/26 Q1006 NOSIG
METAR WADD 190430Z 28015KT 9999 SCT016 29/25 Q1007 NOSIG
METAR WADD 190400Z 27015KT 9999 SCT016 29/24 Q1007 NOSIG
METAR WADD 190330Z 26015KT 9999 SCT016 29/25 Q1007 NOSIG
METAR WADD 190300Z 26014KT 9999 FEW015CB SCT016 28/25 Q1007 RERA NOSI G
METAR WADD 190230Z 25015KT 7000 -RA FEW014CB BKN015 27/24 Q1008 TEMPO TL0330 RA RMK CB IN APCH AND CLIMB-OUT
METAR WADD 190200Z 28015KT 9999 FEW016CB SCT017 30/24 Q1007 NOSIG
METAR WADD 190130Z 29011KT 9999 SCT017 30/24 Q1007 NOSIG
METAR WADD 190100Z 29011KT 9999 FEW016CB SCT017 30/24 Q1007 NOSIG
METAR WADD 190030Z 31009KT 9999 SCT016 29/24 Q1007 NOSIG
METAR WADD 190000Z 30010KT 9999 SCT016 29/24 Q1007 NOSIG
METAR WADD 182330Z 29009KT 9999 SCT016 28/24 Q1007 NOSIG
METAR WADD 182300Z 29009KT 9999 SCT016 28/24 Q1006 NOSIG
METAR WADD 182230Z 29009KT 9999 BKN016 27/24 Q1006 NOSIG
METAR WADD 182200Z 28007KT 9999 SCT016 27/24 Q1006 NOSIG
METAR WADD 182130Z VRB01KT 9999 SCT016 26/24 Q1005 NOSIG
METAR WADD 182100Z VRB02KT 9999 SCT016 26/24 Q1005 NOSIG
METAR WADD 182030Z 30005KT 9999 SCT016 27/24 Q1005 NOSIG
METAR WADD 182000Z 33004KT 9999 SCT016 26/24 Q1005 NOSIG
METAR WADD 181930Z VRB02KT 9999 SCT016 26/24 Q1005 NOSIG
METAR WADD 181900Z 29006KT 9999 SCT016 27/24 Q1005 NOSIG
METAR WADD 181830Z 29008KT 9999 SCT016 27/25 Q1005 NOSIG
METAR WADD 181800Z 29009KT 9999 SCT016 27/24 Q1005 NOSIG
METAR WADD 181730Z 30009KT 9999 SCT016 27/24 Q1005 NOSIG
METAR WADD 181700Z 32008KT 9999 SCT016 27/24 Q1005 NOSIG
METAR WADD 181630Z 32006KT 290V010 9999 SCT016 26/24 Q1006 NOSIG
METAR WADD 181600Z 34005KT 9999 SCT016 26/24 Q1007 NOSIG
METAR WADD 181530Z 31006KT 9999 SCT016 27/24 Q1007 NOSIG
METAR WADD 181500Z 31005KT 9999 SCT016 26/24 Q1007 NOSIG
METAR WADD 181430Z 31005KT 270V340 9999 BKN016 26/24 Q1007 NOSIG
METAR WADD 181400Z 31006KT 9999 BKN016 26/24 Q1007 NOSIG
METAR WADD 181330Z 33006KT 270V360 9999 BKN015 26/23 Q1007 NOSIG
METAR WADD 181300Z 36006KT 310V030 9999 BKN015 25/23 Q1007 NOSIG
METAR WADD 181230Z 36006KT 320V030 9999 FEW014CB BKN015 25/23 Q1007 R ERA NOSIG
METAR WADD 181200Z 35007KT 300V030 8000 -RA FEW014CB BKN015 25/24 Q1007 TEMPO TL1300 -RA RMK CB IN APCH
METAR WADD 181130Z 33011KT 6000 -RA FEW014CB BKN015 26/25 Q1007 TEMPO TL1300 -RA RMK CB IN APCH AND CLIMB-OUT
METAR WADD 181100Z 26020G32KT 4000 RA FEW013CB BKN014 26/24 Q1006 TEM PO TL1230 4000 RA RMK CB IN APCH AND CLIMB-OUT
SPECI WADD 181039Z 26022KT 5000 FEW013CB BKN014 29/25 Q1005 NOSIG RMK CB IN CLIMB-OUT
METAR WADD 181030Z 26012KT 9999 FEW014CB BKN015 29/25 Q1005 NOSIG RMK CB IN CLIMB-OUT
METAR WADD 181000Z 25010KT 9999 FEW015CB BKN016 29/25 Q1005 NOSIG</description><pubDate>Mon, 19 Jan 2026 09:44:49 </pubDate></item></channel></rss>