<rss version="2.0"><channel><title>Aviation Weather METAR Data for WADD</title><link>https://aviationweather.gov/api/data/metar?ids=WADD&amp;hours=24</link><description>Latest METAR data for WADD</description><item><title>2026-01-05 11:44:43Z</title><link>https://aviationweather.gov/api/data/metar?ids=WADD&amp;hours=24</link><description>METAR WADD 051130Z 26010KT 9999 FEW017 29/25 Q1009 NOSIG
METAR WADD 051100Z 26010KT 9999 FEW017 29/24 Q1009 NOSIG
METAR WADD 051030Z 27013KT 9999 FEW017 29/25 Q1008 NOSIG
METAR WADD 051000Z 27012KT 9999 FEW017 29/25 Q1008 NOSIG
METAR WADD 050930Z 28013KT 9999 FEW016 30/25 Q1008 NOSIG
METAR WADD 050900Z 28012KT 9999 FEW016 30/25 Q1008 NOSIG
METAR WADD 050830Z 27013KT 9999 FEW016 30/25 Q1008 NOSIG
METAR WADD 050800Z 28011KT 9999 FEW016 30/25 Q1008 NOSIG
METAR WADD 050730Z 30011KT 9999 FEW016 30/25 Q1008 NOSIG
METAR WADD 050700Z 29010KT 9999 FEW016 30/25 Q1009 NOSIG
METAR WADD 050630Z 29012KT 9999 SCT016 30/25 Q1009 NOSIG
METAR WADD 050600Z 30011KT 9999 SCT016 30/25 Q1009 NOSIG
METAR WADD 050530Z 30011KT 9999 FEW015CB BKN015 30/25 Q1010 NOSIG
METAR WADD 050500Z 29010KT 9999 FEW015CB BKN015 29/25 Q1010 RERA NOSI G
METAR WADD 050430Z 29010KT 8000 -RA FEW015CB BKN015 28/25 Q1010 TEMPO TL0530 8000 -RA
METAR WADD 050400Z 29009KT 8000 -RA FEW015CB BKN015 27/25 Q1011 TEMPO TL0530 8000 -RA
METAR WADD 050330Z 30012KT 8000 -RA FEW015CB BKN015 27/25 Q1011 TEMPO TL0400 8000 -RA
METAR WADD 050300Z 29010KT 8000 -RA FEW015CB BKN015 28/25 Q1011 TEMPO TL0400 8000 -RA
METAR WADD 050230Z 30011KT 9999 FEW015CB BKN015 28/25 Q1011 RERA NOSI G
METAR WADD 050200Z 30012KT 8000 -RA FEW015CB BKN015 28/25 Q1011 TEMPO TL0300 8000 -RA
METAR WADD 050130Z 31010KT 8000 -RA FEW015CB BKN015 27/25 Q1011 TEMPO TL0300 8000 -RA
METAR WADD 050100Z 31013KT 9999 FEW015CB BKN015 27/25 Q1011 NOSIG
METAR WADD 050030Z 32008KT 300V360 9999 FEW014CB BKN014 26/25 Q1011 RERA NOSIG RMK CB IN APCH AND CLIMB-OUT
METAR WADD 050000Z 32013KT 7000 -RA FEW014CB BKN014 26/25 Q1011 TEMPO TL0200 7000 -RA RMK CB IN APCH AND CLIMB-OUT
METAR WADD 042330Z 29010KT 6000 RA FEW015CB BKN015 26/25 Q1011 TEMPO TL2430 6000 RA
METAR WADD 042300Z 32009KT 9999 FEW015CB BKN015 26/25 Q1010 NOSIG
METAR WADD 042230Z 31011KT 9999 FEW015CB BKN016 26/25 Q1010 RERA NOSI G
METAR WADD 042200Z VRB03KT 2000 RA FEW015CB BKN016 25/25 Q1010 TEMPO TL2300 RA RMK CB IN CLIMB-OUT
METAR WADD 042130Z 32008KT 8000 -RA FEW015CB BKN016 25/24 Q1009 T EMPO TL2230 -RA RMK CB IN APCH
METAR WADD 042100Z 29009KT 5000 -RA FEW015CB BKN016 26/24 Q1010 TEMPO TL2200 -RA
METAR WADD 042030Z 34005KT 9999 FEW015CB BKN016 26/23 Q1009 NOSIG
METAR WADD 042000Z 33006KT 9999 BKN016 26/24 Q1009 NOSIG
METAR WADD 041930Z 32007KT 9999 BKN016 26/24 Q1009 NOSIG
METAR WADD 041900Z 33008KT 9999 BKN016 26/24 Q1010 NOSIG
METAR WADD 041830Z 31011KT 9999 FEW015CB BKN016 26/24 Q1010 NOSIG
METAR WADD 041800Z 29012KT 9999 FEW015CB BKN016 26/24 Q1010 RERA NOSI G
METAR WADD 041730Z 26010KT 220V290 9999 FEW015CB BKN016 28/25 Q1010 N OSIG
METAR WADD 041700Z 25006KT 210V270 9999 FEW015CB BKN016 28/24 Q1010 N OSIG
METAR WADD 041630Z 24004KT 210V270 9999 BKN016 28/24 Q1010 NOSIG
METAR WADD 041600Z VRB01KT 9999 FEW015CB SCT016 28/25 Q1011 NOSIG
METAR WADD 041530Z VRB02KT 9999 FEW015CB SCT016 28/25 Q1011 NOSIG
METAR WADD 041500Z 26004KT 9999 FEW015CB SCT016 28/25 Q1011 NOSIG
METAR WADD 041430Z 26004KT 9999 FEW015CB SCT016 28/25 Q1011 NOSIG
METAR WADD 041400Z 26005KT 9999 FEW015CB SCT016 28/25 Q1012 NOSIG
METAR WADD 041330Z 26004KT 9999 SCT016 28/25 Q1011 NOSIG
METAR WADD 041300Z 27004KT 190V330 9999 SCT016 28/25 Q1011 NOSIG
METAR WADD 041230Z 26006KT 9999 BKN016 28/25 Q1011 NOSIG
METAR WADD 041200Z 26004KT 9999 FEW016 28/25 Q1010 NOSIG</description><pubDate>Mon, 05 Jan 2026 11:44:43 </pubDate></item></channel></rss>