<rss version="2.0"><channel><title>Aviation Weather METAR Data for WADD</title><link>https://aviationweather.gov/api/data/metar?ids=WADD&amp;hours=24</link><description>Latest METAR data for WADD</description><item><title>2025-02-21 16:29:18Z</title><link>https://aviationweather.gov/api/data/metar?ids=WADD&amp;hours=24</link><description>WADD 211600Z 26006KT 9999 FEW015CB BKN016 27/25 Q1010 RERA NOSIG
WADD 211530Z 25009KT 9999 FEW015CB SCT016 27/25 Q1010 NOSIG
WADD 211500Z 26009KT 9999 FEW015CB SCT016 28/26 Q1011 NOSIG
WADD 211430Z 27008KT 9999 FEW015CB SCT016 28/26 Q1011 NOSIG
WADD 211400Z 29007KT 9999 FEW015CB SCT016 28/26 Q1011 NOSIG
WADD 211330Z 28008KT 9999 SCT016 27/25 Q1010 NOSIG
WADD 211300Z 25005KT 9999 FEW015CB SCT016 28/26 Q1010 NOSIG
WADD 211230Z 28006KT 9999 FEW015CB SCT016 28/26 Q1010 NOSIG
WADD 211200Z 28008KT 9999 FEW015CB SCT016 28/26 Q1010 RERA NOSIG
WADD 211130Z 28007KT 6000 -RA FEW015CB BKN016 26/25 Q1010 TEMPO TL1230 6000 -RA
WADD 211100Z 27016KT 6000 -RA FEW015CB BKN016 26/24 Q1010 TEMPO TL1200 6000 -RA RMK CB IN APCH
WADD 211030Z 26010KT 9999 FEW015CB SCT016 29/25 Q1009 NOSIG
WADD 211000Z 26009KT 9999 FEW016CB SCT017 29/26 Q1008 NOSIG
WADD 210930Z 26009KT 9999 SCT017 29/26 Q1008 NOSIG
WADD 210900Z 25009KT 9999 SCT017 29/26 Q1008 NOSIG
WADD 210830Z 25011KT 9999 FEW017 30/26 Q1007 NOSIG
WADD 210800Z 25011KT 9999 FEW017 31/26 Q1007 NOSIG
WADD 210730Z 25011KT 9999 FEW017 31/26 Q1007 NOSIG
WADD 210700Z 26011KT 9999 FEW017 30/26 Q1008 NOSIG
WADD 210630Z 27009KT 9999 FEW017 31/26 Q1008 NOSIG
WADD 210600Z 26009KT 9999 FEW017 31/26 Q1008 NOSIG
WADD 210530Z 26008KT 9999 FEW017 30/25 Q1008 NOSIG
WADD 210500Z 27010KT 9999 FEW017 30/25 Q1009 NOSIG
WADD 210430Z 26011KT 9999 FEW017 30/25 Q1009 NOSIG
WADD 210400Z 27014KT 9999 SCT016 30/26 Q1010 NOSIG
WADD 210330Z 27010KT 9999 SCT016 29/25 Q1010 NOSIG
WADD 210300Z 28013KT 9999 SCT016 29/25 Q1010 NOSIG
WADD 210230Z 29012KT 9999 SCT016 30/26 Q1010 NOSIG
WADD 210200Z 30012KT 9999 SCT016 29/26 Q1011 NOSIG
WADD 210130Z 29009KT 9999 SCT016 28/25 Q1011 RERA NOSIG
WADD 210100Z 27014KT 8000 -RA FEW014CB BKN014 27/25 Q1011 TEMPO TL0200 8000 -RA
WADD 210030Z 31008KT 9999 FEW014CB SCT015 29/25 Q1010 NOSIG
WADD 210000Z 32006KT 9999 SCT016 28/25 Q1010 NOSIG
WADD 202330Z 33006KT 9999 SCT016 27/25 Q1010 NOSIG
WADD 202300Z 35005KT 280V020 9999 FEW015CB FEW016 27/24 Q1009 NOSIG
WADD 202230Z 32006KT 9999 SCT016 27/25 Q1009 NOSIG
WADD 202200Z 33005KT 9999 BKN016 27/24 Q1009 NOSIG
WADD 202130Z 34005KT 9999 BKN016 27/24 Q1009 NOSIG
WADD 202100Z 34005KT 9999 BKN016 27/25 Q1008 NOSIG
WADD 202030Z 36004KT 330V030 9999 BKN016 27/25 Q1009 NOSIG
WADD 202000Z 28006KT 9999 SCT016 27/25 Q1009 NOSIG
WADD 201930Z 28008KT 9999 SCT016 27/25 Q1008 NOSIG
WADD 201900Z 28009KT 9999 FEW016 27/25 Q1009 NOSIG
WADD 201830Z 29008KT 9999 BKN016 27/25 Q1009 NOSIG
WADD 201800Z 30006KT 9999 BKN016 27/25 Q1009 NOSIG
WADD 201730Z 31005KT 9999 SCT016 27/25 Q1009 NOSIG
WADD 201700Z 32005KT 280V340 9999 SCT016 27/25 Q1009 NOSIG
WADD 201630Z 33006KT 290V350 9999 SCT016 27/25 Q1010 NOSIG</description><pubDate>Fri, 21 Feb 2025 16:29:18 </pubDate></item></channel></rss>