<rss version="2.0"><channel><title>Aviation Weather METAR Data for WADD</title><link>https://aviationweather.gov/api/data/metar?ids=WADD&amp;hours=24</link><description>Latest METAR data for WADD</description><item><title>2026-06-29 01:37:33Z</title><link>https://aviationweather.gov/api/data/metar?ids=WADD&amp;hours=24</link><description>METAR WADD 290130Z 12007KT 9999 SCT016 29/23 Q1014 NOSIG
METAR WADD 290100Z 11005KT 070V140 9999 SCT016 29/23 Q1014 NOSIG
METAR WADD 290030Z 01004KT 9999 SCT016 26/22 Q1013 NOSIG
METAR WADD 290000Z 36003KT 9999 BKN016 25/22 Q1013 NOSIG
METAR WADD 282330Z 01003KT 9999 SCT016 24/22 Q1013 NOSIG
METAR WADD 282300Z 36004KT 9999 SCT016 23/21 Q1013 NOSIG
METAR WADD 282230Z 36004KT 9999 FEW017 23/22 Q1012 NOSIG
METAR WADD 282200Z 36002KT 9999 FEW017 23/21 Q1012 NOSIG
METAR WADD 282130Z 34001KT 9999 FEW017 23/21 Q1012 NOSIG
METAR WADD 282100Z VRB02KT 9999 FEW017 23/21 Q1012 NOSIG
METAR WADD 282030Z 04002KT 9999 FEW017 23/21 Q1012 NOSIG
METAR WADD 282000Z 10002KT 9999 FEW017 24/21 Q1012 NOSIG
METAR WADD 281930Z 12003KT 9999 FEW017 25/22 Q1012 NOSIG
METAR WADD 281900Z 12004KT 9999 FEW017 25/22 Q1012 NOSIG
METAR WADD 281830Z 11005KT 9999 FEW017 25/22 Q1012 NOSIG
METAR WADD 281800Z 12006KT 9999 FEW017 26/22 Q1012 NOSIG
METAR WADD 281730Z 13007KT 9999 FEW017 26/22 Q1012 NOSIG
METAR WADD 281700Z 13008KT 9999 FEW017 26/22 Q1013 NOSIG
METAR WADD 281630Z 12008KT 9999 FEW017 26/22 Q1013 NOSIG
METAR WADD 281600Z 12006KT 9999 FEW017 26/23 Q1013 NOSIG
METAR WADD 281530Z 12007KT 9999 FEW017 26/23 Q1013 NOSIG
METAR WADD 281500Z 13009KT 9999 FEW017 26/23 Q1013 NOSIG
METAR WADD 281430Z 13007KT 9999 FEW017 26/23 Q1013 NOSIG
METAR WADD 281400Z 13008KT 9999 FEW017 26/23 Q1013 NOSIG
METAR WADD 281330Z 13009KT 9999 FEW017 26/23 Q1013 NOSIG
METAR WADD 281300Z 13010KT 9999 FEW017 26/23 Q1012 NOSIG
METAR WADD 281230Z 12009KT 9999 FEW017 26/23 Q1012 NOSIG
METAR WADD 281200Z 13010KT 9999 FEW017 26/23 Q1012 NOSIG
METAR WADD 281130Z 13008KT 9999 FEW016 27/23 Q1011 NOSIG
METAR WADD 281100Z 13010KT 9999 FEW016 27/23 Q1011 NOSIG
METAR WADD 281030Z 13011KT 9999 FEW016 27/23 Q1011 NOSIG
METAR WADD 281000Z 13014KT 9999 SCT016 27/23 Q1011 NOSIG
METAR WADD 280930Z 13015KT 9999 SCT016 28/23 Q1011 NOSIG
METAR WADD 280900Z 13014KT 9999 SCT016 28/23 Q1011 NOSIG
METAR WADD 280830Z 12013KT 9999 SCT016 28/23 Q1010 NOSIG
METAR WADD 280800Z 12013KT 9999 BKN016 29/23 Q1010 NOSIG
METAR WADD 280730Z 12014KT 9999 BKN016 29/23 Q1010 NOSIG
METAR WADD 280700Z 13012KT 9999 BKN016 29/23 Q1010 NOSIG
METAR WADD 280630Z 13012KT 9999 BKN016 29/23 Q1010 NOSIG
METAR WADD 280600Z 13012KT 9999 BKN016 29/23 Q1011 NOSIG
METAR WADD 280530Z 13013KT 9999 SCT016 29/23 Q1011 NOSIG
METAR WADD 280500Z 12012KT 9999 SCT016 30/23 Q1011 NOSIG
METAR WADD 280430Z 10012KT 9999 SCT016 30/23 Q1012 NOSIG
METAR WADD 280400Z 12011KT 9999 SCT016 30/23 Q1012 NOSIG
METAR WADD 280330Z 12012KT 9999 SCT016 30/23 Q1013 NOSIG
METAR WADD 280300Z 12011KT 9999 SCT016 29/23 Q1013 NOSIG
METAR WADD 280230Z 13012KT 9999 SCT016 29/23 Q1013 NOSIG
METAR WADD 280200Z 12011KT 080V150 9999 SCT016 29/23 Q1013 NOSIG</description><pubDate>Mon, 29 Jun 2026 01:37:33 </pubDate></item></channel></rss>