<rss version="2.0"><channel><title>Aviation Weather METAR Data for WADD</title><link>https://aviationweather.gov/api/data/metar?ids=WADD&amp;hours=24</link><description>Latest METAR data for WADD</description><item><title>2025-12-06 03:54:55Z</title><link>https://aviationweather.gov/api/data/metar?ids=WADD&amp;hours=24</link><description>METAR WADD 060330Z 25006KT 200V280 9999 SCT016 30/26 Q1010 NOSIG
METAR WADD 060300Z 27007KT 240V300 9999 SCT016 30/25 Q1010 NOSIG
METAR WADD 060230Z 25004KT 190V290 9999 SCT016 29/25 Q1010 NOSIG
METAR WADD 060200Z 30003KT 9999 FEW016 30/25 Q1011 NOSIG
METAR WADD 060130Z VRB03KT 9999 FEW016 29/25 Q1011 NOSIG
METAR WADD 060100Z 09004KT 030V130 9999 FEW016 29/25 Q1011 NOSIG
METAR WADD 060030Z 09003KT 9999 SCT016 28/24 Q1011 NOSIG
METAR WADD 060000Z VRB02KT 9999 SCT016 28/24 Q1011 NOSIG
METAR WADD 052330Z 35003KT 9999 SCT016 27/25 Q1011 NOSIG
METAR WADD 052300Z 01004KT 330V040 9999 SCT016 26/25 Q1011 NOSIG
METAR WADD 052230Z VRB02KT 9999 SCT016 26/24 Q1010 NOSIG
METAR WADD 052200Z VRB01KT 9999 SCT016 26/24 Q1010 NOSIG
METAR WADD 052130Z VRB01KT 9999 SCT016 26/24 Q1010 NOSIG
METAR WADD 052100Z VRB02KT 9999 SCT016 26/24 Q1010 NOSIG
METAR WADD 052030Z 14003KT 9999 SCT016 26/24 Q1009 NOSIG
METAR WADD 052000Z 12004KT 080V150 9999 FEW015CB SCT016 26/24 Q1009 N OSIG
METAR WADD 051930Z 14005KT 9999 FEW015CB SCT016 25/23 Q1009 RETS NOSI G
METAR WADD 051900Z 16005KT 110V200 9999 TS FEW015CB SCT016 25/23 Q1009 TEMPO TL2000 TS
METAR WADD 051830Z 17004KT 110V240 9999 TS FEW015CB SCT016 26/24 Q1009 TEMPO TL1930 TS
METAR WADD 051800Z VRB02KT 9999 TS FEW015CB SCT016 27/24 Q1009 TEMPO TL1900 TS
METAR WADD 051730Z 35004KT 310V020 9999 TS FEW015CB SCT016 27/24 Q1009 TEMPO TL1830 TS
METAR WADD 051700Z 36005KT 300V030 9999 SCT016 27/25 Q1009 NOSIG
METAR WADD 051630Z 36004KT 320V030 9999 SCT016 27/25 Q1010 NOSIG
METAR WADD 051600Z 04003KT 9999 SCT016 27/25 Q1010 NOSIG
METAR WADD 051530Z VRB02KT 9999 SCT016 27/25 Q1010 NOSIG
METAR WADD 051500Z VRB01KT 9999 SCT016 27/24 Q1011 NOSIG
METAR WADD 051430Z VRB01KT 9999 SCT016 27/24 Q1011 NOSIG
METAR WADD 051400Z VRB01KT 9999 SCT016 27/25 Q1011 NOSIG
METAR WADD 051330Z VRB01KT 9999 SCT016 27/24 Q1011 NOSIG
METAR WADD 051300Z VRB01KT 9999 SCT016 28/25 Q1011 NOSIG
METAR WADD 051230Z VRB01KT 9999 SCT016 28/25 Q1010 NOSIG
METAR WADD 051200Z VRB02KT 9999 SCT016 28/24 Q1010 NOSIG
METAR WADD 051130Z 03004KT 300V070 9999 SCT016 28/24 Q1010 NOSIG
METAR WADD 051100Z 36004KT 290V070 9999 SCT016 28/25 Q1009 NOSIG
METAR WADD 051030Z 29004KT 260V330 9999 SCT016 29/25 Q1009 NOSIG
METAR WADD 051000Z 05004KT 360V080 9999 SCT016 29/25 Q1009 NOSIG
METAR WADD 050930Z VRB01KT 9999 FEW015CB SCT016 29/25 Q1009 NOSIG
METAR WADD 050900Z 24005KT 9999 FEW015CB SCT016 30/25 Q1008 NOSIG
METAR WADD 050830Z VRB03KT 9999 FEW015CB FEW016 30/25 Q1008 NOSIG
METAR WADD 050800Z 23004KT 130V260 9999 FEW015CB FEW016 30/24 Q1008 N OSIG
METAR WADD 050730Z 21004KT 160V290 9999 FEW015CB SCT016 30/25 Q1008 N OSIG
METAR WADD 050700Z 20004KT 130V260 9999 FEW015CB SCT016 30/25 Q1008 N OSIG
METAR WADD 050630Z VRB04KT 9999 FEW015CB SCT016 30/25 Q1009 NOSIG
METAR WADD 050600Z 15004KT 110V200 9999 FEW015CB SCT016 30/25 Q1009 N OSIG
METAR WADD 050530Z VRB03KT 9999 FEW015CB SCT016 29/26 Q1009 NOSIG
METAR WADD 050500Z 23003KT 7000 -RA BKN015 28/25 Q1010 TEMPO TL0600 - RA
METAR WADD 050430Z 25008KT 220V290 9999 SCT016 30/25 Q1010 NOSIG
METAR WADD 050400Z 27007KT 220V300 9999 SCT016 30/25 Q1010 NOSIG</description><pubDate>Sat, 06 Dec 2025 03:54:55 </pubDate></item></channel></rss>