<rss version="2.0"><channel><title>Aviation Weather METAR Data for WADD</title><link>https://aviationweather.gov/api/data/metar?ids=WADD&amp;hours=24</link><description>Latest METAR data for WADD</description><item><title>2025-11-13 22:26:43Z</title><link>https://aviationweather.gov/api/data/metar?ids=WADD&amp;hours=24</link><description>METAR WADD 132200Z 28014KT 9999 SCT016 27/24 Q1007 NOSIG
METAR WADD 132130Z 28016KT 9999 SCT016 28/24 Q1007 NOSIG
METAR WADD 132100Z 27016KT 9999 FEW017 27/24 Q1007 NOSIG
METAR WADD 132030Z 27015KT 9999 FEW017 27/24 Q1006 NOSIG
METAR WADD 132000Z 27015KT 9999 FEW017 27/24 Q1007 NOSIG
METAR WADD 131930Z 27017KT 9999 FEW017 27/23 Q1006 NOSIG
METAR WADD 131900Z 26015KT 9999 SCT016 28/24 Q1007 NOSIG
METAR WADD 131830Z 26013KT 9999 SCT016 28/24 Q1007 NOSIG
METAR WADD 131800Z 26014KT 9999 SCT016 28/24 Q1007 NOSIG
METAR WADD 131730Z 26015KT 9999 SCT016 28/25 Q1007 NOSIG
METAR WADD 131700Z 26017KT 9999 SCT016 28/25 Q1008 NOSIG
METAR WADD 131630Z 26017KT 9999 SCT016 28/25 Q1008 NOSIG
METAR WADD 131600Z 27015KT 9999 BKN015 28/25 Q1008 NOSIG
METAR WADD 131530Z 27015KT 9999 FEW014CB BKN014 28/25 Q1009 RERA NOSI G
METAR WADD 131500Z 26015KT 7000 -RA FEW014CB BKN014 28/25 Q1009 TEMPO TL1600 7000 -RA
METAR WADD 131430Z 27015KT 9999 BKN016 29/25 Q1009 NOSIG
METAR WADD 131400Z 27017KT 9999 SCT016 28/25 Q1009 NOSIG
METAR WADD 131330Z 28017KT 9999 SCT016 28/25 Q1009 NOSIG
METAR WADD 131300Z 28017KT 9999 SCT016 28/25 Q1009 NOSIG
METAR WADD 131230Z 28015KT 9999 SCT016 28/25 Q1008 NOSIG
METAR WADD 131200Z 27015KT 9999 FEW017 28/25 Q1008 NOSIG
METAR WADD 131130Z 27017KT 9999 SCT016 28/25 Q1008 NOSIG
METAR WADD 131100Z 27012KT 9999 SCT016 28/25 Q1008 NOSIG
METAR WADD 131030Z 28015KT 9999 SCT016 28/24 Q1007 NOSIG
METAR WADD 131000Z 27014KT 9999 SCT016 28/24 Q1007 NOSIG
METAR WADD 130930Z 27013KT 9999 BKN016 28/25 Q1007 NOSIG
METAR WADD 130900Z 26014KT 9999 BKN016 29/25 Q1007 NOSIG
METAR WADD 130830Z 26014KT 9999 SCT015 29/24 Q1007 NOSIG
METAR WADD 130800Z 26012KT 9999 FEW015CB SCT015 29/25 Q1007 NOSIG
METAR WADD 130730Z 27012KT 9999 BKN015 29/25 Q1007 NOSIG
METAR WADD 130700Z 27011KT 9999 SCT016 30/25 Q1007 NOSIG
METAR WADD 130630Z 26013KT 9999 SCT016 29/24 Q1007 NOSIG
METAR WADD 130600Z 27014KT 9999 SCT016 30/24 Q1007 NOSIG
METAR WADD 130530Z 27014KT 9999 FEW017 30/25 Q1008 NOSIG
METAR WADD 130500Z 26014KT 9999 FEW017 30/25 Q1008 NOSIG
METAR WADD 130430Z 26013KT 9999 FEW017 29/25 Q1009 NOSIG
METAR WADD 130400Z 25014KT 9999 FEW017 29/25 Q1009 NOSIG
METAR WADD 130330Z 28011KT 9999 FEW017 30/25 Q1009 NOSIG
METAR WADD 130300Z 28010KT 9999 FEW016CB FEW017 30/25 Q1010 NOSIG
METAR WADD 130230Z 27009KT 9999 FEW017 29/25 Q1010 NOSIG
METAR WADD 130200Z 29008KT 9999 FEW017 29/26 Q1010 NOSIG
METAR WADD 130130Z 28008KT 9999 FEW016 28/26 Q1010 NOSIG
METAR WADD 130100Z 23005KT 8000 SCT016 27/25 Q1010 RERA NOSIG
METAR WADD 130030Z 23006KT 6000 -RA FEW015CB BKN016 25/24 Q1010 TEMPO TL0130 -RA
METAR WADD 130000Z 30008KT 5000 -RA FEW015CB BKN016 27/24 Q1010 TEMPO TL0100 -RA RMK CB IN CLIMB-OUT
METAR WADD 122330Z 33006KT 5000 -RA FEW014CB BKN015 28/24 Q1010 TEMPO TL2430 -RA RMK CB IN CLIMB-OUT
METAR WADD 122300Z 34006KT 8000 SCT016 27/25 Q1009 NOSIG
METAR WADD 122230Z 33005KT 9999 FEW017 27/25 Q1009 NOSIG</description><pubDate>Thu, 13 Nov 2025 22:26:43 </pubDate></item></channel></rss>