<rss version="2.0"><channel><title>Aviation Weather METAR Data for WADD</title><link>https://aviationweather.gov/api/data/metar?ids=WADD&amp;hours=24</link><description>Latest METAR data for WADD</description><item><title>2026-06-23 23:16:05Z</title><link>https://aviationweather.gov/api/data/metar?ids=WADD&amp;hours=24</link><description>METAR WADD 232300Z 07006KT 040V100 9999 SCT017 26/25 Q1013 NOSIG
METAR WADD 232230Z 09007KT 9999 FEW017 26/25 Q1012 NOSIG
METAR WADD 232200Z 08008KT 9999 FEW015CB SCT016 26/24 Q1012 RERA NOSIG
METAR WADD 232130Z 06007KT 6000 -RA FEW015CB BKN016 26/25 Q1012 NOSIG
METAR WADD 232100Z 07008KT 6000 -RA FEW015CB BKN016 26/25 Q1012 NOSIG
METAR WADD 232030Z 07010KT 020V090 6000 -RA FEW015CB BKN016 25/25 Q1012 NOSIG
METAR WADD 232000Z 08013KT 4000 RA FEW015CB BKN016 26/24 Q1011 TEMPO TL2100 4000 RA
SPECI WADD 231949Z 09011KT 4000 RA FEW015CB BKN016 27/25 Q1011 TEMPO TL2030 4000 RA
SPECI WADD 231936Z 10011KT 060V150 6000 -RA FEW015CB SCT016 27/25 Q1012 NOSIG
METAR WADD 231930Z 13013KT 9999 FEW015CB SCT016 27/25 Q1011 NOSIG
METAR WADD 231900Z 12011KT 9999 FEW017 27/25 Q1012 NOSIG
METAR WADD 231830Z 13009KT 9999 FEW017 27/25 Q1012 NOSIG
METAR WADD 231800Z 12009KT 9999 FEW017 27/25 Q1012 NOSIG
METAR WADD 231730Z 13011KT 9999 FEW017 27/25 Q1012 NOSIG
METAR WADD 231700Z 13011KT 9999 FEW017 27/25 Q1012 NOSIG
METAR WADD 231630Z 13011KT 9999 FEW017 27/25 Q1012 NOSIG
METAR WADD 231600Z 13010KT 9999 FEW017 27/25 Q1013 NOSIG
METAR WADD 231530Z 13011KT 9999 FEW017 27/25 Q1012 NOSIG
METAR WADD 231500Z 13010KT 9999 FEW017 27/25 Q1012 NOSIG
METAR WADD 231430Z 13011KT 9999 FEW017 27/25 Q1012 NOSIG
METAR WADD 231400Z 13011KT 9999 FEW017 27/25 Q1012 NOSIG
METAR WADD 231330Z 12009KT 9999 FEW017 27/25 Q1012 NOSIG
METAR WADD 231300Z 13009KT 9999 FEW017 27/25 Q1012 NOSIG
METAR WADD 231230Z 13010KT 9999 FEW017 27/25 Q1012 NOSIG
METAR WADD 231200Z 13011KT 9999 FEW017 27/25 Q1011 NOSIG
METAR WADD 231130Z 12011KT 9999 FEW017 27/24 Q1011 NOSIG
METAR WADD 231100Z 12012KT 9999 FEW017 27/25 Q1010 NOSIG
METAR WADD 231030Z 12012KT 9999 FEW017 27/25 Q1010 NOSIG
METAR WADD 231000Z 12014KT 9999 FEW017 28/25 Q1010 NOSIG
METAR WADD 230930Z 11014KT 9999 FEW017 28/24 Q1010 NOSIG
METAR WADD 230900Z 11015KT 9999 FEW017 29/25 Q1010 NOSIG
METAR WADD 230830Z 11016KT 9999 FEW017 29/25 Q1009 NOSIG
METAR WADD 230800Z 12015KT 9999 FEW017 29/25 Q1009 NOSIG
METAR WADD 230730Z 12015KT 9999 FEW017 29/25 Q1009 NOSIG
METAR WADD 230700Z 12016KT 9999 FEW017 30/25 Q1009 NOSIG
METAR WADD 230630Z 12016KT 9999 FEW017 30/24 Q1010 NOSIG
METAR WADD 230600Z 11013KT 9999 FEW017 30/24 Q1010 NOSIG
METAR WADD 230530Z 13012KT 9999 FEW017 30/25 Q1010 NOSIG
METAR WADD 230500Z 13013KT 9999 FEW017 30/25 Q1011 NOSIG
METAR WADD 230430Z 13014KT 9999 FEW017 30/25 Q1011 NOSIG
METAR WADD 230400Z 12012KT 9999 FEW017 30/25 Q1012 NOSIG
METAR WADD 230330Z 11012KT 9999 FEW016 30/25 Q1012 NOSIG
METAR WADD 230300Z 11011KT 080V140 9999 FEW016 30/24 Q1012 NOSIG
METAR WADD 230230Z 10009KT 060V130 9999 FEW016 31/24 Q1013 NOSIG
METAR WADD 230200Z 11009KT 9999 FEW016 30/25 Q1013 NOSIG
METAR WADD 230130Z 10008KT 9999 FEW016 30/25 Q1013 NOSIG
METAR WADD 230100Z 10010KT 9999 FEW016 29/25 Q1013 NOSIG
METAR WADD 230030Z 09009KT 9999 FEW017 29/25 Q1013 NOSIG
METAR WADD 230000Z 10009KT 9999 FEW017 28/25 Q1013 NOSIG
METAR WADD 222330Z 11008KT 9999 BKN016 27/25 Q1012 NOSIG</description><pubDate>Tue, 23 Jun 2026 23:16:05 </pubDate></item></channel></rss>