<rss version="2.0"><channel><title>Aviation Weather METAR Data for WADD</title><link>https://aviationweather.gov/api/data/metar?ids=WADD&amp;hours=24</link><description>Latest METAR data for WADD</description><item><title>2025-02-18 03:26:26Z</title><link>https://aviationweather.gov/api/data/metar?ids=WADD&amp;hours=24</link><description>WADD 180300Z 15003KT 9999 SCT016 29/27 Q1011 NOSIG
WADD 180230Z 18005KT 9999 SCT016 29/27 Q1011 NOSIG
WADD 180200Z 13005KT 100V170 9999 FEW015CB BKN016 29/26 Q1012 NOSIG
WADD 180130Z 12004KT 050V160 9999 FEW015CB SCT016 29/26 Q1012 NOSIG
WADD 180100Z VRB02KT 9999 FEW015CB SCT016 28/26 Q1012 RETS NOSIG
WADD 180030Z 25004KT 9999 TS FEW015CB SCT016 27/25 Q1011 TEMPO TL0130 TS
WADD 180000Z 28007KT 8000 -TSRA FEW015CB BKN016 27/25 Q1011 TEMPO TL0100 -TSRA
WADD 172330Z 02005KT 330V060 9999 FEW015CB SCT016 27/25 Q1011 NOSIG
WADD 172300Z 01005KT 320V040 9999 SCT016 26/25 Q1010 NOSIG
WADD 172230Z 28004KT 9999 BKN016 27/25 Q1010 NOSIG
WADD 172200Z 27006KT 9999 SCT016 27/25 Q1010 NOSIG
WADD 172130Z 27006KT 9999 FEW017 27/25 Q1010 NOSIG
WADD 172100Z 27004KT 9999 FEW017 27/25 Q1009 NOSIG
WADD 172030Z 28004KT 9999 FEW017 26/25 Q1009 NOSIG
WADD 172000Z 28002KT 9999 FEW017 27/25 Q1009 NOSIG
WADD 171930Z 32003KT 9999 FEW017 27/25 Q1010 NOSIG
WADD 171900Z 03003KT 9999 SCT016 27/26 Q1010 NOSIG
WADD 171830Z 26002KT 9999 BKN016 27/25 Q1010 NOSIG
WADD 171800Z VRB02KT 9999 BKN016 26/25 Q1010 NOSIG
WADD 171730Z VRB02KT 9999 FEW017 27/25 Q1010 NOSIG
WADD 171700Z 25003KT 9999 SCT016 27/25 Q1011 NOSIG
WADD 171630Z 24003KT 9999 FEW016 27/26 Q1011 RERA NOSIG
WADD 171600Z 22002KT 7000 -RA FEW014CB BKN014 28/26 Q1011 TEMPO TL1700 7000 -RA RMK CB IN APCH AND CLIMB-OUT
WADD 171530Z VRB01KT 9999 FEW014CB SCT015 27/26 Q1012 NOSIG RMK CB IN CLIMB-OUT
WADD 171500Z VRB02KT 9999 FEW017 28/27 Q1012 NOSIG
WADD 171430Z 15004KT 9999 FEW017 28/27 Q1011 NOSIG
WADD 171400Z 12003KT 9999 SCT016 28/26 Q1011 NOSIG
WADD 171330Z 13005KT 9999 SCT016 28/27 Q1011 NOSIG
WADD 171300Z 13004KT 9999 SCT016 28/27 Q1011 NOSIG
WADD 171230Z 13005KT 9999 FEW016 28/27 Q1010 NOSIG
WADD 171200Z 13004KT 9999 FEW017 28/27 Q1010 NOSIG
WADD 171130Z 11005KT 9999 FEW016 28/27 Q1010 NOSIG
WADD 171100Z 11005KT 9999 FEW017 28/26 Q1010 NOSIG
WADD 171030Z 11007KT 9999 FEW017 29/26 Q1009 NOSIG
WADD 171000Z 10007KT 9999 FEW017 29/26 Q1009 NOSIG
WADD 170931Z 11006KT 9999 FEW016 29/26 Q1008 NOSIG
WADD 170930Z 11006KT 9999 FEW016 29/26 Q1008 NOSIG
WADD 170900Z 11007KT 9999 FEW016 29/26 Q1008 NOSIG
WADD 170830Z 10005KT 9999 SCT016 29/25 Q1008 NOSIG
WADD 170800Z 11005KT 080V140 9999 SCT016 29/25 Q1008 NOSIG
WADD 170730Z 08007KT 9999 SCT016 29/26 Q1008 NOSIG
WADD 170700Z 09007KT 9999 SCT016 30/26 Q1008 NOSIG
WADD 170630Z 11007KT 070V130 9999 FEW016CB SCT016 31/25 Q1008 NOSIG
WADD 170600Z 11007KT 9999 FEW016CB SCT016 31/26 Q1009 NOSIG
WADD 170530Z 11008KT 9999 FEW016 31/25 Q1009 NOSIG
WADD 170500Z 12007KT 090V180 9999 FEW016 30/25 Q1009 NOSIG
WADD 170430Z 13004KT 060V180 9999 FEW017 30/25 Q1010 NOSIG
WADD 170400Z 26004KT 230V310 9999 FEW016 29/25 Q1010 NOSIG
WADD 170330Z 27007KT 9999 FEW017 29/25 Q1011 NOSIG</description><pubDate>Tue, 18 Feb 2025 03:26:26 </pubDate></item></channel></rss>