<rss version="2.0"><channel><title>Aviation Weather METAR Data for WADD</title><link>https://aviationweather.gov/api/data/metar?ids=WADD&amp;hours=24</link><description>Latest METAR data for WADD</description><item><title>2026-02-05 08:03:57Z</title><link>https://aviationweather.gov/api/data/metar?ids=WADD&amp;hours=24</link><description>METAR WADD 050730Z 24010KT 9999 FEW015CB FEW016 31/25 Q1008 NOSIG
METAR WADD 050700Z 25009KT 9999 FEW015CB SCT016 30/25 Q1008 NOSIG
METAR WADD 050630Z 26007KT 230V300 9999 FEW015CB SCT016 30/25 Q1008 N OSIG
METAR WADD 050600Z 25007KT 210V280 9999 SCT016 30/25 Q1009 NOSIG
METAR WADD 050530Z 25007KT 220V290 9999 FEW016CB SCT017 30/26 Q1009 N OSIG
METAR WADD 050500Z 27009KT 230V300 9999 FEW016CB SCT017 30/25 Q1009 N OSIG
METAR WADD 050430Z 28010KT 9999 FEW016CB SCT017 31/25 Q1009 NOSIG
METAR WADD 050400Z 29010KT 9999 FEW016CB SCT017 30/25 Q1009 NOSIG
METAR WADD 050330Z 28010KT 9999 FEW016CB SCT017 30/25 Q1010 NOSIG
METAR WADD 050300Z 29011KT 9999 FEW016CB SCT017 30/25 Q1010 NOSIG
METAR WADD 050230Z 30011KT 9999 FEW016CB SCT017 30/25 Q1010 NOSIG
METAR WADD 050200Z 31010KT 9999 FEW016CB SCT017 30/25 Q1010 NOSIG
METAR WADD 050130Z 27012KT 9999 FEW016CB SCT016 29/25 Q1010 NOSIG
METAR WADD 050100Z 27011KT 9999 FEW017 29/25 Q1010 NOSIG
METAR WADD 050030Z 27011KT 9999 SCT016 28/25 Q1010 NOSIG
METAR WADD 050000Z 27009KT 9999 SCT016 28/25 Q1010 NOSIG
METAR WADD 042330Z 26007KT 9999 SCT016 27/24 Q1010 NOSIG
METAR WADD 042300Z 25006KT 9999 FEW015CB SCT016 26/23 Q1009 NOSIG
METAR WADD 042230Z 25011KT 9999 FEW015CB BKN016 26/24 Q1009 NOSIG
METAR WADD 042200Z 28010KT 9999 FEW015CB BKN016 27/25 Q1009 NOSIG
METAR WADD 042130Z 27012KT 9999 FEW015CB BKN016 27/24 Q1009 NOSIG
METAR WADD 042100Z 28010KT 9999 FEW015CB BKN016 27/24 Q1009 NOSIG
METAR WADD 042030Z 29008KT 9999 SCT016 27/24 Q1009 NOSIG
METAR WADD 042000Z 32007KT 9999 SCT016 27/24 Q1009 NOSIG
METAR WADD 041930Z 31007KT 9999 SCT016 27/25 Q1009 NOSIG
METAR WADD 041900Z 28012KT 9999 SCT016 27/24 Q1009 NOSIG
METAR WADD 041830Z 28010KT 9999 SCT016 27/24 Q1009 NOSIG
METAR WADD 041800Z 28012KT 9999 SCT016 27/24 Q1009 NOSIG
METAR WADD 041730Z 28011KT 9999 SCT016 27/25 Q1009 NOSIG
METAR WADD 041700Z 27011KT 9999 FEW015CB SCT016 27/24 Q1009 NOSIG
METAR WADD 041630Z 27012KT 9999 FEW015CB SCT016 27/24 Q1009 NOSIG
METAR WADD 041600Z 28013KT 9999 FEW015CB SCT016 27/24 Q1010 NOSIG
METAR WADD 041530Z 28013KT 9999 FEW015CB SCT016 27/24 Q1010 NOSIG
METAR WADD 041500Z 28013KT 9999 FEW014CB BKN015 27/25 Q1010 NOSIG RMK CB IN APCH
METAR WADD 041430Z 28012KT 9999 FEW014CB BKN015 27/25 Q1010 NOSIG RMK CB IN APCH
METAR WADD 041330Z 25008KT 9999 FEW014CB BKN015 27/25 Q1010 RERA NOSIG RMK CB IN APCH AND CLIMB-OUT
METAR WADD 041300Z 22003G14KT 6000 -RA FEW014CB BKN015 26/24 Q1010 TEMPO TL1400 6000 -RA RMK CB IN APCH
METAR WADD 041230Z 26007KT 9999 FEW015CB SCT016 28/24 Q1010 NOSIG
METAR WADD 041200Z 26008KT 9999 SCT016 28/25 Q1009 NOSIG
METAR WADD 041130Z 26007KT 9999 SCT015 28/25 Q1009 NOSIG
METAR WADD 041100Z 26008KT 9999 SCT015 28/25 Q1009 NOSIG
METAR WADD 041030Z 26009KT 9999 FEW016 28/25 Q1009 NOSIG
METAR WADD 041000Z 26010KT 9999 FEW016 29/25 Q1008 NOSIG
METAR WADD 040930Z 26010KT 9999 FEW016 29/25 Q1008 NOSIG
METAR WADD 040900Z 26007KT 9999 SCT016 29/25 Q1009 NOSIG
METAR WADD 040830Z 26011KT 9999 FEW016 30/25 Q1008 NOSIG</description><pubDate>Thu, 05 Feb 2026 08:03:57 </pubDate></item></channel></rss>