<rss version="2.0"><channel><title>Aviation Weather METAR Data for WADD</title><link>https://aviationweather.gov/api/data/metar?ids=WADD&amp;hours=24</link><description>Latest METAR data for WADD</description><item><title>2025-04-11 18:34:37Z</title><link>https://aviationweather.gov/api/data/metar?ids=WADD&amp;hours=24</link><description>WADD 111600Z 05004KT 9999 SCT016 27/25 Q1010 NOSIG
WADD 111530Z 08003KT 9999 FEW015CB SCT016 26/25 Q1010 NOSIG
WADD 111500Z 09005KT 9999 FEW015CB SCT016 26/26 Q1010 NOSIG
WADD 111430Z 09004KT 9999 FEW015CB FEW016 27/26 Q1010 NOSIG
WADD 111400Z 05007KT 9999 FEW015CB SCT016 26/25 Q1010 NOSIG
WADD 111330Z 06008KT 9999 FEW015CB SCT016 26/25 Q1010 NOSIG
WADD 111300Z 07015KT 7000 RA FEW015CB BKN016 26/26 Q1010 TEMPO TL1400 RA RMK CB IN APCH AND CLIMB-OUT
WADD 111230Z 11010KT 9999 FEW015CB SCT016 29/28 Q1010 NOSIG
WADD 111200Z 12008KT 9999 SCT016 29/28 Q1009 NOSIG
WADD 111130Z 12009KT 9999 SCT017 29/28 Q1009 NOSIG
WADD 111100Z 13005KT 9999 SCT017 29/28 Q1008 NOSIG
WADD 111030Z 14009KT 9999 SCT017 29/28 Q1008 NOSIG
WADD 111000Z 13010KT 9999 SCT017 29/28 Q1008 NOSIG
WADD 110930Z 13012KT 9999 SCT017 30/28 Q1007 NOSIG
WADD 110900Z 14013KT 9999 SCT017 30/27 Q1007 NOSIG
WADD 110830Z 14011KT 9999 FEW017 30/28 Q1006 NOSIG
WADD 110800Z 13011KT 9999 FEW017 30/28 Q1006 NOSIG
WADD 110730Z 14011KT 9999 FEW017 31/28 Q1006 NOSIG
WADD 110700Z 12010KT 9999 FEW017 31/28 Q1006 NOSIG
WADD 110630Z 13013KT 9999 FEW017 31/28 Q1007 NOSIG
WADD 110600Z 13011KT 9999 FEW017 31/28 Q1007 NOSIG
WADD 110430Z 12009KT 9999 FEW017 31/27 Q1008 NOSIG
WADD 110100Z 07007KT 9999 FEW015CB FEW017 29/28 Q1010 NOSIG
WADD 110030Z 08006KT 9999 SCT016 28/27 Q1010 NOSIG
WADD 110000Z 06004KT 040V120 9999 SCT016 27/27 Q1010 RERA NOSIG
WADD 102330Z VRB02KT 7000 -RA FEW015CB SCT015 25/25 Q1010 TEMPO TL0030 7000 -RA
WADD 102300Z 09004KT 050V130 5000 -TSRA FEW014CB BKN015 25/24 Q1009 TEMPO TL2400 5000 -TSRA RMK CB IN APCH
WADD 102230Z 13016KT 4000 -TSRA FEW013CB BKN014 25/25 Q1009 TEMPO TL2300 4000 -TSRA RMK CB IN APCH AND CLIMB-OUT
WADD 102200Z 05007KT 010V070 1500 TSRA FEW013CB BKN014 25/25 Q1008 TEMPO TL2300 1500 TSRA RMK CB IN APCH AND CLIMB-OUT
WADD 102130Z 07008KT 4000 -TSRA FEW014CB BKN015 25/25 Q1008 TEMPO TL2230 4000 -TSRA RMK CB IN APCH AND CLIMB-OUT
WADD 102100Z 06008KT 010V080 5000 -TSRA FEW014CB BKN015 25/25 Q1007 NOSIG TEMPO TL2200 5000 -TSRA RMK CB IN APCH AND CLIMB-OUT
WADD 102030Z 14007KT 090V200 5000 -TSRA FEW014CB BKN015 25/25 Q1007 TEMPO TL2100 5000 -TSRA RMK CB IN APCH AND CLIMB-OUT
WADD 102000Z 11008KT 070V140 2000 +TSRA FEW012CB BKN013 25/25 Q1008 TEMPO TL2100 2000 +TSRA RMK CB IN APCH AND CLIMB-OUT
WADD 101930Z 13007KT 9999 -TSRA FEW014CB BKN015 26/26 Q1008 TEMPO TL2000 5000 -TSRA RMK CB IN APCH AND CLIMB-OUT
WADD 101900Z 08005KT 6000 FEW014CB BKN015 25/25 Q1008 RERA NOSIG RMK CB IN APCH AND CLIMB-OUT</description><pubDate>Fri, 11 Apr 2025 18:34:37 </pubDate></item></channel></rss>