<rss version="2.0"><channel><title>Aviation Weather METAR Data for WADD</title><link>https://aviationweather.gov/api/data/metar?ids=WADD&amp;hours=24</link><description>Latest METAR data for WADD</description><item><title>2025-08-22 05:43:50Z</title><link>https://aviationweather.gov/api/data/metar?ids=WADD&amp;hours=24</link><description>WADD 220530Z 13009KT 9999 SCT017 29/23 Q1011 NOSIG
WADD 220500Z 10010KT 9999 SCT017 29/23 Q1011 NOSIG
WADD 220430Z 10010KT 9999 SCT017 29/23 Q1012 NOSIG
WADD 220400Z 11009KT 9999 FEW017 30/23 Q1012 NOSIG
WADD 220330Z 10009KT 9999 FEW017 29/23 Q1012 NOSIG
WADD 220300Z 11010KT 9999 FEW017 29/23 Q1013 NOSIG
WADD 220230Z 11008KT 9999 FEW017 28/24 Q1013 NOSIG
WADD 220200Z 11006KT 080V140 9999 28/24 Q1013 NOSIG
WADD 220130Z 11004KT 9999 FEW017 27/24 Q1013 NOSIG
WADD 220100Z 06004KT 030V100 9999 SCT017 26/23 Q1013 NOSIG
WADD 220030Z 35003KT 9999 SCT017 25/22 Q1013 NOSIG
WADD 220000Z 35003KT 9999 FEW017 25/22 Q1012 NOSIG
WADD 212330Z VRB01KT 9999 FEW017 25/22 Q1012 NOSIG
WADD 212300Z VRB02KT 9999 FEW017 24/21 Q1012 NOSIG
WADD 212230Z 13003KT 9999 SCT017 24/22 Q1012 NOSIG
WADD 212200Z VRB02KT 9999 SCT017 24/21 Q1011 NOSIG
WADD 212130Z 02004KT 9999 SCT017 23/21 Q1011 NOSIG
WADD 212100Z 36004KT 9999 SCT017 23/21 Q1011 NOSIG
WADD 212030Z 01003KT 9999 SCT017 24/22 Q1011 NOSIG
WADD 212000Z 36004KT 9999 SCT017 24/22 Q1011 NOSIG
WADD 211930Z 01005KT 9999 SCT017 24/23 Q1011 NOSIG
WADD 211900Z 07006KT 9999 SCT017 25/23 Q1011 NOSIG
WADD 211830Z 09004KT 060V120 9999 SCT017 26/24 Q1012 NOSIG
WADD 211800Z 10005KT 9999 SCT017 26/23 Q1012 NOSIG
WADD 211730Z 10005KT 9999 SCT017 26/24 Q1012 NOSIG
WADD 211700Z 15004KT 9999 SCT017 26/24 Q1012 NOSIG
WADD 211630Z 13005KT 9999 SCT017 26/24 Q1013 NOSIG
WADD 211600Z 13006KT 9999 SCT017 26/24 Q1013 NOSIG
WADD 211530Z 13007KT 9999 SCT017 26/24 Q1013 NOSIG
WADD 211500Z 12007KT 9999 FEW017 26/24 Q1013 NOSIG
WADD 211430Z 13006KT 9999 FEW017 26/24 Q1013 NOSIG
WADD 211400Z 14005KT 9999 FEW017 26/24 Q1013 NOSIG
WADD 211330Z 13006KT 9999 FEW017 27/24 Q1012 NOSIG
WADD 211300Z 13008KT 9999 FEW017 27/24 Q1012 NOSIG
WADD 211230Z 13008KT 9999 FEW017 27/24 Q1012 NOSIG
WADD 211200Z 12008KT 9999 FEW017 27/24 Q1012 NOSIG
WADD 211130Z 13010KT 9999 FEW017 27/24 Q1011 NOSIG
WADD 211100Z 13010KT 9999 FEW017 27/23 Q1011 NOSIG
WADD 211030Z 13011KT 9999 FEW017 27/24 Q1011 NOSIG
WADD 211000Z 13011KT 9999 FEW017 28/23 Q1010 NOSIG
WADD 210930Z 13011KT 9999 FEW017 28/23 Q1010 NOSIG
WADD 210900Z 12011KT 9999 FEW017 29/22 Q1010 NOSIG
WADD 210830Z 14012KT 9999 FEW017 29/23 Q1010 NOSIG
WADD 210800Z 15013KT 9999 FEW017 29/24 Q1010 NOSIG
WADD 210730Z 14012KT 9999 FEW017 29/23 Q1010 NOSIG
WADD 210700Z 13012KT 9999 FEW017 30/23 Q1010 NOSIG
WADD 210630Z 12011KT 9999 FEW017 30/23 Q1011 NOSIG
WADD 210600Z 10012KT 9999 FEW017 30/23 Q1011 NOSIG</description><pubDate>Fri, 22 Aug 2025 05:43:50 </pubDate></item></channel></rss>