<rss version="2.0"><channel><title>Aviation Weather METAR Data for WADD</title><link>https://aviationweather.gov/api/data/metar?ids=WADD&amp;hours=24</link><description>Latest METAR data for WADD</description><item><title>2025-11-15 22:22:26Z</title><link>https://aviationweather.gov/api/data/metar?ids=WADD&amp;hours=24</link><description>METAR WADD 152200Z 34003KT 9999 FEW017 26/23 Q1010 NOSIG
METAR WADD 152130Z 32005KT 9999 FEW017 26/24 Q1009 NOSIG
METAR WADD 152100Z 30004KT 9999FEW017 26/24 Q1009 NOSIG
METAR WADD 152030Z 29003KT 9999 FEW017 26/23 Q1009 NOSIG
METAR WADD 152000Z 33003KT 9999 FEW017 26/23 Q1009 NOSIG
METAR WADD 151930Z 33004KT 9999 FEW017 26/23 Q1009 NOSIG
METAR WADD 151900Z 33006KT 9999 FEW017 26/24 Q1009 NOSIG
METAR WADD 151830Z 32007KT 9999 FEW017 27/24 Q1009 NOSIG
METAR WADD 151800Z 28006KT 9999 FEW017 27/24 Q1009 NOSIG
METAR WADD 151730Z VRB02KT 9999 FEW017 28/24 Q1009 NOSIG
METAR WADD 151700Z 24003KT 9999 FEW017 28/23 Q1010 NOSIG
METAR WADD 151630Z 24002KT 9999 FEW017 27/23 Q1010 NOSIG
METAR WADD 151600Z VRB02KT 9999 FEW017 27/23 Q1011 NOSIG
METAR WADD 151530Z 24002KT 9999 FEW017 27/23 Q1011 NOSIG
METAR WADD 151500Z 24002KT 9999 FEW017 27/23 Q1011 NOSIG
METAR WADD 151430Z 25002KT 9999 FEW016 28/23 Q1011 NOSIG
METAR WADD 151400Z 23004KT 200V270 9999 FEW016 29/23 Q1011 NOSIG
METAR WADD 151330Z 23003KT 9999 SCT016 29/23 Q1011 NOSIG
METAR WADD 151300Z 22003KT 9999 SCT016 29/23 Q1011 NOSIG
METAR WADD 151230Z 23004KT 180V270 9999 SCT016 29/23 Q1011 NOSIG
METAR WADD 151200Z 24003KT 9999 SCT016 29/23 Q1010 NOSIG
METAR WADD 151130Z 24003KT 9999 SCT016 29/23 Q1010 NOSIG
METAR WADD 151100Z 23004KT 190V250 9999 SCT016 29/23 Q1009 NOSIG
METAR WADD 151030Z 23005KT 200V270 9999 SCT016 29/23 Q1009 NOSIG
METAR WADD 151000Z 23006KT 180V270 9999 SCT016 29/23 Q1009 NOSIG
METAR WADD 150930Z 25007KT 9999 SCT016 29/23 Q1008 NOSIG
METAR WADD 150900Z 25006KT 9999 FEW017 29/23 Q1008 NOSIG
METAR WADD 150830Z 26008KT 9999 FEW016 29/23 Q1007 NOSIG
METAR WADD 150800Z 26009KT 9999 FEW017 30/24 Q1007 NOSIG
METAR WADD 150730Z 26009KT 220V280 9999 FEW017 30/24 Q1008 NOSIG
METAR WADD 150700Z 27011KT 9999 FEW017 30/23 Q1007 NOSIG
METAR WADD 150630Z 26011KT 9999 FEW017 30/24 Q1008 NOSIG
METAR WADD 150600Z 26010KT 220V280 9999 FEW017 31/24 Q1008 NOSIG
METAR WADD 150530Z 26009KT 9999 FEW017 31/24 Q1008 NOSIG
METAR WADD 150500Z 25010KT 9999 FEW017 31/24 Q1009 NOSIG
METAR WADD 150430Z 27010KT 9999 FEW017 30/24 Q1009 NOSIG
METAR WADD 150400Z 26009KT 9999 FEW016 30/24 Q1009 NOSIG
METAR WADD 150330Z 26008KT 9999 FEW016 30/24 Q1010 NOSIG
METAR WADD 150300Z 26008KT 230V290 9999 FEW016 30/24 Q1010 NOSIG
METAR WADD 150230Z 26008KT 220V290 9999 FEW016 30/24 Q1010 NOSIG
METAR WADD 150200Z 26008KT 230V290 9999 FEW016 30/24 Q1010 NOSIG
METAR WADD 150130Z 26007KT 220V290 9999 FEW016 30/24 Q1011 NOSIG
METAR WADD 150100Z 26006KT 220V290 9999 SCT016 30/24 Q1010 NOSIG
METAR WADD 150030Z 25007KT 9999 SCT016 30/24 Q1010 NOSIG
METAR WADD 150000Z VRB03KT 9999 SCT016 29/25 Q1010 NOSIG
METAR WADD 142330Z VRB01KT 9999 BKN016 28/23 Q1010 RERA NOSIG
METAR WADD 142300Z 24008G16KT 8000 -RA FEW015CB BKN016 27/22 Q1010 TEMPO TL2400 -RA RMK CB OVER THE FIELD
METAR WADD 142230Z 25005KT 210V280 9999 FEW015CB BKN016 28/24 Q1009 N OSIG</description><pubDate>Sat, 15 Nov 2025 22:22:26 </pubDate></item></channel></rss>