<rss version="2.0"><channel><title>Aviation Weather METAR Data for WADD</title><link>https://aviationweather.gov/api/data/metar?ids=WADD&amp;hours=24</link><description>Latest METAR data for WADD</description><item><title>2026-01-12 17:47:04Z</title><link>https://aviationweather.gov/api/data/metar?ids=WADD&amp;hours=24</link><description>METAR WADD 121730Z COR VRB02KT 9999 TS FEW015CB SCT015 25/24 Q1008 NOSIG
METAR WADD 121700Z 34005KT 300V360 8000 -TSRA FEW015CB BKN015 25/24 Q1009 TEMPO TL1800 8000 -TSRA
METAR WADD 121630Z 32006KT 280V360 4000 RA FEW015CB BKN015 25/24 Q1010 TEMPO TL1730 5000 RA RMK CB IN APCH AND CLIMB-OUT
METAR WADD 121600Z 30007KT 3000 RA FEW015CB BKN015 26/24 Q1010 TEMPO TL1700 5000 RA RMK CB IN APCH
METAR WADD 121530Z 30005KT 8000 FEW015CB BKN015 27/24 Q1010 NOSIG RMK CB IN CLIMB-OUT
METAR WADD 121500Z 27003KT 9999 FEW016CB SCT016 27/23 Q1010 NOSIG
METAR WADD 121430Z VRB02KT 9999 FEW016CB SCT016 26/24 Q1010 NOSIG
METAR WADD 121400Z 06003KT 9999 FEW016CB FEW016 26/24 Q1010 NOSIG
METAR WADD 121330Z 05004KT 020V100 9999 FEW016 27/24 Q1010 NOSIG
METAR WADD 121300Z VRB02KT 9999 FEW016 27/24 Q1010 NOSIG
METAR WADD 121230Z VRB02KT 9999 FEW016 27/24 Q1009 NOSIG
METAR WADD 121200Z 08004KT 050V110 9999 FEW016 26/24 Q1009 NOSIG
METAR WADD 121130Z 08005KT 9999 SCT016 27/24 Q1009 NOSIG
METAR WADD 121100Z 05005KT 340V080 9999 FEW017 27/24 Q1008 NOSIG
METAR WADD 121030Z 03004KT 340V070 9999 FEW017 28/24 Q1008 NOSIG
METAR WADD 121000Z 34004KT 9000 FEW015CB SCT016 28/24 Q1008 RERA NOSI G
METAR WADD 120930Z 31005KT 280V360 7000 -RA FEW015CB SCT016 27/24 Q1007 NOSIG RMK CB IN APCH
METAR WADD 120900Z 33010KT 7000 -RA FEW015CB BKN016 29/23 Q1007 TEMPO TL1000 4000 RA RMK CB IN APCH AND CLIMB-OUT
METAR WADD 120830Z 32009KT 280V360 9999 FEW015CB SCT016 30/24 Q1007 NOSIG RMK CB IN APCH
METAR WADD 120800Z 25007KT 9999 FEW015CB SCT016 30/24 Q1007 NOSIG
METAR WADD 120730Z 25007KT 9999 FEW017 31/25 Q1007 NOSIG
METAR WADD 120700Z 28010KT 9999 FEW017 31/24 Q1007 NOSIG
METAR WADD 120630Z 28011KT 9999 FEW017 31/24 Q1007 NOSIG
METAR WADD 120600Z 30013KT 9999 FEW017 31/24 Q1008 NOSIG
METAR WADD 120530Z 29015KT 9999 SCT016 31/23 Q1008 NOSIG
METAR WADD 120500Z 28009KT 9999 FEW017 31/24 Q1008 NOSIG
METAR WADD 120430Z 30009KT 9999 SCT016 30/24 Q1009 NOSIG
METAR WADD 120400Z 30009KT 260V330 9999 SCT016 29/24 Q1009 NOSI
METAR WADD 120300Z 30007KT 270V340 9999 SCT016 29/24 Q1010 NOSIG
METAR WADD 120230Z 36005KT 280V030 9999 SCT016 29/23 Q1010 NOSIG
METAR WADD 120200Z 01003KT 9999 SCT016 28/24 Q1010 NOSIG
METAR WADD 120130Z 01005KT 320V040 9999 SCT016 28/24 Q1010 NOSIG
METAR WADD 120100Z 03005KT 360V060 9999 SCT016 28/24 Q1010 NOSIG
METAR WADD 120030Z 02004KT 340V050 9999 SCT016 27/24 Q1010 NOSIG
METAR WADD 120000Z 03003KT 9999 FEW017 27/24 Q1010 NOSIG
METAR WADD 112330Z 05003KT 9999 FEW017 27/24 Q1009 NOSIG
METAR WADD 112300Z 02003KT 9999 FEW017 26/24 Q1009 NOSIG
METAR WADD 112230Z VRB02KT 9999 FEW017 25/23 Q1009 NOSIG
METAR WADD 112200Z 02002KT 9999 FEW017 25/23 Q1009 NOSIG
METAR WADD 112130Z 01005KT 9999 FEW017 25/22 Q1008 NOSIG
METAR WADD 112100Z 01005KT 9999 FEW017 26/23 Q1008 NOSIG
METAR WADD 112030Z 31006KT 290V010 9999 FEW017 27/23 Q1008 NOSIG
METAR WADD 112000Z 28011KT 9999 FEW017 27/23 Q1008 NOSIG
METAR WADD 111930Z 28010KT 9999 FEW017 27/23 Q1008 NOSIG
METAR WADD 111900Z 28008KT 9999 FEW017 27/22 Q1008 NOSIG
METAR WADD 111830Z 31006KT 9999 FEW017 27/23 Q1008 NOSIG
METAR WADD 111800Z 31003KT 9999 FEW017 26/24 Q1008 NOSIG</description><pubDate>Mon, 12 Jan 2026 17:47:04 </pubDate></item></channel></rss>