<rss version="2.0"><channel><title>Aviation Weather METAR Data for WADD</title><link>https://aviationweather.gov/api/data/metar?ids=WADD&amp;hours=24</link><description>Latest METAR data for WADD</description><item><title>2025-10-18 05:41:58Z</title><link>https://aviationweather.gov/api/data/metar?ids=WADD&amp;hours=24</link><description>METAR WADD 180530Z 15012KT 9999 FEW017 31/27 Q1006 NOSIG
METAR WADD 180500Z 14010KT 9999 FEW017 31/26 Q1006 NOSIG
METAR WADD 180430Z 13009KT 090V170 9999 FEW017 31/26 Q1007 NOSIG
METAR WADD 180400Z 11010KT 9999 FEW017 31/27 Q1007 NOSIG
METAR WADD 180330Z 10010KT 9999 FEW017 31/27 Q1008 NOSIG
METAR WADD 180300Z 10009KT 9999 SCT017 30/26 Q1008 NOSIG
METAR WADD 180230Z 11009KT 9999 SCT017 30/27 Q1008 NOSIG
METAR WADD 180200Z 11010KT 9999 SCT017 31/27 Q1008 NOSIG
METAR WADD 180130Z 11009KT 9999 SCT017 30/27 Q1009 NOSIG
 WADD 180100Z 12008KT 9999 SCT017 30/27 Q1009 NOSIG
 WADD 180030Z 10006KT 9999 SCT016 29/27 Q1009 NOSIG
METAR WADD 180000Z 09006KT 9999 SCT016 29/27 Q1009 NOSIG
METAR WADD 172330Z 36005KT 330V030 9999 SCT016 28/26 Q1008 NOSIG
METAR WADD 172300Z 36004KT 9999 SCT016 27/26 Q1008 NOSIG
METAR WADD 172230Z 36004KT 9999 SCT016 26/26 Q1008 NOSIG
METAR WADD 172200Z 36004KT 9999 SCT016 26/26 Q1008 NOSIG
METAR WADD 172130Z 35005KT 9999 BKN016 27/26 Q1008 NOSIG
METAR WADD 172100Z 33005KT 9999 FEW015CB BKN016 27/26 Q1008 RERA NOSIG
METAR WADD 172030Z 07008KT 8000 -RA FEW015CB BKN016 27/26 Q1007 TEMPO TL2130 -RA
METAR WADD 172000Z 07006KT 050V120 5000 RA FEW015CB BKN016 27/26 Q1007 TEMPO TL2100 5000 RA
METAR WADD 171930Z 09008KT 8000 -RA FEW015CB SCT016 28/27 Q1007 TEMPO TL2030 -RA
METAR WADD 171900Z 09003KT 9999 FEW015CB BKN016 27/26 Q1007 NOSIG
METAR WADD 171830Z 20004KT 9999 FEW015CB BKN016 27/27 Q1007 RERA NOSIG
METAR WADD 171800Z VRB07G13KT 7000 -RA FEW015CB BKN015 26/26 Q1007 TEMPO TL1900 -RA
METAR WADD 171730Z 17011KT 130V210 8000 -RA FEW015CB BKN015 26/25 Q1007 TEMPO TL1830 -RA
METAR WADD 171700Z 13009KT 4000 RA FEW015CB BKN016 27/26 Q1007 TEMPO TL1800 8000 -RA
METAR WADD 171630Z 14007KT 7000 -RA FEW015CB SCT016 28/27 Q1008 TEMPO TL1730 -RA
METAR WADD 171600Z 14007KT 9999 FEW015CB SCT016 28/27 Q1008 NOSIG
METAR WADD 171530Z 13006KT 9999 SCT017 28/27 Q1008 NOSIG
METAR WADD 171500Z 13007KT 9999 FEW017 28/27 Q1009 NOSIG
METAR WADD 171430Z 13007KT 9999 FEW017 29/27 Q1009 NOSIG
METAR WADD 171400Z 13008KT 9999 FEW017 29/27 Q1009 NOSIG
METAR WADD 171330Z 11007KT 9999 FEW017 29/27 Q1008 NOSIG
METAR WADD 171300Z 11009KT 9999 FEW017 29/27 Q1008 NOSIG
METAR WADD 171230Z 12010KT 9999 FEW017 29/27 Q1008 NOSIG
METAR WADD 171200Z 11010KT 9999 FEW017 29/27 Q1008 NOSIG
METAR WADD 171130Z 12010KT 9999 FEW017 29/26 Q1008 NOSIG
METAR WADD 171100Z 12010KT 9999 FEW017 29/26 Q1007 NOSIG
METAR WADD 171030Z 12011KT 9999 FEW017 29/26 Q1007 NOSIG
METAR WADD 171000Z 12014KT 9999 FEW017 29/26 Q1006 NOSIG
METAR WADD 170930Z 12015KT 9999 FEW017 30/26 Q1006 NOSIG
METAR WADD 170900Z 12015KT 9999 FEW017 30/26 Q1006 NOSIG
METAR WADD 170830Z 14019KT 9999 FEW017 30/27 Q1006 NOSIG
METAR WADD 170800Z 13019KT 9999 FEW017 30/26 Q1005 NOSIG
METAR WADD 170730Z 13021KT 9999 FEW017 31/26 Q1005 NOSIG
METAR WADD 170700Z 14021KT 9999 FEW017 31/26 Q1006 NOSIG
METAR WADD 170630Z 13018KT 9999 FEW017 31/26 Q1006 NOSIG
METAR WADD 170600Z 13019KT 9999 FEW017 31/26 Q1006 NOSIG</description><pubDate>Sat, 18 Oct 2025 05:41:58 </pubDate></item></channel></rss>