<rss version="2.0"><channel><title>Aviation Weather METAR Data for WADD</title><link>https://aviationweather.gov/api/data/metar?ids=WADD&amp;hours=24</link><description>Latest METAR data for WADD</description><item><title>2026-03-07 10:52:50Z</title><link>https://aviationweather.gov/api/data/metar?ids=WADD&amp;hours=24</link><description>METAR WADD 071030Z 26012KT 9999 FEW017 29/25 Q1006 NOSIG
METAR WADD 071000Z 25009KT 210V270 9999 FEW017 30/25 Q1006 NOSIG
METAR WADD 070930Z 25010KT 9999 FEW017 31/25 Q1005 NOSIG
METAR WADD 070900Z 25011KT 9999 FEW017 31/25 Q1005 NOSIG
METAR WADD 070830Z 25011KT 9999 FEW017 32/25 Q1005 NOSIG
METAR WADD 070800Z 26011KT 9999 FEW017 31/25 Q1005 NOSIG
METAR WADD 070730Z 26011KT 9999 FEW017 32/25 Q1005 NOSIG
METAR WADD 070700Z 26008KT 210V280 9999 FEW017 31/24 Q1005 NOSIG
METAR WADD 070630Z 26008KT 210V290 9999 FEW017 33/24 Q1005 NOSIG
METAR WADD 070600Z 26009KT 230V290 9999 FEW017 33/23 Q1005 NOSIG
METAR WADD 070530Z 27009KT 240V300 9999 FEW017 32/24 Q1005 NOSIG
METAR WADD 070500Z 28012KT 9999 FEW017 32/24 Q1005 NOSIG
METAR WADD 070430Z 28014KT 9999 FEW017 31/24 Q1006 NOSIG
METAR WADD 070400Z 29012KT 9999 FEW017 32/24 Q1006 NOSIG
METAR WADD 070330Z 29011KT 250V320 9999 FEW017 32/24 Q1006 NOSIG
METAR WADD 070300Z 29011KT 9999 FEW017 32/24 Q1006 NOSIG
METAR WADD 070230Z 30009KT 9999 FEW017 31/24 Q1007 NOSIG
METAR WADD 070200Z 30009KT 9999 FEW017 31/25 Q1007 NOSIG
METAR WADD 070130Z 28012KT 9999 FEW017 31/24 Q1007 NOSIG
METAR WADD 070100Z 28012KT 9999 FEW017 31/24 Q1007 NOSIG
METAR WADD 070030Z 27011KT 9999 FEW017 30/24 Q1007 NOSIG
METAR WADD 070000Z 29009KT 9999 FEW017 30/25 Q1007 NOSIG
METAR WADD 062330Z 29008KT 9999 FEW017 28/24 Q1006 NOSIG
METAR WADD 062300Z 28010KT 9999 FEW017 28/24 Q1006 NOSIG
METAR WADD 062230Z 29010KT 9999 FEW017 27/24 Q1005 NOSIG
METAR WADD 062200Z 28012KT 9999 FEW017 27/24 Q1005 NOSIG
METAR WADD 062130Z 28013KT 9999 FEW017 28/24 Q1005 NOSIG
METAR WADD 062100Z 28013KT 9999 FEW017 28/24 Q1005 NOSIG
METAR WADD 062030Z 29013KT 9999 FEW017 28/25 Q1005 NOSIG
METAR WADD 062000Z 29012KT 9999 FEW017 28/25 Q1005 NOSIG
METAR WADD 061930Z 28010KT 9999 FEW015CB SCT016 28/25 Q1005 NOSIG
METAR WADD 061900Z 30009KT 9999 FEW015CB SCT016 28/26 Q1005 NOSIG
METAR WADD 061830Z 28012KT 9999 FEW017 27/25 Q1005 NOSIG
METAR WADD 061800Z 29014KT 9999 FEW017 28/26 Q1005 NOSIG
METAR WADD 061730Z 30010KT 9999 FEW017 27/26 Q1005 NOSIG
METAR WADD 061700Z 29010KT 9999 FEW015CB FEW017 27/26 Q1006 NOSIG
METAR WADD 061630Z 28012KT 9999 FEW015CB BKN015 28/26 Q1006 NOSIG RMK CB IN CLIMB-OUT
METAR WADD 061600Z 29012KT 9999 FEW015CB FEW017 28/26 Q1006 NOSIG
METAR WADD 061530Z 28011KT 9999 FEW017 28/26 Q1006 NOSIG
METAR WADD 061500Z 29011KT 9999 FEW015CB SCT016 28/26 Q1006 NOSIG
SPECI WADD 061444Z 29010KT 9999 FEW015CB SCT015 28/26 Q1007 RERA NOSIG RMK CB IN APCH
METAR WADD 061430Z 30010KT 8000 -RA FEW015CB BKN015 28/26 Q1007 TEMPO TL1530 -RA RMK CB IN APCH
METAR WADD 061400Z 28018KT 9999 FEW015CB SCT015 29/26 Q1006 NOSIG RMK CB IN APCH
METAR WADD 061330Z 26016KT 9999 SCT017 29/26 Q1006 NOSIG
METAR WADD 061300Z 26014KT 9999 SCT017 29/26 Q1006 NOSIG
METAR WADD 061230Z 26011G21KT 9999 SCT017 29/26 Q1005 NOSIG
METAR WADD 061200Z 25012KT 9999 FEW017 29/26 Q1005 NOSIG
METAR WADD 061130Z 25012G21KT 9999 SCT017 29/26 Q1005 NOSIG
METAR WADD 061100Z 25012KT 9999 SCT017 29/26 Q1005 NOSIG</description><pubDate>Sat, 07 Mar 2026 10:52:50 </pubDate></item></channel></rss>