<rss version="2.0"><channel><title>Aviation Weather METAR Data for WADD</title><link>https://aviationweather.gov/api/data/metar?ids=WADD</link><description>Latest METAR data for WADD</description><item><title>2024-12-30 18:31:30Z</title><link>https://aviationweather.gov/api/data/metar?ids=WADD</link><description>WADD 301800Z 33004KT 280V340 9999 SCT016 27/25 Q1008 NOSIG</description><pubDate>Mon, 30 Dec 2024 18:31:30 </pubDate></item></channel></rss>