<rss version="2.0"><channel><title>Aviation Weather METAR Data for WADD</title><link>https://aviationweather.gov/api/data/metar?ids=WADD&amp;hours=24</link><description>Latest METAR data for WADD</description><item><title>2025-06-27 18:37:09Z</title><link>https://aviationweather.gov/api/data/metar?ids=WADD&amp;hours=24</link><description>WADD 271800Z 13017KT 9999 SCT016 27/25 Q1011 NOSIG
WADD 271730Z 13017KT 9999 SCT016 27/25 Q1011 NOSIG
WADD 271700Z 12017KT 9999 SCT016 27/25 Q1012 NOSIG
WADD 271630Z 13017KT 9999 BKN016 27/25 Q1012 NOSIG
WADD 271600Z 12014KT 9999 FEW016 27/25 Q1012 NOSIG
WADD 271530Z 12016KT 9999 FEW016 27/25 Q1012 NOSIG
WADD 271500Z 13018KT 9999 FEW016 27/25 Q1012 NOSIG
WADD 271430Z 13017KT 9999 FEW016 27/25 Q1012 NOSIG
WADD 271400Z 13018KT 9999 SCT016 27/25 Q1012 NOSIG
WADD 271330Z 12017KT 9999 SCT016 27/25 Q1012 NOSIG
WADD 271300Z 13018KT 9999 BKN016 27/25 Q1012 NOSIG
WADD 271230Z 13017KT 9999 BKN016 27/25 Q1012 NOSIG
WADD 271200Z 13017KT 9999 BKN016 27/25 Q1011 NOSIG
WADD 271130Z 12014KT 9999 SCT016 27/25 Q1011 NOSIG
WADD 271100Z 13015KT 9999 SCT016 27/25 Q1011 NOSIG
WADD 271030Z 13015KT 9999 SCT016 27/25 Q1010 NOSIG
WADD 271000Z 13015KT 9999 SCT016 27/25 Q1010 NOSIG
WADD 270930Z 12016KT 9999 SCT016 28/25 Q1010 NOSIG
WADD 270900Z 12020KT 9999 SCT016 28/25 Q1009 NOSIG
WADD 270830Z 12019KT 9999 SCT016 28/25 Q1009 NOSIG
WADD 270800Z 12019KT 9999 SCT016 29/26 Q1009 NOSIG
WADD 270730Z 12019KT 9999 FEW016 29/26 Q1009 NOSIG
WADD 270700Z 11019KT 9999 FEW016 29/26 Q1009 NOSIG
WADD 270630Z 12020KT 9999 SCT016 29/25 Q1009 NOSIG
WADD 270600Z 12018KT 9999 SCT016 29/26 Q1010 NOSIG
WADD 270530Z 12017KT 9999 SCT016 29/26 Q1010 NOSIG
WADD 270500Z 12018KT 9999 SCT016 29/25 Q1010 NOSIG
WADD 270430Z 12018KT 9999 SCT016 29/26 Q1011 NOSIG
WADD 270400Z 12018KT 9999 SCT016 29/25 Q1011 NOSIG
WADD 270330Z 12020KT 9999 BKN016 29/25 Q1011 NOSIG
WADD 270300Z 12018KT 9999 SCT016 29/25 Q1012 NOSIG
WADD 270230Z 12018KT 9999 FEW015CB SCT016 29/26 Q1012 NOSIG
WADD 270200Z 10018G26KT 9999 FEW015CB SCT016 28/25 Q1012 NOSIG
WADD 270130Z 12017KT 9999 BKN016 28/25 Q1012 NOSIG
WADD 270100Z 11014KT 9999 FEW014CB BKN015 28/26 Q1012 NOSIG
WADD 270030Z 09014KT 9999 FEW014CB BKN015 28/26 Q1012 NOSIG
WADD 270000Z 12014KT 9999 FEW014CB BKN015 27/26 Q1012 NOSIG
WADD 262330Z 12012KT 9999 FEW014CB BKN015 27/26 Q1012 NOSIG
WADD 262300Z 12013KT 9999 FEW014CB BKN015 27/26 Q1011 NOSIG
WADD 262230Z 12013KT 9999 FEW014CB BKN015 27/26 Q1011 NOSIG RMK CB IN APCH AND CLIMB-OUT
WADD 262200Z 12010KT 9999 SCT016 27/26 Q1011 NOSIG
WADD 262130Z 12011KT 9999 SCT016 27/26 Q1011 NOSIG
WADD 262100Z 11011KT 9999 SCT016 27/26 Q1011 NOSIG
WADD 262030Z 11013KT 9999 BKN016 27/26 Q1011 NOSIG
WADD 262000Z 11013KT 9999 BKN016 27/26 Q1011 NOSIG
WADD 261930Z 11014KT 9999 FEW015CB BKN016 27/26 Q1011 NOSIG
WADD 261900Z 11012KT 9999 FEW015CB BKN016 27/26 Q1011 NOSIG</description><pubDate>Fri, 27 Jun 2025 18:37:09 </pubDate></item></channel></rss>