<rss version="2.0"><channel><title>Aviation Weather METAR Data for WADD</title><link>https://aviationweather.gov/api/data/metar?ids=WADD</link><description>Latest METAR data for WADD</description><item><title>2024-12-29 21:40:13Z</title><link>https://aviationweather.gov/api/data/metar?ids=WADD</link><description>WADD 292100Z 27014KT 230V330 5000 -RA FEW014CB BKN015 26/24 Q1008 TEMPO TL2230 -RA</description><pubDate>Sun, 29 Dec 2024 21:40:13 </pubDate></item></channel></rss>