<rss version="2.0"><channel><title>Aviation Weather METAR Data for WADD</title><link>https://aviationweather.gov/api/data/metar?ids=WADD&amp;hours=24</link><description>Latest METAR data for WADD</description><item><title>2025-11-01 16:43:14Z</title><link>https://aviationweather.gov/api/data/metar?ids=WADD&amp;hours=24</link><description>METAR WADD 011630Z 09004KT 9999 BKN016 28/26 Q1011 NOSIG
METAR WADD 011600Z 05003KT 9999 BKN016 28/26 Q1011 NOSIG
METAR WADD 011530Z 04003KT 9999 SCT016 28/27 Q1012 NOSIG
METAR WADD 011500Z 08005KT 9999 SCT016 28/27 Q1012 NOSIG
METAR WADD 011430Z 09006KT 9999 SCT016 28/27 Q1012 NOSIG
METAR WADD 011400Z 08008KT 9999 SCT016 28/26 Q1011 NOSIG
METAR WADD 011330Z 08010KT 9999 SCT016 28/27 Q1011 NOSIG
METAR WADD 011300Z 10009KT 9999 FEW015CB SCT016 28/27 Q1011 NOSIG
METAR WADD 011230Z 12011KT 9999 FEW015CB BKN016 29/28 Q1011 RETS NOSI G
METAR WADD 011200Z 13013KT 9999 TS FEW015CB BKN016 29/28 Q1011 TEMPO TL1300 TS
METAR WADD 011130Z 12011KT 9999 TS FEW016CB SCT016 29/27 Q1010 NOSIG
METAR WADD 011100Z 12011KT 9999 FEW017 29/27 Q1010 NOSIG
METAR WADD 011030Z 13012KT 9999 SCT017 29/27 Q1010 NOSIG
METAR WADD 011000Z 13014KT 9999 SCT016 30/28 Q1009 NOSIG
METAR WADD 010930Z 13012KT 9999 SCT016 30/28 Q1009 NOSIG
METAR WADD 010900Z 13016KT 9999 SCT017 30/27 Q1008 NOSIG
METAR WADD 010830Z 13014KT 9999 FEW017 31/27 Q1008 NOSIG
METAR WADD 010800Z 13013KT 9999 FEW017 32/27 Q1008 NOSIG
METAR WADD 010730Z 13013KT 9999 FEW017 31/27 Q1008 NOSIG
METAR WADD 010700Z 13012KT 9999 FEW017 32/27 Q1008 NOSIG
METAR WADD 010630Z 12012KT 9999 FEW017 32/26 Q1009 NOSIG
METAR WADD 010600Z 13010KT 9999 FEW017 32/27 Q1009 NOSIG
METAR WADD 010530Z 9999 FEW017 32/27 Q1010 NOSIG
METAR WADD 010500Z 12009KT 9999 FEW017 32/27 Q1010 NOSIG
METAR WADD 010430Z 13010KT 9999 FEW017 32/27 Q1010 NOSIG
METAR WADD 010400Z 10012KT 9999 FEW017 32/27 Q1011 NOSIG
METAR WADD 010330Z 11010KT 9999 FEW017 31/27 Q1011 NOSIG
METAR WADD 010300Z 11009KT 9999 FEW017 31/27 Q1012 NOSIG
METAR WADD 010230Z 11008KT 9999 FEW017 31/27 Q1012 NOSIG
METAR WADD 010200Z 13006KT 9999 FEW017 31/27 Q1013 NOSIG
METAR WADD 010130Z 11007KT 060V140 9999 FEW017 30/27 Q1013 NOSIG
METAR WADD 010100Z 11007KT 9999 SCT016 30/27 Q1013 NOSIG
METAR WADD 010030Z 07003KT 9999 FEW017 29/27 Q1013 NOSIG
METAR WADD 010000Z 15003KT 9999 FEW017 29/26 Q1013 NOSIG
METAR WADD 312330Z 02003KT 9999 FEW017 28/26 Q1012 NOSIG
METAR WADD 312300Z 02004KT 9999 SCT016 27/26 Q1012 NOSIG
METAR WADD 312230Z 01003KT 9999 SCT016 26/26 Q1012 NOSIG
METAR WADD 312200Z 02005KT 9999 FEW017 26/25 Q1011 NOSIG
METAR WADD 312130Z 01005KT 9999 FEW017 26/26 Q1011 NOSIG
METAR WADD 312100Z 02003KT 9999 FEW017 27/26 Q1011 NOSIG
METAR WADD 312030Z 05004KT 9999 FEW017 27/26 Q1010 NOSIG
METAR WADD 312000Z 05004KT 9999 FEW017 27/27 Q1010 NOSIG
METAR WADD 311930Z 08004KT 9999 FEW017 27/26 Q1010 NOSIG
METAR WADD 311900Z 07005KT 9999 FEW017 27/26 Q1010
METAR WADD 311830Z 06007KT 9999 FEW017 27/26 Q1010 NOSIG
METAR WADD 311800Z 08007KT 9999 FEW017 27/26 Q1011 NOSIG
METAR WADD 311730Z 11008KT 9999 FEW017 28/26 Q1011 NOSIG
METAR WADD 311700Z 13008KT 9999 FEW017 28/27 Q1011 NOSIG</description><pubDate>Sat, 01 Nov 2025 16:43:14 </pubDate></item></channel></rss>