<rss version="2.0"><channel><title>Aviation Weather METAR Data for WADD</title><link>https://aviationweather.gov/api/data/metar?ids=WADD&amp;hours=24</link><description>Latest METAR data for WADD</description><item><title>2025-11-15 04:30:17Z</title><link>https://aviationweather.gov/api/data/metar?ids=WADD&amp;hours=24</link><description>METAR WADD 150400Z 26009KT 9999 FEW016 30/24 Q1009 NOSIG
METAR WADD 150330Z 26008KT 9999 FEW016 30/24 Q1010 NOSIG
METAR WADD 150300Z 26008KT 230V290 9999 FEW016 30/24 Q1010 NOSIG
METAR WADD 150230Z 26008KT 220V290 9999 FEW016 30/24 Q1010 NOSIG
METAR WADD 150200Z 26008KT 230V290 9999 FEW016 30/24 Q1010 NOSIG
METAR WADD 150130Z 26007KT 220V290 9999 FEW016 30/24 Q1011 NOSIG
METAR WADD 150100Z 26006KT 220V290 9999 SCT016 30/24 Q1010 NOSIG
METAR WADD 150030Z 25007KT 9999 SCT016 30/24 Q1010 NOSIG
METAR WADD 150000Z VRB03KT 9999 SCT016 29/25 Q1010 NOSIG
METAR WADD 142330Z VRB01KT 9999 BKN016 28/23 Q1010 RERA NOSIG
METAR WADD 142300Z 24008G16KT 8000 -RA FEW015CB BKN016 27/22 Q1010 TEMPO TL2400 -RA RMK CB OVER THE FIELD
METAR WADD 142230Z 25005KT 210V280 9999 FEW015CB BKN016 28/24 Q1009 N OSIG
METAR WADD 142200Z VRB02KT 9999 FEW015CB BKN016 26/23 Q1009 RERA NOSI G
METAR WADD 142130Z 28011KT 8000 -RA FEW014CB BKN015 27/24 Q1008 TEMPO TL2230 -RA RMK CB OVER THE FIELD
METAR WADD 142100Z 26010KT 9999 FEW015CB SCT016 28/24 Q1008 NOSIG
METAR WADD 142030Z 26008KT 9999 FEW015CB SCT016 28/24 Q1008 NOSIG
METAR WADD 142000Z 26007KT 9999 FEW015CB SCT016 28/24 Q1007 NOSIG
METAR WADD 141930Z 27007KT 9999 FEW015CB FEW016 27/24 Q1008 NOSIG
METAR WADD 141900Z 26008KT 9999 FEW016 28/24 Q1008 NOSIG
METAR WADD 141830Z 26009KT 9999 FEW016 28/24 Q1008 NOSIG
METAR WADD 141800Z 26008KT 9999 FEW016 28/24 Q1008 NOSIG
METAR WADD 141730Z 26009KT 9999 FEW016 28/24 Q1008 NOSIG
METAR WADD 141700Z 26009KT 9999 FEW016 28/24 Q1008 NOSIG
METAR WADD 141630Z 26009KT 9999 FEW016 28/24 Q1008 NOSIG
METAR WADD 141600Z 26009KT 9999 FEW016 28/24 Q1008 NOSIG
METAR WADD 141530Z 26009KT 9999 FEW016 28/24 Q1009 NOSIG
METAR WADD 141500Z 26007KT 9999 FEW016 28/23 Q1009 NOSIG
METAR WADD 141430Z 26008KT 9999 FEW016 28/24 Q1009 NOSIG
METAR WADD 141400Z 26008KT 9999 FEW016 28/24 Q1009 NOSIG
METAR WADD 141330Z 26008KT 9999 FEW016 28/24 Q1009 NOSIG
METAR WADD 141300Z 26008KT 9999 FEW016 28/24 Q1009 NOSIG
METAR WADD 141230Z 26008KT 9999 FEW016 28/24 Q1009 NOSIG
METAR WADD 141200Z 25008KT 9999 FEW016 28/24 Q1009 NOSIG
METAR WADD 141130Z 25007KT 9999 SCT015 28/24 Q1008 NOSIG
METAR WADD 141100Z 25008KT 9999 SCT015 28/24 Q1008 NOSIG
METAR WADD 141030Z 25008KT 9999 SCT015 28/24 Q1008 NOSIG
METAR WADD 141000Z 25008KT 9999 SCT016 29/24 Q1008 NOSIG
METAR WADD 140930Z 25010KT 9999 SCT016 29/24 Q1007 NOSIG
METAR WADD 140900Z 24011KT 220V280 9999 SCT015 29/24 Q1007 NOSIG
METAR WADD 140830Z 25010KT 9999 FEW016CB SCT016 29/24 Q1007 NOSIG
METAR WADD 140800Z 25011KT 9999 FEW015CB SCT015 30/25 Q1006 NOSIG
METAR WADD 140730Z 26012KT 9999 FEW015CB SCT016 30/25 Q1006 NOSIG
METAR WADD 140700Z 26014KT 9999 FEW015CB SCT016 30/25 Q1006 NOSIG
METAR WADD 140630Z 26014KT 9999 FEW015CB BKN015 30/25 Q1006 NOSIG
METAR WADD 140600Z 26014KT 9999 FEW016CB BKN016 31/25 Q1006 NOSIG
METAR WADD 140530Z 26012KT 9999 FEW015CB BKN016 30/25 Q1007 NOSIG
METAR WADD 140500Z 32012KT 290V360 9999 FEW015CB BKN016 28/25 Q1007 N OSIG</description><pubDate>Sat, 15 Nov 2025 04:30:17 </pubDate></item></channel></rss>