<rss version="2.0"><channel><title>Aviation Weather METAR Data for WADD</title><link>https://aviationweather.gov/api/data/metar?ids=WADD&amp;hours=24</link><description>Latest METAR data for WADD</description><item><title>2025-10-01 07:42:40Z</title><link>https://aviationweather.gov/api/data/metar?ids=WADD&amp;hours=24</link><description>METAR WADD 010730Z 15007KT 9999 BKN016 29/26 Q1009 NOSIG
METAR WADD 010700Z 14010KT 9999 SCT016 29/26 Q1009 NOSIG
METAR WADD 010630Z 13011KT 9999 SCT016 30/26 Q1008 NOSIG
METAR WADD 010600Z 13011KT 9999 SCT016 31/26 Q1008 NOSIG
METAR WADD 010530Z 12011KT 9999 FEW016 31/26 Q1009 NOSIG
METAR WADD 010500Z 12010KT 9999 FEW016 31/26 Q1009 NOSIG
METAR WADD 010430Z 10012KT 9999 FEW016 31/27 Q1010 NOSIG
METAR WADD 010400Z 10011KT 9999 SCT016 31/27 Q1010 NOSIG
METAR WADD 010330Z 11010KT 9999 SCT016 31/27 Q1011 NOSIG
METAR WADD 010300Z 11009KT 9999 SCT016 30/26 Q1011 NOSIG
METAR WADD 010230Z 11009KT 9999 FEW016 30/26 Q1011 NOSIG
METAR WADD 010200Z 11008KT 9999 FEW016 30/26 Q1012 NOSIG
METAR WADD 010130Z 11007KT 9999 FEW016 30/26 Q1012 NOSIG
METAR WADD 010100Z 11005KT 040V140 9999 SCT016 29/26 Q1012 NOSIG
METAR WADD 010030Z 05004KT 350V110 9999 SCT016 29/26 Q1012 NOSIG
METAR WADD 010000Z 36003KT 9999 FEW017 28/25 Q1012 NOSIG
METAR WADD 302330Z 03004KT 360V070 9999 FEW017 27/25 Q1012 NOSIG
METAR WADD 302300Z 01005KT 9999 SCT015 26/25 Q1012 NOSIG
METAR WADD 302230Z 36005KT 9999 SCT015 25/24 Q1011 NOSIG
METAR WADD 302200Z 36003KT 9999 SCT016 26/25 Q1011 NOSIG
METAR WADD 302130Z 11004KT 9999 SCT016 27/26 Q1011 NOSIG
METAR WADD 302100Z 13005KT 9999 SCT016 27/26 Q1010 NOSIG
METAR WADD 302030Z 09006KT 9999 SCT016 27/26 Q1010 NOSIG
METAR WADD 302000Z 09007KT 9999 SCT016 27/26 Q1010 NOSIG
METAR WADD 301930Z 10007KT 9999 SCT016 27/26 Q1010 NOSIG
METAR WADD 301900Z 10004KT 9999 SCT016 27/26 Q1010 NOSIG
METAR WADD 301830Z 12006KT 9999 SCT016 27/26 Q1010 NOSIG
METAR WADD 301800Z 13007KT 9999 SCT016 27/26 Q1010 NOSIG
METAR WADD 301730Z 13007KT 9999 SCT016 27/26 Q1010 NOSIG
METAR WADD 301700Z 13006KT 9999 SCT016 27/26 Q1010 NOSIG
METAR WADD 301630Z 14003KT 9999 SCT016 27/26 Q1011 NOSIG
METAR WADD 301600Z VRB02KT 9999 SCT016 27/26 Q1011 NOSIG
METAR WADD 301530Z 27002KT 9999 SCT016 27/25 Q1011 NOSIG
METAR WADD 301500Z VRB02KT 9999 SCT016 27/25 Q1011 NOSIG
METAR WADD 301430Z VRB01KT 9999 SCT016 27/26 Q1012 NOSIG
METAR WADD 301400Z VRB01KT 9999 FEW015CB SCT016 27/26 Q1012 NOSIG
METAR WADD 301330Z 17003KT 9999 FEW015CB SCT016 27/26 Q1012 NOSIG
METAR WADD 301300Z 23003KT 9999 FEW015CB SCT016 27/26 Q1011 RETS NOSIG
 WADD 301230Z 35004KT 300V060 9999 TS FEW015CB SCT016 27/25 Q1011 TEMPO TL1400 TS
METAR WADD 301200Z 34006KT 320V050 9999 TS FEW015CB SCT016 26/25 Q1011 TEMPO TL1400 TS
METAR WADD 301130Z 13004KT 9999 TS FEW015CB SCT016 28/26 Q1011 TEMPO TL1300 TS
METAR WADD 301100Z 13007KT 9999 TS FEW015CB SCT016 28/26 Q1010 TEMPO TL1200 TS
METAR WADD 301030Z 14008KT 9999 TS FEW015CB BKN016 28/26 Q1010 TEMPO TL1200 TS
METAR WADD 301000Z 14011KT 9999 TS FEW015CB BKN016 28/26 Q1010 TEMPO TL1100 TS
METAR WADD 300930Z 15010KT 9999 TS FEW015CB BKN016 28/26 Q1009 TEMPO TL1100 TS
METAR WADD 300900Z 15012KT 9999 TS FEW015CB BKN016 28/26 Q1009 TEMPO TL1000 TS
METAR WADD 300830Z 14012KT 9999 BKN016 29/26 Q1009 NOSIG
METAR WADD 300800Z 14012KT 9999 BKN016 29/26 Q1009 NOSIG</description><pubDate>Wed, 01 Oct 2025 07:42:40 </pubDate></item></channel></rss>