<rss version="2.0"><channel><title>Aviation Weather METAR Data for WADD</title><link>https://aviationweather.gov/api/data/metar?ids=WADD&amp;hours=24</link><description>Latest METAR data for WADD</description><item><title>2026-01-16 11:45:02Z</title><link>https://aviationweather.gov/api/data/metar?ids=WADD&amp;hours=24</link><description>METAR WADD 161130Z 26010KT 9999 FEW017 29/24 Q1006 NOSIG
METAR WADD 161100Z 27012KT 9999 FEW017 29/24 Q1007 NOSIG
METAR WADD 161030Z 26012KT 9999 FEW017 29/25 Q1006 NOSIG
METAR WADD 161000Z 25010KT 9999 FEW017 29/25 Q1006 NOSIG
METAR WADD 160930Z 25010KT 9999 FEW017 29/25 Q1005 NOSIG
METAR WADD 160900Z 24011KT 220V280 9999 FEW017 29/26 Q1005 NOSIG
METAR WADD 160830Z 25011KT 9999 FEW017 31/24 Q1005 NOSIG
METAR WADD 160800Z 25011KT 9999 FEW017 30/24 Q1005 NOSIG
METAR WADD 160730Z 25011KT 9999 FEW017 30/23 Q1005 NOSIG
METAR WADD 160700Z 24010KT 9999 FEW017 31/24 Q1005 NOSIG
METAR WADD 160630Z 24009KT 9999 FEW017 31/24 Q1005 NOSIG
METAR WADD 160600Z 25009KT 9999 FEW017 31/24 Q1006 NOSIG
METAR WADD 160530Z 25009KT 220V280 9999 FEW017 31/24 Q1006 NOSIG
METAR WADD 160500Z 25008KT 210V280 9999 FEW017 31/24 Q1006 NOSIG
METAR WADD 160430Z 24007KT 9999 FEW017 31/23 Q1007 NOSIG
METAR WADD 160400Z 24007KT 9999 FEW017 31/23 Q1007 NOSIG
METAR WADD 160330Z 26006KT 210V290 9999 FEW017 31/23 Q1007 NOSIG
METAR WADD 160300Z 25007KT 9999 FEW017 30/24 Q1008 NOSIG
METAR WADD 160230Z 25006KT 210V270 9999 FEW017 30/23 Q1008 NOSIG
METAR WADD 160200Z VRB03KT 9999 FEW017 30/23 Q1008 NOSIG
METAR WADD 160130Z 12004KT 9999 FEW017 29/24 Q1008 NOSIG
METAR WADD 160100Z 09003KT 9999 FEW017 29/24 Q1008 NOSIG
METAR WADD 160030Z VRB01KT 9999 FEW017 28/23 Q1008 NOSIG
METAR WADD 160000Z VRB02KT 9999 FEW017 27/23 Q1008 NOSIG
METAR WADD 152330Z VRB01KT 9999 FEW017 26/23 Q1007 NOSIG
METAR WADD 152300Z VRB02KT 9999 FEW017 25/23 Q1007 NOSIG
METAR WADD 152230Z 07002KT 9999 FEW017 24/23 Q1007 NOSIG
METAR WADD 152200Z 04003KT 9999 FEW017 24/22 Q1007 NOSIG
METAR WADD 152130Z VRB01KT 9999 SCT017 24/23 Q1007 NOSIG
METAR WADD 152100Z 36001KT 9999 SCT017 24/23 Q1006 NOSIG
METAR WADD 152030Z 06001KT 9999 SCT016 24/23 Q1006 NOSIG
METAR WADD 152000Z VRB02KT 9999 SCT016 24/23 Q1006 NOSIG
METAR WADD 151930Z 06003KT 9999 SCT016 24/23 Q1006 NOSIG
METAR WADD 151900Z 04003KT 9999 SCT016 24/23 Q1006 NOSIG
METAR WADD 151830Z VRB01KT 9999 SCT016 25/23 Q1006 NOSIG
METAR WADD 151800Z 29006KT 270V020 9999 SCT016 26/24 Q1006 NOSIG
METAR WADD 151730Z 31005KT 9999 SCT016 26/23 Q1007 NOSIG
METAR WADD 151700Z 34004KT 9999 SCT016 25/23 Q1007 NOSIG
METAR WADD 151630Z 34006KT 9999 SCT016 26/23 Q1008 NOSIG
METAR WADD 151600Z 34005KT 300V010 9999 SCT016 26/23 Q1008 NOSIG
METAR WADD 151530Z 35004KT 9999 SCT016 25/23 Q1008 NOSIG
METAR WADD 151500Z 34004KT 310V010 9999 BKN016 25/23 Q1008 NOSIG
METAR WADD 151430Z 33004KT 300V360 9999 BKN016 25/23 Q1008 NOSIG
METAR WADD 151400Z 34004KT 280V030 9999 BKN015 25/23 Q1008 NOSIG
METAR WADD 151330Z 36004KT 310V040 9999 BKN015 25/23 Q1008 RERA NOSIG
METAR WADD 151300Z 35006KT 300V040 8000 -RA BKN015 25/23 Q1008 TEMPO TL1400 8000 -RA
METAR WADD 151230Z 32007KT 8000 -RA FEW014CB BKN015 25/23 Q1008 TEMPO TL1330 8000 -RA
METAR WADD 151200Z 32009KT 6000 -RA FEW014CB BKN015 25/23 Q1007 TEMPO TL1300 6000 -RA</description><pubDate>Fri, 16 Jan 2026 11:45:02 </pubDate></item></channel></rss>