<rss version="2.0"><channel><title>Aviation Weather METAR Data for WADD</title><link>https://aviationweather.gov/api/data/metar?ids=WADD&amp;hours=24</link><description>Latest METAR data for WADD</description><item><title>2025-04-26 08:44:55Z</title><link>https://aviationweather.gov/api/data/metar?ids=WADD&amp;hours=24</link><description>WADD 260830Z 14011KT 9999 FEW017 31/26 Q1008 NOSIG
WADD 260800Z 14010KT 9999 FEW017 31/26 Q1008 NOSIG
WADD 260730Z 15010KT 9999 FEW017 31/26 Q1008 NOSIG
WADD 260630Z 15010KT 9999 FEW017 32/26 Q1008 NOSIG
WADD 260530Z 10010KT 9999 FEW017 32/25 Q1009 NOSIG
WADD 260500Z 12011KT 9999 FEW017 31/26 Q1009 NOSIG
WADD 260430Z 11010KT 9999 FEW017 31/27 Q1010 NOSIG
WADD 260400Z 10010KT 9999 SCT017 31/26 Q1010 NOSIG
WADD 260330Z 12009KT 070V140 9999 SCT017 31/27 Q1011 NOSIG
WADD 260300Z 11009KT 050V140 9999 SCT017 30/27 Q1011 NOSIG
WADD 260200Z 12008KT 9999 SCT017 31/27 Q1012 NOSIG
WADD 260130Z 11005KT 060V140 9999 SCT017 30/27 Q1012 NOSIG
WADD 260100Z 11004KT 050V140 9999 SCT017 30/27 Q1012 NOSIG
WADD 260030Z 05003KT 9999 FEW017 29/27 Q1012 NOSIG
WADD 260000Z 02003KT 9999 FEW017 28/26 Q1011 NOSIG
WADD 252330Z VRB02KT 9999 SCT017 28/26 Q1011 NOSIG
WADD 252300Z 02004KT 9999 SCT017 26/25 Q1011 NOSIG
WADD 252230Z 01005KT 9999 FEW017 26/25 Q1011 NOSIG
WADD 252200Z 07002KT 9999 FEW017 27/26 Q1010 NOSIG
WADD 252130Z VRB02KT 9999 SCT017 27/26 Q1010 NOSIG
WADD 252100Z 07004KT 9999 SCT017 26/26 Q1010 NOSIG
WADD 252030Z 07005KT 9999 SCT017 26/26 Q1010 NOSIG
WADD 252000Z 08005KT 9999 SCT017 27/26 Q1010 NOSIG
WADD 251930Z 10006KT 9999 SCT017 27/26 Q1010 NOSIG
WADD 251900Z 10005KT 9999 SCT017 27/26 Q1010 NOSIG
WADD 251830Z 13006KT 9999 SCT017 28/27 Q1010 NOSIG
WADD 251800Z 13006KT 9999 SCT017 28/27 Q1010 NOSIG
WADD 251730Z 12007KT 9999 SCT017 29/27 Q1010 NOSIG
WADD 251700Z 11007KT 9999 SCT017 29/27 Q1011 NOSIG
WADD 251630Z 12008KT 9999 SCT017 29/27 Q1011 NOSIG
WADD 251600Z 12009KT 9999 SCT017 29/27 Q1011 NOSIG
WADD 251530Z 13007KT 9999 SCT017 29/27 Q1011 NOSIG
WADD 251500Z 13008KT 9999 SCT017 29/27 Q1011 NOSIG
WADD 251430Z 12008KT 9999 FEW017 29/27 Q1011 NOSIG
WADD 251400Z 12007KT 9999 FEW017 29/27 Q1011 NOSIG
WADD 251330Z 13008KT 9999 FEW017 29/27 Q1011 NOSIG
WADD 251300Z 12009KT 9999 FEW017 29/27 Q1011 NOSIG
WADD 251230Z 12009KT 9999 FEW017 29/27 Q1010 NOSIG
WADD 251200Z 13008KT 9999 FEW017 29/28 Q1010 NOSIG
WADD 251130Z 13010KT 9999 FEW017 29/27 Q1009 NOSIG
WADD 251100Z 13009KT 9999 FEW017 29/27 Q1009 NOSIG
WADD 251000Z 12011KT 9999 FEW017 30/27 Q1008 NOSIG
WADD 250930Z 13011KT 9999 FEW017 30/27 Q1008 NOSIG
WADD 250900Z 12010KT 9999 FEW017 31/27 Q1008 NOSIG</description><pubDate>Sat, 26 Apr 2025 08:44:55 </pubDate></item></channel></rss>