<rss version="2.0"><channel><title>Aviation Weather METAR Data for WADD</title><link>https://aviationweather.gov/api/data/metar?ids=WADD&amp;hours=24</link><description>Latest METAR data for WADD</description><item><title>2025-01-29 14:41:32Z</title><link>https://aviationweather.gov/api/data/metar?ids=WADD&amp;hours=24</link><description>WADD 291430Z 24008KT 8000 -RA FEW015CB SCT016 27/25 Q1008 TEMPO TL1530 -RA
WADD 291400Z 25010KT 9999 FEW015CB SCT016 28/26 Q1008 NOSIG
WADD 291330Z 25007KT 9999 FEW015CB SCT016 29/26 Q1008 NOSIG
WADD 291300Z 26007KT 9999 FEW015CB SCT016 29/26 Q1008 NOSIG
WADD 291230Z 24005KT 200V270 9999 FEW015CB FEW016 29/26 Q1007 NOSIG
WADD 291200Z 24005KT 200V280 9999 FEW016 29/25 Q1007 NOSIG
WADD 291130Z 25006KT 9999 FEW016 29/25 Q1007 NOSIG
WADD 291100Z 25004KT 9999 FEW016 29/25 Q1006 NOSIG
WADD 291030Z 26006KT 9999 FEW016 29/25 Q1006 NOSIG
WADD 291000Z 26006KT 9999 FEW016 29/25 Q1006 NOSIG
WADD 290930Z 27007KT 9999 FEW016 30/25 Q1006 NOSIG
WADD 290900Z 25007KT 9999 SCT016 30/26 Q1005 NOSIG
WADD 290830Z 27008KT 9999 SCT016 31/25 Q1005 NOSIG
WADD 290800Z 26008KT 9999 SCT016 30/26 Q1006 NOSIG
WADD 290730Z 27008KT 9999 SCT016 30/26 Q1006 NOSIG
WADD 290700Z 26008KT 9999 SCT016 30/26 Q1006 NOSIG
WADD 290630Z 25007KT 220V290 9999 FEW016CB FEW016 31/26 Q1006 NOSIG
WADD 290600Z 26008KT 9999 FEW016CB FEW016 31/26 Q1007 NOSIG
WADD 290530Z 25008KT 220V290 9999 FEW016CB FEW017 31/26 Q1007 NOSIG
WADD 290500Z 25007KT 210V280 9999 FEW016CB FEW017 30/26 Q1008 NOSIG
WADD 290430Z 25006KT 220V280 9999 FEW017 30/26 Q1008 NOSIG
WADD 290400Z 24007KT 210V270 9999 FEW017 30/27 Q1008 NOSIG
WADD 290330Z 25007KT 220V290 9999 FEW017 30/27 Q1009 NOSIG
WADD 290300Z 25007KT 220V290 9999 FEW017 30/27 Q1009 NOSIG
WADD 290230Z 27008KT 9999 FEW017 30/27 Q1009 NOSIG
WADD 290200Z 29007KT 250V320 9999 FEW017 30/27 Q1009 NOSIG
WADD 290130Z 30006KT 9999 SCT017 29/26 Q1009 NOSIG
WADD 290100Z 31004KT 250V360 9999 SCT017 29/26 Q1009 NOSIG
WADD 290030Z 29004KT 9999 SCT017 29/26 Q1009 NOSIG
WADD 290000Z 34004KT 310V040 9999 FEW017 28/25 Q1009 NOSIG
WADD 282330Z 01004KT 310V050 9999 FEW017 27/25 Q1008 NOSIG
WADD 282300Z 01003KT 9999 FEW017 27/26 Q1008 NOSIG
WADD 282230Z 01004KT 9999 FEW017 26/26 Q1008 NOSIG
WADD 282200Z 28005KT 9999 SCT016 27/26 Q1007 NOSIG
WADD 282130Z 26006KT 9999 BKN016 27/26 Q1007 NOSIG
WADD 282100Z 26006KT 9999 SCT017 27/26 Q1007 NOSIG
WADD 282030Z 27007KT 9999 SCT017 27/26 Q1007 NOSIG
WADD 282000Z 27008KT 9999 SCT017 27/26 Q1007 NOSIG
WADD 281930Z 26005KT 9999 SCT017 27/26 Q1008 NOSIG
WADD 281900Z 26007KT 9999 SCT017 27/25 Q1008 NOSIG
WADD 281830Z 25006KT 210V280 9999 FEW017 27/26 Q1008 NOSIG
WADD 281800Z 27004KT 220V320 9999 FEW017 28/26 Q1008 NOSIG
WADD 281730Z 36004KT 300V030 9999 FEW017 27/26 Q1008 NOSIG
WADD 281700Z 31005KT 9999 FEW017 28/26 Q1009 NOSIG
WADD 281630Z 30007KT 9999 FEW017 28/26 Q1009 NOSIG
WADD 281600Z 30007KT 9999 FEW017 28/26 Q1010 NOSIG
WADD 281530Z 31006KT 9999 SCT017 28/26 Q1010 NOSIG
WADD 281500Z 28010KT 9999 SCT017 29/25 Q1010 NOSIG</description><pubDate>Wed, 29 Jan 2025 14:41:32 </pubDate></item></channel></rss>