<rss version="2.0"><channel><title>Aviation Weather METAR Data for WADD</title><link>https://aviationweather.gov/api/data/metar?ids=WADD&amp;hours=24</link><description>Latest METAR data for WADD</description><item><title>2025-01-12 04:27:09Z</title><link>https://aviationweather.gov/api/data/metar?ids=WADD&amp;hours=24</link><description>WADD 120400Z 23003KT 8000 -RA FEW014CB BKN014 25/25 Q1010 TEMPO TL0500 -RA RMK CB IN APCH
WADD 120330Z 26007KT 5000 -RA FEW014CB BKN014 25/25 Q1010 TEMPO TL0430 -RA RMK CB IN APCH
WADD 120300Z 30004KT 260V360 9000 -RA FEW014CB BKN014 25/25 Q1010 TEMPO TL0400 -RA RMK CB IN CLIMB-OUT
WADD 120230Z VRB02KT 8000 -RA FEW014CB BKN014 25/25 Q1010 TEMPO TL0330 -RA RMK CB IN APCH
WADD 120200Z 24007KT 2000 RA FEW014CB BKN014 24/24 Q1010 TEMPO TL0300 RA RMK CB IN APCH AND CLIMB-OUT
WADD 120130Z 23006KT 200V270 0500 +RA FEW014CB BKN014 25/25 Q1011 TEMPO TL0230 +RA RMK CB IN APCH AND CLIMB-OUT
WADD 120100Z 26004KT 210V300 8000 -RA FEW014CB BKN014 25/25 Q1010 TEMPO TL0200 -RA RMK CB IN APCH AND CLIMB-OUT
WADD 120030Z 26010KT 6000 -RA FEW014CB BKN014 25/25 Q1010 TEMPO TL0130 -RA RMK CB IN APCH
WADD 120000Z 28006KT 8000 -RA FEW014CB BKN014 26/25 Q1009 TEMPO TL0100 -RA
WADD 112330Z 31010KT 9000 FEW014CB BKN014 26/25 Q1009 RERA NOSIG
WADD 112300Z VRB02KT 8000 -RA FEW014CB BKN014 25/24 Q1009 TEMPO TL2400 8000 -RA
WADD 112230Z 29012KT 2000 +RA FEW014CB BKN014 25/24 Q1008 TEMPO TL2400 5000 RA
WADD 112200Z 33004KT 9999 BKN013 26/25 Q1008 NOSIG
WADD 112130Z 34004KT 9999 SCT016 26/25 Q1008 NOSIG
WADD 112100Z 33004KT 9999 SCT016 26/25 Q1007 NOSIG
WADD 112030Z 33005KT 9999 SCT016 26/25 Q1007 NOSIG
WADD 112000Z 34005KT 9999 SCT016 26/25 Q1007 NOSIG
WADD 111930Z 30008KT 9999 SCT016 27/25 Q1008 NOSIG
WADD 111900Z 29007KT 9999 FEW020 BKN060 BKN230 27/25 Q1008 NOSIG
WADD 111830Z 29008KT 9999 SCT016 27/25 Q1008 NOSIG
WADD 111800Z 28009KT 9999 SCT016 27/25 Q1009 NOSIG
WADD 111730Z 27008KT 9999 SCT016 27/26 Q1009 NOSIG
WADD 111700Z 28010KT 9999 BKN015 27/25 Q1009 NOSIG
WADD 111630Z 29011KT 9999 BKN015 27/26 Q1009 NOSIG
WADD 111600Z 29008KT 9999 BKN015 27/26 Q1010 RERA NOSIG
WADD 111530Z 29009KT 9999 SCT016 27/26 Q1010 NOSIG
WADD 111500Z 26008KT 9999 SCT016 27/25 Q1010 NOSIG
WADD 111430Z 26009KT 9999 SCT016 27/26 Q1010 NOSIG
WADD 111400Z 28007KT 9999 SCT016 26/26 Q1010 NOSIG
WADD 111330Z 29005KT 9999 SCT016 26/25 Q1010 RERA NOSIG
WADD 111300Z 26006KT 6000 -RA BKN015 26/25 Q1010 TEMPO TL1430 5000 RA
WADD 111230Z 35004KT 300V010 9999 SCT016 26/25 Q1009 NOSIG
WADD 111200Z 33003KT 9999 SCT016 26/25 Q1009 NOSIG
WADD 111130Z 33004KT 280V010 9999 BKN015 26/25 Q1009 NOSIG
WADD 111100Z VRB01KT 9999 BKN015 26/25 Q1009 NOSIG
WADD 111030Z VRB02KT 9999 BKN015 26/25 Q1009 NOSIG
WADD 111000Z 02003KT 9999 BKN015 26/25 Q1008 RERA NOSIG
WADD 110931Z 31004KT 9000 -RA BKN015 26/25 Q1008 TEMPO TL1000 9000 -RA
WADD 110930Z 31004KT 9000 -RA BKN015 26/25 Q1008 TEMPO TL1000 9000 -RA
WADD 110900Z 32004KT 9000 BKN015 25/24 Q1008 TEMPO TL1000 9000 -RA
WADD 110830Z VRB02KT 8000 -RA FEW014CB BKN015 24/24 Q1008 TEMPO TL0930 8000 -RA
WADD 110800Z VRB03KT 6000 RA FEW014CB BKN015 25/24 Q1008 TEMPO TL0900 6000 RA
WADD 110730Z 13004KT 090V200 6000 RA FEW014CB BKN015 25/25 Q1009 TEMPO TL0900 9000 RA
WADD 110700Z 10005KT 5000 RA FEW014CB BKN015 25/25 Q1010 TEMPO TL0900 5000 RA
WADD 110630Z 05003KT 5000 RA FEW014CB BKN015 25/25 Q1010 TEMPO TL0800 5000 RA
WADD 110600Z 34004KT 290V010 7000 -RA FEW014CB BKN015 25/25 Q1010 TEMPO TL0800 7000 -RA
WADD 110530Z 35005KT 310V020 6000 -RA FEW014CB BKN015 25/25 Q1010 TEMPO TL0630 6000 -RA
WADD 110500Z 36004KT 290V010 6000 -RA FEW014CB BKN015 26/26 Q1011 TEMPO TL0600 6000 -RA
WADD 110430Z 30010KT 8000 -RA FEW014CB BKN015 26/25 Q1010 RETS TEMPO TL0530 -RA</description><pubDate>Sun, 12 Jan 2025 04:27:09 </pubDate></item></channel></rss>