<rss version="2.0"><channel><title>Aviation Weather METAR Data for WADD</title><link>https://aviationweather.gov/api/data/metar?ids=WADD&amp;hours=24</link><description>Latest METAR data for WADD</description><item><title>2025-01-09 20:25:20Z</title><link>https://aviationweather.gov/api/data/metar?ids=WADD&amp;hours=24</link><description>WADD 092000Z 17004KT 110V260 3000 TSRA FEW013CB BKN014 25/25 Q1009 TEMPO TL2030 5000 -TSRA RMK CB IN APCH AND CLIMB-OUT
WADD 091930Z VRB04KT 2000 TSRA FEW013CB BKN014 25/24 Q1009 TEMPO TL2030 5000 -TSRA RMK CB IN APCH AND CLIMB-OUT
WADD 091900Z 02006KT 340V040 7000 -TSRA FEW014CB BKN014 26/26 Q1009 TEMPO TL2030 -TSRA
WADD 091830Z 35004KT 280V030 7000 -RA FEW014CB BKN014 26/25 Q1009 TEMPO TL1930 -RA
WADD 091800Z VRB03KT 7000 -RA FEW014CB BKN014 27/25 Q1009 TEMPO TL1930 -RA RMK CB IN APCH
WADD 091730Z 29008KT 250V020 2000 7000W RA FEW014CB BKN014 27/26 Q1009 TEMPO TL1830 4000 RA RMK CB IN APCH AND CLIMB-OUT
WADD 091700Z 25004KT 9999 FEW015CB BKN015 28/27 Q1009 RERA NOSIG
WADD 091630Z 25004KT 220V280 7000 -RA FEW015CB BKN015 28/27 Q1010 TEMPO TL1730 -RA
WADD 091600Z 25005KT 7000 -RA FEW015CB SCT015 28/27 Q1010 RETS TEMPO TL1730 -RA
WADD 091530Z 25004KT 9999 TS FEW015CB SCT016 29/26 Q1010 TEMPO TL1630 TS
WADD 091500Z 24004KT 9999 TS FEW015CB SCT016 28/27 Q1011 TEMPO TL1630 TS
WADD 091430Z 23003KT 9999 FEW015CB SCT016 28/27 Q1011 NOSIG
WADD 091400Z VRB02KT 9999 FEW015CB SCT016 29/26 Q1011 NOSIG
WADD 091330Z VRB02KT 9999 FEW015CB SCT016 29/26 Q1011 NOSIG
WADD 091300Z 24003KT 9999 SCT016 28/26 Q1010 NOSIG
WADD 091230Z 25002KT 9999 SCT016 28/26 Q1010 NOSIG
WADD 091200Z 22003KT 9999 SCT016 29/26 Q1010 NOSIG
WADD 091130Z 23004KT 180V260 9999 BKN014 29/26 Q1009 NOSIG
WADD 091100Z 24003KT 9999 BKN014 29/26 Q1009 NOSIG
WADD 091030Z VRB02KT 9999 BKN014 29/26 Q1009 NOSIG
WADD 091000Z 23005KT 200V260 9999 SCT016 29/26 Q1008 NOSIG
WADD 090930Z 24004KT 190V270 9999 SCT016 29/26 Q1008 NOSIG
WADD 090901Z 26006KT 9999 BKN017 28/27 Q1007 NOSIG
WADD 090830Z 25008KT 220V290 9999 SCT016 29/27 Q1007 NOSIG
WADD 090800Z 26009KT 9999 SCT016 30/27 Q1007 NOSIG
WADD 090730Z 26010KT 9999 FEW015CB SCT015 29/26 Q1007 NOSIG RMK CB IN APCH
WADD 090700Z 25009KT 220V280 9999 FEW015CB FEW016 30/27 Q1007 NOSIG RMK CB IN APCH
WADD 090630Z 27010KT 9999 FEW015CB FEW016 29/27 Q1007 NOSIG
WADD 090600Z 25008KT 210V280 9999 FEW017 30/27 Q1007 NOSIG
WADD 090530Z 25007KT 210V280 9999 FEW017 30/27 Q1008 NOSIG
WADD 090500Z 25007KT 220V280 9999 FEW017 29/26 Q1008 NOSIG
WADD 090430Z 27009KT 230V310 9999 FEW017 30/26 Q1009 NOSIG
WADD 090400Z 26008KT 9999 FEW017 30/27 Q1009 NOSIG
WADD 090330Z 27009KT 230V300 9999 FEW017 29/26 Q1010 NOSIG
WADD 090300Z 27009KT 240V310 9999 FEW017 30/26 Q1010 NOSIG
WADD 090230Z 29009KT 9999 FEW017 30/26 Q1010 NOSIG
WADD 090200Z 29007KT 250V330 9999 FEW017 29/26 Q1010 NOSIG
WADD 090130Z 29008KT 250V310 9999 FEW017 29/26 Q1010 NOSIG
WADD 090100Z 30007KT 9999 FEW017 29/25 Q1010 NOSIG
WADD 090030Z 32006KT 9999 FEW017 28/25 Q1010 NOSIG
WADD 090000Z 32005KT 9999 FEW017 27/25 Q1010 NOSIG
WADD 082330Z 32003KT 9999 FEW017 27/25 Q1010 NOSIG
WADD 082300Z 32005KT 9999 FEW017 26/24 Q1009 NOSIG
WADD 082230Z 29003KT 9999 SCT016 25/24 Q1009 NOSIG
WADD 082200Z 33003KT 9999 SCT016 25/24 Q1009 NOSIG
WADD 082130Z 34009KT 9999 SCT016 25/25 Q1008 NOSIG
WADD 082100Z 33011KT 9999 SCT016 26/26 Q1008 NOSIG
WADD 082030Z 30013KT 9000 SCT016 26/26 Q1008 RERA NOSIG</description><pubDate>Thu, 09 Jan 2025 20:25:20 </pubDate></item></channel></rss>