<rss version="2.0"><channel><title>Aviation Weather METAR Data for WADD</title><link>https://aviationweather.gov/api/data/metar?ids=WADD&amp;hours=24</link><description>Latest METAR data for WADD</description><item><title>2025-12-02 05:28:41Z</title><link>https://aviationweather.gov/api/data/metar?ids=WADD&amp;hours=24</link><description>METAR WADD 020500Z 23006KT 190V260 9999 FEW016CB SCT017 29/26 Q1009 N OSIG
METAR WADD 020430Z 25007KT 190V280 9999 FEW017 30/26 Q1010 NOSIG
METAR WADD 020400Z 13004KT 040V160 9999 FEW017 31/25 Q1010 NOSIG
METAR WADD 020330Z 09003KT 9999 FEW017 30/25 Q1011 NOSIG
METAR WADD 020300Z 10004KT 060V140 9999 FEW017 30/26 Q1011 NOSIG
METAR WADD 020230Z 11003KT 9999 FEW017 30/25 Q1011 NOSIG
METAR WADD 020200Z VRB02KT 9999 SCT016 29/25 Q1011 NOSIG
METAR WADD 020130Z VRB02KT 9999 SCT016 29/25 Q1011 NOSIG
METAR WADD 020100Z VRB02KT 9999 SCT016 28/25 Q1011 NOSIG
METAR WADD 020030Z 30002KT 9999 SCT016 28/25 Q1011 NOSIG
METAR WADD 020000Z 35002KT 9999 BKN016 27/25 Q1011 NOSIG
METAR WADD 012330Z VRB01KT 9999 BKN016 26/25 Q1010 NOSIG
METAR WADD 012300Z 16002KT 9999 BKN016 26/25 Q1010 NOSIG
METAR WADD 012230Z 13002KT 9999 SCT016 25/25 Q1009 NOSIG
METAR WADD 012200Z VRB01KT 9999 SCT016 25/25 Q1009 NOSIG
METAR WADD 012130Z 20002KT 9999 BKN015 25/25 Q1009 NOSIG
METAR WADD 012100Z 32003KT 9999 BKN015 25/25 Q1009 NOSIG
METAR WADD 012030Z 33004KT 9999 BKN015 25/24 Q1009 RERA NOSIG
METAR WADD 012000Z VRB01KT 8000 -RA FEW014CB BKN014 24/24 Q1009 TEMPO TL2100 -RA
METAR WADD 011930Z 05003KT 8000 -RA FEW014CB BKN014 24/24 Q1010 TEMPO TL2030 -RA
METAR WADD 011900Z 06003KT 5000 -RA FEW014CB BKN014 24/24 Q1009 RETS TEMPO TL2030 -RA
METAR WADD 011830Z VRB01KT 5000 -TSRA FEW014CB BKN014 24/24 Q1010 TEMPO TL1930 -TSRA
METAR WADD 011800Z VRB02KT 3000 TSRA FEW014CB BKN014 24/24 Q1010 TEMPO TL1930 6000 -TSRA
METAR WADD 011730Z 02004KT 280V090 5000 TSRA FEW014CB BKN014 24/24 Q1011 TEMPO TL1830 7000 -TSRA
METAR WADD 011700Z 34006KT 300V010 7000 -TSRA FEW014CB BKN014 25/24 Q1011 TEMPO TL1830 -TSRA
METAR WADD 011630Z 35006KT 320V040 5000 TSRA FEW014CB BKN014 25/25 Q1011 TEMPO TL1730 7000 -TSRA
METAR WADD 011600Z 02006KT 310V050 5000 -TSRA FEW014CB BKN014 25/25 Q 1012 TEMPO TL1730 -TSRA
METAR WADD 011530Z 33006KT 280V010 5000 -TSRA FEW014CB BKN014 26/25 Q1012 TEMPO TL1630 -TSRA
METAR WADD 011500Z 04005KT 320V060 2500 TSRA FEW014CB BKN014 26/26 Q1012 TEMPO TL1630 4000 TSRA
METAR WADD 011430Z 18005KT 110V240 2000 TSRA FEW014CB BKN014 26/25 Q1011 TEMPO TL1530 4000 TSRA
METAR WADD 011400Z 05005KT 340V090 7000 -TSRA FEW015CB BKN016 27/25 Q1012 TEMPO TL1530 -TSRA
METAR WADD 011330Z 07005KT 040V120 8000 -RA FEW015CB BKN016 27/25 Q10 11 TEMPO TL1430 -RA
METAR WADD 011300Z VRB02KT 8000 -RA FEW015CB BKN016 28/25 Q1011 TEMPO TL1430 -RA
METAR WADD 011230Z 23006KT 170V290 9999 FEW015CB SCT016 28/24 Q1011 N OSIG
METAR WADD 011200Z VRB02KT 9999 SCT017 29/25 Q1011 NOSIG
METAR WADD 011130Z VRB02KT 9999 SCT016 29/25 Q1010 NOSIG
METAR WADD 011100Z 23004KT 190V250 9999 SCT015 29/25 Q1010 NOSIG
METAR WADD 011030Z 21003KT 9999 SCT016 29/25 Q1009 NOSIG
METAR WADD 011000Z 20003KT 9999 SCT016 29/25 Q1009 NOSIG
METAR WADD 010930Z VRB03KT 9999 FEW015CB SCT016 30/25 Q1009 NOSIG
METAR WADD 010900Z 21005KT 120V280 9999 FEW015CB SCT015 30/25 Q1009 N OSIG
METAR WADD 010830Z VRB04KT 9999 SCT015 31/25 Q1008 NOSIG
METAR WADD 010800Z VRB04KT 9999 SCT015 31/25 Q1008 NOSIG
METAR WADD 010730Z 13013KT 9999 FEW017 31/27 Q1008 NOSIG
METAR WADD 010700Z 26009KT 210V290 9999 SCT016 30/26 Q1008 NOSIG
METAR WADD 010630Z 26010KT 9999 FEW015CB BKN015 30/26 Q1009 NOSIG
METAR WADD 010600Z 26009KT 9999 FEW015CB BKN015 30/26 Q1009 RETS NOSI G
METAR WADD 010530Z 25007KT 210V270 9999 TS FEW015CB BKN016 30/25 Q1010 TEMPO TL0630 TS</description><pubDate>Tue, 02 Dec 2025 05:28:41 </pubDate></item></channel></rss>