<rss version="2.0"><channel><title>Aviation Weather METAR Data for WADD</title><link>https://aviationweather.gov/api/data/metar?ids=WADD&amp;hours=24</link><description>Latest METAR data for WADD</description><item><title>2025-10-20 21:41:21Z</title><link>https://aviationweather.gov/api/data/metar?ids=WADD&amp;hours=24</link><description>METAR WADD 202130Z 36004KT 9999 SCT016 27/25 Q1007 NOSIG
METAR WADD 202100Z 01004KT 9999 SCT016 27/26 Q1007 NOSIG
METAR WADD 202030Z 35005KT SCT016 27/26 Q1006 NOSIG
METAR WADD 202000Z 36005KT 320V020 9999 SCT016 27/26 Q1006 RETS NOSIG
METAR WADD 201930Z 33006KT 9999 TS FEW015CB SCT016 28/26 Q1006 TEMPO TL2030 TS
METAR WADD 201900Z 07006KT 040V130 9999 FEW015CB SCT016 28/27 Q1006 NOSIG
METAR WADD 201830Z 12006KT 9999 FEW015CB SCT016 29/27 Q1006 NOSIG
METAR WADD 201800Z 12006KT 9999 FEW015CB SCT016 28/27 Q1006 RETS NOSIG
METAR WADD 201730Z 12007KT 9999 SCT017 29/27 Q1007 NOSIG
 WADD 201700Z 13008KT 9999 SCT017 29/27 Q1007 NOSIG
METAR WADD 201630Z 12009KT 9999 SCT017 29/27 Q1007 NOSIG
 WADD 201600Z 12008KT 9999 SCT017 29/28 Q1007 NOSIG
METAR WADD 201530Z 12009KT 9999 FEW017 29/27 Q1007 NOSIG
METAR WADD 201500Z 13008KT 9999 FEW017 29/27 Q1008 NOSIG
METAR WADD 201430Z 13009KT 9999 FEW017 29/27 Q1008 NOSIG
METAR WADD 201400Z 12007KT 9999 FEW017 29/27 Q1007 NOSIG
METAR WADD 201330Z 13010KT 9999 FEW017 29/27 Q1007 NOSIG
METAR WADD 201300Z 11009KT 9999 FEW017 29/27 Q1007 NOSIG
METAR WADD 201230Z 12011KT 9999 FEW017 29/27 Q1006 NOSIG
METAR WADD 201200Z 13012KT 9999 FEW017 29/27 Q1006 NOSIG
 WADD 201130Z 12010KT 9999 FEW017 29/27 Q1006 NOSIG
METAR WADD 201100Z 12009KT 9999 FEW017 29/27 Q1005 NOSIG
METAR WADD 201030Z 12009KT 9999 FEW017 30/27 Q1005 NOSIG
METAR WADD 201000Z 13011KT 9999 FEW017 30/27 Q1005 NOSIG
METAR WADD 200930Z 24003KT 9999 FEW017 29/27 Q1005 NOSIG
METAR WADD 200900Z VRB03KT 9999 FEW017 30/27 Q1004 NOSIG
METAR WADD 200830Z 32008KT 9999 SCT016 30/27 Q1004 NOSIG
METAR WADD 200800Z 32010KT 300V020 9999 SCT016 30/27 Q1004 NOSIG
METAR WADD 200730Z 11010KT 9999 SCT016 32/27 Q1004 NOSIG
METAR WADD 200700Z 10010KT 070V130 9999 SCT016 32/26 Q1004 NOSIG
METAR WADD 200630Z 10011KT 9999 SCT016 32/26 Q1005 NOSIG
METAR WADD 200600Z 11012KT 9999 SCT016 32/26 Q1005 NOSIG
 WADD 200530Z 12012KT 9999 FEW017 33/26 Q1005 NOSIG
METAR WADD 200500Z 11011KT 9999 FEW017 32/26 Q1005 NOSIG
METAR WADD 200430Z 12012KT 9999 FEW017 32/26 Q1006 NOSIG
METAR WADD 200400Z 14010KT 9999 FEW017 32/27 Q1006 NOSIG
METAR WADD 200330Z 11010KT 9999 FEW017 32/27 Q1007 NOSIG
METAR WADD 200300Z 23004KT 9999 FEW017 30/27 Q1007 NOSIG
METAR WADD 200230Z 24004KT 9999 FEW017 30/27 Q1007 NOSIG
METAR WADD 200200Z 25005KT 9999 FEW017 30/27 Q1008 NOSIG
METAR WADD 200130Z 30005KT 9999 FEW017 30/27 Q1008 NOSIG
METAR WADD 200100Z 32005KT 280V020 9999 FEW016 29/26 Q1008 NOSIG
METAR WADD 200030Z 31005KT 280V340 9999 FEW016 29/26 Q1008 NOSIG
METAR WADD 200000Z 29004KT 250V310 9999 FEW016 28/26 Q1008 NOSIG
METAR WADD 192330Z VRB02KT 9999 FEW016 28/26 Q1007 NOSIG
METAR WADD 192300Z VRB01KT 9999 FEW016 28/26 Q1007 NOSIG
METAR WADD 192230Z VRB02KT 9999 FEW016 27/25 Q1007 NOSIG
METAR WADD 192200Z 02003KT 9999 FEW016 27/25 Q1006 NOSIG</description><pubDate>Mon, 20 Oct 2025 21:41:21 </pubDate></item></channel></rss>