<rss version="2.0"><channel><title>Aviation Weather METAR Data for WADD</title><link>https://aviationweather.gov/api/data/metar?ids=WADD&amp;hours=24</link><description>Latest METAR data for WADD</description><item><title>2025-06-24 17:46:02Z</title><link>https://aviationweather.gov/api/data/metar?ids=WADD&amp;hours=24</link><description>WADD 241700Z 12013KT 9999 FEW017 27/24 Q1013 NOSIG
WADD 241630Z 12016KT 9999 FEW017 27/24 Q1013 NOSIG
WADD 241600Z 13015KT 9999 FEW017 27/24 Q1013 NOSIG
WADD 241530Z 13014KT 9999 SCT016 27/24 Q1013 NOSIG
WADD 241500Z 13017KT 9999 SCT016 27/24 Q1013 NOSIG
WADD 241430Z 13012KT 9999 SCT016 27/24 Q1013 NOSIG
WADD 241400Z 13015KT 9999 SCT016 27/24 Q1013 NOSIG
WADD 241330Z 13016KT 9999 SCT016 27/25 Q1013 NOSIG
WADD 241300Z 13016KT 9999 SCT016 27/24 Q1012 NOSIG
WADD 241230Z 14017KT 9999 SCT016 27/24 Q1012 NOSIG
WADD 241200Z 14016KT 9999 BKN016 27/24 Q1012 NOSIG
WADD 241130Z 14014KT 9999 SCT016 27/24 Q1011 NOSIG
WADD 241100Z 13011KT 9999 FEW016 27/24 Q1011 NOSIG
WADD 241030Z 14013KT 9999 FEW016 27/24 Q1011 NOSIG
WADD 241000Z 14016KT 9999 FEW016 28/24 Q1010 NOSIG
WADD 240930Z 14016KT 9999 FEW016 28/24 Q1010 NOSIG
WADD 240900Z 14014KT 9999 FEW016 28/24 Q1010 NOSIG
WADD 240830Z 14016KT 9999 SCT016 28/24 Q1010 NOSIG
WADD 240800Z 13016KT 9999 SCT016 29/24 Q1010 NOSIG
WADD 240730Z 13016KT 9999 SCT016 28/24 Q1010 NOSIG
WADD 240700Z 14016KT 9999 SCT016 28/24 Q1010 NOSIG
WADD 240630Z 13016KT 9999 SCT016 29/24 Q1010 NOSIG
WADD 240600Z 13015KT 9999 SCT016 28/24 Q1011 NOSIG
WADD 240530Z 13016KT 9999 FEW016 29/24 Q1011 NOSIG
WADD 240500Z 14015KT 9999 FEW016 29/24 Q1012 NOSIG
WADD 240430Z 13015KT 9999 FEW016 28/24 Q1012 NOSIG
WADD 240400Z 13014KT 9999 FEW016 29/24 Q1012 NOSIG
WADD 240330Z 13015KT 9999 FEW016 29/24 Q1013 NOSIG
WADD 240300Z 14015KT 9999 FEW016 28/24 Q1013 NOSIG
WADD 240230Z 14016KT 9999 FEW017 28/24 Q1013 NOSIG
WADD 240200Z 14015KT 9999 FEW017 28/24 Q1013 NOSIG
WADD 240130Z 13012KT 9999 FEW017 28/23 Q1014 NOSIG
WADD 240100Z 13012KT 9999 FEW017 28/24 Q1013 NOSIG
WADD 240030Z 12010KT 9999 FEW017 28/23 Q1013 NOSIG
WADD 240000Z 12007KT 9999 FEW017 27/23 Q1013 NOSIG
WADD 232330Z 13007KT 9999 FEW017 27/23 Q1012 NOSIG
WADD 232300Z 13009KT 9999 FEW017 26/23 Q1012 NOSIG
WADD 232230Z 13010KT 9999 SCT016 26/23 Q1012 NOSIG
WADD 232200Z 13010KT 9999 SCT016 26/23 Q1012 NOSIG
WADD 232130Z 13011KT 9999 SCT016 27/23 Q1012 NOSIG
WADD 232100Z 13010KT 9999 SCT016 26/23 Q1011 NOSIG
WADD 232030Z 13011KT 9999 SCT016 26/23 Q1011 NOSIG
WADD 232000Z 12011KT 9999 SCT016 26/23 Q1012 NOSIG
WADD 231930Z 12010KT 9999 SCT016 26/22 Q1011 NOSIG
WADD 231900Z 12010KT 9999 SCT016 27/23 Q1012 NOSIG
WADD 231830Z 13012KT 9999 FEW016 27/23 Q1012 NOSIG
WADD 231800Z 12013KT 9999 FEW016 27/23 Q1012 NOSIG</description><pubDate>Tue, 24 Jun 2025 17:46:02 </pubDate></item></channel></rss>