<rss version="2.0"><channel><title>Aviation Weather METAR Data for WADD</title><link>https://aviationweather.gov/api/data/metar?ids=WADD&amp;hours=24</link><description>Latest METAR data for WADD</description><item><title>2025-11-14 11:41:42Z</title><link>https://aviationweather.gov/api/data/metar?ids=WADD&amp;hours=24</link><description>METAR WADD 141130Z 25007KT 9999 SCT015 28/24 Q1008 NOSIG
METAR WADD 141100Z 25008KT 9999 SCT015 28/24 Q1008 NOSIG
METAR WADD 141030Z 25008KT 9999 SCT015 28/24 Q1008 NOSIG
METAR WADD 141000Z 25008KT 9999 SCT016 29/24 Q1008 NOSIG
METAR WADD 140930Z 25010KT 9999 SCT016 29/24 Q1007 NOSIG
METAR WADD 140900Z 24011KT 220V280 9999 SCT015 29/24 Q1007 NOSIG
METAR WADD 140830Z 25010KT 9999 FEW016CB SCT016 29/24 Q1007 NOSIG
METAR WADD 140800Z 25011KT 9999 FEW015CB SCT015 30/25 Q1006 NOSIG
METAR WADD 140730Z 26012KT 9999 FEW015CB SCT016 30/25 Q1006 NOSIG
METAR WADD 140700Z 26014KT 9999 FEW015CB SCT016 30/25 Q1006 NOSIG
METAR WADD 140630Z 26014KT 9999 FEW015CB BKN015 30/25 Q1006 NOSIG
METAR WADD 140600Z 26014KT 9999 FEW016CB BKN016 31/25 Q1006 NOSIG
METAR WADD 140530Z 26012KT 9999 FEW015CB BKN016 30/25 Q1007 NOSIG
METAR WADD 140500Z 32012KT 290V360 9999 FEW015CB BKN016 28/25 Q1007 N OSIG
METAR WADD 140430Z 31012KT 9999 FEW015CB SCT016 29/25 Q1008 NOSIG
METAR WADD 140400Z 26016KT 9999 FEW015CB SCT016 31/25 Q1008 NOSIG
METAR WADD 140330Z 25013KT 9999 FEW015CB SCT016 31/26 Q1008 NOSIG
METAR WADD 140300Z 24012KT 9999 SCT016 30/25 Q1008 NOSIG
METAR WADD 140230Z 27014KT 9999 SCT016 30/25 Q1008 NOSIG
METAR WADD 140200Z 27014KT 9999 SCT016 30/25 Q1009 NOSIG
METAR WADD 140130Z 27013KT 9999 SCT016 29/25 Q1009 NOSIG
METAR WADD 140100Z 26014KT 9999 SCT016 29/25 Q1009 NOSIG
METAR WADD 140030Z 28013KT 9999 SCT016 29/24 Q1008 NOSIG
METAR WADD 140000Z 28013KT 9999 SCT017 29/24 Q1008 NOSIG
METAR WADD 132330Z 28014KT 9999 SCT017 29/24 Q1008 NOSIG
METAR WADD 132300Z 28014KT 9999 SCT017 28/24 Q1008 NOSIG
METAR WADD 132230Z 28014KT 9999 SCT017 28/24 Q1007 NOSIG
METAR WADD 132200Z 28014KT 9999 SCT016 27/24 Q1007 NOSIG
METAR WADD 132130Z 28016KT 9999 SCT016 28/24 Q1007 NOSIG
METAR WADD 132100Z 27016KT 9999 FEW017 27/24 Q1007 NOSIG
METAR WADD 132030Z 27015KT 9999 FEW017 27/24 Q1006 NOSIG
METAR WADD 132000Z 27015KT 9999 FEW017 27/24 Q1007 NOSIG
METAR WADD 131930Z 27017KT 9999 FEW017 27/23 Q1006 NOSIG
METAR WADD 131900Z 26015KT 9999 SCT016 28/24 Q1007 NOSIG
METAR WADD 131830Z 26013KT 9999 SCT016 28/24 Q1007 NOSIG
METAR WADD 131800Z 26014KT 9999 SCT016 28/24 Q1007 NOSIG
METAR WADD 131730Z 26015KT 9999 SCT016 28/25 Q1007 NOSIG
METAR WADD 131700Z 26017KT 9999 SCT016 28/25 Q1008 NOSIG
METAR WADD 131630Z 26017KT 9999 SCT016 28/25 Q1008 NOSIG
METAR WADD 131600Z 27015KT 9999 BKN015 28/25 Q1008 NOSIG
METAR WADD 131530Z 27015KT 9999 FEW014CB BKN014 28/25 Q1009 RERA NOSI G
METAR WADD 131500Z 26015KT 7000 -RA FEW014CB BKN014 28/25 Q1009 TEMPO TL1600 7000 -RA
METAR WADD 131430Z 27015KT 9999 BKN016 29/25 Q1009 NOSIG
METAR WADD 131400Z 27017KT 9999 SCT016 28/25 Q1009 NOSIG
METAR WADD 131330Z 28017KT 9999 SCT016 28/25 Q1009 NOSIG
METAR WADD 131300Z 28017KT 9999 SCT016 28/25 Q1009 NOSIG
METAR WADD 131230Z 28015KT 9999 SCT016 28/25 Q1008 NOSIG
METAR WADD 131200Z 27015KT 9999 FEW017 28/25 Q1008 NOSIG</description><pubDate>Fri, 14 Nov 2025 11:41:42 </pubDate></item></channel></rss>