<rss version="2.0"><channel><title>Aviation Weather METAR Data for WADD</title><link>https://aviationweather.gov/api/data/metar?ids=WADD&amp;hours=24</link><description>Latest METAR data for WADD</description><item><title>2025-06-05 23:44:20Z</title><link>https://aviationweather.gov/api/data/metar?ids=WADD&amp;hours=24</link><description>WADD 052330Z 12003KT 9999 FEW024 26/24 Q1012 NOSIG
WADD 052300Z VRB01KT 9999 FEW017 25/23 Q1012 NOSIG
WADD 052230Z 06003KT 9999 FEW017 25/23 Q1011 NOSIG
WADD 052200Z 06003KT 9999 FEW017 24/23 Q1011 NOSIG
WADD 052130Z 08003KT 9999 FEW017 25/24 Q1011 NOSIG
WADD 052100Z VRB01KT 9999 FEW017 25/23 Q1011 NOSIG
WADD 052030Z VRB01KT 9999 FEW017 26/24 Q1011 NOSIG
WADD 052000Z 07004KT 9999 FEW017 25/24 Q1011 NOSIG
WADD 051930Z 06005KT 9999 SCT017 25/24 Q1011 NOSIG
WADD 051900Z 07006KT 9999 SCT017 26/24 Q1011 NOSIG
WADD 051830Z 04004KT 9999 SCT016 26/24 Q1011 NOSIG
WADD 051800Z 02004KT 9999 SCT016 26/24 Q1011 NOSIG
WADD 051730Z 02005KT 9999 SCT017 26/24 Q1012 NOSIG
WADD 051700Z 03006KT 9999 FEW017 27/24 Q1012 NOSIG
WADD 051630Z 06006KT 010V100 9999 FEW017 27/24 Q1012 NOSIG
WADD 051600Z 06006KT 9999 FEW017 27/24 Q1012 NOSIG
WADD 051530Z 08007KT 9999 FEW017 27/24 Q1012 NOSIG
WADD 051500Z 08007KT 9999 FEW017 27/24 Q1012 NOSIG
WADD 051430Z 12007KT 9999 FEW017 28/25 Q1012 NOSIG
WADD 051400Z 11007KT 9999 FEW017 28/24 Q1012 NOSIG
WADD 051330Z 12009KT 9999 FEW017 28/24 Q1012 NOSIG
WADD 051300Z 13008KT 9999 FEW017 28/25 Q1012 NOSIG
WADD 051230Z 13008KT 9999 FEW017 28/25 Q1012 NOSIG
WADD 051200Z 13006KT 9999 FEW017 28/25 Q1011 NOSIG
WADD 051130Z 13007KT 9999 FEW017 28/24 Q1011 NOSIG
WADD 051100Z 13009KT 9999 FEW017 28/25 Q1011 NOSIG
WADD 051030Z 13008KT 9999 FEW017 28/25 Q1010 NOSIG
WADD 051000Z 13006KT 9999 FEW017 29/25 Q1010 NOSIG
WADD 050930Z 13010KT 9999 SCT017 29/25 Q1010 NOSIG
WADD 050900Z 14011KT 9999 SCT017 29/25 Q1010 NOSIG
WADD 050830Z 13010KT 9999 FEW017 30/25 Q1010 NOSIG
WADD 050800Z 14010KT 9999 SCT017 29/25 Q1010 NOSIG
WADD 050730Z 15010KT 9999 FEW017 30/25 Q1010 NOSIG
WADD 050700Z 14012KT 9999 FEW017 30/25 Q1010 NOSIG
WADD 050630Z 10008KT 060V130 9999 FEW017 31/25 Q1010 NOSIG
WADD 050600Z 11008KT 9999 FEW017 30/24 Q1011 NOSIG
WADD 050530Z 11009KT 9999 FEW017 31/24 Q1011 NOSIG
WADD 050500Z 11010KT 080V150 9999 FEW017 31/25 Q1011 NOSIG
WADD 050430Z 12009KT 090V150 9999 FEW017 31/25 Q1012 NOSIG
WADD 050400Z 12008KT 090V150 9999 FEW017 30/25 Q1012 NOSIG
WADD 050330Z 13007KT 9999 FEW017 30/24 Q1012 NOSIG
WADD 050300Z 12008KT 9999 FEW016 30/24 Q1013 NOSIG
WADD 050230Z 11008KT 070V150 9999 SCT017 30/25 Q1013 NOSIG
WADD 050200Z 14007KT 9999 SCT017 29/25 Q1013 NOSIG
WADD 050130Z 12006KT 9999 SCT017 29/24 Q1013 NOSIG
WADD 050100Z 12004KT 080V160 9999 FEW016 29/24 Q1013 NOSIG
WADD 050030Z VRB01KT 9999 FEW016 28/24 Q1013 NOSIG
WADD 050000Z 03002KT 9999 FEW016 27/25 Q1013 NOSIG</description><pubDate>Thu, 05 Jun 2025 23:44:20 </pubDate></item></channel></rss>