<rss version="2.0"><channel><title>Aviation Weather METAR Data for WADD</title><link>https://aviationweather.gov/api/data/metar?ids=WADD&amp;hours=24</link><description>Latest METAR data for WADD</description><item><title>2025-10-15 09:44:35Z</title><link>https://aviationweather.gov/api/data/metar?ids=WADD&amp;hours=24</link><description>METAR WADD 150930Z 13012KT 9999 SCT016 29/26 Q1006 NOSIG
METAR WADD 150900Z 13013KT 9999 SCT016 30/26 Q1006 NOSIG
METAR WADD 150830Z 13015KT 9999 FEW017 30/26 Q1006 NOSIG
METAR WADD 150800Z 13015KT 9999 FEW017 30/26 Q1005 NOSIG
METAR WADD 150730Z 14017KT 9999 FEW017 31/26 Q1005 NOSIG
METAR WADD 150700Z 13018KT 9999 FEW017 31/25 Q1006 NOSIG
METAR WADD 150630Z 14016KT 9999 SCT017 31/26 Q1006 NOSIG
METAR WADD 150330Z 10013KT 9999 FEW017 32/26 Q1008 NOSIG
METAR WADD 150300Z 12014KT 9999 FEW017 31/26 Q1008 NOSIG
METAR WADD 150230Z 11012KT 9999 FEW017 31/25 Q1009 NOSIG
METAR WADD 150200Z 11011KT 9999 FEW016 31/26 Q1009 NOSIG
METAR WADD 150130Z 10010KT 9999 SCT016 30/26 Q1009 NOSIG
METAR WADD 150100Z 11011KT 9999 SCT016 30/26 Q1009 NOSIG
METAR WADD 150030Z 11009KT 9999 SCT016 30/26 Q1009 NOSIG
METAR WADD 150000Z 13005KT 9999 SCT016 29/27 Q1009 NOSIG
METAR WADD 142330Z 12006KT 9999 SCT016 28/26 Q1009 NOSIG
METAR WADD 142300Z 11005KT 060V120 9999 FEW016 28/27 Q1009 NOSIG
METAR WADD 142230Z 09006KT 9999 SCT016 27/27 Q1008 NOSIG
METAR WADD 142200Z 09005KT 9999 BKN016 27/26 Q1008 NOSIG
 WADD 142130Z 08006KT 9999 SCT016 27/26 Q1008 NOSIG
METAR WADD 142100Z 13004KT 9999 BKN016 28/26 Q1008 NOSIG
METAR WADD 142030Z 15005KT 9999 BKN016 28/27 Q1007 NOSIG
METAR WADD 142000Z 15005KT 9999 BKN016 28/27 Q1007 NOSIG
 WADD 141930Z 16005KT 9999 SCT016 28/27 Q1007 NOSIG
METAR WADD 141900Z 12004KT 9999 SCT016 28/26 Q1007 NOSIG
METAR WADD 141830Z 10005KT 9999 SCT016 28/26 Q1008 NOSIG
METAR WADD 141800Z 09008KT 9999 SCT016 27/26 Q1007 NOSIG
METAR WADD 141730Z 13008KT 9999 SCT016 28/27 Q1008 NOSIG
METAR WADD 141700Z 11009KT 9999 FEW015CB SCT016 28/26 Q1008 NOSIG
METAR WADD 141630Z 09008KT 9999 FEW015CB SCT016 28/27 Q1008 NOSIG
METAR WADD 141600Z 09011KT 9999 FEW015CB SCT016 28/27 Q1008 NOSIG
METAR WADD 141530Z 10007KT 9999 SCT016 28/27 Q1009 NOSIG
METAR WADD 141500Z 11007KT 9999 SCT016 28/27 Q1009 NOSIG
METAR WADD 141430Z 12008KT 9999 SCT016 28/27 Q1009 NOSIG
METAR WADD 141400Z 13009KT 9999 SCT016 29/27 Q1009 NOSIG
METAR WADD 141330Z 11010KT 9999 SCT016 29/27 Q1009 NOSIG
METAR WADD 141300Z 11008KT 9999 SCT016 29/27 Q1009 NOSIG
METAR WADD 141230Z 13012KT 9999 SCT016 29/27 Q1009 NOSIG
METAR WADD 141200Z 13009KT 9999 SCT016 29/27 Q1009 NOSIG
METAR WADD 141130Z 14010KT 9999 SCT016 29/27 Q1009 NOSIG
METAR WADD 141100Z 14010KT 9999 SCT016 29/27 Q1009 NOSIG
METAR WADD 141030Z 15011KT 9999 SCT016 29/27 Q1008 NOSIG
METAR WADD 141000Z 15012KT 9999 SCT016 29/27 Q1008 NOSIG</description><pubDate>Wed, 15 Oct 2025 09:44:35 </pubDate></item></channel></rss>