<rss version="2.0"><channel><title>Aviation Weather METAR Data for WADD</title><link>https://aviationweather.gov/api/data/metar?ids=WADD&amp;hours=24</link><description>Latest METAR data for WADD</description><item><title>2025-01-05 08:42:45Z</title><link>https://aviationweather.gov/api/data/metar?ids=WADD&amp;hours=24</link><description>WADD 050830Z 25006KT 9999 SCT016 28/25 Q1006 NOSIG
WADD 050800Z 25006KT 9999 SCT016 29/25 Q1006 NOSIG
WADD 050730Z 27006KT 9999 SCT016 29/25 Q1006 NOSIG
WADD 050700Z 27006KT 9999 SCT016 29/25 Q1006 NOSIG
WADD 050630Z 24005KT 9999 SCT016 29/25 Q1007 NOSIG
WADD 050600Z 26006KT 9999 SCT016 29/25 Q1007 NOSIG
WADD 050530Z 25006KT 9999 SCT016 29/25 Q1007 NOSIG
WADD 050500Z 27007KT 230V300 9999 SCT016 29/25 Q1008 NOSIG
WADD 050430Z 25006KT 220V290 9999 SCT016 28/25 Q1008 NOSIG
WADD 050400Z 27007KT 9999 SCT016 28/24 Q1009 NOSIG
WADD 050330Z 28007KT 9999 SCT016 28/24 Q1009 NOSIG
WADD 050300Z 31006KT 9999 SCT016 29/24 Q1009 NOSIG
WADD 050230Z 30006KT 9999 SCT016 27/24 Q1010 NOSIG
WADD 050200Z 31006KT 290V010 9999 SCT016 26/25 Q1010 NOSIG
WADD 050130Z 33005KT 9999 SCT016 25/24 Q1010 RERA NOSIG
WADD 050100Z 34005KT 300V030 8000 -RA BKN016 24/24 Q1010 TEMPO TL0200 -RA
WADD 050030Z 33007KT 6000 -RA BKN010 FEW014CB 24/23 Q1010 TEMPO TL0130 6000 -RA
WADD 050000Z 32006KT 3000 RA BKN010 FEW014CB 24/23 Q1010 TEMPO TL0100 3000 RA
WADD 042330Z 31007KT 1500 +RA FEW014CB BKN015 24/23 Q1010 TEMPO TL2430 1500 +RA
WADD 042300Z 01004KT 340V040 7000 -RA FEW014CB BKN015 23/23 Q1010 TEMPO TL2400 -RA
WADD 042230Z 36004KT 320V040 2500 RA FEW014CB BKN015 24/23 Q1009 TEMPO TL2330 2500 RA
WADD 042200Z 02003KT 7000 -RA FEW014CB BKN015 24/23 Q1009 TEMPO TL2300 -RA
WADD 042130Z 13010G18KT 3000 +RA FEW014CB BKN015 24/23 Q1008 TEMPO TL2230 5000 RA RMK CB IN APCH AND CLIMB-OUT
WADD 042100Z 04003KT 9999 FEW015CB SCT016 25/24 Q1007 NOSIG
WADD 042030Z VRB01KT 9999 FEW015CB SCT016 25/24 Q1007 NOSIG
WADD 042000Z 31003KT 9999 SCT016 25/24 Q1007 NOSIG
WADD 041930Z 32004KT 9999 SCT016 25/24 Q1007 NOSIG
WADD 041900Z 34004KT 320V030 9999 SCT017 25/25 Q1007 NOSIG
WADD 041830Z 32003KT 9999 SCT017 26/25 Q1007 NOSIG
WADD 041800Z 28006KT 9999 SCT017 26/25 Q1008 NOSIG
WADD 041730Z 27006KT 9999 SCT017 26/25 Q1008 NOSIG
WADD 041700Z 29007KT 9999 SCT017 26/25 Q1008 NOSIG
WADD 041630Z 29008KT 9999 SCT017 27/25 Q1008 NOSIG
WADD 041600Z 29006KT 9999 SCT017 26/25 Q1008 NOSIG
WADD 041530Z 30006KT 9999 SCT017 26/25 Q1009 NOSIG
WADD 041500Z 30007KT 9999 SCT017 26/25 Q1009 NOSIG
WADD 041430Z 31007KT 280V350 9999 SCT016 27/25 Q1009 NOSIG
WADD 041400Z 31007KT 9999 SCT016 26/24 Q1009 NOSIG
WADD 041330Z 32006KT 9999 SCT016 26/24 Q1009 NOSIG
WADD 041300Z 33006KT 9999 SCT016 26/24 Q1009 NOSIG
WADD 041230Z 33005KT 260V350 9999 SCT016 26/24 Q1008 NOSIG
WADD 041200Z 33004KT 9999 SCT016 25/24 Q1008 NOSIG
WADD 041130Z 32004KT 9999 SCT016 25/25 Q1008 NOSIG
WADD 041100Z 32004KT 9999 SCT016 25/24 Q1007 NOSIG
WADD 041030Z 32007KT 9999 SCT016 25/24 Q1007 NOSIG
WADD 041000Z 30007KT 9999 SCT016 26/24 Q1007 NOSIG
WADD 040930Z 30005KT 9999 BKN016 26/24 Q1007 NOSIG
WADD 040900Z 26007KT 9999 BKN016 25/24 Q1007 NOSIG</description><pubDate>Sun, 05 Jan 2025 08:42:45 </pubDate></item></channel></rss>