<rss version="2.0"><channel><title>Aviation Weather METAR Data for WADD</title><link>https://aviationweather.gov/api/data/metar?ids=WADD&amp;hours=24</link><description>Latest METAR data for WADD</description><item><title>2025-10-06 03:06:39Z</title><link>https://aviationweather.gov/api/data/metar?ids=WADD&amp;hours=24</link><description>METAR WADD 060300Z 11010KT 9999 FEW017 30/26 Q1014 NOSIG
METAR WADD 060230Z 11009KT 9999 FEW017 30/26 Q1014 NOSIG
 WADD 060200Z 11005KT 9999 FEW017 30/26 Q1014 NOSIG
METAR WADD 060130Z 09005KT 9999 SCT017 29/26 Q1014 NOSIG
METAR WADD 060100Z 01005KT 9999 SCT017 28/25 Q1014 NOSIG
METAR WADD 060030Z 26004KT 9999 SCT017 27/25 Q1014 NOSIG
METAR WADD 060000Z 17004KT 9999 FEW015CB SCT016 26/25 Q1014 NOSIG
METAR WADD 052330Z 21011KT 9999 FEW016CB SCT017 26/24 Q1014 RETS NOSIG
METAR WADD 052300Z 20008KT 9999 TS FEW016CB BKN016 25/24 Q1013 TEMPO TL24000 TS
METAR WADD 052230Z 13004KT 080V160 6000 -TSRA FEW015CB BKN015 25/24 Q1013 TEMPO TL2330 6000 -TSRA RMK CB IN APCH
METAR WADD 052200Z 02003KT 3000 RA FEW015CB BKN015 25/24 Q1013 TEMPO TL2300 5000 RA RMK CB IN CLIMB-OUT
METAR WADD 052130Z VRB01KT 9999 FEW015CB BKN016 24/23 Q1012 RERA NOSIG
METAR WADD 052100Z 10015KT 030V130 1000 +TSRA FEW015CB BKN015 26/25 Q1013 TEMPO TL2200 1000 +TSRA RMK CB IN CLIMB-OUT
METAR WADD 052030Z 03003KT 9999 FEW016CB SCT016 27/25 Q1012 NOSIG
METAR WADD 052000Z 13004KT 9999 FEW016CB SCT016 27/26 Q1012 NOSIG
METAR WADD 051930Z 14005KT 9999 FEW016CB SCT016 27/26 Q1012 NOSIG
METAR WADD 051900Z 14004KT 9999 FEW016CB SCT016 27/26 Q1012 NOSIG
METAR WADD 051830Z 14003KT 9999 SCT016 27/26 Q1012 NOSIG
METAR WADD 051800Z 12003KT 9999 SCT016 27/26 Q1013 NOSIG
METAR WADD 051730Z 13008KT 9999 BKN016 28/26 Q1013 NOSIG
METAR WADD 051700Z 13008KT 9999 BKN016 28/26 Q1013 NOSIG
METAR WADD 051630Z 14007KT 9999 BKN016 28/26 Q1013 NOSIG
METAR WADD 051600Z 14007KT 9999 BKN016 28/26 Q1013 NOSIG
METAR WADD 051530Z 14008KT 9999 SCT016 28/26 Q1013 NOSIG
METAR WADD 051500Z 14007KT 9999 SCT016 28/26 Q1014 NOSIG
METAR WADD 051430Z 14007KT 9999 SCT016 28/26 Q1014 NOSIG
METAR WADD 051400Z 14008KT 9999 SCT016 28/26 Q1014 NOSIG
METAR WADD 051330Z 14005KT 9999 SCT016 28/26 Q1013 NOSIG
METAR WADD 051300Z 14005KT 9999 SCT016 28/26 Q1013 NOSIG
METAR WADD 051230Z 16005KT 9999 SCT016 28/26 Q1013 NOSIG
METAR WADD 051200Z 15006KT 9999 SCT016 28/26 Q1012 NOSIG
METAR WADD 051130Z 15007KT 9999 SCT016 28/26 Q1012 NOSIG
METAR WADD 051100Z 15009KT 9999 SCT016 29/26 Q1011 NOSIG
METAR WADD 051030Z 16007KT 9999 SCT016 29/26 Q1011 NOSIG
METAR WADD 051000Z 19009KT 9999 FEW016CB SCT017 29/26 Q1011 NOSIG
METAR WADD 050930Z 17009KT 9999 FEW016CB SCT017 30/26 Q1011 NOSIG
METAR WADD 050900Z 18007KT 9999 FEW016CB SCT017 30/26 Q1010 NOSIG
METAR WADD 050830Z 16008KT 9999 SCT017 31/26 Q1010 NOSIG
METAR WADD 050800Z 16008KT 9999 SCT017 31/26 Q1010 NOSIG
METAR WADD 050730Z 16008KT 9999 SCT017 31/26 Q1010 NOSIG
METAR WADD 050700Z 16007KT 9999 SCT017 31/25 Q1010 NOSIG
 WADD 050630Z 15009KT 9999 FEW017 31/26 Q1010 NOSIG
METAR WADD 050600Z 14010KT 090V160 9999 FEW017 31/26 Q1011 NOSIG
METAR WADD 050530Z 15007KT 9999 FEW017 32/26 Q1011 NOSIG
METAR WADD 050500Z 11010KT 9999 FEW017 32/26 Q1012 NOSIG
METAR WADD 050430Z 15008KT 9999 FEW017 31/26 Q1012 NOSIG
METAR WADD 050400Z VRB03KT 9999 FEW017 30/26 Q1012 NOSIG
METAR WADD 050330Z 25005KT 9999 FEW017 30/26 Q1013 NOSIG</description><pubDate>Mon, 06 Oct 2025 03:06:39 </pubDate></item></channel></rss>