<rss version="2.0"><channel><title>Aviation Weather METAR Data for WADD</title><link>https://aviationweather.gov/api/data/metar?ids=WADD&amp;hours=24</link><description>Latest METAR data for WADD</description><item><title>2025-07-22 08:38:34Z</title><link>https://aviationweather.gov/api/data/metar?ids=WADD&amp;hours=24</link><description>WADD 220800Z 12013KT 9999 FEW017 29/24 Q1008 NOSIG
WADD 220730Z 12013KT 9999 FEW017 29/23 Q1008 NOSIG
WADD 220700Z 12013KT 9999 FEW017 29/24 Q1008 NOSIG
WADD 220630Z 13013KT 9999 FEW017 29/23 Q1008 NOSIG
WADD 220600Z 11013KT 9999 FEW017 30/24 Q1009 NOSIG
WADD 220530Z 11012KT 070V140 9999 FEW017 29/24 Q1009 NOSIG
WADD 220500Z 11012KT 9999 FEW017 30/24 Q1010 NOSIG
WADD 220430Z 11011KT 9999 SCT017 29/24 Q1010 NOSIG
WADD 220400Z 11008KT 9999 SCT017 29/24 Q1011 NOSIG
WADD 220330Z 11006KT 070V130 9999 SCT017 29/24 Q1011 NOSIG
WADD 220300Z 11006KT 070V140 9999 SCT017 29/24 Q1011 NOSIG
WADD 220230Z 11006KT 070V140 9999 FEW017 28/24 Q1012 NOSIG
WADD 220200Z 08004KT 010V140 9999 FEW017 28/24 Q1012 NOSIG
WADD 220130Z VRB04KT 9999 FEW017 28/23 Q1012 NOSIG
WADD 220100Z VRB01KT 9999 FEW017 27/23 Q1012 NOSIG
WADD 220030Z VRB01KT 9999 FEW017 26/23 Q1012 NOSIG
WADD 220000Z VRB01KT 9999 SCT017 25/23 Q1012 NOSIG
WADD 212330Z VRB01KT 9999 SCT016 24/23 Q1011 NOSIG
WADD 212300Z VRB02KT 9999 SCT016 24/22 Q1011 NOSIG
WADD 212230Z VRB02KT 9999 SCT016 24/22 Q1011 NOSIG
WADD 212200Z 36003KT 9999 SCT016 23/23 Q1010 NOSIG
WADD 212130Z 36004KT 9999 BKN017 23/23 Q1010 NOSIG
WADD 212100Z 35004KT 9999 BKN017 24/24 Q1010 NOSIG
WADD 212030Z 34004KT 9999 SCT017 24/24 Q1010 NOSIG
WADD 212000Z 32003KT 9999 BKN017 24/24 Q1010 NOSIG
WADD 211930Z 33004KT 9999 SCT017 24/24 Q1010 NOSIG
WADD 211900Z 30002KT 9999 BKN017 24/24 Q1011 NOSIG
WADD 211830Z 31002KT 9999 BKN017 24/24 Q1011 NOSIG
WADD 211800Z 32003KT 9999 BKN017 25/24 Q1011 NOSIG
WADD 211730Z 28004KT 9999 BKN017 25/24 Q1011 NOSIG
WADD 211700Z VRB01KT 9999 SCT017 26/24 Q1011 NOSIG
WADD 211630Z 34003KT 9999 SCT017 26/24 Q1011 NOSIG
WADD 211600Z 11001KT 9999 BKN017 26/23 Q1012 NOSIG
WADD 211530Z VRB01KT 9999 BKN017 26/24 Q1012 NOSIG
WADD 211500Z 18003KT 9999 BKN017 26/24 Q1011 NOSIG
WADD 211430Z 14003KT 9999 SCT017 26/24 Q1012 NOSIG
WADD 211400Z 13003KT 9999 SCT017 26/24 Q1011 NOSIG
WADD 211330Z 15004KT 9999 BKN017 26/24 Q1011 NOSIG
WADD 211300Z 16004KT 9999 BKN017 26/24 Q1011 NOSIG
WADD 211230Z 17005KT 9999 BKN017 26/24 Q1011 NOSIG
WADD 211200Z 21005KT 9999 BKN017 26/24 Q1011 NOSIG
WADD 211130Z 21005KT 9999 SCT016 26/24 Q1010 NOSIG
WADD 211100Z 20006KT 9999 BKN016 26/24 Q1010 NOSIG
WADD 211030Z 18008KT 9999 BKN016 26/24 Q1010 NOSIG
WADD 211000Z 17008KT 9999 BKN016 27/24 Q1010 NOSIG
WADD 210930Z 17011KT 9999 SCT015 27/24 Q1010 NOSIG
WADD 210900Z 17010KT 9999 SCT016 27/24 Q1009 NOSIG</description><pubDate>Tue, 22 Jul 2025 08:38:34 </pubDate></item></channel></rss>