<rss version="2.0"><channel><title>Aviation Weather METAR Data for WADD</title><link>https://aviationweather.gov/api/data/metar?ids=WADD&amp;hours=24</link><description>Latest METAR data for WADD</description><item><title>2026-06-08 23:48:19Z</title><link>https://aviationweather.gov/api/data/metar?ids=WADD&amp;hours=24</link><description>METAR WADD 082330Z 04006KT 9999 SCT016 26/22 Q1014 NOSIG
METAR WADD 082300Z 04006KT 9999 SCT016 25/22 Q1013 NOSIG
METAR WADD 082230Z 03005KT 9999 SCT016 24/22 Q1013 NOSIG
METAR WADD 082200Z 02005KT 9999 FEW017 24/22 Q1013 NOSIG
METAR WADD 082130Z 03005KT 9999 FEW017 25/22 Q1013 NOSIG
METAR WADD 082100Z 06006KT 9999 FEW017 25/22 Q1012 NOSIG
METAR WADD 082030Z 09006KT 9999 FEW017 25/23 Q1012 NOSIG
METAR WADD 082000Z 09007KT 9999 FEW017 26/23 Q1012 NOSIG
METAR WADD 081930Z 12006KT 9999 FEW017 27/23 Q1012 NOSIG
METAR WADD 081900Z 13006KT 9999 FEW017 27/23 Q1012 NOSIG
METAR WADD 081830Z 14007KT 9999 FEW017 27/23 Q1012 NOSIG
METAR WADD 081800Z 13007KT 9999 FEW017 27/23 Q1013 NOSIG
METAR WADD 081730Z 13006KT 9999 FEW017 27/23 Q1013 NOSIG
METAR WADD 081700Z 12008KT 9999 FEW017 27/23 Q1013 NOSIG
METAR WADD 081630Z 13007KT 9999 FEW017 27/23 Q1013 NOSIG
METAR WADD 081600Z 12008KT 9999 FEW017 27/23 Q1013 NOSIG
METAR WADD 081530Z 12008KT 9999 FEW017 27/23 Q1013 NOSIG
METAR WADD 081500Z 12008KT 9999 FEW017 27/23 Q1013 NOSIG
METAR WADD 081430Z 11008KT 9999 FEW017 27/23 Q1013 NOSIG
METAR WADD 081400Z 12008KT 9999 FEW017 27/23 Q1013 NOSIG
METAR WADD 081330Z 12009KT 9999 FEW017 27/23 Q1013 NOSIG
METAR WADD 081300Z 12009KT 9999 FEW017 27/23 Q1013 NOSIG
METAR WADD 081230Z 12010KT 9999 FEW017 27/23 Q1013 NOSIG
METAR WADD 081200Z 12009KT 9999 FEW017 27/24 Q1013 NOSIG
METAR WADD 081130Z 13008KT 9999 FEW017 27/24 Q1012 NOSIG
METAR WADD 081100Z 13009KT 9999 FEW017 28/24 Q1012 NOSIG
METAR WADD 081030Z 13010KT 9999 FEW017 28/25 Q1012 NOSIG
METAR WADD 081000Z 13013KT 9999 FEW017 28/24 Q1012 NOSIG
METAR WADD 080930Z 13014KT 9999 FEW017 29/24 Q1012 NOSIG
METAR WADD 080900Z 13013KT 9999 FEW017 29/24 Q1011 NOSIG
METAR WADD 080830Z 13015KT 9999 FEW017 29/24 Q1011 NOSIG
METAR WADD 080800Z 13015KT 9999 FEW017 29/24 Q1011 NOSIG
METAR WADD 080730Z 13015KT 9999 FEW017 30/23 Q1011 NOSIG
METAR WADD 080700Z 12013KT 9999 FEW017 30/23 Q1011 NOSIG
METAR WADD 080630Z 12015KT 9999 FEW017 30/23 Q1011 NOSIG
METAR WADD 080600Z 12012KT 9999 FEW017 30/23 Q1011 NOSIG
METAR WADD 080530Z 12013KT 9999 FEW017 30/24 Q1012 NOSIG
METAR WADD 080500Z 12011KT 9999 FEW017 30/24 Q1012 NOSIG
METAR WADD 080430Z 12011KT 9999 FEW017 30/23 Q1013 NOSIG
METAR WADD 080400Z 12010KT 9999 FEW017 30/24 Q1013 NOSIG
METAR WADD 080330Z 13009KT 9999 FEW017 31/24 Q1013 NOSIG
METAR WADD 080300Z 12007KT 9999 SCT017 31/24 Q1014 NOSIG
METAR WADD 080230Z 11007KT 9999 SCT017 30/24 Q1014 NOSIG
METAR WADD 080200Z 11005KT 070V150 9999 SCT017 30/24 Q1014 NOSIG
METAR WADD 080130Z 09006KT 060V140 9999 SCT017 30/24 Q1015 NOSIG
METAR WADD 080100Z 06007G15KT 030V120 9999 SCT017 29/23 Q1015 NOSIG
METAR WADD 080030Z 06005KT 030V090 9999 SCT017 29/22 Q1015 NOSIG
METAR WADD 080000Z 05004KT 010V120 9999 FEW017 28/22 Q1014 NOSIG</description><pubDate>Mon, 08 Jun 2026 23:48:19 </pubDate></item></channel></rss>