<rss version="2.0"><channel><title>Aviation Weather METAR Data for WADD</title><link>https://aviationweather.gov/api/data/metar?ids=WADD&amp;hours=24</link><description>Latest METAR data for WADD</description><item><title>2025-07-09 07:44:49Z</title><link>https://aviationweather.gov/api/data/metar?ids=WADD&amp;hours=24</link><description>WADD 090730Z 15012KT 9999 SCT016 28/22 Q1010 NOSIG
WADD 090700Z 15013KT 9999 SCT016 28/22 Q1010 NOSIG
WADD 090630Z 14011KT 9999 SCT016 28/22 Q1010 NOSIG
WADD 090600Z 14011KT 9999 FEW016 29/22 Q1010 NOSIG
WADD 090530Z 15011KT 9999 FEW016 28/22 Q1011 NOSIG
WADD 090500Z 14011KT 9999 FEW016 28/21 Q1011 NOSIG
WADD 090430Z 14012KT 9999 FEW016 29/22 Q1012 NOSIG
WADD 090400Z 14013KT 9999 FEW016 28/22 Q1012 NOSIG
WADD 090330Z 14013KT 9999 SCT016 28/22 Q1013 NOSIG
WADD 090300Z 14012KT 9999 SCT016 27/22 Q1013 NOSIG
WADD 090230Z 14012KT 9999 SCT016 27/22 Q1013 NOSIG
WADD 090200Z 15013KT 9999 SCT016 28/22 Q1013 NOSIG
WADD 090130Z 14012KT 9999 FEW016 27/23 Q1013 NOSIG
WADD 090100Z 15013KT 9999 SCT016 27/23 Q1013 NOSIG
WADD 090030Z 16007KT 9999 SCT016 26/23 Q1013 NOSIG
WADD 090000Z 14003KT 9999 SCT016 25/22 Q1013 NOSIG
WADD 082330Z 15005KT 9999 FEW016 25/22 Q1012 NOSIG
WADD 082300Z 13005KT 9999 SCT016 25/22 Q1012 NOSIG
WADD 082230Z 14006KT 9999 SCT016 25/22 Q1012 NOSIG
WADD 082200Z 15005KT 9999 SCT016 25/22 Q1012 NOSIG
WADD 081800Z 14004KT 9999 SCT016 25/22 Q1013 NOSIG
WADD 081730Z 14006KT 9999 SCT016 25/23 Q1013 NOSIG
WADD 081700Z 13003KT 9999 SCT017 25/22 Q1013 NOSIG
WADD 081630Z 12005KT 9999 SCT017 25/22 Q1013 NOSIG
WADD 081600Z 13004KT 9999 SCT017 25/22 Q1013 NOSIG
WADD 081530Z 15003KT 9999 SCT017 25/23 Q1014 NOSIG
WADD 081500Z 15005KT 9999 SCT017 26/23 Q1013 NOSIG
WADD 081430Z 14004KT 9999 SCT016 26/23 Q1014 NOSIG
WADD 081400Z 14005KT 9999 SCT016 26/23 Q1013 NOSIG
WADD 081330Z 14005KT 9999 SCT016 26/23 Q1013 NOSIG
WADD 081300Z 14004KT 9999 SCT016 26/23 Q1013 NOSIG
WADD 081230Z 14005KT 9999 SCT017 26/23 Q1013 NOSIG
WADD 081200Z 14008KT 9999 SCT017 26/23 Q1012 NOSIG
WADD 081130Z 14008KT 9999 FEW017 26/23 Q1012 NOSIG
WADD 081100Z 15009KT 9999 FEW017 26/23 Q1012 NOSIG
WADD 081030Z 14011KT 9999 FEW017 26/23 Q1011 NOSIG
WADD 081000Z 14013KT 9999 FEW017 27/23 Q1011 NOSIG
WADD 080930Z 14015KT 9999 FEW017 27/23 Q1011 NOSIG
WADD 080900Z 14014KT 9999 FEW017 27/23 Q1011 NOSIG
WADD 080830Z 14016KT 9999 FEW017 27/23 Q1011 NOSIG
WADD 080800Z 14016KT 9999 FEW017 27/23 Q1010 NOSIG</description><pubDate>Wed, 09 Jul 2025 07:44:49 </pubDate></item></channel></rss>