<rss version="2.0"><channel><title>Aviation Weather METAR Data for WADD</title><link>https://aviationweather.gov/api/data/metar?ids=WADD&amp;hours=24</link><description>Latest METAR data for WADD</description><item><title>2026-03-17 21:48:52Z</title><link>https://aviationweather.gov/api/data/metar?ids=WADD&amp;hours=24</link><description>SPECI WADD 172139Z 12004KT 6000 -RA FEW015CB BKN016 25/25 Q1010 TEMPO TL2239 6000 -RA
METAR WADD 172130Z VRB03KT 9999 FEW015CB BKN016 25/25 Q1010 NOSIG
METAR WADD 172100Z 32005KT 9999 FEW015CB BKN016 25/25 Q1010 RETS NOSI G
METAR WADD 172030Z 30005KT 9999 TS FEW015CB BKN016 25/25 Q1009 RERA TEMPO TL2130 TS
METAR WADD 172000Z 29007KT 8000 -TSRA FEW015CB BKN016 25/25 Q1009 TEM PO TL2100 -TSRA
METAR WADD 171930Z 29008KT 8000 -TSRA FEW015CB BKN016 25/25 Q1010 TEM PO TL2030 -TSRA
METAR WADD 171900Z 30004KT 6000 -TSRA FEW015CB BKN016 25/25 Q1010 TEMPO TL2000 6000 -TSRA RMK CB IN CLIMB-OUT
METAR WADD 171830Z 33005KT 6000 -TSRA FEW015CB BKN016 25/25 Q1010 TEMPO TL1930 6000 -TSRA RMK CB IN CLIMB-OUT
METAR WADD 171800Z 31005KT 6000 -TSRA FEW015CB BKN016 25/25 Q1010 TEM PO TL1900 6000 -TSRA RMK CB IN APCH AND CLIMB-OUT
SPECI WADD 171740Z 29005KT 6000 -TSRA FEW015CB BKN016 25/25 Q1011 TEMPO TL1840 6000 -TSRA RMK CB IN APCH AND CLIMB-OUT
METAR WADD 171730Z 25006KT 230V300 3000 RA FEW015CB BKN016 25/25 Q1011 TEMPO TL1830 3000 RA RMK CB IN APCH AND CLIMB-OUT
METAR WADD 171700Z COR VRB02KT 2000 +RA FEW015CB BKN016 25/25 Q1011 T EMPO TL1800 2000 +RA RMK CB IN CLIMB-OUT
SPECI WADD 171642Z 26010KT 240V350 1300 +RA FEW015CB BKN016 26/26 Q1011 TEMPO TL1742 1300 +RA RMK CB IN CLIMB-OUT
METAR WADD 171630Z 35005KT 6000 -RA FEW015CB BKN016 26/26 Q1011 TEMPO TL1730 6000 -RA RMK CB IN CLIMB-OUT
SPECI WADD 171610Z 33004KT 4000 RA FEW015CB BKN016 27/26 Q1011 TEMPO TL1710 4000 RA RMK CB IN CLIMB-OUT
METAR WADD 171600Z 33005KT 9999 FEW015CB SCT016 27/26 Q1011 NOSIG RMK CB IN CLIMB-OUT
METAR WADD 171530Z 33004KT 300V010 9999 SCT016 27/26 Q1011 NOSIG
METAR WADD 171500Z 35004KT 9999 SCT016 27/26 Q1011 NOSIG
METAR WADD 171430Z VRB01KT 9999 SCT016 27/25 Q1011 NOSIG
METAR WADD 171400Z VRB01KT 9999 SCT016 27/26 Q1011 NOSIG
METAR WADD 171330Z 25002KT 9999 SCT016 28/26 Q1011 NOSIG
METAR WADD 171300Z VRB02KT 9999 SCT016 28/26 Q1011 NOSIG
METAR WADD 171230Z VRB01KT 9999 SCT016 28/26 Q1011 NOSIG
METAR WADD 171200Z VRB02KT 9999 SCT016 28/26 Q1010 NOSIG
METAR WADD 171130Z 23004KT 130V250 9999 SCT016 28/26 Q1010 NOSIG
METAR WADD 171100Z 24004KT 210V270 9999 SCT016 28/26 Q1009 NOSIG
METAR WADD 171030Z 22004KT 170V260 9999 SCT016 29/26 Q1009 NOSIG
METAR WADD 171000Z 25006KT 9999 SCT016 29/26 Q1009 NOSIG
METAR WADD 170930Z 25006KT 9999 SCT016 31/27 Q1008 NOSIG
METAR WADD 170900Z 26007KT 9999 SCT016 30/27 Q1008 NOSIG
METAR WADD 170830Z 26008KT 9999 SCT016 30/26 Q1008 NOSIG
METAR WADD 170800Z 27010KT 9999 SCT016 31/26 Q1008 NOSIG
METAR WADD 170730Z 27011KT 9999 SCT016 31/26 Q1008 NOSIG
METAR WADD 170700Z 25009KT 210V280 9999 SCT016 32/26 Q1008 NOSIG
METAR WADD 170630Z 26010KT 9999 SCT016 32/27 Q1008 NOSIG
METAR WADD 170600Z 25009KT 9999 SCT016 32/26 Q1008 NOSIG
METAR WADD 170530Z 26010KT 9999 SCT016 31/27 Q1009 NOSIG
METAR WADD 170500Z 26010KT 9999 SCT016 31/27 Q1009 NOSIG
METAR WADD 170430Z 26009KT 220V280 9999 SCT016 31/27 Q1010 NOSIG
METAR WADD 170400Z 27010KT 9999 SCT016 31/27 Q1010 NOSIG
METAR WADD 170330Z 27011KT 9999 SCT016 31/26 Q1011 NOSIG
METAR WADD 170300Z 26009KT 210V300 9999 SCT016 31/27 Q1011 NOSIG
METAR WADD 170230Z 27009KT 230V300 9999 SCT016 30/27 Q1011 NOSIG
METAR WADD 170200Z 29008KT 260V320 9999 SCT016 30/26 Q1011 NOSIG
METAR WADD 170130Z 29009KT 9999 SCT016 30/26 Q1011 NOSIG
METAR WADD 170100Z 29010KT 9999 SCT016 30/26 Q1011 NOSIG
METAR WADD 170030Z 29009KT 9999 SCT016 30/26 Q1011 NOSIG
METAR WADD 170000Z 28007KT 9999 SCT016 29/26 Q1010 NOSIG
METAR WADD 162330Z 28006KT 9999 SCT016 28/26 Q1010 NOSIG
METAR WADD 162300Z 28007KT 9999 SCT016 27/26 Q1010 NOSIG
METAR WADD 162230Z 28006KT 9999 SCT016 26/26 Q1010 NOSIG
METAR WADD 162200Z 26006KT 9999 SCT016 27/26 Q1009 NOSIG</description><pubDate>Tue, 17 Mar 2026 21:48:52 </pubDate></item></channel></rss>