<rss version="2.0"><channel><title>Aviation Weather METAR Data for WADD</title><link>https://aviationweather.gov/api/data/metar?ids=WADD&amp;hours=24</link><description>Latest METAR data for WADD</description><item><title>2026-04-12 22:47:06Z</title><link>https://aviationweather.gov/api/data/metar?ids=WADD&amp;hours=24</link><description>METAR WADD 122230Z 09004KT 9999 FEW015CB SCT016 26/24 Q1011 RERA NOSI G
SPECI WADD 122207Z 06004KT 8000 -RA FEW015CB SCT016 26/23 Q1011 TEMPO TL2307 -RA RMK CB IN CLIMB-OUT
METAR WADD 122200Z 06004KT 9999 FEW015CB SCT016 26/23 Q1011 NOSIG
METAR WADD 122130Z VRB02KT 9999 FEW016 26/23 Q1011 NOSIG
METAR WADD 122100Z 03003KT 9999 FEW016 26/23 Q1011 NOSIG
METAR WADD 122030Z 00000KT 9999 FEW016 26/23 Q1011 NOSIG
METAR WADD 122000Z VRB01KT 9999 FEW016 26/23 Q1011 NOSIG
METAR WADD 121930Z 13002KT 9999 FEW016 27/24 Q1011 NOSIG
METAR WADD 121900Z VRB01KT 9999 FEW016 26/23 Q1011 NOSIG
METAR WADD 121830Z 03003KT 9999 FEW016 26/23 Q1011 NOSIG
METAR WADD 121800Z 05005KT 9999 FEW016 27/23 Q1011 NOSIG
METAR WADD 121730Z 03005KT 010V070 9999 FEW016 27/24 Q1011 NOSIG
METAR WADD 121700Z 04006KT 350V070 9999 FEW016 28/24 Q1011 NOSIG
METAR WADD 121630Z 06008KT 9999 FEW016 28/25 Q1012 NOSIG
METAR WADD 121600Z 10008KT 9999 FEW016 29/26 Q1012 NOSIG
METAR WADD 121530Z 11008KT 9999 FEW016 29/26 Q1012 NOSIG
METAR WADD 121500Z 12008KT 9999 FEW016 29/26 Q1012 NOSIG
METAR WADD 121430Z 11008KT 9999 SCT016 29/26 Q1012 NOSIG
METAR WADD 121400Z 13007KT 9999 SCT016 29/26 Q1012 NOSIG
METAR WADD 121330Z 13007KT 9999 SCT016 29/26 Q1012 NOSIG
METAR WADD 121300Z 13008KT 9999 SCT016 29/26 Q1012 NOSIG
METAR WADD 121230Z 13009KT 9999 SCT016 29/26 Q1011 NOSIG
METAR WADD 121200Z 13008KT 9999 SCT016 29/26 Q1011 NOSIG
METAR WADD 121130Z 13008KT 9999 SCT016 29/26 Q1010 NOSIG
METAR WADD 121100Z 13010KT 9999 SCT016 29/26 Q1010 NOSIG
METAR WADD 121030Z 14011KT 9999 FEW017 29/26 Q1009 NOSIG
METAR WADD 121000Z 13013KT 9999 FEW017 30/26 Q1009 NOSIG
METAR WADD 120930Z 14014KT 9999 FEW017 30/26 Q1008 NOSIG
METAR WADD 120900Z 14015KT 9999 FEW017 31/26 Q1008 NOSIG
METAR WADD 120830Z 14013KT 9999 FEW017 31/26 Q1008 NOSIG
METAR WADD 120800Z 14013KT 9999 FEW017 31/26 Q1008 NOSIG
METAR WADD 120730Z 14010KT 9999 FEW017 32/26 Q1008 NOSIG
METAR WADD 120700Z 13011KT 9999 FEW017 32/25 Q1008 NOSIG
METAR WADD 120630Z 12010KT 9999 FEW017 32/25 Q1008 NOSIG
METAR WADD 120600Z 12010KT 9999 FEW017 32/25 Q1009 NOSIG
METAR WADD 120530Z 12010KT 9999 FEW017 32/25 Q1009 NOSIG
METAR WADD 120500Z 11011KT 9999 FEW017 32/26 Q1009 NOSIG
METAR WADD 120430Z 10010KT 9999 FEW017 32/26 Q1010 NOSIG
METAR WADD 120400Z 11011KT 9999 FEW017 32/26 Q1010 NOSIG
METAR WADD 120330Z 11010KT 9999 FEW017 32/26 Q1011 NOSIG
METAR WADD 120300Z 11011KT 9999 FEW017 31/26 Q1011 NOSIG
METAR WADD 120230Z 11010KT 9999 FEW017 32/25 Q1012 NOSIG
METAR WADD 120200Z 11008KT 9999 FEW017 32/26 Q1012 NOSIG
METAR WADD 120130Z 10007KT 060V130 9999 FEW017 31/26 Q1012 NOSIG
METAR WADD 120100Z 09007KT 9999 FEW017 31/25 Q1012 NOSIG
METAR WADD 120030Z 09006KT 9999 FEW017 31/25 Q1012 NOSIG
METAR WADD 120000Z 06005KT 9999 FEW017 29/25 Q1012 NOSIG
METAR WADD 112330Z 06006KT 9999 FEW017 28/25 Q1011 NOSIG
METAR WADD 112300Z 03004KT 9999 FEW017 26/25 Q1011 NOSIG</description><pubDate>Sun, 12 Apr 2026 22:47:06 </pubDate></item></channel></rss>