<rss version="2.0"><channel><title>Aviation Weather METAR Data for WADD</title><link>https://aviationweather.gov/api/data/metar?ids=WADD</link><description>Latest METAR data for WADD</description><item><title>2024-12-30 14:22:18Z</title><link>https://aviationweather.gov/api/data/metar?ids=WADD</link><description>WADD 301400Z 25003KT 9999 SCT016 28/26 Q1010 NOSIG</description><pubDate>Mon, 30 Dec 2024 14:22:18 </pubDate></item></channel></rss>