<rss version="2.0"><channel><title>Aviation Weather METAR Data for WADD</title><link>https://aviationweather.gov/api/data/metar?ids=WADD&amp;hours=24</link><description>Latest METAR data for WADD</description><item><title>2025-01-10 17:40:30Z</title><link>https://aviationweather.gov/api/data/metar?ids=WADD&amp;hours=24</link><description>WADD 101730Z 25004KT 9999 FEW015CB SCT016 27/26 Q1010 NOSIG
WADD 101700Z 24004KT 9999 FEW015CB SCT016 27/25 Q1009 RERA NOSIG
WADD 101630Z 25007KT 8000 -RA FEW015CB SCT016 26/24 Q1010 TEMPO TL1730 -RA RMK CB IN APCH
WADD 101600Z 23004KT 170V290 9999 FEW015CB SCT016 28/26 Q1010 NOSIG
WADD 101530Z 24003KT 9999 FEW015CB SCT016 28/26 Q1010 NOSIG
WADD 101500Z 24004KT 9999 FEW015CB SCT016 28/26 Q1010 NOSIG
WADD 101430Z 24003KT 9999 FEW015CB SCT016 28/27 Q1011 NOSIG
WADD 101400Z 25002KT 9999 FEW015CB SCT016 27/26 Q1011 NOSIG
WADD 101330Z VRB01KT 9000 SCT016 27/27 Q1011 NOSIG
WADD 101300Z VRB01KT 9999 SCT016 28/26 Q1010 NOSIG
WADD 101230Z 22002KT 9999 SCT017 28/27 Q1010 NOSIG
WADD 101200Z 24003KT 9999 SCT017 28/26 Q1010 NOSIG
WADD 101130Z VRB02KT 9999 SCT016 28/26 Q1010 NOSIG
WADD 101100Z 25004KT 9999 SCT016 28/26 Q1010 NOSIG
WADD 101030Z 25005KT 9999 SCT015 29/26 Q1009 NOSIG
WADD 101000Z 25005KT 9999 SCT015 29/26 Q1009 NOSIG
WADD 100930Z 26007KT 9999 SCT016 29/26 Q1009 NOSIG
WADD 100900Z 28008KT 9999 SCT016 29/26 Q1008 NOSIG
WADD 100830Z 28007KT 250V320 9999 SCT016 29/26 Q1008 RERA NOSIG
WADD 100800Z 28006KT 250V310 8000 -RA BKN015 29/26 Q1008 TEMPO TL0900 8000 -RA
WADD 100730Z 29009KT 9999 FEW017 29/26 Q1008 NOSIG
WADD 100700Z 28011KT 9999 SCT016 29/26 Q1008 NOSIG
WADD 100630Z 30011KT 9999 SCT015 29/26 Q1009 NOSIG
WADD 100600Z 29012KT 9999 BKN015 29/26 Q1009 NOSIG
WADD 100530Z 27011KT 9999 BKN015 29/26 Q1010 NOSIG
WADD 100500Z 29011KT 9999 BKN015 29/26 Q1010 RERA NOSIG
WADD 100430Z 29008KT 9000 -RA BKN015 29/26 Q1010 TEMPO TL0600 9000 -RA
WADD 100400Z 29009KT 9000 -RA BKN015 28/27 Q1010 TEMPO TL0430 9000 -RA
WADD 100330Z 29008KT 9000 -RA BKN015 28/27 Q1011 TEMPO TL0430 9000 -RA
WADD 100300Z 32007KT 280V020 9000 BKN015 27/26 Q1011 TEMPO TL0430 9000 -RA
WADD 100230Z 36003KT 9000 -RA BKN015 26/26 Q1011 TEMPO TL0300 9000 -RA
WADD 100200Z 03006KT 9000 -RA BKN015 26/26 Q1012 TEMPO TL0300 9000 -RA
WADD 100130Z 02008KT 9000 -RA BKN015 25/25 Q1012 TEMPO TL0230 9000 -RA
WADD 100100Z 03009KT 7000 -RA FEW014CB BKN014 25/25 Q1012 RETS TEMPO TL0230 7000 -RA
WADD 100030Z 05008KT 5000 TSRA FEW014CB BKN014 25/25 Q1012 TEMPO TL0130 5000 TSRA
WADD 100000Z 04008KT 5000 TSRA FEW014CB BKN014 25/24 Q1012 TEMPO TL0130 5000 TSRA
WADD 092330Z 06012KT 5000 TSRA FEW013CB BKN014 25/25 Q1012 TEMPO TL2430 5000 TSRA
WADD 092300Z 08008KT 3000 TSRA FEW013CB BKN014 25/25 Q1012 TEMPO TL2430 5000 -TSRA
WADD 092230Z 05008KT 5000 -TSRA FEW013CB BKN014 25/25 Q1011 TEMPO TL2330 7000 -TSRA
WADD 092200Z 05006KT 5000 -TSRA FEW013CB BKN014 25/25 Q1010 TEMPO TL2330 7000 -TSRA
WADD 092130Z 09003KT 3000 TSRA FEW013CB BKN014 25/24 Q1010 TEMPO TL2230 5000 -TSRA
WADD 092100Z VRB02KT 2000 TSRA FEW013CB BKN014 25/24 Q1010 TEMPO TL2230 5000 -TSRA
WADD 092030Z 26004KT 210V330 5000 -TSRA FEW013CB BKN014 25/24 Q1009 TEMPO TL2130 7000 -TSRA RMK CB IN APCH AND CLIMB-OUT
WADD 092000Z 17004KT 110V260 3000 TSRA FEW013CB BKN014 25/25 Q1009 TEMPO TL2030 5000 -TSRA RMK CB IN APCH AND CLIMB-OUT
WADD 091930Z VRB04KT 2000 TSRA FEW013CB BKN014 25/24 Q1009 TEMPO TL2030 5000 -TSRA RMK CB IN APCH AND CLIMB-OUT
WADD 091900Z 02006KT 340V040 7000 -TSRA FEW014CB BKN014 26/26 Q1009 TEMPO TL2030 -TSRA
WADD 091830Z 35004KT 280V030 7000 -RA FEW014CB BKN014 26/25 Q1009 TEMPO TL1930 -RA
WADD 091800Z VRB03KT 7000 -RA FEW014CB BKN014 27/25 Q1009 TEMPO TL1930 -RA RMK CB IN APCH</description><pubDate>Fri, 10 Jan 2025 17:40:30 </pubDate></item></channel></rss>