<rss version="2.0"><channel><title>Aviation Weather METAR Data for WADD</title><link>https://aviationweather.gov/api/data/metar?ids=WADD&amp;hours=24</link><description>Latest METAR data for WADD</description><item><title>2025-11-11 11:23:58Z</title><link>https://aviationweather.gov/api/data/metar?ids=WADD&amp;hours=24</link><description>METAR WADD 111100Z 27006KT 9999 SCT016 27/24 Q1010 NOSIG
METAR WADD 111030Z 31008KT 9999 SCT016 27/24 Q1009 NOSIG
METAR WADD 111000Z 32009KT 9999 SCT016 27/25 Q1009 NOSIG
METAR WADD 110930Z 32006KT 9999 SCT016 27/25 Q1008 NOSIG
METAR WADD 110900Z 31005KT 280V350 9999 SCT016 27/24 Q1008 RERA NOSIG
METAR WADD 110830Z 32005KT 8000 -RA SCT016 27/25 Q1008 TEMPO TL0930 -RA
METAR WADD 110800Z 33004KT 270V040 6000 -RA FEW015CB BKN016 26/25 Q10 08 TEMPO TL0900 6000 -RA
METAR WADD 110730Z 01005KT 310V040 6000 -RA FEW015CB BKN016 27/24 Q1008 TEMPO TL0830 6000 -RA
METAR WADD 110700Z 03010KT 6000 -RA FEW015CB BKN016 27/24 Q1008 TEMPO TL0800 6000 -RA
METAR WADD 110630Z 32007KT 290V020 6000 -RA FEW015CB BKN016 28/24 Q1008 TEMPO TL0730 6000 -RA RMK CB IN CLIMB-OUT
METAR WADD 110600Z 12005KT 080V160 9999 FEW015CB BKN016 30/25 Q1008 NOSIG RMK CB IN CLIMB-OUT
METAR WADD 110530Z 11005KT 080V140 9999 FEW016CB SCT017 30/25 Q1008 N OSIG
METAR WADD 110500Z 11006KT 080V150 9999 FEW016CB SCT017 31/25 Q1008 N OSIG
METAR WADD 110430Z 11007KT 080V140 9999 FEW016CB FEW017 31/26 Q1008 N OSIG
METAR WADD 110400Z 11006KT 9999 FEW016CB FEW017 31/25 Q1009 NOSIG
METAR WADD 110330Z 11007KT 9999 FEW017 31/25 Q1009 NOSIG
METAR WADD 110300Z 12006KT 080V150 9999 FEW017 31/25 Q1009 NOSIG
METAR WADD 110230Z 10005KT 070V130 9999 FEW017 30/25 Q1010 NOSIG
METAR WADD 110200Z 12005KT 070V150 9999 FEW017 30/25 Q1010 NOSIG
METAR WADD 110130Z 11005KT 070V150 9999 FEW017 30/25 Q1010 NOSIG
METAR WADD 110100Z VRB02KT 9999 FEW017 30/25 Q1010 NOSIG
METAR WADD 110030Z 07003KT 9999 FEW017 29/26 Q1010 NOSIG
METAR WADD 110000Z VRB01KT 9999 FEW017 28/26 Q1010 NOSIG
METAR WADD 102330Z VRB01KT 9999 FEW017 28/25 Q1010 NOSIG
METAR WADD 102300Z VRB01KT 9999 FEW017 27/25 Q1009 NOSIG
METAR WADD 102230Z VRB01KT 9999 FEW017 26/24 Q1009 NOSIG
METAR WADD 102200Z 02002KT 9999 FEW017 25/24 Q1009 NOSIG
METAR WADD 102130Z VRB02KT 9999 FEW017 26/25 Q1008 NOSIG
METAR WADD 102100Z 05003KT 9999 FEW017 26/25 Q1008 NOSIG
METAR WADD 102030Z VRB02KT 9999 FEW017 26/25 Q1008 NOSIG
METAR WADD 102000Z 03003KT 9999 FEW017 26/24 Q1008 NOSIG
METAR WADD 101930Z VRB01KT 9999 FEW017 26/25 Q1008 NOSIG
METAR WADD 101900Z 35003KT 9999 FEW017 26/24 Q1008 NOSIG
METAR WADD 101830Z 28001KT 9999 FEW017 27/25 Q1008 NOSIG
METAR WADD 101800Z 34003KT 9999 FEW017 27/25 Q1008 NOSIG
METAR WADD 101730Z 33002KT 9999 FEW017 27/25 Q1008 NOSIG
METAR WADD 101700Z 35005KT 9999 FEW017 27/25 Q1009 NOSIG
METAR WADD 101630Z 03003KT 9000 FEW017 27/25 Q1009 NOSIG
METAR WADD 101600Z 04003KT 9000 FEW017 27/25 Q1009 NOSIG
METAR WADD 101530Z VRB02KT 8000 FEW017 27/25 Q1010 NOSIG
METAR WADD 101500Z 05003KT 9999 FEW017 27/25 Q1010 NOSIG
METAR WADD 101430Z 11002KT 9999 FEW017 27/25 Q1010 NOSIG
METAR WADD 101400Z VRB01KT 9999 FEW017 27/25 Q1010 NOSIG
METAR WADD 101330Z 22002KT 9999 FEW017 27/25 Q1010 NOSIG
METAR WADD 101300Z VRB02KT 9999 FEW017 27/24 Q1010 NOSIG
METAR WADD 101230Z 23002KT 9999 FEW017 27/25 Q1009 NOSIG
METAR WADD 101200Z VRB02KT 9999 FEW017 28/25 Q1009 NOSIG
METAR WADD 101130Z 25003KT 9999 FEW017 27/24 Q1008 NOSIG</description><pubDate>Tue, 11 Nov 2025 11:23:58 </pubDate></item></channel></rss>