<rss version="2.0"><channel><title>Aviation Weather METAR Data for WADD</title><link>https://aviationweather.gov/api/data/metar?ids=WADD&amp;hours=24</link><description>Latest METAR data for WADD</description><item><title>2025-05-20 04:47:40Z</title><link>https://aviationweather.gov/api/data/metar?ids=WADD&amp;hours=24</link><description>WADD 200430Z 12015KT 9999 FEW017 30/25 Q1009 NOSIG
WADD 200400Z 12015KT 9999 FEW017 30/25 Q1010 NOSIG
WADD 200330Z 11014KT 9999 SCT016 30/26 Q1010 NOSIG
WADD 200300Z 11014KT 9999 SCT016 30/26 Q1010 NOSIG
WADD 200230Z 11012KT 9999 SCT016 30/26 Q1010 NOSIG
WADD 200200Z 10013KT 9999 SCT016 30/25 Q1011 NOSIG
WADD 200130Z 10013KT 9999 SCT016 29/25 Q1011 NOSIG
WADD 200100Z 11012KT 9999 SCT016 29/25 Q1011 NOSIG
WADD 200030Z 11013KT 9999 SCT016 28/25 Q1011 NOSIG
WADD 200000Z 10010KT 9999 SCT016 28/25 Q1011 NOSIG
WADD 192330Z 11011KT 9999 SCT016 28/25 Q1010 NOSIG
WADD 192300Z 10011KT 9999 SCT017 28/25 Q1010 NOSIG
WADD 192230Z 12014KT 9999 FEW016CB BKN017 28/25 Q1009 NOSIG
WADD 192200Z 11012KT 9999 FEW016CB BKN017 28/25 Q1009 NOSIG
WADD 192130Z 11010KT 9999 BKN017 27/25 Q1009 NOSIG
WADD 192100Z 11010KT 9999 FEW016CB BKN017 28/25 Q1009 NOSIG
WADD 192030Z 13010KT 9999 FEW016CB BKN017 28/25 Q1009 NOSIG
WADD 192000Z 13010KT 9999 BKN017 28/26 Q1009 NOSIG
WADD 191930Z 11008KT 9999 BKN017 28/26 Q1009 NOSIG
WADD 191900Z 11009KT 9999 BKN017 27/26 Q1009 NOSIG
WADD 191830Z 09009KT 9999 BKN017 27/25 Q1009 NOSIG
WADD 191800Z 10010KT 9999 BKN017 28/25 Q1010 NOSIG
WADD 191730Z 10007KT 9999 BKN017 27/25 Q1010 NOSIG
WADD 191700Z 12010KT 9999 BKN017 28/25 Q1010 NOSIG
WADD 191630Z 11010KT 9999 BKN017 28/25 Q1010 NOSIG
WADD 191600Z 10008KT 9999 BKN017 28/26 Q1011 NOSIG
WADD 191530Z 12007KT 9999 BKN017 28/26 Q1011 NOSIG
WADD 191500Z 12009KT 9999 BKN017 28/26 Q1011 NOSIG
WADD 191430Z 12009KT 9999 SCT017 28/26 Q1011 NOSIG
WADD 191400Z 12009KT 9999 SCT017 28/25 Q1011 NOSIG
WADD 191330Z 12010KT 9999 BKN017 28/26 Q1011 NOSIG
WADD 191300Z 12009KT 9999 BKN017 28/26 Q1011 NOSIG
WADD 191230Z 12009KT 9999 BKN017 28/26 Q1011 NOSIG
WADD 191200Z 11008KT 9999 BKN017 28/26 Q1011 NOSIG
WADD 191130Z 11007KT 9999 FEW016 28/26 Q1010 NOSIG
WADD 191100Z 12010KT 9999 FEW017 28/25 Q1010 NOSIG
WADD 191030Z 12010KT 9999 FEW017 28/25 Q1009 NOSIG
WADD 191000Z 12012KT 9999 FEW017 28/25 Q1009 NOSIG
WADD 190930Z 12012KT 9999 FEW016 29/25 Q1009 NOSIG
WADD 190900Z 12012KT 9999 FEW017 29/25 Q1008 NOSIG
WADD 190830Z 12014KT 9999 FEW017 29/24 Q1008 NOSIG
WADD 190800Z 13016KT 9999 FEW017 30/25 Q1008 NOSIG
WADD 190730Z 12013KT 9999 FEW017 30/25 Q1008 NOSIG
WADD 190700Z 12016KT 9999 FEW017 30/25 Q1008 NOSIG
WADD 190630Z 12014KT 9999 SCT017 30/25 Q1008
WADD 190600Z 13016KT 9999 SCT016 30/25 Q1008 NOSIG
WADD 190530Z 12016KT 9999 SCT017 30/26 Q1009 NOSIG
WADD 190500Z 12015KT 9999 SCT017 30/26 Q1009 NOSIG</description><pubDate>Tue, 20 May 2025 04:47:40 </pubDate></item></channel></rss>