<rss version="2.0"><channel><title>Aviation Weather METAR Data for WADD</title><link>https://aviationweather.gov/api/data/metar?ids=WADD&amp;hours=24</link><description>Latest METAR data for WADD</description><item><title>2026-05-29 01:32:48Z</title><link>https://aviationweather.gov/api/data/metar?ids=WADD&amp;hours=24</link><description>METAR WADD 290100Z 15003KT 9999 FEW017 29/22 Q1014 NOSIG
METAR WADD 290030Z 09004KT 060V120 9999 FEW017 27/21 Q1014 NOSIG
METAR WADD 290000Z 04003KT 9999 FEW017 26/20 Q1013 NOSIG
METAR WADD 282330Z 06003KT 9999 FEW017 24/20 Q1013 NOSIG
METAR WADD 282300Z VRB01KT 9999 FEW017 23/19 Q1013 NOSIG
METAR WADD 282230Z 05004KT 9999 FEW017 22/19 Q1012 NOSIG
METAR WADD 282200Z VRB02KT 9999 FEW017 23/21 Q1012 NOSIG
METAR WADD 282130Z VRB01KT 9999 FEW017 22/20 Q1012 NOSIG
METAR WADD 282100Z VRB02KT 9999 FEW017 23/21 Q1012 NOSIG
METAR WADD 282030Z 04002KT 9999 FEW017 23/20 Q1012 NOSIG
METAR WADD 282000Z VRB02KT 9999 FEW017 23/21 Q1012 NOSIG
METAR WADD 281930Z 01005KT 9999 FEW017 23/21 Q1012 NOSIG
METAR WADD 281900Z 01005KT 9999 FEW017 23/21 Q1012 NOSIG
METAR WADD 281830Z 03003KT 9999 FEW016 24/21 Q1012 NOSIG
METAR WADD 281800Z 03004KT 9999 FEW016 24/21 Q1012 NOSIG
METAR WADD 281730Z 02005KT 9999 FEW016 24/22 Q1012 NOSIG
METAR WADD 281700Z VRB03KT 9999 FEW016 24/22 Q1013 NOSIG
METAR WADD 281630Z VRB01KT 9999 FEW016 24/22 Q1013 NOSIG
METAR WADD 281600Z VRB01KT 9999 FEW017 25/22 Q1013 NOSIG
METAR WADD 281530Z 15002KT 9999 FEW017 25/22 Q1013 NOSIG
METAR WADD 281500Z 17004KT 9999 FEW017 25/22 Q1013 NOSIG
METAR WADD 281430Z 16004KT 9999 FEW017 26/22 Q1013 NOSIG
METAR WADD 281400Z 17004KT 9999 FEW017 26/23 Q1013 NOSIG
METAR WADD 281330Z 11002KT 9999 FEW017 26/22 Q1013 NOSIG
METAR WADD 281300Z 12004KT 9999 FEW017 26/22 Q1012 NOSIG
METAR WADD 281230Z 13005KT 9999 FEW017 26/22 Q1012 NOSIG
METAR WADD 281200Z 13006KT 9999 FEW017 26/22 Q1012 NOSIG
METAR WADD 281130Z 13006KT 9999 FEW017 27/22 Q1012 NOSIG
METAR WADD 281100Z 13006KT 9999 FEW017 27/22 Q1011 NOSIG
METAR WADD 281030Z 13010KT 9999 FEW017 27/22 Q1011 NOSIG
METAR WADD 281000Z 12009KT 9999 FEW017 27/22 Q1011 NOSIG
METAR WADD 280930Z 12009KT 9999 FEW017 28/21 Q1011 NOSIG
METAR WADD 280900Z 12011KT 9999 FEW017 28/22 Q1011 NOSIG
METAR WADD 280830Z 12010KT 9999 FEW017 29/22 Q1011 NOSIG
METAR WADD 280800Z 12009KT 9999 FEW017 29/22 Q1011 NOSIG
METAR WADD 280730Z 12010KT 9999 FEW017 29/22 Q1011 NOSIG
METAR WADD 280700Z 13011KT 9999 FEW017 29/21 Q1011 NOSIG
METAR WADD 280630Z 12012KT 9999 FEW017 29/21 Q1011 NOSIG
METAR WADD 280600Z 12011KT 9999 FEW017 29/21 Q1012 NOSIG
METAR WADD 280530Z 11010KT 9999 FEW017 30/21 Q1012 NOSIG
METAR WADD 280500Z 10011KT 9999 FEW017 30/21 Q1012 NOSIG
METAR WADD 280430Z 11012KT 9999 FEW017 30/21 Q1013 NOSIG
METAR WADD 280400Z 11011KT 9999 FEW017 30/21 Q1014 NOSIG
METAR WADD 280330Z 11010KT 9999 FEW017 30/21 Q1014 NOSIG
METAR WADD 280300Z 12012KT 9999 FEW017 30/22 Q1014 NOSIG
METAR WADD 280230Z 12012KT 9999 FEW017 29/22 Q1014 NOSIG
METAR WADD 280200Z 11010KT 9999 FEW017 29/22 Q1015 NOSIG</description><pubDate>Fri, 29 May 2026 01:32:48 </pubDate></item></channel></rss>