<rss version="2.0"><channel><title>Aviation Weather METAR Data for WADD</title><link>https://aviationweather.gov/api/data/metar?ids=WADD&amp;hours=24</link><description>Latest METAR data for WADD</description><item><title>2025-02-28 04:44:07Z</title><link>https://aviationweather.gov/api/data/metar?ids=WADD&amp;hours=24</link><description>WADD 280430Z 20004KT 130V250 9999 FEW017 31/27 Q1010 NOSIG
WADD 280400Z 22012KT 9999 FEW017 31/28 Q1010 NOSIG
WADD 280330Z 24005KT 9999 FEW017 31/28 Q1011 NOSIG
WADD 280300Z 23006KT 9999 FEW017 31/28 Q1011 NOSIG
WADD 280230Z 26005KT 9999 FEW017 30/28 Q1011 NOSIG
WADD 280200Z 30005KT 9999 FEW017 29/27 Q1011 NOSIG
WADD 280130Z 30005KT 9999 FEW017 29/27 Q1011 NOSIG
WADD 280100Z 25003KT 9999 FEW017 29/27 Q1011 NOSIG
WADD 280030Z VRB02KT 9999 FEW017 29/27 Q1011 NOSIG
WADD 280000Z VRB02KT 9999 FEW017 28/27 Q1011 NOSIG
WADD 272330Z 01005KT 350V050 9999 FEW017 28/27 Q1011 NOSIG
WADD 272300Z 02004KT 350V080 9999 FEW017 27/26 Q1010 NOSIG
WADD 272230Z 03003KT 9999 FEW017 26/26 Q1010 NOSIG
WADD 272200Z 04003KT 9999 FEW017 26/26 Q1010 NOSIG
WADD 272130Z 01003KT 9999 SCT017 27/27 Q1010 NOSIG
WADD 272100Z 35003KT 9999 SCT017 27/27 Q1010 NOSIG
WADD 272030Z 33004KT 9999 SCT017 27/27 Q1010 NOSIG
WADD 272000Z VRB02KT 9999 SCT017 28/27 Q1009 NOSIG
WADD 271930Z 29002KT 9999 SCT017 28/27 Q1010 NOSIG
WADD 271900Z 34002KT 9999 FEW017 27/27 Q1010 NOSIG
WADD 271830Z VRB02KT 9999 FEW017 27/27 Q1010 NOSIG
WADD 271800Z 09002KT 9999 FEW017 27/27 Q1010 NOSIG
WADD 271730Z VRB02KT 9999 FEW017 27/27 Q1010 NOSIG
WADD 271700Z 08001KT 9999 FEW017 27/27 Q1010 NOSIG
WADD 271630Z VRB02KT 9999 FEW017 27/26 Q1011 NOSIG
WADD 271600Z VRB02KT 9999 FEW017 28/26 Q1011 NOSIG
WADD 271530Z 02003KT 9999 FEW017 28/27 Q1011 NOSIG
WADD 271500Z 36005KT 340V070 9999 FEW017 28/26 Q1011 NOSIG
WADD 271430Z 02006KT 340V050 9999 FEW017 28/26 Q1011 NOSIG
WADD 271400Z 04005KT 020V110 9999 FEW017 28/27 Q1011 NOSIG
WADD 271330Z 11004KT 9999 FEW017 28/27 Q1011 NOSIG
WADD 271300Z 13006KT 9999 FEW017 29/27 Q1010 NOSIG
WADD 271230Z 12005KT 9999 FEW016 29/27 Q1010 NOSIG
WADD 271200Z 12006KT 9999 FEW016 29/27 Q1010 NOSIG
WADD 271130Z 14006KT 9999 FEW015 29/27 Q1009 NOSIG
WADD 271100Z 15007KT 9999 FEW014 30/27 Q1009 NOSIG
WADD 271030Z 15009KT 9999 FEW014 30/27 Q1009 NOSIG
WADD 271000Z 15008KT 9999 FEW016 30/27 Q1008 NOSIG
WADD 270930Z 15009KT 9999 FEW016 31/27 Q1008 NOSIG
WADD 270900Z 15008KT 9999 FEW016 31/27 Q1008 NOSIG
WADD 270830Z 13006KT 100V170 9999 FEW016 31/25 Q1008 NOSIG
WADD 270800Z 11007KT 080V140 9999 FEW016 31/25 Q1008 NOSIG
WADD 270730Z 12005KT 090V160 9999 FEW016 31/25 Q1008 NOSIG
WADD 270700Z 13006KT 070V190 9999 FEW016 32/25 Q1008 NOSIG
WADD 270630Z 12006KT 070V180 9999 FEW016 31/26 Q1008 NOSIG
WADD 270600Z 10006KT 050V150 9999 SCT015 31/25 Q1009 NOSIG
WADD 270530Z VRB04KT 9999 SCT016 31/26 Q1010 NOSIG
WADD 270500Z 14004KT 080V200 9999 SCT017 31/25 Q1010 NOSIG</description><pubDate>Fri, 28 Feb 2025 04:44:07 </pubDate></item></channel></rss>