<rss version="2.0"><channel><title>Aviation Weather METAR Data for WADD</title><link>https://aviationweather.gov/api/data/metar?ids=WADD&amp;hours=24</link><description>Latest METAR data for WADD</description><item><title>2026-02-28 17:28:34Z</title><link>https://aviationweather.gov/api/data/metar?ids=WADD&amp;hours=24</link><description>METAR WADD 281700Z 29014KT 9999 SCT016 28/25 Q1007 NOSIG
METAR WADD 281630Z 29016KT 9999 SCT016 28/25 Q1007 NOSIG
METAR WADD 281600Z 29011KT 9999 SCT016 27/25 Q1008 NOSIG
METAR WADD 281530Z 28013KT 9999 FEW015CB SCT016 28/25 Q1008 NOSIG
METAR WADD 281500Z 28012KT 9999 FEW015CB SCT016 28/25 Q1008 NOSIG
METAR WADD 281430Z 28010KT 9999 FEW015CB SCT016 28/25 Q1008 NOSIG
METAR WADD 281400Z 29012KT 9999 FEW015CB SCT016 28/25 Q1008 NOSIG
METAR WADD 281330Z 29010KT 9999 FEW015CB SCT016 28/25 Q1008 NOSIG
METAR WADD 281300Z 29010KT 9999 SCT016 28/25 Q1007 NOSIG
METAR WADD 281230Z 28012KT 9999 SCT016 28/25 Q1007 NOSIG
METAR WADD 281200Z 27011KT 9999 SCT016 28/25 Q1007 NOSIG
METAR WADD 281130Z 28011KT 9999 SCT016 28/25 Q1006 NOSIG
METAR WADD 281100Z 27014KT 9999 SCT016 28/25 Q1006 NOSIG
METAR WADD 281030Z 27014KT 9999 BKN016 28/25 Q1006 NOSIG
METAR WADD 281000Z 26013KT 9999 SCT016 28/25 Q1005 NOSIG
METAR WADD 280930Z 26012KT 9999 BKN016 28/26 Q1005 NOSIG
METAR WADD 280900Z 25009KT 210V270 9999 BKN016 28/26 Q1005 NOSIG
METAR WADD 280830Z 25008KT 9999 FEW014CB BKN015 27/25 Q1005 NOSIG RMK CB TO APPROACH
SPECI WADD 280824Z 25008KT 9999 FEW014CB BKN014 27/25 Q1005 RERA NOSIG CB TO APPROACH
METAR WADD 280800Z 28020G35KT 500 +RA FEW012CB BKN013 28/25 Q1004 TEM PO TL0900 500 RA CB TO CLIMB-OUT
METAR WADD 280730Z 26015KT 9999 FEW015CB SCT016 31/25 Q1004 NOSIG CB TO CLIMB-OUT
METAR WADD 280700Z 26013KT 9999 FEW015CB SCT016 30/26 Q1005 NOSIG
METAR WADD 280630Z 26015KT 9999 FEW015CB SCT016 30/25 Q1005 NOSIG
METAR WADD 280600Z 27013KT 9999 SCT017 30/25 Q1005 NOSIG
METAR WADD 280530Z 27017KT 9999 SCT016 30/25 Q1006 NOSIG
METAR WADD 280500Z 28018KT 9999 SCT016 30/25 Q1006 NOSIG
METAR WADD 280430Z 28016KT 9999 SCT016 30/25 Q1006 NOSIG
METAR WADD 280400Z 28018KT 9999 SCT016 30/25 Q1007 NOSIG
METAR WADD 280330Z 29018KT 9999 SCT016 29/25 Q1007 NOSIG
METAR WADD 280300Z 28016KT 9999 SCT016 29/25 Q1007 NOSIG
METAR WADD 280230Z 28015KT 9999 SCT016 29/24 Q1007 NOSIG
METAR WADD 280200Z 29016KT 9999 BKN016 28/24 Q1007 NOSIG
METAR WADD 280130Z 27016KT 9999 BKN016 28/25 Q1007 NOSIG
METAR WADD 280100Z 28018KT 9999 BKN016 28/25 Q1007 NOSIG
METAR WADD 280030Z 28015G26KT 9999 SCT016 27/24 Q1007 NOSIG
METAR WADD 280000Z 28016KT 9999 SCT016 27/25 Q1006 NOSIG
METAR WADD 272330Z 28018KT 9999 SCT016 26/24 Q1006 NOSIG
METAR WADD 272300Z 27017KT 9999 FEW015CB SCT016 26/25 Q1006 RERA NOSIG RMK CB IN APCH
METAR WADD 272230Z 28013KT 8000 -RA FEW013CB BKN014 25/25 Q1005 TEMPO TL2330 -RA RMK CB IN APCH AND CLIMB-OUT
METAR WADD 272200Z 26018KT 5000 -RA FEW013CB BKN014 25/25 Q1005 TEMPO TL2300 -RA RMK CB IN APCH AND CLIMB-OUT
METAR WADD 272130Z 30012KT 5000 -RA FEW014CB BKN015 25/25 Q1005 TEMPO TL2230 -RA RMK CB IN APCH AND CLIMB-OUT
METAR WADD 272100Z 26016KT 5000 -RA FEW014CB BKN015 25/24 Q1005 TEMPO TL2200 -RA RMK CB IN APCH AND CLIMB-OUT
METAR WADD 272030Z 26011KT 5000 -RA FEW014CB BKN015 26/25 Q1004 TEMPO TL2130 -RA RMK CB IN APCH AND CLIMB-OUT
METAR WADD 272000Z 25010KT 5000 -RA FEW014CB BKN015 26/25 Q1005 TEMPO TL2100 -RA RMK CB IN APCH AND CLIMB-OUT
METAR WADD 271930Z COR 28016G26KT 5000 -RA FEW014CB BKN015 25/24 Q1005 TEMPO TL2030 -RA RMK CB IN APCH AND CLIMB-OUT
METAR WADD 271900Z 25009KT 8000 -RA FEW014CB BKN015 26/25 Q1005 TEMPO TL2000 -RA RMK CB IN APCH AND CLIMB-OUT
METAR WADD 271830Z 26009KT 220V280 5000 -RA FEW014CB BKN015 26/25 Q1005 TEMPO TL1930 -RA RMK CB IN APCH AND CLIMB-OUT
METAR WADD 271800Z 28015KT 9999 FEW015CB BKN016 27/25 Q1005 NOSIG RMK CB IN APCH AND CLIMB-OUT
METAR WADD 271730Z 28013KT 9999 FEW015CB BKN016 27/25 Q1005 NOSIG</description><pubDate>Sat, 28 Feb 2026 17:28:34 </pubDate></item></channel></rss>