<rss version="2.0"><channel><title>Aviation Weather METAR Data for WADD</title><link>https://aviationweather.gov/api/data/metar?ids=WADD&amp;hours=24</link><description>Latest METAR data for WADD</description><item><title>2025-11-22 23:41:59Z</title><link>https://aviationweather.gov/api/data/metar?ids=WADD&amp;hours=24</link><description>METAR WADD 222330Z 32004KT 280V360 9999 SCT016 28/25 Q1008 NOSIG
METAR WADD 222300Z 34004KT 9999 SCT016 27/25 Q1008 NOSIG
METAR WADD 222230Z 31005KT 9999 SCT016 27/25 Q1008 NOSIG
METAR WADD 222200Z 33003KT 9999 SCT016 26/24 Q1008 NOSIG
METAR WADD 222130Z 32003KT 9999 SCT016 26/25 Q1007 NOSIG
METAR WADD 222100Z 04002KT 9999 SCT016 26/25 Q1007 NOSIG
METAR WADD 222030Z 32002KT 9999 SCT016 26/25 Q1007 NOSIG
METAR WADD 222000Z 33005KT 9999 SCT016 27/25 Q1007 NOSIG
METAR WADD 221930Z 33005KT 9999 SCT016 27/25 Q1007 NOSIG
METAR WADD 221900Z 33005KT 9999 SCT016 27/25 Q1007 NOSIG
METAR WADD 221830Z 32007KT 9999 SCT016 27/25 Q1007 NOSIG
METAR WADD 221800Z 29007KT 9999 SCT016 27/25 Q1007 NOSIG
METAR WADD 221730Z 29007KT 9999 BKN016 27/26 Q1007 NOSIG
METAR WADD 221700Z 29006KT 9999 BKN016 27/25 Q1008 NOSIG
METAR WADD 221630Z 30007KT 9999 BKN016 27/26 Q1008 NOSIG
METAR WADD 221600Z 30007KT 9999 BKN016 27/26 Q1008 NOSIG
METAR WADD 221530Z 31006KT 9999 BKN016 27/26 Q1008 RERA NOSIG
METAR WADD 221500Z 29005KT 260V320 8000 -RA BKN016 27/26 Q1008 TEMPO TL1600 -RA
METAR WADD 221430Z 27003KT 9999 SCT016 27/26 Q1009 NOSIG
METAR WADD 221400Z 27007KT 9999 SCT016 27/25 Q1009 NOSIG
METAR WADD 221330Z 27007KT 250V360 9999 SCT016 28/25 Q1008 NOSIG
METAR WADD 221300Z 31005KT 290V350 9999 SCT016 28/25 Q1008 NOSIG
METAR WADD 221230Z 28005KT 9999 SCT016 28/25 Q1008 NOSIG
METAR WADD 221200Z 25003KT 9999 SCT016 28/25 Q1008 NOSIG
METAR WADD 221130Z VRB02KT 9999 SCT016 28/25 Q1008 NOSIG
METAR WADD 221100Z VRB02KT 9999 SCT016 28/25 Q1008 NOSIG
METAR WADD 221030Z VRB02KT 9999 SCT016 28/25 Q1007 NOSIG
METAR WADD 221000Z VRB02KT 9999 SCT016 29/25 Q1007 RETS NOSIG
METAR WADD 220930Z 09003KT 9999 TS FEW015CB SCT015 29/25 Q1007 TEMPO TL1030 TS
METAR WADD 220900Z 10003KT 9999 TS FEW015CB SCT015 29/25 Q1007 TEMPO TL1000 TS
METAR WADD 220830Z 13003KT 9999 SCT016 29/24 Q1006 NOSIG
METAR WADD 220800Z 14004KT 100V210 9999 SCT016 29/24 Q1006 NOSIG
METAR WADD 220730Z VRB03KT 9999 SCT016 29/25 Q1006 NOSIG
METAR WADD 220700Z 13003KT 9999 SCT016 29/24 Q1006 NOSIG
METAR WADD 220630Z 15004KT 120V190 9999 SCT016 29/25 Q1007 NOSIG
METAR WADD 220600Z 14005KT 110V170 9999 FEW015CB BKN015 29/25 Q1007 R ETS NOSIG
METAR WADD 220530Z 33006KT 280V020 9999 TS FEW015CB SCT016 29/24 Q1007 TEMPO TL0630 TS
METAR WADD 220500Z 32011KT 280V350 9999 FEW015CB SCT016 30/25 Q1007 N OSIG
METAR WADD 220430Z 30012KT 9999 FEW015CB SCT016 31/25 Q1007 NOSIG
METAR WADD 220400Z 28008KT 9999 FEW015CB SCT016 30/26 Q1008 NOSIG
METAR WADD 220330Z 26005KT 180V310 9999 FEW015CB SCT016 32/26 Q1008 N OSIG
METAR WADD 220300Z 13005KT 9999 SCT016 31/26 Q1008 NOSIG
METAR WADD 220230Z 13006KT 9999 SCT016 30/26 Q1009 NOSIG
METAR WADD 220200Z 11007KT 9999 FEW015CB SCT016 30/25 Q1009 NOSIG
METAR WADD 220130Z 12006KT 070V140 9999 FEW015CB SCT016 30/26 Q1009 N OSIG
METAR WADD 220100Z 10005KT 070V140 9999 SCT016 30/26 Q1009 NOSIG
METAR WADD 220030Z VRB03KT 9999 FEW017 30/26 Q1009 NOSIG
METAR WADD 220000Z 10003KT 9999 FEW017 29/26 Q1009 NOSIG</description><pubDate>Sat, 22 Nov 2025 23:41:59 </pubDate></item></channel></rss>