<rss version="2.0"><channel><title>Aviation Weather METAR Data for WADD</title><link>https://aviationweather.gov/api/data/metar?ids=WADD&amp;hours=24</link><description>Latest METAR data for WADD</description><item><title>2025-03-20 10:44:52Z</title><link>https://aviationweather.gov/api/data/metar?ids=WADD&amp;hours=24</link><description>WADD 201030Z 26013KT 9999 BKN016 29/26 Q1009 NOSIG
WADD 201000Z 26009KT 9999 FEW015CB BKN016 28/25 Q1008 RERA NOSIG
WADD 200930Z 26017G27KT 3000 RA FEW015CB BKN016 29/26 Q1008 TEMPO TL1030 3000 RA
WADD 200900Z 26015KT 9999 SCT017 30/26 Q1008 NOSIG
WADD 200830Z 26016KT 9999 FEW017 31/26 Q1008 NOSIG
WADD 200800Z 26015KT 9999 FEW017 31/26 Q1008 NOSIG
WADD 200730Z 26016KT 9999 FEW017 31/26 Q1008 NOSIG
WADD 200700Z 26016KT 9999 FEW017 31/26 Q1008 NOSIG
WADD 200630Z 26015KT 9999 SCT017 31/26 Q1008 NOSIG
WADD 200600Z 26015KT 9999 FEW017 31/26 Q1009 NOSIG
WADD 200530Z 26014KT 9999 FEW017 32/26 Q1009 NOSIG
WADD 200500Z 27015KT 9999 FEW017 31/26 Q1009 NOSIG
WADD 200430Z 30013KT 9999 FEW017 31/27 Q1010 NOSIG
WADD 200400Z 29013KT 9999 FEW016 31/27 Q1010 NOSIG
WADD 200330Z 29013KT 9999 SCT017 31/27 Q1010 NOSIG
WADD 200300Z 28013KT 9999 FEW017 31/27 Q1011 NOSIG
WADD 200230Z 29014KT 9999 FEW017 31/27 Q1011 NOSIG
WADD 200200Z 28013KT 9999 FEW017 31/27 Q1011 NOSIG
WADD 200130Z 29012KT 9999 FEW017 30/27 Q1012 NOSIG
WADD 200100Z 29012KT 9999 FEW017 29/27 Q1011 NOSIG
WADD 200030Z 27013KT 9999 SCT016 30/26 Q1011 NOSIG
WADD 200000Z 27013KT 9999 SCT017 29/26 Q1011 NOSIG
WADD 192330Z 26010KT 9999 FEW017 28/25 Q1011 NOSIG
WADD 192300Z 27010KT 9999 FEW017 28/26 Q1011 NOSIG
WADD 192230Z 27009KT 9999 FEW017 28/25 Q1010 NOSIG
WADD 192200Z 26010KT 9999 SCT016 28/26 Q1010 NOSIG
WADD 192130Z 26009KT 9999 SCT016 28/26 Q1010 NOSIG
WADD 192100Z 27009KT 9999 SCT016 28/26 Q1009 NOSIG
WADD 192030Z 26012KT 9999 SCT016 28/26 Q1009 NOSIG
WADD 192000Z 26009KT 9999 SCT016 28/26 Q1009 NOSIG
WADD 191930Z 28010KT 9999 SCT016 27/26 Q1009 NOSIG
WADD 191900Z 28010KT 9999 SCT016 27/26 Q1009 NOSIG
WADD 191830Z 29010KT 9999 SCT016 27/26 Q1009 NOSIG
WADD 191800Z 29010KT 9999 SCT018 27/26 Q1009 NOSIG
WADD 191730Z 31007KT 9999 SCT018 26/25 Q1010 NOSIG
WADD 191700Z 31007KT 9999 SCT017 26/25 Q1010 NOSIG
WADD 191630Z 32007KT 260V340 9999 SCT016 26/25 Q1011 NOSIG
WADD 191600Z 32006KT 9999 SCT016 26/25 Q1011 NOSIG
WADD 191530Z 32006KT 8000 BKN015 26/25 Q1011 NOSIG
WADD 191500Z 32005KT 300V010 8000 BKN015 26/25 Q1011 NOSIG
WADD 191430Z 34006KT 300V360 8000 BKN015 26/25 Q1012 RERA NOSIG
WADD 191400Z 34004KT 310V020 6000 -RA BKN014 26/25 Q1012 TEMPO TL1500 6000 -RA
WADD 191330Z 32008KT 290V360 5000 -RA BKN014 26/25 Q1012 TEMPO TL1430 5000 -RA
WADD 191300Z 29009KT 5000 -RA BKN014 26/25 Q1012 TREND TEMPO TL1400 5000 -RA
WADD 191230Z 27012KT 5000 -RA BKN014 26/25 Q1012 TREND TEMPO TL1330 5000 -RA
WADD 191200Z 28014KT 6000 -RA BKN015 26/25 Q1012 TREND TEMPO TL1300 6000 -RA
WADD 191130Z 29017KT 5000 -RA FEW014CB BKN014 25/24 Q1012 TEMPO TL1300 7000 -RA
WADD 191100Z 28010KT 6000 -RA BKN014 26/25 Q1011 TEMPO TL1300 -RA</description><pubDate>Thu, 20 Mar 2025 10:44:52 </pubDate></item></channel></rss>