<rss version="2.0"><channel><title>Aviation Weather METAR Data for WADD</title><link>https://aviationweather.gov/api/data/metar?ids=WADD</link><description>Latest METAR data for WADD</description><item><title>2024-12-31 04:43:17Z</title><link>https://aviationweather.gov/api/data/metar?ids=WADD</link><description>WADD 310430Z 24006KT 190V260 9999 SCT017 31/25 Q1008 NOSIG</description><pubDate>Tue, 31 Dec 2024 04:43:17 </pubDate></item></channel></rss>