<rss version="2.0"><channel><title>Aviation Weather METAR Data for WADD</title><link>https://aviationweather.gov/api/data/metar?ids=WADD&amp;hours=24</link><description>Latest METAR data for WADD</description><item><title>2025-07-12 19:21:08Z</title><link>https://aviationweather.gov/api/data/metar?ids=WADD&amp;hours=24</link><description>WADD 121900Z 11009KT 9999 SCT016 26/25 Q1011 NOSIG
WADD 121830Z 11010KT 9999 SCT016 26/25 Q1011 NOSIG
WADD 121800Z 12011KT 9999 SCT016 26/25 Q1012 NOSIG
WADD 121730Z 11009KT 9999 SCT016 26/25 Q1012 NOSIG
WADD 121700Z 10009KT 9999 SCT016 26/25 Q1012 NOSIG
WADD 121630Z 10010KT 9999 SCT016 26/25 Q1012 NOSIG
WADD 121600Z 10010KT 9999 SCT016 26/25 Q1012 NOSIG
WADD 121530Z 10010KT 9999 SCT016 26/25 Q1012 NOSIG
WADD 121500Z 11011KT 9999 SCT016 27/25 Q1013 NOSIG
WADD 121430Z 11011KT 9999 SCT016 27/25 Q1012 NOSIG
WADD 121400Z 11010KT 9999 SCT016 27/25 Q1012 NOSIG
WADD 121330Z 11012KT 9999 BKN016 27/25 Q1012 NOSIG
WADD 121300Z 12009KT 9999 BKN016 27/25 Q1012 NOSIG
WADD 121230Z 12011KT 9999 BKN016 27/24 Q1012 NOSIG
WADD 121200Z 13009KT 9999 BKN016 27/25 Q1012 NOSIG
WADD 121130Z 13012KT 9999 SCT016 26/25 Q1011 NOSIG
WADD 121100Z 12011KT 9999 SCT016 27/25 Q1011 NOSIG
WADD 121030Z 12012KT 9999 SCT016 27/25 Q1011 NOSIG
WADD 121000Z 13012KT 9999 SCT016 27/24 Q1010 NOSIG
WADD 120930Z 13014KT 9999 SCT016 27/24 Q1010 NOSIG
WADD 120900Z 13014KT 9999 BKN016 27/25 Q1010 NOSIG
WADD 120830Z 13015KT 9999 SCT016 28/24 Q1010 NOSIG
WADD 120800Z 13012KT 9999 SCT016 28/25 Q1010 NOSIG
WADD 120730Z 13013KT 9999 SCT016 28/25 Q1010 NOSIG
WADD 120700Z 14014KT 9999 BKN016 28/25 Q1010 NOSIG
WADD 120630Z 12012KT 9999 BKN016 28/25 Q1010 NOSIG
WADD 120600Z 13011KT 9999 BKN016 29/25 Q1011 NOSIG
WADD 120530Z 12009KT 9999 BKN016 28/25 Q1011 NOSIG
WADD 120500Z 12007KT 9999 BKN016 28/26 Q1011 NOSIG
WADD 120430Z 13006KT 9999 BKN016 28/25 Q1011 NOSIG
WADD 120400Z 13003KT 9999 FEW015CB BKN016 27/25 Q1012 NOSIG
WADD 120330Z 07004KT 020V140 9999 FEW014CB BKN015 27/25 Q1012 RERA NOSIG
WADD 120300Z 09006KT 040V140 7000 FEW014CB BKN014 27/25 Q1012 NOSIG RMK CB IN CLIMB-OUT
WADD 120230Z 12005KT 080V150 7000 FEW014CB BKN014 27/25 Q1012 NOSIG RMK CB IN CLIMB-OUT
WADD 120200Z 30004KT 190V320 7000 FEW014CB BKN014 26/25 Q1012 NOSIG
WADD 120130Z 32005KT 290V350 7000 BKN014 26/24 Q1012 NOSIG
WADD 120100Z 32004KT 280V350 9999 BKN015 25/24 Q1012 NOSIG
WADD 120030Z 31003KT 9999 BKN015 26/24 Q1012 NOSIG
WADD 120000Z 30003KT 9999 FEW014CB BKN015 25/24 Q1012 NOSIG
WADD 112330Z 30003KT 9999 7000 FEW014CB BKN015 25/24 Q1012 NOSIG RMK CB IN CLIMB-OUT
WADD 112300Z VRB02KT 8000 BKN015 25/24 Q1012 NOSIG
WADD 112230Z 32005KT 9999 BKN016 25/24 Q1011 NOSIG
WADD 112200Z 33004KT 9999 SCT016 25/25 Q1011 NOSIG
WADD 112100Z 33005KT 9999 SCT016 25/24 Q1011 NOSIG
WADD 112030Z 34004KT 310V010 9999 FEW017 25/24 Q1011 NOSIG
WADD 112000Z 11003KT 9999 FEW017 26/24 Q1011 NOSIG
WADD 111930Z 14008KT 9999 FEW017 26/24 Q1010 NOSIG</description><pubDate>Sat, 12 Jul 2025 19:21:08 </pubDate></item></channel></rss>