<rss version="2.0"><channel><title>Aviation Weather METAR Data for WADD</title><link>https://aviationweather.gov/api/data/metar?ids=WADD&amp;hours=24</link><description>Latest METAR data for WADD</description><item><title>2026-06-30 19:21:41Z</title><link>https://aviationweather.gov/api/data/metar?ids=WADD&amp;hours=24</link><description>METAR WADD 301900Z 01003KT 9999 FEW017 24/22 Q1011 NOSIG
METAR WADD 301830Z 04002KT 9999 FEW017 24/22 Q1011 NOSIG
METAR WADD 301800Z 35005KT 9999 FEW017 24/23 Q1011 NOSIG
METAR WADD 301730Z 35006KT 280V080 9999 FEW017 24/23 Q1012 NOSIG
METAR WADD 301700Z VRB01KT 9999 FEW017 25/23 Q1012 NOSIG
METAR WADD 301630Z 20004KT 9999 FEW017 25/24 Q1012 NOSIG
METAR WADD 301600Z 21005KT 9999 FEW017 25/24 Q1012 NOSIG
METAR WADD 301530Z 21004KT 9999 FEW017 25/23 Q1012 NOSIG
METAR WADD 301500Z 22003KT 9999 SCT017 25/23 Q1012 NOSIG
METAR WADD 301430Z 22002KT 9999 SCT017 25/23 Q1012 NOSIG
METAR WADD 301400Z 24002KT 9999 SCT017 26/23 Q1012 NOSIG
METAR WADD 301330Z 22002KT 9999 FEW017 25/23 Q1012 NOSIG
METAR WADD 301300Z 24002KT 9999 FEW017 25/23 Q1012 NOSIG
METAR WADD 301230Z 21003KT 9999 FEW017 26/23 Q1012 NOSIG
METAR WADD 301200Z 19004KT 9999 FEW017 26/23 Q1012 NOSIG
METAR WADD 301130Z 15005KT 9999 FEW017 26/23 Q1011 NOSIG
METAR WADD 301100Z 16007KT 9999 FEW017 26/23 Q1011 NOSIG
METAR WADD 301030Z 15011KT 9999 FEW017 27/23 Q1011 NOSIG
METAR WADD 301000Z 15008KT 9999 FEW017 27/23 Q1011 NOSIG
METAR WADD 300930Z 15009KT 9999 FEW017 28/22 Q1010 NOSIG
METAR WADD 300900Z 14008KT 9999 FEW017 28/22 Q1010 NOSIG
METAR WADD 300830Z 13008KT 9999 FEW017 29/22 Q1010 NOSIG
METAR WADD 300800Z 15008KT 9999 FEW017 29/22 Q1010 NOSIG
METAR WADD 300730Z 11007KT 9999 FEW017 29/21 Q1010 NOSIG
METAR WADD 300700Z 12008KT 080V150 9999 FEW017 29/21 Q1010 NOSIG
METAR WADD 300630Z 14009KT 100V160 9999 FEW017 29/20 Q1010 NOSIG
METAR WADD 300600Z COR 13008KT 9999 FEW017 29/22 Q1011 NOSIG
METAR WADD 300530Z 10009KT 9999 FEW017 29/21 Q1011 NOSIG
METAR WADD 300500Z 11009KT 9999 FEW017 29/21 Q1012 NOSIG?
METAR WADD 300430Z 11009KT 9999 FEW017 29/21 Q1012 NOSIG
METAR WADD 300400Z 10007KT 060V150 9999 FEW017 30/22 Q1012 NOSIG
METAR WADD 300330Z 12007KT 090V160 9999 FEW017 29/22 Q1013 NOSIG
METAR WADD 300300Z 10006KT 060V140 9999 FEW017 29/22 Q1013 NOSIG
METAR WADD 300230Z 10007KT 060V140 9999 FEW017 29/21 Q1013 NOSIG
METAR WADD 300200Z VRB02KT 9999 FEW017 29/22 Q1013 NOSIG
METAR WADD 300130Z VRB02KT 9999 FEW017 28/22 Q1013 NOSIG
METAR WADD 300100Z 21003KT 9999 FEW017 27/21 Q1013 NOSIG
METAR WADD 300030Z 19002KT 9999 FEW017 27/22 Q1013 NOSIG
METAR WADD 300000Z VRB01KT 9999 FEW017 27/21 Q1012 NOSIG
METAR WADD 292330Z VRB02KT 9999 FEW017 24/20 Q1012 NOSIG
METAR WADD 292300Z VRB02KT 9999 FEW017 22/19 Q1012 NOSIG
METAR WADD 292230Z VRB02KT 9999 FEW017 22/19 Q1012 NOSIG
METAR WADD 292200Z VRB02KT 9999 FEW017 22/19 Q1012 NOSIG
METAR WADD 292130Z 04003KT 9999 FEW017 22/20 Q1012 NOSIG
METAR WADD 292100Z VRB02KT 9999 FEW017 22/20 Q1012 NOSIG
METAR WADD 292030Z 03004KT 9999 FEW017 23/20 Q1012 NOSIG
METAR WADD 292000Z 02002KT 9999 FEW017 23/20 Q1012 NOSIG
METAR WADD 291930Z 01004KT 9999 FEW017 24/21 Q1012 NOSIG</description><pubDate>Tue, 30 Jun 2026 19:21:41 </pubDate></item></channel></rss>