<rss version="2.0"><channel><title>Aviation Weather METAR Data for WADD</title><link>https://aviationweather.gov/api/data/metar?ids=WADD</link><description>Latest METAR data for WADD</description><item><title>2024-12-30 16:44:54Z</title><link>https://aviationweather.gov/api/data/metar?ids=WADD</link><description>WADD 301630Z 09004KT 060V140 9999 SCT016 28/26 Q1009 NOSIG</description><pubDate>Mon, 30 Dec 2024 16:44:54 </pubDate></item></channel></rss>