<rss version="2.0"><channel><title>Aviation Weather METAR Data for WADD</title><link>https://aviationweather.gov/api/data/metar?ids=WADD&amp;hours=24</link><description>Latest METAR data for WADD</description><item><title>2025-06-26 05:28:43Z</title><link>https://aviationweather.gov/api/data/metar?ids=WADD&amp;hours=24</link><description>WADD 260500Z 10011KT 9999 BKN016 26/25 Q1012 NOSIG
WADD 260430Z 11009KT 9999 BKN016 26/26 Q1012 RERA NOSIG
WADD 260400Z 10010KT 8000 -RA FEW016CB BKN016 26/26 Q1013 TEMPO TL0500 8000 -RA
WADD 260330Z 11013KT 8000 -RA FEW015CB BKN016 26/26 Q1013 TEMPO TL0430 8000 -RA
WADD 260300Z 11009KT 9999 FEW015CB BKN016 27/26 Q1013 NOSIG
WADD 260230Z 12013KT 9999 FEW015CB BKN016 26/26 Q1013 NOSIG
WADD 260200Z 11010KT 9999 FEW015CB BKN016 27/26 Q1013 RERA NOSIG
WADD 260130Z 10011KT 2000 RA FEW014CB BKN015 26/25 Q1013 TEMPO TL0230 3000 RA RMK CB IN APCH
WADD 260100Z 12010KT 9999 SCT016 27/26 Q1013 NOSIG
WADD 260030Z 11009KT 9999 BKN015 26/26 Q1013 NOSIG
WADD 260000Z 09011KT 8000 FEW014CB BKN014 26/26 Q1013 RERA NOSIG
WADD 252330Z 13005KT 9999 FEW105CB BKN015 26/26 Q1012 NOSIG
WADD 252300Z VRB02KT 9999 SCT015 25/25 Q1012 RERA NOSIG
WADD 252230Z 14005KT 100V190 5000 -RA FEW014CB BKN014 25/25 Q1012 TEMPO TL2330 5000 -RA
WADD 252200Z 15003KT 9999 BKN014 25/25 Q1012 NOSIG
WADD 252130Z 13007KT 9999 BKN014 25/25 Q1012 NOSIG
WADD 252100Z 15007KT 100V190 9999 FEW014CB BKN014 25/25 Q1012 NOSIG
WADD 252030Z 12004KT 9999 FEW014CB BKN014 24/24 Q1012 NOSIG
WADD 252000Z 15006KT 120V200 9999 FEW014CB BKN014 24/24 Q1012 RERA NOSIG
WADD 251930Z 12006KT 080V160 6000 -RA FEW014CB BKN014 Q1012 TEMPO TL2030 6000 -RA RMK CB IN APCH
WADD 251900Z 14004KT 6000 -RA FEW014CB BKN014 24/24 Q1012 TEMPO TL2000 6000 -RA RMK CB IN APCH
WADD 251830Z 10007KT 1000 +RA FEW014CB BKN014 24/24 Q1012 TEMPO TL1930 4000 RA RMK CB IN APCH AND CLIMB-OUT
WADD 251800Z VRB01KT 9000 FEW014CB BKN014 24/24 Q1012 RERA NOSIG
WADD 251730Z 14007KT 6000 -RA FEW014CB BKN014 24/24 Q1013 TEMPO TL1830 6000 -RA
WADD 251700Z 16003KT 6000 -RA FEW014CB BKN014 24/24 Q1013 NOSIG TEMPO TL1800 6000 -RA
WADD 251630Z 18004KT 130V250 6000 -RA FEW014CB BKN014 24/24 Q1013 TEMPO TL1700 5000 -RA
WADD 251600Z 17005KT 130V220 3000 RA FEW014CB BKN014 Q1014 TEMPO TL1700 3000 RA RMK CB IN APCH
WADD 251530Z 12007KT 090V150 7000 -RA FEW014CB BKN014 25/24 Q1014 TEMPO TL1630 7000 -RA RMK CB IN APCH
WADD 251500Z 12008KT 080V160 3000 RA FEW014CB BKN014 Q1014 TEMPO TL1600 3000 RA RMK CB IN APCH AND CLIMB-OUT
WADD 251430Z 08005KT 050V130 9999 FEW014CB BKN014 Q1014 RERA NOSIG RMK CB IN APCH
WADD 251400Z 10008KT 060V140 0500 +RA FEW014CB BKN014 25/25 Q1014 TEMPO TL1500 2000 RA RMK CB IN APCH AND CLIMB-OUT
WADD 251330Z VRB08KT 9999 FEW015CB BKN015 25/25 Q1014 NOSIG RMK CB IN CLIMB-OUT
WADD 251300Z 25002KT 9999 FEW015CB BKN015 25/24 Q1013 NOSIG RMK CB IN CLIMB-OUT
WADD 251230Z VRB01KT 9999 BKN015 25/24 Q1013 NOSIG
WADD 251200Z VRB02KT 9999 BKN015 25/24 Q1013 RERA NOSIG
WADD 251130Z 16006KT 110V220 6000 -RA FEW015CB BKN015 24/24 Q1013 TEMPO TL1200 6000 -RA
WADD 251100Z 14003KT 6000 -RA FEW015CB BKN015 25/24 Q1012 TEMPO TL1200 6000 -RA
WADD 251030Z VRB01KT 9999 BKN015 25/24 Q1012 NOSIG
WADD 251000Z 19004KT 150V230 9999 BKN015 25/24 Q1012 RERA NOSIG
WADD 250930Z 16005KT 110V190 9999 BKN015 25/24 Q1012 NOSIG
WADD 250900Z 13007KT 9999 BKN015 26/25 Q1011 NOSIG
WADD 250830Z 12007KT 9999 BKN015 26/24 Q1011 NOSIG
WADD 250800Z 13008KT 9999 FEW015CB BKN015 26/25 Q1011 RERA NOSIG
WADD 250730Z 07005KT 5000 -RA FEW014CB BKN014 25/24 Q1011 TEMPO TL0830 7000 -RA RMK CB IN APCH
WADD 250700Z 28005KT 9999 2000 RA FEW014CB BKN014 25/25 Q1011 TEMPO TL0800 2000 RA
WADD 250630Z VRB02KT 9999 RERA FEW014CB BKN014 25/25 Q1012 NOSIG
WADD 250600Z 28010KT 8000 -RA FEW014 CB BKN014 25/25 Q1012 TEMPO TL0630 8000 -RA RMK CB IN APCH
WADD 250530Z 16010KT 4000 RA FEW015CB BKN015 25/25 Q1012 TEMPO TL0630 4000 RA</description><pubDate>Thu, 26 Jun 2025 05:28:43 </pubDate></item></channel></rss>