<rss version="2.0"><channel><title>Aviation Weather METAR Data for WADD</title><link>https://aviationweather.gov/api/data/metar?ids=WADD&amp;hours=24</link><description>Latest METAR data for WADD</description><item><title>2026-05-08 07:54:52Z</title><link>https://aviationweather.gov/api/data/metar?ids=WADD&amp;hours=24</link><description>METAR WADD 080730Z 12016KT 9999 FEW017 30/25 Q1007 NOSIG
METAR WADD 080700Z 11016KT 9999 FEW017 30/25 Q1007 NOSIG
METAR WADD 080630Z 12016KT 9999 FEW017 30/26 Q1007 NOSIG
METAR WADD 080600Z 12016KT 9999 FEW017 30/26 Q1007 NOSIG
METAR WADD 080530Z 12018KT 9999 FEW017 30/25 Q1008 NOSIG
METAR WADD 080500Z 11016KT 9999 FEW017 30/26 Q1008 NOSIG
METAR WADD 080430Z 12017KT 9999 FEW017 31/25 Q1008 NOSIG
METAR WADD 080400Z 11015KT 9999 FEW017 31/26 Q1009 NOSIG
METAR WADD 080330Z COR 11019KT 9999 FEW017 30/25 Q1009 NOSIG
METAR WADD 080300Z 11017KT 9999 SCT016 30/26 Q1010 NOSIG
METAR WADD 080230Z 11017KT 9999 SCT016 30/26 Q1010 NOSIG
METAR WADD 080200Z 12019KT 9999 SCT016 30/26 Q1010 NOSIG
METAR WADD 080130Z 12017KT 9999 FEW017 30/26 Q1010 NOSIG
METAR WADD 080100Z 12014KT 9999 FEW017 30/26 Q1010 NOSIG
METAR WADD 080030Z 12014KT 9999 FEW017 29/26 Q1010 NOSIG
METAR WADD 080000Z 12013KT 9999 FEW017 29/25 Q1010 NOSIG
METAR WADD 072330Z 13011KT 9999 FEW017 28/26 Q1010 NOSIG
METAR WADD 072300Z 12008KT 9999 FEW017 27/25 Q1010 NOSIG
METAR WADD 072230Z 13009KT 9999 SCT016 27/25 Q1010 NOSIG
METAR WADD 072200Z 13008KT 9999 SCT016 27/25 Q1009 NOSIG
METAR WADD 072130Z 14009KT 9999 SCT016 27/25 Q1009 NOSIG
METAR WADD 072100Z 14010KT 9999 SCT016 27/25 Q1009 NOSIG
METAR WADD 072030Z 13008KT 9999 SCT016 28/26 Q1009 NOSIG
METAR WADD 072000Z 13007KT 9999 SCT016 28/26 Q1009 NOSIG
METAR WADD 071930Z 13007KT 9999 SCT017 28/25 Q1009 NOSIG
METAR WADD 071900Z 12007KT 9999 SCT017 28/25 Q1009 NOSIG
METAR WADD 071830Z 12009KT 9999 SCT017 28/25 Q1009 NOSIG
METAR WADD 071800Z 12009KT 9999 SCT017 28/25 Q1009 NOSIG
METAR WADD 071730Z 12009KT 9999 SCT017 28/25 Q1010 NOSIG
METAR WADD 071700Z 12007KT 9999 SCT017 28/26 Q1010 NOSIG
METAR WADD 071630Z 11008KT 9999 SCT017 28/25 Q1010 NOSIG
METAR WADD 071600Z 12010KT 9999 SCT017 28/25 Q1010 NOSIG
METAR WADD 071530Z 12010KT 9999 FEW017 28/25 Q1010 NOSIG
METAR WADD 071500Z 12009KT 9999 FEW017 28/25 Q1010 NOSIG
METAR WADD 071430Z 13010KT 9999 FEW017 28/25 Q1010 NOSIG
METAR WADD 071400Z 13011KT 9999 FEW017 28/26 Q1010 NOSIG
METAR WADD 071330Z 12010KT 9999 FEW017 28/25 Q1010 NOSIG
METAR WADD 071300Z 12010KT 9999 SCT016 28/26 Q1010 NOSIG
METAR WADD 071230Z 12010KT 9999 SCT016 28/26 Q1009 NOSIG
METAR WADD 071200Z 12009KT 9999 SCT016 28/25 Q1009 NOSIG
METAR WADD 071130Z 12009KT 9999 SCT016 28/25 Q1009 NOSIG
METAR WADD 071100Z 12009KT 9999 FEW016 28/25 Q1009 NOSIG
METAR WADD 071030Z 12010KT 9999 FEW016 28/25 Q1008 NOSIG
METAR WADD 071000Z 12013KT 9999 SCT016 28/25 Q1008 NOSIG
METAR WADD 070930Z 13012KT 9999 SCT016 29/25 Q1008 NOSIG
METAR WADD 070900Z 14013KT 9999 SCT017 29/25 Q1008 NOSIG
METAR WADD 070830Z 13013KT 9999 SCT017 30/25 Q1008 NOSIG
METAR WADD 070800Z 13013KT 9999 FEW017 30/25 Q1008 NOSIG</description><pubDate>Fri, 08 May 2026 07:54:52 </pubDate></item></channel></rss>