<rss version="2.0"><channel><title>Aviation Weather METAR Data for WADD</title><link>https://aviationweather.gov/api/data/metar?ids=WADD&amp;hours=24</link><description>Latest METAR data for WADD</description><item><title>2025-04-04 23:40:35Z</title><link>https://aviationweather.gov/api/data/metar?ids=WADD&amp;hours=24</link><description>WADD 042330Z VRB02KT 9999 FEW017 26/22 Q1010 NOSIG
WADD 042300Z VRB01KT 9999 FEW017 25/21 Q1010 NOSIG
WADD 042230Z 07002KT 9999 FEW017 23/22 Q1010 NOSIG
WADD 042200Z 08002KT 9999 FEW017 24/22 Q1009 NOSIG
WADD 042130Z 10002KT 9999 FEW017 24/22 Q1009 NOSIG
WADD 042100Z 06002KT 9999 FEW017 24/22 Q1009 NOSIG
WADD 042030Z 05003KT 9999 FEW017 24/23 Q1009
WADD 042000Z VRB02KT 9999 FEW017 25/23 Q1009 NOSIG
WADD 041930Z 03003KT 9999 FEW017 25/23 Q1009 NOSIG
WADD 041900Z 03002KT 9999 FEW017 25/23 Q1009 NOSIG
WADD 041830Z 08002KT 9999 FEW017 25/24 Q1009 NOSIG
WADD 041800Z 08002KT 9999 FEW017 26/24 Q1010 NOSIG
WADD 041730Z 02004KT 9999 FEW017 26/24 Q1010 NOSIG
WADD 041700Z 02005KT 9999 FEW017 26/24 Q1010 NOSIG
WADD 041630Z 03003KT 9999 FEW017 26/24 Q1010 NOSIG
WADD 041600Z 06004KT 020V110 9999 FEW017 26/24 Q1010 NOSIG
WADD 041530Z VRB02KT 9999 FEW017 26/25 Q1010 NOSIG
WADD 041500Z 15003KT 9999 FEW017 27/25 Q1010 NOSIG
WADD 041430Z 09003KT 9999 FEW017 27/24 Q1010 NOSIG
WADD 041400Z 10003KT 9999 FEW017 27/24 Q1010 NOSIG
WADD 041330Z 12003KT 9999 FEW017 27/24 Q1010 NOSIG
WADD 041300Z 12004KT 9999 FEW017 27/24 Q1010 NOSIG
WADD 041230Z 12005KT 9999 FEW017 27/24 Q1010 NOSIG
WADD 041200Z 12006KT 9999 FEW017 28/25 Q1009 NOSIG
WADD 041130Z 13007KT 9999 FEW017 28/25 Q1009 NOSIG
WADD 041100Z 13006KT 9999 FEW017 28/25 Q1008 NOSIG
WADD 041030Z 13008KT 9999 FEW017 29/24 Q1008 NOSIG
WADD 041000Z 14008KT 9999 FEW017 29/24 Q1008 NOSIG
WADD 040930Z 15011KT 9999 FEW017 29/25 Q1008 NOSIG
WADD 040900Z 16011KT 9999 FEW017 30/25 Q1008 NOSIG
WADD 040830Z 17010KT 9999 FEW017 30/25 Q1007 NOSIG
WADD 040800Z 15007KT 9999 FEW017 31/24 Q1007 NOSIG
WADD 040730Z 15007KT 9999 FEW017 31/23 Q1008 NOSIG
WADD 040700Z 13007KT 9999 FEW017 31/24 Q1008 NOSIG
WADD 040630Z 11010KT 9999 FEW017 31/24 Q1008 NOSIG
WADD 040600Z 10010KT 9999 FEW017 31/24 Q1009 NOSIG
WADD 040530Z 10009KT 9999 FEW017 31/24 Q1009 NOSIG
WADD 040500Z 10010KT 9999 FEW017 31/25 Q1010 NOSIG
WADD 040430Z 11008KT 060V150 9999 FEW017 30/26 Q1010 NOSIG
WADD 040400Z 10008KT 070V130 9999 FEW017 31/25 Q1010 NOSIG
WADD 040330Z 10009KT 9999 FEW017 30/25 Q1011 NOSIG
WADD 040300Z 10008KT 070V130 9999 FEW017 30/25 Q1011 NOSIG
WADD 040230Z 11008KT 070V130 9999 FEW017 30/25 Q1011 NOSIG
WADD 040200Z 10008KT 060V130 9999 SCT017 30/26 Q1012 NOSIG
WADD 040130Z 10007KT 9999 SCT017 29/26 Q1011 NOSIG
WADD 040100Z 11006KT 9999 SCT017 29/26 Q1011 NOSIG
WADD 040030Z 09004KT 050V120 9999 FEW017 28/26 Q1011 NOSIG
WADD 040000Z 05004KT 9999 FEW017 27/26 Q1011 NOSIG</description><pubDate>Fri, 04 Apr 2025 23:40:35 </pubDate></item></channel></rss>