<rss version="2.0"><channel><title>Aviation Weather METAR Data for WADD</title><link>https://aviationweather.gov/api/data/metar?ids=WADD&amp;hours=24</link><description>Latest METAR data for WADD</description><item><title>2026-03-21 20:37:41Z</title><link>https://aviationweather.gov/api/data/metar?ids=WADD&amp;hours=24</link><description>METAR WADD 212030Z 01005KT 9999 FEW017 25/25 Q1008 NOSIG
METAR WADD 211930Z VRB02KT 9999 FEW017 26/26 Q1008 NOSIG
METAR WADD 211900Z 05002KT 9999 FEW017 26/26 Q1009 NOSIG
METAR WADD 211830Z 15002KT 9999 FEW017 26/26 Q1009 NOSIG
METAR WADD 211800Z VRB01KT 9999 FEW017 26/26 Q1009 NOSIG
METAR WADD 211730Z 12001KT 9999 FEW017 26/26 Q1009 NOSIG
METAR WADD 211700Z 11001KT 9999 FEW017 26/26 Q1009 NOSIG
METAR WADD 211630Z VRB01KT 9999 FEW017 26/26 Q1009 NOSIG
METAR WADD 211600Z 00000KT 9999 FEW017 26/25 Q1010 NOSIG
METAR WADD 211530Z VRB01KT 9999 FEW017 27/26 Q1010 NOSIG
METAR WADD 211500Z VRB02KT 9999 FEW017 27/26 Q1010 NOSIG
METAR WADD 211430Z VRB01KT 9999 FEW017 26/25 Q1010 NOSIG
METAR WADD 211400Z VRB01KT 9999 FEW017 27/25 Q1010 NOSIG
METAR WADD 211330Z VRB02KT 9999 FEW017 27/25 Q1010 NOSIG
METAR WADD 211300Z VRB01KT 9999 FEW017 27/25 Q1010 NOSIG
METAR WADD 211230Z VRB01KT 9999 SCT016 28/25 Q1009 NOSIG
METAR WADD 211200Z VRB02KT 9999 SCT016 28/25 Q1009 NOSIG
METAR WADD 211130Z 16003KT 9999 SCT017 28/25 Q1009 NOSIG
METAR WADD 211100Z VRB02KT 9999 SCT017 28/25 Q1009 NOSIG
METAR WADD 211030Z 20003KT 140V240 9999 SCT017 29/25 Q1009 NOSIG
METAR WADD 211000Z 22005KT 150V270 9999 SCT017 30/25 Q1008 NOSIG
METAR WADD 210930Z 23006KT 200V270 9999 SCT017 30/25 Q1008 NOSIG
METAR WADD 210900Z 23006KT 170V270 9999 SCT017 31/25 Q1008 NOSIG
METAR WADD 210830Z 22005KT 130V250 9999 FEW017 32/24 Q1008 NOSIG
METAR WADD 210800Z 20005KT 140V290 9999 FEW017 33/25 Q1008 NOSIG
METAR WADD 210730Z 23007KT 190V270 9999 SCT017 32/25 Q1007 NOSIG
METAR WADD 210700Z 25008KT 9999 SCT017 32/25 Q1008 NOSIG
METAR WADD 210630Z 26009KT 9999 SCT017 32/25 Q1008 NOSIG
METAR WADD 210600Z 25011KT 9999 SCT017 32/26 Q1008 NOSIG
METAR WADD 210530Z 25009KT 9999 FEW017 32/26 Q1009 NOSIG
METAR WADD 210430Z 27010KT 9999 FEW017 31/26 Q1009 NOSIG
METAR WADD 210400Z 27008KT 220V300 9999 FEW017 31/27 Q1009 NOSIG
METAR WADD 210330Z 26008KT 220V290 9999 FEW017 31/26 Q1010 NOSIG
METAR WADD 210300Z 26008KT 9999 FEW017 31/26 Q1010 NOSIG
METAR WADD 210230Z 27007KT 9999 FEW017 31/26 Q1010 NOSIG
METAR WADD 210200Z 27005KT 220V010 9999 FEW017 31/26 Q1010 NOSIG
METAR WADD 210130Z 30004KT 240V040 9999 FEW017 30/27 Q1010 NOSIG
METAR WADD 210100Z 02003KT 9999 FEW016 31/27 Q1011 NOSIG
METAR WADD 210030Z 36004KT 9999 FEW016 28/27 Q1011 NOSIG
METAR WADD 210000Z 35004KT 9999 SCT016 26/26 Q1010 NOSIG
METAR WADD 202330Z VRB02KT 9999 FEW015CB SCT016 26/26 Q1010 NOSIG RMK CB IN APCH
METAR WADD 202300Z 02003KT 9999 FEW015CB SCT016 26/26 Q1010 NOSIG RMK CB IN APCH
METAR WADD 202230Z VRB02KT 9999 FEW015CB SCT016 25/25 Q1010 NOSIG
METAR WADD 202130Z VRB01KT 8000 FEW015CB SCT016 25/25 Q1009 RERA NOSI G
METAR WADD 202100Z 19002KT 6000 -RA FEW015CB BKN016 25/25 Q1009 NOSIG</description><pubDate>Sat, 21 Mar 2026 20:37:41 </pubDate></item></channel></rss>