<rss version="2.0"><channel><title>Aviation Weather METAR Data for WADD</title><link>https://aviationweather.gov/api/data/metar?ids=WADD&amp;hours=24</link><description>Latest METAR data for WADD</description><item><title>2025-06-17 20:29:20Z</title><link>https://aviationweather.gov/api/data/metar?ids=WADD&amp;hours=24</link><description>WADD 172000Z 12007KT 9999 FEW017 26/23 Q1011 NOSIG
WADD 171930Z 12007KT 9999 FEW017 26/23 Q1011 NOSIG
WADD 171900Z 12008KT 9999 FEW017 26/23 Q1011 NOSIG
WADD 171830Z 12009KT 9999 FEW017 27/23 Q1011 NOSIG
WADD 171800Z 13010KT 9999 FEW017 27/23 Q1012 NOSIG
WADD 171730Z 12011KT 9999 FEW016 27/23 Q1012 NOSIG
WADD 171700Z 12011KT 9999 FEW017 27/24 Q1012 NOSIG
WADD 171630Z 13010KT 9999 FEW017 27/23 Q1012 NOSIG
WADD 171600Z 12009KT 9999 FEW017 27/24 Q1012 NOSIG
WADD 171530Z 13010KT 9999 FEW017 27/24 Q1012 NOSIG
WADD 171500Z 13011KT 9999 FEW017 27/24 Q1012 NOSIG
WADD 171430Z 13011KT 9999 FEW016 27/24 Q1012 NOSIG
WADD 171400Z 13011KT 9999 FEW016 27/24 Q1012 NOSIG
WADD 171330Z 12012KT 9999 FEW016 27/24 Q1012 NOSIG
WADD 171300Z 12011KT 9999 FEW017 27/24 Q1012 NOSIG
WADD 171230Z 12011KT 9999 FEW017 27/23 Q1012 NOSIG
WADD 171200Z 12011KT 9999 FEW017 27/24 Q1012 NOSIG
WADD 171130Z 12013KT 9999 FEW017 27/24 Q1011 NOSIG
WADD 171100Z 13013KT 9999 FEW017 27/24 Q1011 NOSIG
WADD 171030Z 12014KT 9999 FEW017 27/24 Q1011 NOSIG
WADD 171000Z 13016KT 9999 FEW017 28/24 Q1011 NOSIG
WADD 170930Z 13015KT 9999 FEW017 28/24 Q1010 NOSIG
WADD 170900Z 12016KT 9999 FEW017 28/23 Q1010 NOSIG
WADD 170830Z 11015KT 9999 FEW017 29/24 Q1010 NOSIG
WADD 170800Z 12015KT 9999 FEW017 29/24 Q1010 NOSIG
WADD 170730Z 12015KT 9999 FEW017 29/24 Q1010 NOSIG
WADD 170700Z 12017KT 9999 SCT017 29/24 Q1010 NOSIG
WADD 170630Z 13017KT 9999 SCT017 29/25 Q1010 NOSIG
WADD 170600Z 13017KT 9999 SCT017 29/24 Q1010 NOSIG
WADD 170530Z 12015KT 9999 SCT017 29/24 Q1011 NOSIG
WADD 170500Z 12015KT 9999 SCT017 29/24 Q1011 NOSIG
WADD 170430Z 12016KT 9999 SCT017 29/24 Q1011 NOSIG
WADD 170400Z 13017KT 9999 SCT017 29/24 Q1012 NOSIG
WADD 170330Z 12015KT 9999 SCT017 29/24 Q1012 NOSIG
WADD 170300Z 12014KT 9999 FEW017 29/25 Q1012 NOSIG
WADD 170200Z 12015KT 9999 FEW017 29/24 Q1013 NOSIG
WADD 170130Z 13016KT 9999 FEW017 29/24 Q1013 NOSIG
WADD 170100Z 12015KT 9999 FEW017 28/24 Q1013 NOSIG
WADD 170030Z 12014KT 9999 SCT017 28/24 Q1013 NOSIG
WADD 170000Z 13016KT 9999 SCT017 28/24 Q1013 NOSIG
WADD 162330Z 12013KT 9999 SCT017 27/24 Q1012 NOSIG
WADD 162300Z 12014KT 9999 SCT017 27/24 Q1012 NOSIG
WADD 162230Z 12013KT 9999 SCT017 27/24 Q1012 NOSIG
WADD 162200Z 12012KT 9999 SCT017 27/24 Q1012 NOSIG
WADD 162130Z 12011KT 9999 FEW017 27/25 Q1012 NOSIG
WADD 162100Z 13012KT 9999 FEW017 27/25 Q1011 NOSIG
WADD 162030Z 13013KT 9999 FEW017 27/24 Q1011 NOSIG</description><pubDate>Tue, 17 Jun 2025 20:29:20 </pubDate></item></channel></rss>