<rss version="2.0"><channel><title>Aviation Weather METAR Data for WADD</title><link>https://aviationweather.gov/api/data/metar?ids=WADD&amp;hours=24</link><description>Latest METAR data for WADD</description><item><title>2025-02-22 20:22:58Z</title><link>https://aviationweather.gov/api/data/metar?ids=WADD&amp;hours=24</link><description>WADD 222000Z 06003KT 9999 SCT016 26/26 Q1010 NOSIG
WADD 221930Z 09003KT 9999 SCT016 26/26 Q1010 NOSIG
WADD 221900Z 11004KT 9999 SCT016 27/26 Q1010 NOSIG
WADD 221830Z 09004KT 9999 SCT016 26/26 Q1010 NOSIG
WADD 221800Z 09004KT 9999 SCT016 26/26 Q1010 NOSIG
WADD 221730Z 06005KT 040V100 9999 SCT016 26/26 Q1010 NOSIG
WADD 221700Z 03004KT 9999 SCT016 26/26 Q1011 NOSIG
WADD 221630Z 07004KT 9999 SCT016 26/26 Q1011 NOSIG
WADD 221600Z 07005KT 9999 SCT016 26/26 Q1011 NOSIG
WADD 221530Z 08005KT 9999 SCT016 26/26 Q1011 NOSIG
WADD 221500Z 09004KT 9999 SCT016 26/26 Q1012 NOSIG
WADD 221430Z 08005KT 9999 SCT016 26/26 Q1012 RERA NOSIG
WADD 221400Z 06003KT 9000 -RA SCT016 26/25 Q1011 TEMPO TL1500 -RA
WADD 221330Z 36003KT 9000 -RA SCT016 26/25 Q1011 TEMPO TL1430 -RA
WADD 221300Z 33004KT 300V360 9999 SCT016 27/25 Q1011 NOSIG
WADD 221230Z 31005KT 270V340 9999 SCT016 27/25 Q1011 NOSIG
WADD 221200Z 33005KT 9999 SCT016 27/25 Q1011 NOSIG
WADD 221130Z 36003KT 9999 SCT016 26/26 Q1010 NOSIG
WADD 221100Z 28006KT 9999 SCT016 26/25 Q1009 NOSIG
WADD 221030Z 27007KT 9999 SCT017 26/25 Q1009 RERA NOSIG
WADD 221000Z 31005KT 8000 -RA FEW015CB SCT015 26/25 Q1008 TEMPO TL1100 8000 -RA
WADD 220930Z 33003KT 7000 -RA BKN015 25/24 Q1009 TEMPO TL1030 7000 -RA
WADD 220900Z 29005KT 1000 +TSRA FEW014CB BKN014 24/24 Q1009 TEMPO TL1000 1000 +TSRA RMK CB IN APCH
WADD 220830Z 34007KT 290V100 1000 TSRA FEW013CB BKN013 26/25 Q1008 TEMPO TL0930 1000 TSRA RMK CB OVER THE FIELD
WADD 220800Z VRB02KT 2000 TSRA FEW014CB BKN014 27/26 Q1008 TEMPO TL0900 2000 TSRA RMK CB OVER THE FIELD
WADD 220730Z 26005KT 220V310 8000 -TSRA FEW014CB BKN014 29/26 Q1008 TEMPO TL0830 8000 -TSRA
WADD 220700Z 26008KT 8000 -TSRA FEW014CB BKN014 29/26 Q1008 TEMPO TL0800 8000 -TSRA
WADD 220630Z VRB04KT 9999 FEW014CB SCT014 31/27 Q1008 TEMPO FR0640 TL0740 7000 -RA
WADD 220600Z VRB06KT 9999 SCT015 31/26 Q1008 NOSIG
WADD 220530Z VRB02KT 9999 SCT015 30/25 Q1008 NOSIG
WADD 220500Z 11006KT 9999 SCT016 30/26 Q1009 NOSIG
WADD 220430Z 12005KT 070V200 9999 SCT016 31/26 Q1009 NOSIG
WADD 220400Z 26006KT 120V280 9999 FEW017 31/24 Q1009 NOSIG
WADD 220330Z 13004KT 060V200 9999 FEW017 31/26 Q1010 NOSIG
WADD 220300Z VRB02KT 9999 FEW017 30/25 Q1010 NOSIG
WADD 220230Z 25003KT 9999 FEW017 30/25 Q1010 NOSIG
WADD 220200Z VRB04KT 9999 FEW017 30/25 Q1010 NOSIG
WADD 220130Z VRB03KT 9999 FEW017 30/26 Q1010 NOSIG
WADD 220100Z 31004KT 230V030 9999 FEW017 29/25 Q1010 NOSIG
WADD 220030Z 36003KT 9999 FEW017 29/25 Q1011 NOSIG
WADD 220000Z 04004KT 9999 FEW017 28/25 Q1010 NOSIG
WADD 212330Z 05003KT 9999 FEW017 27/25 Q1010 NOSIG
WADD 212300Z VRB02KT 9999 FEW017 26/25 Q1010 NOSIG
WADD 212230Z 04003KT 9999 FEW017 26/25 Q1010 NOSIG
WADD 212200Z VRB02KT 9999 SCT017 26/25 Q1010 NOSIG
WADD 212130Z 29005KT 9999 SCT017 27/25 Q1010 NOSIG
WADD 212100Z 28009KT 9999 SCT017 27/25 Q1009 NOSIG
WADD 212030Z 29008KT 9999 SCT017 27/25 Q1009 NOSIG</description><pubDate>Sat, 22 Feb 2025 20:22:58 </pubDate></item></channel></rss>