<rss version="2.0"><channel><title>Aviation Weather METAR Data for WADD</title><link>https://aviationweather.gov/api/data/metar?ids=WADD&amp;hours=24</link><description>Latest METAR data for WADD</description><item><title>2026-02-26 11:24:29Z</title><link>https://aviationweather.gov/api/data/metar?ids=WADD&amp;hours=24</link><description>METAR WADD 261100Z 27016KT 9999 SCT016 26/24 Q1005 NOSIG
METAR WADD 261030Z 26012KT 9999 SCT016 27/25 Q1005 NOSIG
METAR WADD 261000Z 27010KT 9999 SCT016 27/24 Q1004 NOSIG
METAR WADD 260930Z 27011KT 9999 SCT016 27/25 Q1005 NOSIG
METAR WADD 260900Z 27009KT 9000 FEW014CB BKN015 26/24 Q1005 RERA NOSI G
METAR WADD 260830Z 27017KT 3000 RA FEW013CB BKN014 28/24 Q1005 TEMPO TL0930 3000 RA RMK CB IN APCH AND CLIMB-OUT
METAR WADD 260800Z 30013KT 9999 FEW015CB SCT016 30/24 Q1004 NOSIG
METAR WADD 260730Z 30013KT 9999 SCT016 30/25 Q1004 NOSIG
METAR WADD 260700Z 29011KT 9999 SCT016 29/25 Q1005 NOSIG
METAR WADD 260630Z 29012KT 9999 SCT016 29/24 Q1005 NOSIG
METAR WADD 260600Z 29010KT 9999 SCT016 29/23 Q1006 NOSIG
METAR WADD 260530Z 30009KT 9999 BKN016 28/23 Q1006 NOSIG
METAR WADD 260500Z 30011KT 9999 SCT016 29/23 Q1006 NOSIG
METAR WADD 260430Z 31012KT 9999 SCT016 29/25 Q1006 NOSIG
METAR WADD 260400Z 31011KT 9999 SCT016 28/24 Q1007 NOSIG
METAR WADD 260330Z 30010KT 9999 BKN016 28/25 Q1008 RERA NOSIG
METAR WADD 260300Z 30011KT 8000 -RA BKN016 26/24 Q1008 TEMPO TL0400 -RA
METAR WADD 260230Z 28011KT 9999 BKN016 27/25 Q1008 NOSIG
METAR WADD 260200Z 29010KT 9999 BKN016 26/25 Q1008 RERA NOSIG
METAR WADD 260130Z 29011KT 6000 -RA FEW014CB BKN015 25/25 Q1008 TEMPO TL0230 6000 -RA
METAR WADD 260100Z 28012KT 6000 -RA FEW014CB BKN015 25/25 Q1008 TEMPO TL0200 6000 -RA RMK CB IN CLIMB-OUT
METAR WADD 260030Z 31008KT 6000 -RA FEW014CB BKN015 26/25 Q1008 TEMPO TL0130 6000 -RA RMK CB IN CLIMB-OUT
METAR WADD 260000Z 33005KT 9999 FEW014CB BKN015 25/25 Q1008 NOSIG RMK CB IN CLIMB-OUT
METAR WADD 252330Z 30003KT 9999 FEW014CB BKN015 25/25 Q1007 RERA NOSIG RMK CB IN CLIMB-OUT
METAR WADD 252300Z 32005KT 8000 -RA FEW014CB BKN014 24/24 Q1007 TEMPO TL2400 8000 -RA RMK CB IN APCH AND CLIMB-OUT
METAR WADD 252230Z 26005KT 6000 RA FEW014CB BKN014 24/24 Q1007 TEMPO TL2330 6000 RA RMK CB IN APCH AND CLIMB-OUT
METAR WADD 252200Z 26006KT 6000 RA FEW015CB SCT015 24/24 Q1007 TEMPO TL2330 6000 RA RMK CB IN APCH AND CLIMB-OUT
METAR WADD 252130Z 24008KT 190V270 4000 RA FEW015CB BKN015 24/24 Q1007 TEMPO TL2200 4000 RA RMK CB IN APCH AND CLIMB-OUT
METAR WADD 252100Z 22003KT 8000 -RA FEW016CB SCT016 24/23 Q1007 TEMPO TL2200 8000 -RA RMK CB IN APCH AND CLIMB-OUT
METAR WADD 252030Z 22003KT 5000 RA FEW015CB BKN015 24/23 Q1007 TEMPO TL2200 5000 RA RMK CB IN APCH AND CLIMB-OUT
METAR WADD 252000Z 23006G15KT 110V270 8000 -RA FEW016CB SCT016 24/23 Q1007 TEMPO TL2100 8000 -RA RMK CB IN APCH AND CLIMB-OUT
METAR WADD 251930Z 22011KT 150V280 8000 -RA FEW016CB SCT016 26/24 Q1006 TEMPO TL2100 8000 -RA RMK CB IN APCH AND CLIMB-OUT
METAR WADD 251900Z 28010KT 9999 FEW016CB SCT016 26/25 Q1006 NOSIG RMK CB IN APCH AND CLIMB-OUT
METAR WADD 251830Z 27012KT 9999 FEW016CB SCT016 26/24 Q1006 NOSIG RMK CB IN APCH AND CLIMB-OUT
METAR WADD 251800Z 28011KT 9999 FEW016CB SCT016 26/25 Q1006 NOSIG RMK CB IN APCH AND CLIMB-OUT
METAR WADD 251730Z 29010KT 9999 FEW016CB SCT016 25/25 Q1007 RERA NOSI G RMK CB IN APCH AND CLIMB-OUT
METAR WADD 251700Z 26008KT 5000 RA FEW014CB BKN014 25/24 Q1007 TEMPO TL1900 5000 RA RMK CB IN APCH AND CLIMB-OUT
METAR WADD 251630Z 24013G21KT 5000 RA FEW014CB BKN014 25/24 Q1008 TEMPO TL1730 5000 RA RMK CB IN APCH AND CLIMB-OUT
METAR WADD 251600Z 25008KT 5000 RA FEW014CB SCT014 25/25 Q1008 TEMPO TL1730 5000 +RA RMK CB IN APCH AND CLIMB-OUT
METAR WADD 251530Z 25015KT 5000 RA FEW015CB SCT015 25/24 Q1009 TEMPO TL1630 5000 +RA RMK CB IN APCH AND CLIMB-OUT
METAR WADD 251500Z 24005KT 200V270 2000 +RA FEW015CB SCT015 25/24 Q1009 TEMPO TL1530 2000 +RA RMK CB IN APCH AND CLIMB-OUT
METAR WADD 251430Z 27010KT 9999 FEW016CB SCT016 28/25 Q1009 NOSIG RMK CB IN APCH AND CLIMB-OUT
METAR WADD 251400Z 27009KT 9999 FEW016CB SCT016 28/25 Q1009 NOSIG RMK CB IN APCH AND CLIMB-OUT
METAR WADD 251330Z 26008KT 9999 FEW016CB SCT016 27/24 Q1009 NOSIG RMK CB IN APCH AND CLIMB-OUT
METAR WADD 251300Z 27009KT 9999 FEW017 27/25 Q1009 NOSIG
METAR WADD 251230Z 27011KT 9999 FEW017 27/25 Q1008 NOSIG
METAR WADD 251200Z 27011KT 9999 FEW017 27/24 Q1008 NOSIG
METAR WADD 251130Z 27012KT 9999 FEW017 27/24 Q1008 NOSIG</description><pubDate>Thu, 26 Feb 2026 11:24:29 </pubDate></item></channel></rss>