<rss version="2.0"><channel><title>Aviation Weather METAR Data for WADD</title><link>https://aviationweather.gov/api/data/metar?ids=WADD&amp;hours=24</link><description>Latest METAR data for WADD</description><item><title>2025-07-18 21:27:14Z</title><link>https://aviationweather.gov/api/data/metar?ids=WADD&amp;hours=24</link><description>WADD 182100Z 01004KT 9999 FEW017 22/21 Q1010 NOSIG
WADD 182030Z 01005KT 9999 FEW017 22/21 Q1010 NOSIG
WADD 182000Z 36004KT 9999 FEW017 22/21 Q1010 NOSIG
WADD 181930Z 36004KT 9999 FEW017 23/22 Q1010 NOSIG
WADD 181900Z 35004KT 9999 FEW017 23/22 Q1010 NOSIG
WADD 181830Z 12005KT 9999 FEW017 25/22 Q1010 NOSIG
WADD 181800Z 12006KT 9999 FEW017 25/23 Q1011 NOSIG
WADD 181730Z 11005KT 9999 FEW017 25/22 Q1011 NOSIG
WADD 181700Z 13005KT 9999 FEW017 25/23 Q1011 NOSIG
WADD 181630Z 13005KT 9999 FEW017 25/23 Q1011 NOSIG
WADD 181600Z 12005KT 9999 FEW017 25/23 Q1011 NOSIG
WADD 181530Z 12006KT 9999 FEW017 25/23 Q1011 NOSIG
WADD 181500Z 11006KT 9999 FEW017 25/23 Q1011 NOSIG
WADD 181430Z 11007KT 9999 FEW017 25/23 Q1011 NOSIG
WADD 181400Z 12007KT 9999 FEW017 26/23 Q1011 NOSIG
WADD 181330Z 13005KT 9999 FEW017 25/23 Q1011 NOSIG
WADD 181300Z 13005KT 9999 FEW017 26/22 Q1011 NOSIG
WADD 181230Z 13007KT 9999 FEW017 26/22 Q1011 NOSIG
WADD 181200Z 12006KT 9999 FEW017 26/22 Q1011 NOSIG
WADD 181130Z 13007KT 9999 FEW017 26/23 Q1010 NOSIG
WADD 181100Z 13007KT 9999 FEW017 26/23 Q1010 NOSIG
WADD 181030Z 12008KT 9999 FEW017 26/22 Q1009 NOSIG
WADD 181000Z 13010KT 9999 FEW017 26/22 Q1009 NOSIG
WADD 180930Z 13010KT 9999 FEW017 27/23 Q1009 NOSIG
WADD 180900Z 14010KT 9999 FEW017 27/22 Q1009 NOSIG
WADD 180830Z 13009KT 9999 FEW017 28/22 Q1008 NOSIG
WADD 180800Z 13010KT 9999 FEW017 28/22 Q1008 NOSIG
WADD 180730Z 14010KT 9999 FEW017 28/22 Q1008 NOSIG
WADD 180700Z 12009KT 090V160 9999 FEW017 28/22 Q1008 NOSIG
WADD 180630Z 15007KT 9999 FEW017 29/21 Q1009 NOSIG
WADD 180600Z 15010KT 9999 FEW017 28/21 Q1009 NOSIG
WADD 180530Z 15009KT 9999 FEW017 29/21 Q1010 NOSIG
WADD 180500Z 14009KT 9999 FEW016 29/21 Q1010 NOSIG
WADD 180430Z 13008KT 090V160 9999 FEW016 28/21 Q1011 NOSIG
WADD 180400Z 15009KT 9999 FEW016 28/21 Q1011 NOSIG
WADD 180330Z 15008KT 9999 FEW016 28/22 Q1012 NOSIG
WADD 180300Z 16010KT 9999 SCT016 27/21 Q1012 NOSIG
WADD 180230Z 14007KT 9999 BKN016 27/22 Q1012 NOSIG
WADD 180200Z 15005KT 9999 FEW015CB BKN016 26/22 Q1013 NOSIG
WADD 180130Z 14009KT 9999 FEW015CB BKN016 26/22 Q1013 NOSIG
WADD 180100Z 14007KT 9999 BKN016 26/23 Q1013 NOSIG
WADD 180030Z VRB01KT 9999 SCT016 26/23 Q1013 NOSIG
WADD 180000Z VRB02KT 9999 SCT016 25/23 Q1012 NOSIG
WADD 172330Z VRB02KT 9999 SCT016 25/23 Q1012 NOSIG
WADD 172300Z 35005KT 9999 SCT015 23/23 Q1012 NOSIG
WADD 172230Z 33003KT 9999 SCT015 23/22 Q1011 NOSIG
WADD 172200Z VRB01KT 9999 SCT016 23/22 Q1011 NOSIG
WADD 172130Z VRB01KT 9999 SCT016 24/22 Q1011 NOSIG</description><pubDate>Fri, 18 Jul 2025 21:27:14 </pubDate></item></channel></rss>