<rss version="2.0"><channel><title>Aviation Weather METAR Data for WADD</title><link>https://aviationweather.gov/api/data/metar?ids=WADD&amp;hours=24</link><description>Latest METAR data for WADD</description><item><title>2025-08-27 23:23:02Z</title><link>https://aviationweather.gov/api/data/metar?ids=WADD&amp;hours=24</link><description>WADD 272300Z 15013KT 9999 BKN016 25/23 Q1012 NOSIG
WADD 272230Z 14010KT 9999 SCT016 25/23 Q1012 NOSIG
WADD 272200Z 14008KT 9999 SCT016 25/23 Q1011 NOSIG
WADD 272130Z 13008KT 9999 SCT017 25/23 Q1011 NOSIG
WADD 272100Z 13010KT 9999 SCT017 25/23 Q1011 NOSIG
WADD 272030Z 13008KT 9999 SCT017 25/23 Q1011 NOSIG
WADD 272000Z 14011KT 9999 +DZ OVC060 25/23 Q1011 NOSIG
WADD 271930Z 13010KT 9999 SCT017 25/23 Q1011 NOSIG
WADD 271830Z 14012KT 9999 SCT017 26/23 Q1011 NOSIG
WADD 271800Z 14011KT 9999 SCT017 26/23 Q1011 NOSIG
WADD 271730Z 14013KT 9999 FEW017 26/23 Q1011 NOSIG
WADD 271700Z 14013KT 9999 FEW017 26/23 Q1012 NOSIG
WADD 271630Z 14015KT 9999 SCT017 26/23 Q1012 NOSIG
WADD 271600Z 14013KT 9999 SCT017 26/23 Q1012 NOSIG
WADD 271530Z 14016KT 9999 SCT017 26/23 Q1013 NOSIG
WADD 271500Z 14015KT 9999 SCT017 26/23 Q1013 NOSIG
WADD 271430Z 14014KT 9999 SCT016 26/23 Q1013 NOSIG
WADD 271400Z 13014KT 9999 SCT016 26/23 Q1013 NOSIG
WADD 271330Z 14015KT 9999 SCT016 26/23 Q1013 NOSIG
WADD 271300Z 14015KT 9999 SCT016 26/23 Q1013 NOSIG
WADD 271230Z 14016KT 9999 SCT016 26/23 Q1012 NOSIG
WADD 271200Z 14017KT 9999 SCT016 26/23 Q1012 NOSIG
WADD 271130Z 15018KT 9999 FEW017 26/23 Q1012 NOSIG
WADD 271100Z 14018KT 9999 SCT016 26/23 Q1011 NOSIG
WADD 271030Z 15017KT 9999 SCT016 26/23 Q1011 NOSIG
WADD 271000Z 15019KT 9999 SCT016 26/23 Q1011 NOSIG
WADD 270930Z 14019KT 9999 BKN015 27/23 Q1010 NOSIG
WADD 270900Z 15018KT 9999 BKN015 27/24 Q1010 NOSIG
WADD 270830Z 14021KT 9999 FEW014CB BKN015 27/24 Q1010 NOSIG
WADD 270800Z 15021KT 9999 FEW014CB BKN015 27/24 Q1010 NOSIG
WADD 270730Z 15021KT 9999 FEW014CB BKN015 27/24 Q1010 NOSIG
WADD 270700Z 14022KT 9999 FEW014CB BKN015 27/24 Q1010 NOSIG
WADD 270630Z 15020KT 9999 FEW014CB BKN015 27/24 Q1010 NOSIG
WADD 270600Z 15017KT 9999 BKN015 28/24 Q1011 NOSIG
WADD 270530Z 15020KT 9999 BKN017 28/24 Q1011 NOSIG
WADD 270500Z 14018KT 9999 SCT016 28/24 Q1011 NOSIG
WADD 270430Z 15019KT 9999 SCT017 28/24 Q1012 NOSIG
WADD 270400Z 14019KT 9999 SCT017 28/24 Q1012 NOSIG
WADD 270330Z 14018G26KT 9999 FEW016 28/24 Q1013 NOSIG
WADD 270300Z 14018KT 9999 SCT016 28/24 Q1013 NOSIG
WADD 270230Z 15019KT 9999 SCT016 27/24 Q1013 NOSIG
WADD 270200Z 15017KT 9999 FEW015CB BKN016 27/25 Q1013 NOSIG
WADD 270130Z 14017KT 9999 FEW015CB BKN016 27/24 Q1013 NOSIG
WADD 270100Z 14009KT 9999 FEW015CB BKN016 26/25 Q1013 NOSIG
WADD 270030Z 13010KT 9999 FEW015CB BKN016 26/24 Q1013 NOSIG
WADD 270000Z 09003KT 9999 FEW015CB BKN016 25/24 Q1013 RERA NOSIG
WADD 262330Z VRB02KT 7000 -RA FEW015CB BKN015 25/23 Q1012 TEMPO TL0030 7000 -RA</description><pubDate>Wed, 27 Aug 2025 23:23:02 </pubDate></item></channel></rss>