<rss version="2.0"><channel><title>Aviation Weather METAR Data for WADD</title><link>https://aviationweather.gov/api/data/metar?ids=WADD&amp;hours=24</link><description>Latest METAR data for WADD</description><item><title>2025-01-13 03:47:27Z</title><link>https://aviationweather.gov/api/data/metar?ids=WADD&amp;hours=24</link><description>WADD 130330Z 27008KT 9999 FEW014CB SCT015 28/27 Q1009 NOSIG
WADD 130300Z 28008KT 9999 SCT015 28/26 Q1009 NOSIG
WADD 130230Z 26006KT 9999 BKN015 28/26 Q1009 RERA NOSIG
WADD 130200Z 26006KT 7000 -RA FEW014CB BKN014 26/26 Q1009 TEMPO TL0300 7000 -RA
WADD 130130Z 32007KT 5000 RA FEW014CB BKN015 28/26 Q1009 TEMPO TL0230 5000 RA
WADD 130100Z 32005KT 7000 -RA FEW014CB BKN015 27/26 Q1009 TEMPO TL0200 7000 -RA
WADD 130030Z 32006KT 9999 FEW014CB BKN015 27/26 Q1009 NOSIG
WADD 130000Z 33006KT 290V350 9999 FEW014CB BKN014 26/26 Q1009 RERA NOSIG
WADD 122330Z 23006KT 8000 -RA FEW014CB BKN014 26/26 Q1008 TEMPO TL2430 -RA
WADD 122300Z 26008KT 230V300 8000 FEW014CB BKN015 26/26 Q1008 TEMPO FM2305 TL2400 5000 RA RMK CB IN CLIMB-OUT
WADD 122230Z 34004KT 9999 BKN015 26/25 Q1008 NOSIG
WADD 122200Z 26007KT 9999 BKN015 25/25 Q1007 RERA NOSIG
WADD 122130Z 28012KT 7000 -RA FEW014CB BKN014 26/25 Q1007 TEMPO TL2230 7000 -RA
WADD 122100Z 27005KT 7000 -RA FEW014CB BKN014 25/25 Q1007 TEMPO TL2200 7000 -RA
WADD 122030Z 29007KT 9999 SCT016 26/25 Q1007 NOSIG
WADD 122000Z 30013KT 9999 BKN015 26/25 Q1007 NOSIG
WADD 121930Z 28013KT 9999 BKN015 26/25 Q1007 NOSIG
WADD 121900Z 26011KT 9999 SCT016 27/25 Q1007 NOSIG
WADD 121830Z 27011KT 9999 SCT017 26/25 Q1007 NOSIG
WADD 121800Z 28012KT 9999 SCT016 26/25 Q1007 NOSIG
WADD 121730Z 28012KT 8000 -RA BKN015 26/25 Q1008 TEMPO TL1830 8000 -RA
WADD 121700Z 27011KT 9999 SCT016 27/25 Q1008 NOSIG
WADD 121630Z 29010KT 9999 SCT016 27/26 Q1009 NOSIG
WADD 121600Z 27007KT 9999 SCT016 26/25 Q1009 RERA NOSIG
WADD 121530Z 27010KT 6000 -RA FEW014CB BKN014 26/25 Q1009 TEMPO TL1630 6000 -RA
WADD 121500Z 25010KT 9999 BKN015 26/25 Q1010 RERA NOSIG
WADD 121430Z 27010KT 9999 BKN016 26/26 Q1010 RERA NOSIG
WADD 121400Z 27009KT 8000 -RA BKN014 25/25 Q1010 TEMPO TL1500 8000 -RA
WADD 121330Z 26007KT 9999 SCT016 27/25 Q1009 NOSIG
WADD 121300Z 27011KT 9999 SCT016 27/25 Q1009 NOSIG
WADD 121230Z 27012KT 9999 SCT016 27/25 Q1008 NOSIG
WADD 121200Z 26012KT 9999 BKN014 26/25 Q1008 RERA NOSIG
WADD 121130Z 28010KT 9999 BKN015 27/25 Q1008 NOSIG
WADD 121100Z 27010KT 9999 BKN015 27/25 Q1007 NOSIG
WADD 121030Z 27009KT 9999 BKN015 27/25 Q1007 NOSIG
WADD 121000Z 26012KT 9999 BKN015 27/25 Q1007 NOSIG
WADD 120930Z 25009KT 9999 BKN015 27/25 Q1007 NOSIG
WADD 120900Z 25007KT 9999 BKN015 27/25 Q1007 NOSIG
WADD 120830Z 26011KT 9999 BKN015 27/25 Q1007 NOSIG
WADD 120800Z 25010KT 9999 BKN015 27/25 Q1007 NOSIG
WADD 120730Z 25009KT 9999 BKN015 28/25 Q1007 NOSIG
WADD 120700Z 26010KT 9999 BKN015 28/26 Q1007 NOSIG
WADD 120630Z 26012KT 9999 BKN015 28/26 Q1008 NOSIG
WADD 120600Z 27010KT 9999 FEW014CB BKN015 27/26 Q1008 NOSIG
WADD 120530Z 27015KT 9999 FEW015CB BKN015 27/26 Q1008 NOSIG
WADD 120500Z 29006KT 250V320 9999 FEW015CB BKN015 27/26 Q1009 RERA NOSIG
WADD 120430Z 26004KT 9000 -RA FEW014CB BKN014 26/25 Q1009 TEMPO TL0530 -RA
WADD 120400Z 23003KT 8000 -RA FEW014CB BKN014 25/25 Q1010 TEMPO TL0500 -RA RMK CB IN APCH</description><pubDate>Mon, 13 Jan 2025 03:47:27 </pubDate></item></channel></rss>