<rss version="2.0"><channel><title>Aviation Weather METAR Data for WADD</title><link>https://aviationweather.gov/api/data/metar?ids=WADD&amp;hours=24</link><description>Latest METAR data for WADD</description><item><title>2025-07-06 05:27:45Z</title><link>https://aviationweather.gov/api/data/metar?ids=WADD&amp;hours=24</link><description>WADD 060500Z 12018KT 9999 FEW015CB BKN015 29/26 Q1011 NOSIG
WADD 060430Z 12018KT 9999 FEW015CB BKN015 29/26 Q1011 NOSIG
WADD 060300Z 12018KT 9999 BKN016 29/26 Q1012 NOSIG
WADD 060230Z 11017KT 9999 BKN016 28/26 Q1012 NOSIG
WADD 060200Z 12018KT 9999 BKN015 28/26 Q1012 NOSIG
WADD 060130Z 13013KT 9999 BKN015 27/26 Q1012 RERA NOSIG
WADD 060100Z 12016KT 7000 -RA BKN015 27/26 Q1012 TEMPO TL0130 7000 -RA
WADD 060030Z 13018KT 9999 BKN015 28/25 Q1012 NOSIG
WADD 060000Z 12016KT 9999 BKN015 27/25 Q1012 NOSIG
WADD 052330Z 13014KT 9999 SCT016 27/25 Q1011 NOSIG
WADD 052300Z 13015KT 9999 SCT016 27/25 Q1011 NOSIG
WADD 052230Z 12014KT 9999 SCT016 27/25 Q1011 NOSIG
WADD 052200Z 12016KT 9999 SCT016 27/25 Q1010 NOSIG
WADD 052130Z 12016KT 9999 SCT016 27/25 Q1010 NOSIG
WADD 052100Z 12017KT 9999 SCT016 27/25 Q1010 NOSIG
WADD 052030Z 12016KT 9999 SCT016 27/25 Q1010 NOSIG
WADD 052000Z 12016KT 9999 SCT016 27/25 Q1010 NOSIG
WADD 051930Z 12015KT 9999 SCT016 27/25 Q1010 NOSIG
WADD 051900Z 12017KT 9999 SCT016 27/25 Q1010 NOSIG
WADD 051830Z 11013KT 9999 SCT016 27/25 Q1011 NOSIG
WADD 051800Z 12013KT 9999 SCT016 27/25 Q1011 NOSIG
WADD 051730Z 13013KT 9999 SCT016 27/25 Q1011 NOSIG
WADD 051700Z 13013KT 9999 SCT016 27/25 Q1011 NOSIG
WADD 051630Z 13011KT 9999 SCT016 27/25 Q1011 NOSIG
WADD 051600Z 14012KT 9999 SCT016 27/25 Q1012 NOSIG
WADD 051530Z 13012KT 9999 SCT016 27/25 Q1012 NOSIG
WADD 051500Z 12012KT 9999 SCT016 27/25 Q1012 NOSIG
WADD 051430Z 13013KT 9999 SCT016 27/25 Q1012 NOSIG
WADD 051400Z 12010KT 9999 SCT016 27/25 Q1012 NOSIG
WADD 051330Z 14010KT 9999 SCT016 27/25 Q1012 NOSIG
WADD 051300Z 13011KT 9999 SCT016 27/25 Q1012 NOSIG
WADD 051230Z 13009KT 9999 SCT016 27/25 Q1012 NOSIG
WADD 051200Z 14008KT 9999 SCT016 27/25 Q1012 NOSIG
WADD 051130Z 14008KT 9999 SCT016 26/25 Q1011 NOSIG
WADD 051100Z 13008KT 9999 SCT016 26/25 Q1011 NOSIG
WADD 051030Z 14010KT 9999 SCT016 26/25 Q1011 NOSIG
WADD 051000Z 14013KT 9999 SCT016 27/25 Q1011 NOSIG
WADD 050930Z 13012KT 9999 SCT016 27/25 Q1010 NOSIG
WADD 050900Z 12012KT 9999 SCT016 27/25 Q1010 NOSIG
WADD 050830Z 12014KT 9999 BKN015 27/25 Q1010 NOSIG
WADD 050800Z 14016KT 9999 BKN015 28/25 Q1010 NOSIG
WADD 050730Z 13014KT 9999 FEW014CB BKN015 28/25 Q1010 NOSIG
WADD 050700Z 13013KT 9999 FEW014CB BKN016 27/25 Q1010 NOSIG
WADD 050630Z 15013KT 9999 FEW015CB SCT016 26/25 Q1010 NOSIG
WADD 050600Z 14011KT 9999 FEW015CB BKN016 27/26 Q1010 RERA NOSIG
WADD 050530Z 13012KT 8000 -RA BKN015 28/24 Q1011 TEMPO TL0600 8000 -RA</description><pubDate>Sun, 06 Jul 2025 05:27:45 </pubDate></item></channel></rss>