<rss version="2.0"><channel><title>Aviation Weather METAR Data for WADD</title><link>https://aviationweather.gov/api/data/metar?ids=WADD&amp;hours=24</link><description>Latest METAR data for WADD</description><item><title>2026-02-25 09:30:00Z</title><link>https://aviationweather.gov/api/data/metar?ids=WADD&amp;hours=24</link><description>METAR WADD 250900Z 28018KT 9999 FEW015CB SCT016 26/24 Q1006 NOSIG RMK CB IN APCH
METAR WADD 250830Z 27020G32KT 7000 FEW014CB BKN015 26/24 Q1007 RERA NOSIG RMK CB IN APCH
METAR WADD 250800Z 26015KT 9999 FEW015CB BKN016 29/25 Q1006 NOSIG RMK CB IN CLIMB-OUT
METAR WADD 250730Z 26015KT 9999 SCT016 29/25 Q1006 NOSIG
METAR WADD 250700Z 26012KT 9999 FEW014CB SCT015 29/25 Q1006 NOSIG
METAR WADD 250630Z 25014KT 9999 FEW014CB SCT015 29/25 Q1007 NOSIG
METAR WADD 250600Z 26012KT 9999 FEW014CB SCT015 29/25 Q1007 NOSIG
METAR WADD 250530Z 27015KT 9999 FEW014CB BKN015 29/25 Q1007 NOSIG
METAR WADD 250500Z 27017KT 9999 FEW014CB BKN015 29/25 Q1007 NOSIG
METAR WADD 250430Z 28018KT 9999 FEW014CB BKN015 29/25 Q1008 NOSIG
SPECI WADD 250417Z 28018KT 9999 FEW014CB BKN015 28/25 Q1008 RERA NOSIG
METAR WADD 250400Z 26014KT 9999 FEW014CB BKN015 30/26 Q1008 NOSIG
METAR WADD 250330Z 27013KT 9999 BKN015 30/26 Q1008 NOSIG
METAR WADD 250300Z 27012KT 9999 BKN015 29/25 Q1009 NOSIG
METAR WADD 250230Z 29014KT 9999 FEW014CB BKN015 28/25 Q1009 NOSIG RMK CB IN CLIMB-OUT
METAR WADD 250200Z 28013KT 9999 FEW014CB BKN015 27/26 Q1009 RERA NOSI G
METAR WADD 250130Z COR 26014KT 2000 RA FEW014CB BKN015 28/25 Q1009 TE MPO TL0230 2000 RA RMK CB IN APCH AND CLIMB-OUT
METAR WADD 250100Z 30012KT 9999 FEW015CB SCT016 29/25 Q1009 NOSIG
METAR WADD 250000Z 28014KT 9999 FEW015CB SCT016 28/24 Q1008 NOSIG
METAR WADD 242330Z 28013KT 9999 BKN015 27/24 Q1008 NOSIG
METAR WADD 242300Z 29013KT 9999 BKN015 27/24 Q1008 NOSIG
METAR WADD 242200Z 29014KT 9999 FEW015CB BKN015 26/24 Q1007 NOSIG RMK CB IN APCH
METAR WADD 242130Z 29012KT 8000 FEW015CB BKN015 26/24 Q1007 RERA NOSI G
METAR WADD 242100Z 29011KT 8000 -RA FEW015CB BKN015 25/24 Q1008 TEMPO TL2200 -RA
METAR WADD 242030Z 30014KT 7000 -RA FEW015CB BKN015 26/24 Q1007 TEMPO TL2130 -RA RMK CB IN CLIMB-OUT
METAR WADD 242000Z 30014KT 9999 BKN015 25/24 Q1008 RERA NOSIG
METAR WADD 241930Z 30013KT 8000 -RA BKN015 25/24 Q1008 RERA TEMPO TL2000 -RA
METAR WADD 241900Z 30014KT 7000 -RA FEW015CB BKN015 25/24 Q1008 TEMPO TL2000 -RA RMK CB IN APCH
METAR WADD 241830Z 28017G32KT 7000 -RA FEW015CB BKN015 26/24 Q1008 TEMPO TL1930 -RA RMK CB IN APCH
METAR WADD 241800Z 26015KT 9999 FEW015CB BKN015 26/24 Q1008 NOSIG RMK CB IN CLIMB-OUT
METAR WADD 241730Z 26016KT 9999 BKN016 26/24 Q1009 NOSIG
METAR WADD 241700Z 27020KT 9999 BKN016 26/24 Q1009 NOSIG
METAR WADD 241630Z 27018KT 9999 FEW015CB BKN015 26/24 Q1009 NOSIG
SPECI WADD 241610Z 26016KT 8000 FEW015CB BKN015 25/24 Q1010 RERA NOSIG RMK CB IN APCH
METAR WADD 241600Z 26016G27KT 3000 RA FEW014CB BKN014 25/24 Q1010 TEM PO TL1700 5000 RA RMK CB IN APCH AND CLIMB-OUT
METAR WADD 241530Z 28016KT 9999 FEW016CB BKN016 27/23 Q1009 NOSIG RMK CB IN CLIMB-OUT
METAR WADD 241500Z 29013KT 9999 SCT016 27/24 Q1010 NOSIG
METAR WADD 241430Z 29012KT 9999 SCT016 26/24 Q1010 NOSIG
METAR WADD 241400Z 29012KT 9999 SCT016 26/24 Q1010 NOSIG
METAR WADD 241330Z 28012KT 9999 BKN016 26/24 Q1010 NOSIG
METAR WADD 241300Z 28014KT 9999 FEW016CB BKN016 26/24 Q1010 NOSIG
METAR WADD 241230Z 29019KT 8000 FEW014CB BKN014 26/24 Q1009 NOSIG
METAR WADD 241200Z 26015KT 8000 FEW014CB BKN014 26/24 Q1009 RERA NOSI G RMK CB IN APCH
METAR WADD 241130Z 25015KT 8000 -RA FEW014CB BKN014 26/25 Q1009 TEMPO 1230 8000 -RA RMK CB IN APCH AND CLIMB-OUT
METAR WADD 241100Z 29013KT 9999 FEW014CB BKN014 27/24 Q1008 NOSIG RMK CB IN APCH AND CLIMB-OUT
METAR WADD 241030Z 28014KT 9999 FEW014CB BKN014 26/24 Q1008 NOSIG RMK CB IN APCH AND CLIMB-OUT
SPECI WADD 241004Z 29014KT 9999 FEW014CB BKN014 26/24 Q1008 NOSIG RMK CB IN APCH AND CLIMB-OUT
METAR WADD 241000Z 29014KT 9999 FEW014CB BKN014 26/24 Q1008 NOSIG RMK CB IN APCH AND CLIMB-OUT</description><pubDate>Wed, 25 Feb 2026 09:30:00 </pubDate></item></channel></rss>