<rss version="2.0"><channel><title>Aviation Weather METAR Data for WADD</title><link>https://aviationweather.gov/api/data/metar?ids=WADD&amp;hours=24</link><description>Latest METAR data for WADD</description><item><title>2025-04-30 16:51:01Z</title><link>https://aviationweather.gov/api/data/metar?ids=WADD&amp;hours=24</link><description>WADD 301600Z 03003KT 9000 -RA FEW016CB SCT017 28/26 Q1010 TL1700 9000 -RA RMK CB IN CLIMB-OUT
WADD 301530Z 06002KT 9999 FEW017 27/26 Q1010 NOSIG
WADD 301500Z VRB01KT 9999 FEW017 28/26 Q1010 NOSIG
WADD 301400Z 15003KT 9999 FEW017 29/26 Q1010 NOSIG
WADD 301330Z 15004KT 9999 FEW017 29/26 Q1010 NOSIG
WADD 301300Z 12004KT 9999 FEW017 28/26 Q1010 NOSIG
WADD 301230Z 12006KT 9999 FEW017 29/26 Q1010 NOSIG
WADD 301200Z 13005KT 9999 FEW017 29/26 Q1010 NOSIG
WADD 301130Z 13005KT 9999 SCT017 29/26 Q1009 NOSIG
WADD 301100Z 12006KT 9999 FEW017 29/26 Q1009 NOSIG
WADD 301030Z 13008KT 9999 FEW017 29/27 Q1008 NOSIG
WADD 301000Z 13011KT 9999 FEW017 29/26 Q1008 NOSIG
WADD 300930Z 13009KT 9999 FEW017 30/27 Q1008 NOSIG
WADD 300900Z 12012KT 9999 FEW017 30/26 Q1008 NOSIG
WADD 300830Z 12012KT 9999 FEW017 30/26 Q1007 NOSIG
WADD 300800Z 12014KT 9999 FEW017 31/26 Q1007 NOSIG
WADD 300700Z 12015KT 9999 FEW017 31/27 Q1007 NOSIG
WADD 300630Z 11014KT 9999 FEW017 31/26 Q1008 NOSIG
WADD 300600Z 11011KT 9999 FEW017 31/27 Q1008 NOSIG
WADD 300530Z 11012KT 9999 FEW017 31/27 Q1008 NOSIG
WADD 300500Z 10010KT 9999 FEW016 30/26 Q1009 NOSIG
WADD 300430Z 10010KT 060V130 9999 FEW017 31/27 Q1009 NOSIG
WADD 300400Z 11009KT 070V140 9999 SCT016 31/27 Q1009 NOSIG
WADD 300330Z 10009KT 9999 SCT016 31/27 Q1010 NOSIG
WADD 300300Z 12008KT 9999 SCT016 30/26 Q1010 NOSIG
WADD 300130Z 21003KT 9999 FEW015CB FEW017 29/26 Q1010 NOSIG
WADD 300100Z VRB03KT 9999 FEW015CB FEW017 28/26 Q1010 NOSIG
WADD 300030Z VRB01KT 9999 FEW015CB FEW016 27/25 Q1010 NOSIG
WADD 292230Z VRB02KT 9999 FEW017 25/24 Q1009 NOSIG
WADD 292200Z 03005KT 9999 FEW017 25/24 Q1009 NOSIG
WADD 292130Z 03006KT 9999 FEW017 25/24 Q1009 NOSIG
WADD 292100Z 01005KT 9999 FEW017 25/24 Q1009 NOSIG
WADD 292030Z 03004KT 9999 SCT017 25/24 Q1009 NOSIG
WADD 292000Z 05004KT 9999 SCT017 25/24 Q1008 NOSIG
WADD 291930Z 03003KT 9999 SCT017 25/24 Q1009 NOSIG
WADD 291900Z 05003KT 9999 SCT017 25/24 Q1009 NOSIG
WADD 291830Z 02005KT 9999 FEW017 25/24 Q1009 NOSIG
WADD 291800Z 04004KT 9999 SCT017 26/25 Q1009 NOSIG
WADD 291730Z 03005KT 9999 FEW016CB SCT017 26/24 Q1009 NOSIG
WADD 291700Z 05005KT 020V080 9999 FEW016CB SCT017 26/24 Q1009 NOSIG</description><pubDate>Wed, 30 Apr 2025 16:51:01 </pubDate></item></channel></rss>