<rss version="2.0"><channel><title>Aviation Weather METAR Data for WADD</title><link>https://aviationweather.gov/api/data/metar?ids=WADD&amp;hours=24</link><description>Latest METAR data for WADD</description><item><title>2025-04-08 12:52:08Z</title><link>https://aviationweather.gov/api/data/metar?ids=WADD&amp;hours=24</link><description>WADD 081230Z 13010KT 9999 SCT016 29/28 Q1011 NOSIG
WADD 081200Z 13010KT 9999 SCT016 29/28 Q1011 NOSIG
WADD 081130Z 13011KT 9999 SCT016 29/28 Q1011 NOSIG
WADD 081100Z 12010KT 9999 SCT016 29/28 Q1010 NOSIG
WADD 081030Z 12010KT 9999 SCT016 29/28 Q1010 NOSIG
WADD 081000Z 13011KT 9999 SCT016 30/28 Q1010 NOSIG
WADD 080930Z 14014KT 9999 SCT016 30/28 Q1009 NOSIG
WADD 080900Z 15012KT 9999 SCT016 31/28 Q1009 NOSIG
WADD 080830Z 14015KT 9999 SCT016 31/28 Q1009 NOSIG
WADD 080800Z 14013KT 9999 SCT016 31/28 Q1008 NOSIG
WADD 080730Z 14014KT 9999 SCT016 31/27 Q1009 NOSIG
WADD 080700Z 13012KT 9999 SCT016 31/28 Q1009 NOSIG
WADD 080630Z 14012KT 9999 SCT016 31/28 Q1009 NOSIG
WADD 080600Z 14012KT 9999 SCT016 31/28 Q1009 NOSIG
WADD 080530Z 13011KT 9999 FEW016 32/28 Q1010 NOSIG
WADD 080500Z 10009KT 080V140 9999 FEW016 32/27 Q1011 NOSIG
WADD 080430Z 10007KT 9999 SCT016 31/27 Q1011 NOSIG
WADD 080400Z 11009KT 9999 SCT016 31/27 Q1011 NOSIG
WADD 080330Z 11009KT 9999 SCT016 31/27 Q1012 NOSIG
WADD 080300Z 10009KT 9999 SCT016 31/28 Q1012 NOSIG
WADD 080230Z 10009KT 9999 FEW017 31/28 Q1012 NOSIG
WADD 080200Z 11008KT 9999 FEW017 30/28 Q1013 NOSIG
WADD 080130Z 10008KT 060V130 9999 FEW017 30/28 Q1013 NOSIG
WADD 080100Z 09006KT 050V110 9999 FEW017 30/27 Q1013 NOSIG
WADD 080030Z 08005KT 040V130 9999 FEW017 29/27 Q1012 NOSIG
WADD 080000Z 04004KT 360V070 9999 FEW017 28/27 Q1012 NOSIG
WADD 072130Z 06005KT 9999 FEW015CB SCT016 26/26 Q1011 NOSIG
WADD 072100Z 01005KT 9999 FEW015CB SCT016 26/26 Q1011 RERA NOSIG
WADD 072030Z 03007KT 8000 -RA FEW015CB SCT016 26/26 Q1011 TEMPO TL2130 8000 -RA RMK CB IN APCH AND CLIMB OUT
WADD 072000Z 35003KT 8000 -RA FEW015CB SCT016 27/26 Q1010 TEMPO TL2130 8000 -RA RMK CB IN APCH AND CLIMB OUT
WADD 071930Z 16004KT 9999 FEW015CB FEW017 28/27 Q1010 NOSIG
WADD 071900Z 15004KT 9999 FEW015CB FEW017 28/27 Q1011 NOSIG
WADD 071830Z 12006KT 9999 FEW015CB FEW017 28/26 Q1011 NOSIG
WADD 071800Z 12007KT 9999 FEW015CB FEW017 28/27 Q1011 NOSIG
WADD 071730Z 13007KT 9999 FEW015CB FEW017 29/27 Q1011 NOSIG
WADD 071700Z 13006KT 9999 FEWCB016 FEW017 29/27 Q1011 NOSIG
WADD 071630Z 13007KT 9999 FEW017 29/27 Q1012 NOSIG
WADD 071600Z 13007KT 9999 FEW017 29/27 Q1012 NOSIG
WADD 071530Z 12008KT 9999 FEW017 29/27 Q1012 NOSIG
WADD 071500Z 13007KT 9999 FEW017 29/27 Q1012 NOSIG
WADD 071430Z 13008KT 9999 FEW017 29/27 Q1012 NOSIG
WADD 071400Z 12009KT 9999 FEW017 29/26 Q1012 NOSIG
WADD 071330Z 13009KT 9999 FEW017 29/27 Q1012 NOSIG
WADD 071300Z 13009KT 9999 FEW017 29/27 Q1012 NOSIG</description><pubDate>Tue, 08 Apr 2025 12:52:08 </pubDate></item></channel></rss>