<rss version="2.0"><channel><title>Aviation Weather METAR Data for WADD</title><link>https://aviationweather.gov/api/data/metar?ids=WADD&amp;hours=24</link><description>Latest METAR data for WADD</description><item><title>2026-01-25 23:28:23Z</title><link>https://aviationweather.gov/api/data/metar?ids=WADD&amp;hours=24</link><description>METAR WADD 252300Z VRB01KT 9999 FEW016 26/25 Q1010 NOSIG
METAR WADD 252230Z VRB01KT 9999 FEW016 26/25 Q1010 NOSIG
METAR WADD 252200Z VRB01KT 9999 SCT016 26/25 Q1010 NOSIG
METAR WADD 252130Z VRB02KT 9999 SCT016 26/25 Q1009 NOSIG
METAR WADD 252100Z VRB02KT 9999 SCT016 26/25 Q1009 NOSIG
METAR WADD 252030Z VRB02KT 9999 SCT016 26/25 Q1009 NOSIG
METAR WADD 252000Z VRB02KT 9999 SCT016 27/25 Q1009 NOSIG
METAR WADD 251930Z VRB02KT 9999 FEW015CB SCT016 26/25 Q1009 NOSIG
METAR WADD 251900Z 36004KT 9999 FEW015CB BKN016 27/25 Q1009 RERA NOSI G
METAR WADD 251830Z 30006KT 270V350 5000 RA FEW015CB BKN016 27/25 Q1009 TEMPO TL1930 5000 RA RMK CB IN APCH
METAR WADD 251800Z COR 33004KT 9999 FEW015CB SCT016 28/24 Q1008 NOSIG
METAR WADD 251730Z 33005KT 290V010 9999 FEW017 28/24 Q1008 NOSIG
METAR WADD 251700Z 31005KT 9999 FEW017 28/25 Q1009 NOSIG
METAR WADD 251630Z 30007KT 9999 FEW017 28/25 Q1009 NOSIG
METAR WADD 251600Z 27006KT 240V310 9999 FEW017 28/25 Q1010 NOSIG
METAR WADD 251530Z 25003KT 9999 FEW017 28/24 Q1010 NOSIG
METAR WADD 251500Z VRB02KT 9999 FEW017 28/24 Q1010 NOSIG
METAR WADD 251430Z 13002KT 9999 FEW017 28/24 Q1010 NOSIG
METAR WADD 251400Z VRB01KT 9999 FEW017 28/24 Q1010 NOSIG
METAR WADD 251330Z 15002KT 9999 FEW017 29/24 Q1010 NOSIG
METAR WADD 251300Z 13002KT 9999 FEW017 28/24 Q1009 NOSIG
METAR WADD 251230Z 14002KT 9999 FEW016 29/24 Q1009 NOSIG
METAR WADD 251200Z 24003KT 9999 FEW016 29/23 Q1009 NOSIG
METAR WADD 251130Z 25003KT 9999 FEW016 29/23 Q1008 NOSIG
METAR WADD 251100Z 27006KT 9999 FEW016 29/23 Q1008 NOSIG
METAR WADD 251030Z 25005KT 9999 FEW016 29/24 Q1008 NOSIG
METAR WADD 251000Z 26006KT 220V280 9999 FEW016 29/24 Q1008 NOSIG
METAR WADD 250930Z 25006KT 9999 FEW016 30/23 Q1007 NOSIG
METAR WADD 250900Z 25007KT 220V280 9999 FEW016 31/22 Q1007 NOSIG
METAR WADD 250830Z 24006KT 200V280 9999 FEW016 31/22 Q1007 NOSIG
METAR WADD 250800Z VRB04KT 9999 FEW016 31/23 Q1007 NOSIG
METAR WADD 250730Z 25007KT 9999 FEW016 31/23 Q1007 NOSIG
METAR WADD 250700Z 27007KT 210V300 9999 FEW016 31/23 Q1007 NOSIG
METAR WADD 250630Z 28005KT 210V300 9999 FEW016 32/23 Q1007 NOSIG
METAR WADD 250600Z VRB04KT 9999 SCT016 32/22 Q1008 NOSIG
METAR WADD 250530Z 28004KT 210V300 9999 SCT016 32/22 Q1008 NOSIG
METAR WADD 250500Z 25003KT 9999 SCT016 31/22 Q1009 NOSIG
METAR WADD 250430Z COR VRB02KT 9999 SCT016 31/21 Q1009 NOSIG
METAR WADD 250400Z 26004KT 9999 SCT016 31/23 Q1009 NOSIG
METAR WADD 250330Z 25004KT 200V300 9999 SCT016 31/25 Q1009 NOSIG
METAR WADD 250300Z 26004KT 210V310 9999 FEW016 31/24 Q1009 NOSIG
METAR WADD 250230Z VRB02KT 9999 FEW017 30/24 Q1010 NOSIG
METAR WADD 250200Z 29004KT 240V350 9999 FEW017 30/24 Q1010 NOSIG
METAR WADD 250130Z 29005KT 260V330 9999 FEW017 29/24 Q1010 NOSIG
METAR WADD 250100Z 02003KT 9999 FEW017 30/27 Q1010 NOSIG
METAR WADD 250030Z 01004KT 330V040 9999 FEW017 29/27 Q1010 NOSIG
METAR WADD 250000Z 34003KT 9999 FEW017 28/27 Q1010 NOSIG
METAR WADD 242330Z 03004KT 350V130 9999 FEW017 27/26 Q1010 NOSIG</description><pubDate>Sun, 25 Jan 2026 23:28:23 </pubDate></item></channel></rss>