<rss version="2.0"><channel><title>Aviation Weather METAR Data for WADD</title><link>https://aviationweather.gov/api/data/metar?ids=WADD&amp;hours=24</link><description>Latest METAR data for WADD</description><item><title>2025-03-03 14:24:34Z</title><link>https://aviationweather.gov/api/data/metar?ids=WADD&amp;hours=24</link><description>WADD 031400Z 10006KT 9999 SCT016 28/28 Q1008 NOSIG
WADD 031330Z 10006KT 9999 SCT016 29/28 Q1008 NOSIG
WADD 031300Z 12005KT 9999 SCT016 29/28 Q1008 NOSIG
WADD 031230Z 13005KT 9999 SCT016 29/28 Q1008 NOSIG
WADD 031200Z 13007KT 9999 FEW017 30/28 Q1008 NOSIG
WADD 031130Z 14009KT 9999 FEW017 30/28 Q1007 NOSIG
WADD 031100Z 13009KT 9999 FEW017 30/28 Q1007 NOSIG
WADD 031030Z 14010KT 9999 FEW017 30/28 Q1006 NOSIG
WADD 031000Z 15009KT 9999 FEW017 31/28 Q1006 NOSIG
WADD 030930Z 14009KT 9999 FEW017 32/28 Q1006 NOSIG
WADD 030900Z 16007KT 9999 FEW017 32/27 Q1006 NOSIG
WADD 030830Z 16008KT 9999 FEW017 32/27 Q1005 NOSIG
WADD 030800Z 14009KT 9999 FEW017 32/27 Q1005 NOSIG
WADD 030730Z 11009KT 9999 SCT017 33/27 Q1006 NOSIG
WADD 030700Z 11011KT 9999 SCT017 32/27 Q1006 NOSIG
WADD 030630Z 14010KT 080V160 9999 FEW016CB SCT017 32/27 Q1006 NOSIG
WADD 030600Z 10010KT 9999 FEW016CB SCT017 32/27 Q1006 NOSIG
WADD 030530Z 11008KT 9999 FEW017 32/28 Q1007 NOSIG
WADD 030500Z 11008KT 9999 FEW017 32/28 Q1007 NOSIG
WADD 030430Z 10010KT 9999 FEW017 32/28 Q1008 NOSIG
WADD 030400Z 10009KT 9999 FEW017 32/28 Q1008 NOSIG
WADD 030330Z 12010KT 9999 FEW017 31/27 Q1008 NOSIG
WADD 030300Z 12008KT 9999 FEW017 31/27 Q1008 NOSIG
WADD 030230Z 11006KT 9999 FEW017 31/28 Q1009 NOSIG
WADD 030200Z 11007KT 9999 FEW017 30/27 Q1009 NOSIG
WADD 030130Z 12007KT 080V150 9999 FEW017 30/27 Q1009 NOSIG
WADD 030100Z 12005KT 9999 FEW017 30/27 Q1009 NOSIG
WADD 030030Z VRB02KT 9999 FEW017 29/27 Q1009 NOSIG
WADD 030000Z VRB02KT 9999 FEW017 28/26 Q1009 NOSIG
WADD 022330Z VRB02KT 9999 FEW017 28/26 Q1009 NOSIG
WADD 022300Z VRB02KT 9999 FEW017 27/25 Q1008 NOSIG
WADD 022230Z 08001KT 9999 FEW017 27/25 Q1008 NOSIG
WADD 022200Z 06003KT 9999 FEW017 26/25 Q1008 NOSIG
WADD 022130Z 07003KT 9999 FEW017 26/25 Q1007 NOSIG
WADD 022100Z 06002KT 9999 FEW017 27/26 Q1007 NOSIG
WADD 022030Z 03002KT 9999 FEW017 27/26 Q1007 NOSIG
WADD 022000Z 09002KT 9999 FEW017 27/27 Q1007 NOSIG
WADD 021930Z 07003KT 9999 FEW017 27/26 Q1007 NOSIG
WADD 021900Z 04003KT 9999 FEW017 27/27 Q1007 NOSIG
WADD 021830Z 02003KT 9999 FEW017 27/27 Q1007 NOSIG
WADD 021800Z 04005KT 9999 FEW017 27/27 Q1007 NOSIG
WADD 021730Z 03005KT 9999 FEW017 27/27 Q1007 NOSIG
WADD 021700Z 11006KT 9999 FEW017 28/27 Q1007 NOSIG
WADD 021630Z 11005KT 9999 FEW017 28/27 Q1008 NOSIG
WADD 021600Z 09005KT 9999 FEW017 28/27 Q1008 NOSIG
WADD 021530Z 10005KT 9999 FEW017 28/27 Q1008 NOSIG
WADD 021500Z 10006KT 9999 FEW017 28/27 Q1008 NOSIG
WADD 021430Z 11007KT 9999 FEW017 28/27 Q1008 NOSIG</description><pubDate>Mon, 03 Mar 2025 14:24:34 </pubDate></item></channel></rss>