<rss version="2.0"><channel><title>Aviation Weather METAR Data for WADD</title><link>https://aviationweather.gov/api/data/metar?ids=WADD&amp;hours=24</link><description>Latest METAR data for WADD</description><item><title>2025-04-16 17:42:49Z</title><link>https://aviationweather.gov/api/data/metar?ids=WADD&amp;hours=24</link><description>WADD 161730Z 35004KT 9999 FEW017 28/26 Q1008 NOSIG
WADD 161700Z 28005KT 230V320 9999 FEW017 29/26 Q1008 NOSIG
WADD 161630Z 27004KT 240V300 9999 FEW017 28/26 Q1008 NOSIG
WADD 161600Z VRB01KT 9999 FEW017 28/26 Q1009 NOSIG
WADD 161530Z 20001KT 9999 FEW017 28/26 Q1009 NOSIG
WADD 161500Z 21001KT 9999 FEW017 28/26 Q1009 NOSIG
WADD 161430Z VRB01KT 9999 FEW017 28/26 Q1009 NOSIG
WADD 161400Z VRB01KT 9999 SCT017 28/26 Q1009 NOSIG
WADD 161330Z VRB02KT 9999 SCT017 29/26 Q1009 NOSIG
WADD 161300Z VRB02KT 9999 SCT017 29/27 Q1009 NOSIG
WADD 161230Z VRB02KT 9999 SCT017 29/26 Q1008 NOSIG
WADD 161200Z VRB02KT 9999 SCT016 29/26 Q1008 NOSIG
WADD 161130Z 22003KT 9999 SCT016 29/26 Q1008 NOSIG
WADD 161100Z 22004KT 180V250 9999 SCT016 29/26 Q1008 NOSIG
WADD 161030Z 25006KT 9999 SCT016 29/26 Q1007 NOSIG
WADD 161000Z 25005KT 9999 SCT016 29/26 Q1007 NOSIG
WADD 160930Z 25006KT 9999 SCT016 30/27 Q1007 NOSIG
WADD 160900Z 26007KT 9999 SCT017 30/26 Q1007 NOSIG
WADD 160830Z 26008KT 9999 SCT017 30/27 Q1007 NOSIG
WADD 160800Z 26009KT 9999 SCT017 30/26 Q1006 NOSIG
WADD 160730Z 26010KT 9999 FEW017 31/26 Q1006 NOSIG
WADD 160700Z 25008KT 9999 FEW017 31/25 Q1006 NOSIG
WADD 160630Z 26010KT 9999 FEW017 31/25 Q1007 NOSIG
WADD 160600Z 25009KT 9999 FEW017 30/27 Q1007 NOSIG
WADD 160530Z 26010KT 9999 FEW017 31/26 Q1007 NOSIG
WADD 160500Z 27010KT 9999 FEW017 31/26 Q1008 NOSIG
WADD 160430Z 27011KT 9999 FEW017 31/26 Q1008 NOSIG
WADD 160400Z 29010KT 9999 FEW017 31/26 Q1008 NOSIG
WADD 160330Z 29010KT 9999 FEW017 31/26 Q1009 NOSIG
WADD 160300Z 29009KT 260V320 9999 FEW017 31/26 Q1009 NOSIG
WADD 160230Z 28008KT 9999 FEW017 30/26 Q1010 NOSIG
WADD 160200Z 29007KT 260V330 9999 FEW017 30/26 Q1010 NOSIG
WADD 160130Z 32006KT 9999 FEW017 30/27 Q1010 NOSIG
WADD 160100Z 33007KT 300V020 9999 FEW017 29/27 Q1010 NOSIG
WADD 160030Z 34006KT 310V010 9999 FEW017 BKN010 29/27 Q1009
WADD 160000Z 36004KT 330V040 9999 FEW017 28/26 Q1009 NOSIG
WADD 152330Z VRB01KT 9999 FEW017 28/26 Q1009 NOSIG
WADD 152300Z VRB01KT 9999 FEW016 27/25 Q1009 NOSIG
WADD 152230Z 03002KT 9999 FEW016 26/24 Q1009 NOSIG
WADD 152200Z VRB01KT 9999 FEW017 25/24 Q1008 NOSIG
WADD 152130Z 10001KT 9999 FEW017 26/24 Q1008 NOSIG
WADD 152100Z VRB01KT 9999 FEW017 26/24 Q1008 NOSIG
WADD 152030Z 02002KT 9999 FEW016 26/24 Q1008 NOSIG
WADD 152000Z 09001KT 9999 SCT016 26/24 Q1008 NOSIG
WADD 151930Z VRB01KT 9999 SCT016 26/24 Q1008 NOSIG
WADD 151900Z VRB02KT 9999 SCT016 26/24 Q1008 NOSIG
WADD 151830Z 02003KT 9999 SCT016 27/24 Q1008 NOSIG
WADD 151800Z 02004KT 9999 FEW017 27/24 Q1008 NOSIG</description><pubDate>Wed, 16 Apr 2025 17:42:49 </pubDate></item></channel></rss>