<rss version="2.0"><channel><title>Aviation Weather METAR Data for WADD</title><link>https://aviationweather.gov/api/data/metar?ids=WADD&amp;hours=24</link><description>Latest METAR data for WADD</description><item><title>2025-02-20 15:42:40Z</title><link>https://aviationweather.gov/api/data/metar?ids=WADD&amp;hours=24</link><description>WADD 201530Z 27010KT 9999 SCT016 28/25 Q1010 NOSIG
WADD 201500Z 28010KT 9999 FEW016 28/25 Q1011 NOSIG
WADD 201430Z 28010KT 9999 SCT016 28/25 Q1011 NOSIG
WADD 201400Z 27010KT 9999 FEW016 28/25 Q1011 NOSIG
WADD 201330Z 27009KT 9999 SCT016 28/25 Q1011 NOSIG
WADD 201300Z 27010KT 9999 BKN016 28/25 Q1010 NOSIG
WADD 201230Z 26010KT 9999 BKN016 28/25 Q1010 NOSIG
WADD 201200Z 27009KT 9999 BKN016 28/26 Q1009 NOSIG
WADD 201130Z 27009KT 9999 SCT016 28/25 Q1009 NOSIG
WADD 201100Z 26008KT 9999 BKN016 28/25 Q1009 NOSIG
WADD 201030Z 27009KT 9999 SCT016 28/25 Q1009 NOSIG
WADD 201000Z 27008KT 9999 SCT016 28/25 Q1008 NOSIG
WADD 200930Z 27009KT 9999 SCT016 28/25 Q1008 NOSIG
WADD 200900Z 27009KT 9999 SCT016 29/26 Q1008 NOSIG
WADD 200830Z 26010KT 9999 SCT016 29/25 Q1008 NOSIG
WADD 200800Z 26009KT 9999 SCT016 29/25 Q1008 NOSIG
WADD 200730Z 26010KT 9999 SCT016 29/26 Q1009 NOSIG
WADD 200700Z 26011KT 9999 SCT016 29/26 Q1009 NOSIG
WADD 200630Z 25011KT 9999 SCT016 29/25 Q1009 NOSIG
WADD 200600Z 25010KT 9999 BKN016 29/26 Q1009 NOSIG
WADD 200530Z 26012KT 9999 FEW015CB SCT016 29/26 Q1010 NOSIG
WADD 200500Z 26012KT 9999 FEW015CB SCT016 29/26 Q1010 NOSIG
WADD 200430Z 26012KT 9999 FEW015CB BKN016 28/26 Q1010 NOSIG
WADD 200400Z 27012KT 9999 SCT016 30/26 Q1011 NOSIG
WADD 200330Z 29011KT 9999 SCT016 30/26 Q1011 NOSIG
WADD 200300Z 28010KT 9999 FEW015CB SCT016 29/26 Q1011 NOSIG
WADD 200230Z 26007KT 8000 -RA FEW015CB BKN016 27/26 Q1011 TEMPO TL0330 -RA
WADD 200200Z 22004KT 190V250 8000 -RA FEW015CB BKN016 27/25 Q1011 TEMPO TL0300 -RA RMK CB IN APCH
WADD 200130Z 26009KT 9999 FEW016CB SCT017 28/25 Q1011 NOSIG
WADD 200100Z 27005KT 9999 FEW016CB SCT017 28/25 Q1011 NOSIG
WADD 200030Z VRB02KT 9999 FEW016CB SCT017 28/25 Q1011 NOSIG
WADD 200000Z 01003KT 9999 FEW016CB SCT017 27/25 Q1011 NOSIG
WADD 192330Z 34004KT 9999 FEW016CB SCT017 26/25 Q1010 NOSIG
WADD 192300Z VRB02KT 9999 FEW016CB FEW017 25/25 Q1010 NOSIG
WADD 192230Z VRB02KT 9999 FEW015CB SCT016 25/25 Q1010 NOSIG
WADD 192200Z 31004KT 9999 FEW015CB SCT016 26/25 Q1010 NOSIG
WADD 192130Z 31006KT 9999 FEW015CB SCT016 26/25 Q1010 NOSIG
WADD 192100Z 26004KT 9999 FEW015CB SCT016 25/24 Q1009 RERA NOSIG
WADD 192030Z 28004KT 260V020 7000 -RA FEW014CB BKN015 25/24 Q1009 TEMPO TL2130 -RA
WADD 192000Z 36004KT 310V080 5000 -RA FEW015CB BKN016 27/25 Q1009 TEMPO TL2100 RA
WADD 191930Z 02002KT 9999 SCT016 26/25 Q1009 NOSIG
WADD 191900Z VRB01KT 9999 SCT016 26/26 Q1009 NOSIG
WADD 191830Z VRB01KT 9999 SCT016 26/25 Q1009 NOSIG
WADD 191800Z VRB01KT 9999 SCT016 26/25 Q1009 RERA NOSIG
WADD 191730Z 12006KT 5000 -RA SCT016 27/25 Q1010 TEMPO TL1830 RA
WADD 191700Z VRB03KT 9999 FEW017 28/25 Q1010 NOSIG
WADD 191630Z 32004KT 240V360 9999 FEW017 28/25 Q1010 NOSIG
WADD 191600Z VRB02KT 9999 FEW017 27/24 Q1011 NOSIG</description><pubDate>Thu, 20 Feb 2025 15:42:40 </pubDate></item></channel></rss>