<rss version="2.0"><channel><title>Aviation Weather METAR Data for WADD</title><link>https://aviationweather.gov/api/data/metar?ids=WADD&amp;hours=24</link><description>Latest METAR data for WADD</description><item><title>2026-04-27 11:22:57Z</title><link>https://aviationweather.gov/api/data/metar?ids=WADD&amp;hours=24</link><description>METAR WADD 271100Z 18004KT 7000 -RA FEW015CB BKN015 28/26 Q1009 NOSIG RMK CB IN APCH
METAR WADD 271030Z VRB02KT 7000 -RA FEW015CB BKN015 28/26 Q1008 NOSIG RMK CB IN APCH
METAR WADD 271000Z 13005KT 7000 -RA FEW015CB BKN015 28/26 Q1008 NOSIG RMK CB IN APCH
METAR WADD 270930Z 13009KT 8000 -RA FEW015CB SCT015 29/27 Q1007 NOSIG RMK CB IN APCH
SPECI WADD 270911Z 14011KT 8000 -RA FEW015CB SCT015 30/27 Q1007 NOSIG RMK CB IN APCH
METAR WADD 270900Z 14011KT 9999 FEW015CB SCT015 30/27 Q1007 NOSIG
METAR WADD 270830Z 14014KT 9999 SCT016 30/26 Q1007 NOSIG
METAR WADD 270800Z 13010KT 9999 SCT016 30/26 Q1006 NOSIG
METAR WADD 270730Z 14012KT 9999 FEW017 31/26 Q1006 NOSIG
METAR WADD 270700Z 13011KT 9999 FEW017 31/26 Q1006 NOSIG
METAR WADD 270630Z 13011KT 9999 FEW017 31/27 Q1007 NOSIG
METAR WADD 270600Z 13010KT 080V150 9999 FEW017 32/27 Q1007 NOSIG
METAR WADD 270530Z 12011KT 9999 FEW015 32/27 Q1007 NOSIG
METAR WADD 270500Z 12010KT 9999 FEW016 32/27 Q1007 NOSIG
METAR WADD 270430Z 11011KT 9999 FEW016 31/26 Q1007 NOSIG
METAR WADD 270400Z 11010KT 9999 FEW016 31/26 Q1008 NOSIG
METAR WADD 270330Z 11008KT 9999 FEW016 32/26 Q1008 NOSIG
METAR WADD 270300Z 13008KT 9999 FEW016 31/26 Q1008 NOSIG
METAR WADD 270230Z 11006KT 9999 FEW016 31/26 Q1009 NOSIG
METAR WADD 270200Z 14005KT 100V180 9999 FEW016 31/26 Q1009 NOSIG
METAR WADD 270130Z 18004KT 9999 FEW016 30/26 Q1009 NOSIG
METAR WADD 270100Z 15003KT 9999 FEW016 29/26 Q1009 NOSIG
METAR WADD 270030Z VRB01KT 9999 FEW016 27/26 Q1009 NOSIG
METAR WADD 270000Z 03004KT 9999 FEW016 26/25 Q1009 NOSIG
METAR WADD 262330Z 04006KT 9999 BKN015 25/25 Q1009 NOSIG
METAR WADD 262300Z 04006KT 9999 BKN015 25/24 Q1009 RERA NOSIG
METAR WADD 262230Z 08004KT 7000 -RA BKN015 24/24 Q1009 TEMPO TL2330 - RA
METAR WADD 262200Z 13008KT 7000 -RA FEW015CB BKN015 25/24 Q1009 R ETS TEMPO TL2330 -RA
METAR WADD 262130Z 10003KT 4000 TSRA FEW015CB BKN015 25/25 Q1009 TEMP O TL2230 6000 -TSRA
METAR WADD 262100Z 33006KT 6000 -TSRA FEW015CB BKN015 26/25 Q1009 TEMPO TL2230 -TSRA
METAR WADD 262030Z 32003KT 7000 -RA FEW015CB BKN015 26/25 Q1009 TEMPO TL2130 -RA
METAR WADD 262000Z 31004KT 7000 -RA BKN015 25/25 Q1009 TEMPO TL2130 -RA
METAR WADD 261930Z 36002KT 7000 -RA BKN015 26/25 Q1009 TEMPO TL2030 - RA
SPECI WADD 261908Z VRB01G13KT 6000 -RA BKN015 27/25 Q1009 TEMPO TL2030 -RA
METAR WADD 261900Z 18005KT 3000 RA BKN015 27/25 Q1009 TEMPO TL2030 6000 -RA
METAR WADD 261830Z VRB02KT 9999 SCT016 26/25 Q1009 NOSIG
METAR WADD 261800Z 30003KT 9999 SCT016 26/24 Q1009 NOSIG
METAR WADD 261730Z VRB01KT 9999 SCT016 25/24 Q1009 NOSIG
METAR WADD 261700Z VRB01KT 9999 SCT016 25/24 Q1009 NOSIG
METAR WADD 261630Z VRB01KT 9999 SCT016 26/24 Q1010 NOSIG
METAR WADD 261600Z 05003KT 9999 SCT016 26/24 Q1010 RERA NOSIG
METAR WADD 261530Z 03005KT 7000 -RA BKN015 26/25 Q1010 TEMPO TL1630 -RA
METAR WADD 261500Z 05007KT 7000 -RA FEW015CB BKN015 26/25 Q1011 TEMPO TL1600 -RA RMK CB IN APCH
METAR WADD 261430Z 02007KT 340V040 5000 -RA FEW015CB BKN015 28/26 Q1011 TEMPO TL1600 -RA RMK CB IN CLIMB-OUT
SPECI WADD 261424Z COR 10006KT 5000 -RA FEW015CB BKN015 28/26 Q1011 TEMPO TL1600 -RA RMK CB IN CLIMB-OUT
METAR WADD 261400Z 10006KT 9000 FEW015CB BKN016 28/26 Q1011 NOSIG RMK CB IN APCH
METAR WADD 261330Z 13010KT 9000 BKN016 29/26 Q1011 NOSIG
METAR WADD 261300Z 13007KT 9999 SCT016 29/26 Q1010 NOSIG
METAR WADD 261230Z 13009KT 9999 SCT016 29/26 Q1010 NOSIG
METAR WADD 261200Z 13009KT 9999 SCT016 29/26 Q1010 NOSIG
METAR WADD 261130Z 13007KT 9999 SCT016 29/26 Q1009 NOSIG</description><pubDate>Mon, 27 Apr 2026 11:22:57 </pubDate></item></channel></rss>