<rss version="2.0"><channel><title>Aviation Weather METAR Data for WADD</title><link>https://aviationweather.gov/api/data/metar?ids=WADD&amp;hours=24</link><description>Latest METAR data for WADD</description><item><title>2025-08-01 09:34:46Z</title><link>https://aviationweather.gov/api/data/metar?ids=WADD&amp;hours=24</link><description>WADD 010930Z 12013KT 9999 SCT016 27/24 Q1009 NOSIG
WADD 010900Z 12015KT 9999 SCT016 28/25 Q1009 NOSIG
WADD 010830Z 12018KT 9999 SCT016 28/25 Q1009 NOSIG
WADD 010800Z 12015KT 9999 SCT016 28/25 Q1009 NOSIG
WADD 010730Z 11019KT 9999 SCT016 28/24 Q1009 NOSIG
WADD 010700Z 12017KT 9999 BKN016 28/25 Q1009 NOSIG
WADD 010630Z 11016KT 9999 BKN016 28/25 Q1009 NOSIG
WADD 010600Z 12019KT 9999 SCT016 29/24 Q1010 NOSIG
WADD 010530Z 12017KT 9999 SCT016 29/25 Q1010 NOSIG
WADD 010500Z 11013KT 9999 SCT016 28/25 Q1010 NOSIG
WADD 010430Z 11016KT 9999 SCT016 28/25 Q1011 NOSIG
WADD 010400Z 11017KT 9999 SCT016 29/24 Q1011 NOSIG
WADD 010330Z 12017KT 9999 SCT016 28/24 Q1011 NOSIG
WADD 010300Z 12015KT 9999 SCT016 28/24 Q1012 NOSIG
WADD 010230Z 13016KT 9999 SCT016 27/24 Q1012 NOSIG
WADD 010200Z 12016KT 9999 SCT016 27/24 Q1012 NOSIG
WADD 010130Z 13014KT 9999 SCT016 27/24 Q1012 NOSIG
WADD 010100Z 12012KT 9999 BKN016 27/24 Q1013 NOSIG
WADD 010030Z 13013KT 9999 BKN016 26/24 Q1012 NOSIG
WADD 312330Z 12014KT 9999 BKN016 26/24 Q1012 NOSIG
WADD 312300Z 12013KT 9999 SCT016 26/24 Q1012 NOSIG
WADD 312230Z 12013KT 9999 BKN016 26/24 Q1012 NOSIG
WADD 312200Z 13012KT 9999 BKN016 25/24 Q1011 NOSIG
WADD 312100Z 13015KT 9999 BKN016 26/24 Q1011 NOSIG
WADD 312030Z 13014KT 9999 SCT016 26/24 Q1011 NOSIG
WADD 312000Z 14015KT 9999 SCT016 26/24 Q1011 NOSIG
WADD 311930Z 13014KT 9999 SCT016 26/24 Q1011 NOSIG
WADD 311900Z 13014KT 9999 SCT016 26/24 Q1011 NOSIG
WADD 311830Z 14017KT 9999 SCT016 26/24 Q1011 NOSIG
WADD 311800Z 13013KT 9999 SCT016 26/24 Q1011 NOSIG
WADD 311730Z 13012KT 9999 SCT016 26/23 Q1012 NOSIG
WADD 311700Z 13014KT 9999 SCT016 26/24 Q1012 NOSIG
WADD 311630Z 13012KT 9999 SCT016 26/24 Q1012 NOSIG
WADD 311600Z 14013KT 9999 SCT016 26/24 Q1012 NOSIG
WADD 311530Z 13012KT 9999 SCT016 26/24 Q1012 NOSIG
WADD 311500Z 14011KT 9999 SCT016 26/24 Q1012 NOSIG
WADD 311430Z 14013KT 9999 SCT016 26/24 Q1012 NOSIG
WADD 311400Z 14017KT 9999 SCT016 26/24 Q1013 NOSIG
WADD 311330Z 15014KT 9999 BKN016 26/24 Q1012 NOSIG
WADD 311300Z 14013KT 9999 BKN016 26/24 Q1012 NOSIG
WADD 311230Z 14014KT 9999 BKN016 26/24 Q1012 NOSIG
WADD 311200Z 14014KT 9999 BKN0016 26/24 Q1012 NOSIG
WADD 311130Z 13013KT 9999 SCT016 26/24 Q1012 NOSIG
WADD 311100Z 14013KT 9999 SCT016 26/24 Q1012 NOSIG
WADD 311030Z 13014KT 9999 SCT016 26/23 Q1011 NOSIG
WADD 311000Z 13014KT 9999 SCT016 26/24 Q1011 NOSIG</description><pubDate>Fri, 01 Aug 2025 09:34:46 </pubDate></item></channel></rss>