<rss version="2.0"><channel><title>Aviation Weather METAR Data for WADD</title><link>https://aviationweather.gov/api/data/metar?ids=WADD&amp;hours=24</link><description>Latest METAR data for WADD</description><item><title>2025-07-27 12:55:55Z</title><link>https://aviationweather.gov/api/data/metar?ids=WADD&amp;hours=24</link><description>WADD 271230Z 12007KT 9999 FEW017 27/26 Q1012 NOSIG
WADD 271200Z 13008KT 9999 FEW017 27/26 Q1012 NOSIG
WADD 271130Z 12009KT 9999 FEW017 27/26 Q1011 NOSIG
WADD 271100Z 12012KT 9999 FEW017 27/26 Q1011 NOSIG
WADD 271030Z 13010KT 9999 FEW017 27/26 Q1010 NOSIG
WADD 271000Z 13014KT 9999 FEW017 27/26 Q1010 NOSIG
WADD 270930Z 13012KT 9999 FEW017 28/25 Q1010 NOSIG
WADD 270900Z 13012KT 9999 FEW017 28/25 Q1010 NOSIG
WADD 270830Z 13012KT 9999 FEW017 28/25 Q1010 NOSIG
WADD 270800Z 13014KT 9999 FEW017 29/25 Q1009 NOSIG
WADD 270730Z 12014KT 9999 FEW017 29/25 Q1010 NOSIG
WADD 270700Z 13013KT 9999 FEW017 29/25 Q1010 NOSIG
WADD 270630Z 13014KT 9999 FEW017 29/25 Q1010 NOSIG
WADD 270600Z 11012KT 9999 FEW017 29/26 Q1011 NOSIG
WADD 270530Z 11013KT 9999 FEW016 30/26 Q1011 NOSIG
WADD 270500Z 12012KT 9999 FEW016 29/26 Q1011 NOSIG
WADD 270430Z 11012KT 9999 FEW016 29/26 Q1012 NOSIG
WADD 270400Z 12012KT 9999 FEW016 29/25 Q1012 NOSIG
WADD 270330Z 11011KT 9999 FEW016 29/26 Q1012 NOSIG
WADD 270300Z 12012KT 9999 FEW016 28/26 Q1012 NOSIG
WADD 270230Z 10011KT 9999 SCT016 28/26 Q1013 NOSIG
WADD 270200Z 11009KT 9999 SCT016 28/26 Q1013 NOSIG
WADD 270130Z 10008KT 9999 SCT016 27/26 Q1013 NOSIG
WADD 270100Z 10005KT 9999 BKN015 26/26 Q1013 RERA NOSIG
WADD 270030Z 07003KT 7000 -RA FEW014CB BKN015 26/26 Q1013 TEMPO TL0130 7000 -RA RMK CB IN APCH
WADD 270000Z VRB02KT 6000 -RA FEW014CB BKN015 26/26 Q1013 TEMPO TL0100 6000 -RA RMK CB IN CLIMB-OUT
WADD 262330Z VRB02KT 9999 FEW015CB SCT016 25/25 Q1012 NOSIG
WADD 262300Z 36003KT 9999 SCT016 25/25 Q1012 NOSIG
WADD 262230Z VRB02KT 9999 SCT016 25/25 Q1012 NOSIG
WADD 262200Z 11002KT 9999 SCT016 25/25 Q1012 NOSIG
WADD 262130Z 10002KT 9999 SCT016 25/25 Q1011 NOSIG
WADD 262100Z 14002KT 9999 SCT016 26/26 Q1011 NOSIG
WADD 262030Z 08004KT 9999 FEW017 25/25 Q1011 NOSIG
WADD 262000Z 09005KT 9999 SCT016 25/25 Q1011 NOSIG
WADD 261930Z 10004KT 9999 FEW017 26/26 Q1011 NOSIG
WADD 261900Z 10005KT 9999 SCT016 26/26 Q1012 NOSIG
WADD 261830Z 10006KT 9999 FEW015CB SCT015 26/26 Q1012 RERA NOSIG
WADD 261800Z 13006KT 8000 -RA FEW014CB BKN014 26/26 Q1012 TEMPO TL1900 8000 -RA
WADD 261730Z 08006KT 9999 FEW015CB SCT016 26/26 Q1012 NOSIG
WADD 261700Z 10006KT 9999 FEW016 26/26 Q1012 NOSIG
WADD 261630Z 11006KT 9999 FEW017 26/26 Q1013 NOSIG
WADD 261600Z 13005KT 9999 FEW017 26/26 Q1012 NOSIG
WADD 261530Z 13008KT 9999 FEW017 26/26 Q1012 NOSIG
WADD 261500Z 13007KT 9999 FEW017 26/26 Q1013 NOSIG
WADD 261430Z 11007KT 9999 FEW017 27/26 Q1012 NOSIG
WADD 261400Z 12008KT 9999 FEW017 27/26 Q1012 NOSIG
WADD 261330Z 12009KT 9999 FEW017 27/26 Q1012 NOSIG
WADD 261300Z 12010KT 9999 FEW017 27/26 Q1012 NOSIG</description><pubDate>Sun, 27 Jul 2025 12:55:55 </pubDate></item></channel></rss>