<rss version="2.0"><channel><title>Aviation Weather METAR Data for WADD</title><link>https://aviationweather.gov/api/data/metar?ids=WADD&amp;hours=24</link><description>Latest METAR data for WADD</description><item><title>2026-03-20 07:07:09Z</title><link>https://aviationweather.gov/api/data/metar?ids=WADD&amp;hours=24</link><description>METAR WADD 200630Z 27009KT 9999 FEW016 30/26 Q1007 NOSIG
METAR WADD 200600Z 27007KT 9999 FEW016 30/26 Q1007 NOSIG
METAR WADD 200530Z 27008KT 9999 FEW016 30/26 Q1008 NOSIG
METAR WADD 200500Z 27009KT 240V310 9999 FEW016 30/26 Q1009 NOSIG
METAR WADD 200430Z 26008KT 210V300 9999 FEW016 30/26 Q1009 NOSIG
METAR WADD 200400Z 27009KT 9999 FEW016 30/26 Q1010 NOSIG
METAR WADD 200330Z 27009KT 9999 FEW016 31/26 Q1010 NOSIG
METAR WADD 200300Z 26007KT 230V300 9999 FEW016 31/26 Q1010 NOSIG
METAR WADD 200230Z 25007KT 220V290 9999 SCT016 30/26 Q1011 NOSIG
METAR WADD 200200Z 28006KT 190V320 9999 SCT015 31/26 Q1011 NOSIG
METAR WADD 200130Z 28005KT 240V320 9999 FEW015CB BKN015 29/26 Q1011 N OSIG
METAR WADD 200100Z VRB02KT 9999 FEW015CB BKN015 27/27 Q1011 RERA NOSIG RMK CB IN APCH AND CLIMB-OUT
METAR WADD 200030Z 33005KT 8000 -RA FEW015CB BKN015 27/26 Q1011 TEMPO TL0130 8000 -RA RMK CB IN APCH AND CLIMB-OUT
METAR WADD 200000Z 33006KT 8000 -RA FEW015CB BKN015 26/26 Q1010 TEMPO TL2430 8000 -RA RMK CB IN APCH AND CLIMB-OUT
SPECI WADD 192343Z 33008KT 8000 -RA FEW015CB BKN015 26/26 Q1010 TEMPO TL2430 8000 -RA RMK CB IN APCH AND CLIMB-OUT
METAR WADD 192330Z 33009KT 9999 FEW015CB SCT016 26/26 Q1010 NOSIG
METAR WADD 192300Z 33009KT 9999 FEW015CB BKN016 26/26 Q1010 RERA NOSI G
METAR WADD 192230Z 36005KT 310V040 7000 -RA FEW015CB BKN016 26/26 Q1010 TEMPO TL2330 -RA
SPECI WADD 192210Z 31005KT 4000 RA FEW015CB BKN016 26/26 Q1010 TEMPO TL2310 4000 -RA
METAR WADD 192200Z 31006KT 270V340 7000 -RA FEW015CB BKN016 26/26 Q1009 TEMPO TL2300 -RA
METAR WADD 192130Z 32009KT 9999 FEW015CB SCT016 26/26 Q1009 NOSIG
METAR WADD 192100Z 33007KT 9999 FEW015CB SCT016 26/26 Q1008 NOSIG
METAR WADD 192030Z 32008KT 9999 SCT016 27/26 Q1009 NOSIG
METAR WADD 192000Z 02003KT 9999 SCT016 26/26 Q1008 NOSIG
METAR WADD 191930Z VRB01KT 9999 SCT016 26/26 Q1009 NOSIG
METAR WADD 191900Z VRB01KT 9999 SCT016 26/26 Q1009 NOSIG
METAR WADD 191830Z VRB02KT 9999 SCT016 26/26 Q1009 NOSIG
METAR WADD 191800Z 26001KT 9999 SCT016 26/25 Q1009 NOSIG
METAR WADD 191730Z COR VRB02KT 9999 SCT016 26/26 Q1009 NOSIG
METAR WADD 191700Z 13001KT 9999 SCT016 26/26 Q1009 NOSIG
METAR WADD 191630Z VRB01KT 9999 SCT015 26/25 Q1009 NOSIG
METAR WADD 191600Z 00000KT 9999 FEW015CB SCT015 27/26 Q1010 NOSIG
METAR WADD 191530Z VRB02KT 9999 FEW015CB SCT015 27/25 Q1010 RETS NOSI G
METAR WADD 191500Z VRB01KT 9999 TS FEW015CB FEW015 27/25 Q1010 NOSIG
METAR WADD 191430Z VRB01KT 9999 FEW015CB FEW015 27/26 Q1010 NOSIG
METAR WADD 191400Z VRB01KT 9999 FEW015CB FEW015 27/26 Q1010 NOSIG
METAR WADD 191330Z VRB02KT 9999 FEW015CB FEW015 28/26 Q1010 NOSIG
METAR WADD 191300Z VRB01KT 9999 FEW015CB FEW015 28/26 Q1010 NOSIG
METAR WADD 191230Z VRB01KT 9999 SCT015 28/26 Q1009 NOSIG
METAR WADD 191200Z VRB02KT 9999 FEW015CB SCT015 28/26 Q1009 NOSIG
METAR WADD 191130Z 24003KT 9999 FEW016CB SCT016 28/27 Q1009 NOSIG
METAR WADD 191100Z 23005KT 190V260 9999 FEW016CB SCT016 28/27 Q1009 N OSIG
METAR WADD 191030Z 24005KT 190V280 9999 FEW016CB SCT016 29/26 Q1008 N OSIG
METAR WADD 191000Z 23005KT 190V270 9999 FEW016CB SCT016 30/27 Q1008 N OSIG
METAR WADD 190930Z 23006KT 190V260 9999 FEW016CB SCT016 30/26 Q1008 N OSIG
METAR WADD 190900Z 22006KT 110V290 9999 FEW016CB SCT016 31/26 Q1007 N OSIG
METAR WADD 190830Z 21004KT 120V250 9999 FEW016CB SCT016 33/26 Q1007 N OSIG
METAR WADD 190730Z 23005KT 140V300 9999 FEW016CB SCT016 33/26 Q1007 N OSIG</description><pubDate>Fri, 20 Mar 2026 07:07:09 </pubDate></item></channel></rss>