<rss version="2.0"><channel><title>Aviation Weather METAR Data for WADD</title><link>https://aviationweather.gov/api/data/metar?ids=WADD&amp;hours=24</link><description>Latest METAR data for WADD</description><item><title>2026-04-05 14:06:49Z</title><link>https://aviationweather.gov/api/data/metar?ids=WADD&amp;hours=24</link><description>METAR WADD 051300Z 11007KT 9999 FEW015CB SCT016 28/27 Q1010 NOSIG
METAR WADD 051230Z 10006KT 9999 FEW015CB SCT016 28/26 Q1010 NOSIG
METAR WADD 051200Z 11007KT 9999 FEW015CB SCT016 28/26 Q1009 NOSIG
METAR WADD 051130Z 12008KT 9999 FEW016CB FEW016 28/26 Q1009 RETS NOSI G
METAR WADD 051100Z 12006KT 9999 TS FEW016CB SCT016 29/26 Q1009 TEMPO TL1130 TS
METAR WADD 051030Z 13010KT 9999 TS FEW016CB SCT016 29/26 Q1008 TEMPO TL1130 TS
SPECI WADD 051018Z 13006KT 9999 TS FEW016CB SCT016 29/26 Q1008 TEMPO TL1118 TS
METAR WADD 051000Z 13010KT 9999 SCT016 29/26 Q1008 NOSIG
METAR WADD 050930Z 13010KT 9999 SCT016 29/26 Q1008 NOSIG
METAR WADD 050900Z 13007KT 9999 SCT016 29/26 Q1008 NOSIG
METAR WADD 050830Z 13008KT 9999 SCT016 29/26 Q1007 NOSIG
METAR WADD 050800Z 14010KT 9999 SCT016 30/26 Q1008 NOSIG
METAR WADD 050730Z 13009KT 9999 FEW016CB SCT016 30/26 Q1008 NOSIG
METAR WADD 050700Z 13011KT 9999 FEW016CB SCT016 30/26 Q1008 NOSIG
METAR WADD 050630Z 12012KT 9999 FEW016CB SCT016 30/26 Q1008 NOSIG
METAR WADD 050600Z 13016KT 9999 FEW016CB SCT017 31/25 Q1008 NOSIG
METAR WADD 050530Z 14015KT 9999 SCT017 31/26 Q1008 NOSIG
METAR WADD 050500Z 12013KT 9999 FEW017 32/26 Q1008 NOSIG
METAR WADD 050430Z 12012KT 9999 SCT017 32/26 Q1009 NOSIG
METAR WADD 050400Z 12011KT 9999 SCT016 31/26 Q1009 NOSIG
METAR WADD 050330Z 11012KT 9999 FEW015CB SCT016 31/26 Q1010 NOSIG
METAR WADD 050300Z 11010KT 9999 SCT016 31/26 Q1010 NOSIG
METAR WADD 050230Z 11011KT 9999 SCT016 31/26 Q1010 NOSIG
METAR WADD 050200Z 10011KT 9999 SCT016 31/26 Q1010 NOSIG
METAR WADD 050130Z 10009KT 9999 FEW015CB SCT016 31/26 Q1010 NOSIG RMK CB IN APCH
METAR WADD 050100Z 11008KT 9999 SCT016 30/26 Q1010 NOSIG
METAR WADD 050030Z 10008KT 9999 SCT016 29/26 Q1010 NOSIG
METAR WADD 050000Z 10007KT 9999 FEW017 29/26 Q1010 NOSIG
METAR WADD 042330Z 10005KT 9999 FEW017 28/26 Q1009 NOSIG
METAR WADD 042300Z 09005KT 9999 FEW017 27/26 Q1009 NOSIG
METAR WADD 042230Z 10005KT 9999 FEW017 27/26 Q1009 NOSIG
METAR WADD 042200Z 09005KT 9999 FEW017 27/26 Q1009 NOSIG
METAR WADD 042130Z 09006KT 9999 FEW017 27/25 Q1009 NOSIG
METAR WADD 042100Z 10006KT 9999 FEW017 27/26 Q1008 NOSIG
METAR WADD 042030Z 09005KT 9999 FEW017 27/25 Q1008 NOSIG
METAR WADD 042000Z 08006KT 9999 FEW017 27/25 Q1008 NOSIG
METAR WADD 041930Z 08007KT 9999 FEW016CB SCT017 27/26 Q1008 NOSIG
METAR WADD 041900Z 08008KT 9999 FEW016CB SCT017 27/26 Q1008 NOSIG
METAR WADD 041830Z 10007KT 9999 FEW016CB SCT017 27/26 Q1008 NOSIG
METAR WADD 041800Z 10005KT 9999 FEW016CB SCT017 27/26 Q1009 NOSIG
METAR WADD 041730Z 11007KT 9999 FEW016CB SCT017 28/26 Q1009 NOSIG
METAR WADD 041700Z 10007KT 9999 FEW016CB SCT017 28/26 Q1009 NOSIG
METAR WADD 041630Z 11006KT 9999 FEW016CB SCT017 28/26 Q1010 NOSIG
METAR WADD 041600Z 09005KT 9999 FEW016CB SCT017 28/26 Q1010 NOSIG
METAR WADD 041530Z 08005KT 9999 FEW016CB SCT017 27/26 Q1010 NOSIG
METAR WADD 041500Z 09005KT 9999 FEW016CB SCT017 28/26 Q1010 NOSIG
METAR WADD 041430Z 11005KT 9999 FEW016CB SCT017 28/26 Q1010 NOSIG</description><pubDate>Sun, 05 Apr 2026 14:06:49 </pubDate></item></channel></rss>