<rss version="2.0"><channel><title>Aviation Weather METAR Data for WADD</title><link>https://aviationweather.gov/api/data/metar?ids=WADD&amp;hours=24</link><description>Latest METAR data for WADD</description><item><title>2026-05-01 07:50:25Z</title><link>https://aviationweather.gov/api/data/metar?ids=WADD&amp;hours=24</link><description>METAR WADD 010730Z 12016KT 9999 SCT016 30/26 Q1008 NOSIG
METAR WADD 010700Z 13014KT 9999 SCT016 30/26 Q1008 RERA NOSIG
METAR WADD 010630Z 11014KT 8000 -RA SCT016 30/26 Q1009 TEMPO TL0730 -RA
METAR WADD 010600Z 11014KT 9999 SCT016 31/26 Q1009 NOSIG
METAR WADD 010530Z 11012KT 9999 SCT016 31/26 Q1009 NOSIG
METAR WADD 010500Z 12015KT 9999 FEW015CB SCT016 31/26 Q1010 NOSIG
METAR WADD 010430Z 10014KT 9999 FEW017 31/26 Q1010 NOSIG
METAR WADD 010400Z 11010KT 9999 FEW017 31/26 Q1011 NOSIG
METAR WADD 010330Z 12013KT 9999 FEW017 30/26 Q1011 NOSIG
METAR WADD 010300Z 11013KT 9999 FEW017 29/26 Q1011 NOSIG
METAR WADD 010230Z 10010KT 9999 FEW016 31/26 Q1011 NOSIG
METAR WADD 010200Z 10010KT 9999 FEW016 30/26 Q1011 NOSIG
METAR WADD 010130Z 10008KT 9999 SCT016 30/26 Q1012 NOSIG
METAR WADD 010100Z 09009KT 9999 FEW017 29/26 Q1012 NOSIG
METAR WADD 010030Z 08007KT 9999 FEW016CB SCT016 29/26 Q1011 NOSIG
METAR WADD 010000Z 06008KT 9999 FEW016CB SCT016 27/26 Q1011 NOSIG
METAR WADD 302330Z 05008KT 9999 FEW016CB SCT016 27/26 Q1011 NOSIG
METAR WADD 302300Z 08004KT 9999 FEW016CB BKN016 27/26 Q1010 RETS NOSI G
METAR WADD 302230Z 06003KT 9999 TS FEW016CB BKN016 27/26 Q1010 TEMPO TL2330 TS
METAR WADD 302200Z 04004KT 9999 TS FEW016CB BKN016 26/26 Q1010 TEMPO TL2300 TS
METAR WADD 302130Z 09004KT 9999 FEW016CB SCT016 26/26 Q1010 NOSIG
METAR WADD 302100Z VRB02KT 9999 FEW016CB SCT016 26/26 Q1010 NOSIG
METAR WADD 302000Z 10004KT 9999 TS FEW016CB BKN016 26/25 Q1009 RERA N OSIG
METAR WADD 301930Z 05006KT 6000 -TSRA FEW015CB BKN015 25/25 Q1010 TEM PO TL20030 6000 -TSRA RMK CB IN APCH
SPECI WADD 301905Z 09017KT 1000 +TSRA FEW015CB BKN015 26/25 Q1010 TEMPO TL2005 1000 +RA RMK CB IN APCH AND CLIMB-OUT
METAR WADD 301900Z 11014KT 1000 +RA FEW015CB BKN015 27/26 Q1010 TEMPO TL2000 1000 +RA RMK CB IN APCH AND CLIMB-OUT
SPECI WADD 301843Z 10006KT 1000 +RA FEW015CB BKN015 28/26 Q1010 TEMPO TL1943 1000 +RA RMK CB IN CLIMB-OUT
SPECI WADD 301838Z 14004KT 3000 RA FEW016CB BKN016 28/26 Q1010 TEMPO TL1938 3000 RA
METAR WADD 301830Z 14004KT 9999 FEW016CB SCT016 28/26 Q1010 NOSIG
METAR WADD 301800Z 14004KT 9999 FEW016CB SCT016 27/26 Q1010 NOSIG
METAR WADD 301730Z 13005KT 9999 FEW016CB SCT016 27/25 Q1010 NOSIG
METAR WADD 301700Z 14009KT 9999 FEW016CB SCT016 27/25 Q1011 RETS NOSI G
METAR WADD 301630Z 13014KT 9999 TS FEW016CB SCT016 27/26 Q1011 TEMPO TL1730 TS
METAR WADD 301600Z 12006KT 9999 TS FEW016CB SCT016 27/25 Q1011 TEMPO TL1700 TS
SPECI WADD 301545Z 09004KT 9999 TS FEW016CB SCT016 27/25 Q1011 TEMPO TL1645 TS
METAR WADD 301530Z 09006KT 9999 FEW016CB SCT016 27/25 Q1011 NOSIG
METAR WADD 301500Z 12010KT 9999 FEW016CB SCT016 28/26 Q1011 NOSIG
METAR WADD 301430Z 13009KT 9999 FEW016CB SCT016 28/27 Q1011 NOSIG
METAR WADD 301400Z 13010KT 9999 SCT016 29/26 Q1011 NOSIG
METAR WADD 301330Z 13010KT 9999 SCT016 29/27 Q1011 NOSIG
METAR WADD 301300Z 13008KT 9999 SCT016 29/27 Q1010 NOSIG
METAR WADD 301230Z 13007KT 9999 SCT016 29/26 Q1010 NOSIG
METAR WADD 301200Z 13007KT 9999 SCT016 29/26 Q1010 NOSIG
METAR WADD 301130Z 13008KT 9999 SCT016 29/26 Q1009 NOSIG
METAR WADD 301100Z 13009KT 9999 SCT016 29/26 Q1009 NOSIG
METAR WADD 301030Z 13010KT 9999 SCT016 29/26 Q1008 NOSIG
METAR WADD 301000Z 12011KT 9999 SCT016 29/26 Q1008 NOSIG
METAR WADD 300930Z 13013KT 9999 SCT016 29/26 Q1008 NOSIG
METAR WADD 300900Z 13012KT 9999 SCT016 30/27 Q1008 NOSIG
METAR WADD 300830Z 13013KT 9999 SCT016 30/26 Q1007 NOSIG
METAR WADD 300800Z 13013KT 9999 SCT016 30/27 Q1007 NOSIG</description><pubDate>Fri, 01 May 2026 07:50:25 </pubDate></item></channel></rss>