<rss version="2.0"><channel><title>Aviation Weather METAR Data for WADD</title><link>https://aviationweather.gov/api/data/metar?ids=WADD&amp;hours=24</link><description>Latest METAR data for WADD</description><item><title>2025-05-08 22:44:15Z</title><link>https://aviationweather.gov/api/data/metar?ids=WADD&amp;hours=24</link><description>WADD 082200Z 01004KT 9999 FEW015CB SCT016 25/25 Q1008 NOSIG
WADD 082100Z 01004KT 9999 BKN016 26/26 Q1008 NOSIG
WADD 082030Z 07004KT 9999 BKN016 26/26 Q1008 NOSIG
WADD 082000Z VRB02KT 9999 FEW014CB BKN016 26/26 Q1008 NOSIG RMK CB IN CLIMB-OUT
WADD 081930Z VRB02KT 9999 SCT017 26/26 Q1008 NOSIG
WADD 081900Z 06003KT 9999 SCT017 26/26 Q1008 NOSIG
WADD 081830Z 05003KT 9999 SCT017 26/26 Q1008 NOSIG
WADD 081800Z 08003KT 9999 FEW017 26/26 Q1008 NOSIG
WADD 081700Z 05004KT 020V090 9999 FEW017 26/26 Q1009 NOSIG
WADD 081600Z 05006KT 9999 FEW017 26/25 Q1009 NOSIG
WADD 081530Z 04006KT 9999 FEW017 27/26 Q1009 NOSIG
WADD 081500Z 11009KT 9999 FEW017 27/26 Q1009 NOSIG
WADD 081430Z 11005KT 9999 FEW017 27/26 Q1009 NOSIG
WADD 081400Z 10005KT 9999 FEW017 27/26 Q1009 NOSIG
WADD 081300Z 12005KT 9999 FEW017 28/26 Q1009 NOSIG
WADD 081230Z 11007KT 9999 FEW017 28/26 Q1009 NOSIG
WADD 081130Z 06005KT 020V090 9999 SCT017 28/25 Q1008 NOSIG
WADD 081100Z VRB01KT 9999 SCT017 28/26 Q1007 NOSIG
WADD 080930Z 35006KT 300V020 9999 SCT016 29/26 Q1006 NOSIG
WADD 080900Z 32008KT 9999 SCT016 29/27 Q1006 NOSIG
WADD 080830Z 33006KT 300V010 9999 FEW015CB SCT016 28/26 Q1006 NOSIG
WADD 080730Z 12008KT 9999 SCT017 29/27 Q1005 NOSIG
WADD 080700Z 10011KT 9999 SCT016 29/27 Q1006 NOSIG
WADD 080630Z 09010KT 9999 SCT016 29/28 Q1006 NOSIG
WADD 080600Z 11012KT 9999 SCT016 29/27 Q1006 NOSIG
WADD 080530Z 10013KT 9999 SCT016 30/27 Q1006 NOSIG
WADD 080500Z 10009KT 9999 SCT016 30/27 Q1007 NOSIG
WADD 072300Z 08003KT 9999 SCT017 26/26 Q1008 NOSIG</description><pubDate>Thu, 08 May 2025 22:44:15 </pubDate></item></channel></rss>