<rss version="2.0"><channel><title>Aviation Weather METAR Data for WADD</title><link>https://aviationweather.gov/api/data/metar?ids=WADD&amp;hours=24</link><description>Latest METAR data for WADD</description><item><title>2025-02-26 23:40:38Z</title><link>https://aviationweather.gov/api/data/metar?ids=WADD&amp;hours=24</link><description>WADD 262330Z 05008KT 010V090 9999 FEW015CB BKN015 26/26 Q1012 RERA NOSIG
WADD 262300Z 11005KT 070V140 8000 -RA FEW014CB BKN015 26/24 Q1012 TEMPO TL2400 -RA RMK CB IN APCH
WADD 262230Z VRB04KT 9999 FEW015CB SCT016 25/24 Q1011 NOSIG
WADD 262200Z VRB02KT 9999 FEW015CB SCT016 25/24 Q1011 NOSIG
WADD 262130Z VRB03KT 9999 SCT016 25/24 Q1011 NOSIG
WADD 262100Z 02003KT 9999 SCT016 25/23 Q1011 NOSIG
WADD 262030Z VRB02KT 9999 SCT016 25/24 Q1010 NOSIG
WADD 262000Z 01003KT 9999 SCT016 25/24 Q1010 NOSIG
WADD 261930Z 04002KT 9999 FEW017 25/25 Q1010 NOSIG
WADD 261900Z VRB01KT 9999 FEW017 25/24 Q1010 NOSIG
WADD 261830Z 10002KT 9999 FEW017 26/24 Q1011 NOSIG
WADD 261800Z VRB01KT 9999 FEW017 26/24 Q1011 NOSIG
WADD 261730Z VRB01KT 9999 FEW017 26/25 Q1011 NOSIG
WADD 261700Z VRB02KT 9999 FEW017 26/24 Q1011 NOSIG
WADD 261630Z VRB02KT 9999 FEW017 26/24 Q1011 NOSIG
WADD 261600Z VRB03KT 9999 FEW017 27/24 Q1012 NOSIG
WADD 261530Z VRB02KT 9999 SCT016 26/24 Q1012 NOSIG
WADD 261500Z 01003KT 9999 SCT016 26/25 Q1012 NOSIG
WADD 261430Z VRB01KT 9999 SCT016 27/26 Q1012 NOSIG
WADD 261400Z VRB03KT 9999 SCT016 27/26 Q1012 NOSIG
WADD 261330Z VRB02KT 9999 SCT016 27/26 Q1012 NOSIG
WADD 261300Z VRB01KT 9999 SCT016 27/25 Q1012 NOSIG
WADD 261230Z 33004KT 300V360 9999 SCT016 28/25 Q1011 NOSIG
WADD 261200Z 31005KT 9999 FEW017 27/25 Q1011 NOSIG
WADD 261130Z 30006KT 9999 FEW016 27/25 Q1010 NOSIG
WADD 261100Z 31006KT 9999 FEW016 27/26 Q1010 NOSIG
WADD 261030Z 32005KT 9999 SCT016 27/26 Q1010 NOSIG
WADD 261000Z 35005KT 300V020 9999 SCT016 27/26 Q1009 NOSIG
WADD 260930Z 03005KT 350V070 9999 SCT016 27/26 Q1009 NOSIG
WADD 260900Z 05004KT 340V090 9999 FEW015CB SCT016 27/26 Q1009 RERA NOSIG
WADD 260830Z 01004KT 320V060 9000 -RA FEW015CB BKN015 27/26 Q1009 TEMPO TL0900 9000 -RA
WADD 260800Z 10003KT 3000 -RA FEW015CB BKN015 27/26 Q1010 TEMPO TL0900 4000 -RA
WADD 260730Z 25004KT 210V290 9999 FEW015CB SCT015 29/26 Q1010 RETS NOSIG RMK CB IN APCH
WADD 260700Z 26008KT 9999 FEW015CB SCT016 30/26 Q1010 NOSIG RMK CB IN APCH
WADD 260630Z 25009KT 9999 FEW015CB SCT016 29/26 Q1010 RERA NOSIG RMK CB IN APCH
WADD 260600Z 26012KT 9999 FEW015CB SCT016 30/27 Q1010 NOSIG
WADD 260530Z 26011KT 9999 SCT016 30/27 Q1011 NOSIG
WADD 260500Z 26009KT 9999 SCT016 30/26 Q1011 NOSIG
WADD 260430Z 25007KT 210V270 9999 SCT016 30/26 Q1012 NOSIG
WADD 260400Z 25008KT 200V280 9999 FEW015CB SCT016 30/26 Q1012 NOSIG
WADD 260330Z 25008KT 220V280 9999 FEW015CB SCT016 30/26 Q1013 NOSIG
WADD 260300Z 27008KT 9999 FEW015CB SCT016 30/26 Q1013 NOSIG
WADD 260230Z 29007KT 9999 FEW015CB SCT016 29/25 Q1013 NOSIG
WADD 260200Z 28006KT 260V330 9999 SCT016 30/26 Q1013 NOSIG
WADD 260130Z 26005KT 250V330 9999 SCT016 29/26 Q1013 NOSIG
WADD 260100Z 29005KT 240V320 9999 SCT016 28/25 Q1013 NOSIG
WADD 260030Z 28004KT 9999 SCT016 28/25 Q1013 NOSIG
WADD 260000Z 32004KT 9999 SCT016 27/25 Q1013 NOSIG</description><pubDate>Wed, 26 Feb 2025 23:40:38 </pubDate></item></channel></rss>