<rss version="2.0"><channel><title>Aviation Weather METAR Data for WADD</title><link>https://aviationweather.gov/api/data/metar?ids=WADD&amp;hours=24</link><description>Latest METAR data for WADD</description><item><title>2025-07-01 16:34:46Z</title><link>https://aviationweather.gov/api/data/metar?ids=WADD&amp;hours=24</link><description>WADD 011600Z 11011KT 9999 SCT016 27/25 Q1012 NOSIG
WADD 011530Z 11009KT 9999 SCT016 27/25 Q1012 NOSIG
WADD 011500Z 10009KT 9999 FEW016 27/25 Q1012 NOSIG
WADD 011430Z 12010KT 9999 SCT016 27/25 Q1012 NOSIG
WADD 011400Z 11009KT 9999 SCT016 27/25 Q1013 NOSIG
WADD 011330Z 11007KT 9999 SCT016 27/25 Q1013 NOSIG
WADD 011300Z 11009KT 9999 FEW017 27/25 Q1012 NOSIG
WADD 011230Z 11011KT 9999 FEW017 27/24 Q1012 NOSIG
WADD 011200Z 12012KT 9999 FEW017 27/25 Q1012 NOSIG
WADD 011130Z 12011KT 9999 SCT016 27/25 Q1011 NOSIG
WADD 011100Z 12014KT 9999 SCT016 27/25 Q1011 NOSIG
WADD 011030Z 13013KT 9999 SCT016 27/25 Q1011 NOSIG
WADD 011000Z 12012KT 9999 SCT017 27/25 Q1010 NOSIG
WADD 010930Z 12016KT 9999 FEW017 28/25 Q1010 NOSIG
WADD 010900Z 12015KT 9999 FEW017 28/25 Q1010 NOSIG
WADD 010830Z 12014KT 9999 FEW017 28/25 Q1010 NOSIG
WADD 010800Z 11016KT 9999 FEW017 29/25 Q1010 NOSIG
WADD 010730Z 12016KT 9999 FEW017 29/25 Q1009 NOSIG
WADD 010700Z 12016KT 9999 FEW017 29/25 Q1009 NOSIG
WADD 010630Z 11016KT 9999 FEW017 29/25 Q1010 NOSIG
WADD 010600Z 12015KT 9999 SCT016 29/25 Q1010 NOSIG
WADD 010530Z 12017KT 9999 FEW017 29/25 Q1010 NOSIG
WADD 010500Z 11014KT 9999 FEW017 29/25 Q1011 NOSIG
WADD 010430Z 11013KT 9999 FEW017 29/25 Q1011 NOSIG
WADD 010400Z 10014KT 9999 FEW017 29/25 Q1011 NOSIG
WADD 010330Z 12014KT 9999 FEW017 29/25 Q1012 NOSIG
WADD 010300Z 11011KT 080V140 9999 FEW017 29/25 Q1012 NOSIG
WADD 010230Z 12008KT 080V140 9999 SCT017 28/24 Q1012 NOSIG
WADD 010200Z 11006KT 070V160 9999 SCT017 29/25 Q1012 NOSIG
WADD 010130Z 11006KT 070V130 9999 SCT017 28/25 Q1012 NOSIG
WADD 010100Z 08006KT 9999 FEW017 28/25 Q1012 NOSIG
WADD 010030Z 07005KT 040V110 9999 FEW017 27/24 Q1012 NOSIG
WADD 302330Z 09007KT 9999 FEW017 26/25 Q1011 NOSIG
WADD 302300Z 04005KT 9999 FEW017 24/23 Q1011 NOSIG
WADD 302230Z 09004KT 9999 FEW017 25/25 Q1011 NOSIG
WADD 302200Z 11005KT 9999 FEW017 26/25 Q1011 NOSIG
WADD 302130Z 11006KT 9999 FEW017 26/25 Q1011 NOSIG
WADD 302100Z 10007KT 9999 FEW017 26/24 Q1011 NOSIG
WADD 302030Z 09007KT 9999 FEW017 25/24 Q1011 NOSIG
WADD 302000Z 09006KT 9999 FEW017 25/24 Q1010 NOSIG
WADD 301930Z 09007KT 9999 FEW017 25/24 Q1010 NOSIG
WADD 301900Z 10008KT 9999 FEW017 26/25 Q1010 NOSIG
WADD 301830Z 10011KT 9999 FEW017 26/25 Q1010 NOSIG
WADD 301800Z 11013KT 9999 FEW017 26/25 Q1010 NOSIG
WADD 301730Z 11013KT 9999 FEW017 26/25 Q1010 NOSIG
WADD 301700Z 11015KT 9999 FEW017 26/25 Q1010 NOSIG</description><pubDate>Tue, 01 Jul 2025 16:34:46 </pubDate></item></channel></rss>