<rss version="2.0"><channel><title>Aviation Weather METAR Data for WADD</title><link>https://aviationweather.gov/api/data/metar?ids=WADD&amp;hours=24</link><description>Latest METAR data for WADD</description><item><title>2025-02-05 08:44:30Z</title><link>https://aviationweather.gov/api/data/metar?ids=WADD&amp;hours=24</link><description>WADD 050830Z 25007KT 9999 FEW017 32/26 Q1002 NOSIG
WADD 050800Z 24007KT 9999 FEW017 32/26 Q1002 NOSIG
WADD 050730Z 25009KT 9999 FEW017 33/26 Q1002 NOSIG
WADD 050700Z 25008KT 9999 FEW017 33/27 Q1002 NOSIG
WADD 050630Z 27009KT 9999 FEW017 33/27 Q1002 NOSIG
WADD 050600Z 29012KT 9999 FEW017 34/25 Q1003 NOSIG
WADD 050530Z 29011KT 9999 FEW017 34/25 Q1003 NOSIG
WADD 050500Z 28009KT 240V350 9999 FEW017 33/26 Q1003 NOSIG
WADD 050430Z 26009KT 210V310 9999 FEW017 33/27 Q1004 NOSIG
WADD 050400Z 24005KT 9999 FEW017 32/28 Q1004 NOSIG
WADD 050330Z 19003KT 9999 FEW016 32/28 Q1005 NOSIG
WADD 050300Z 13005KT 090V160 9999 FEW016 32/28 Q1005 NOSIG
WADD 050230Z 12007KT 9999 FEW016 31/28 Q1005 NOSIG
WADD 050200Z 12005KT 9999 FEW016 30/27 Q1006 NOSIG
WADD 050130Z 13004KT 090V170 9999 29/28 Q1006 NOSIG
WADD 050101Z 13003KT 9999 FEW016 29/28 Q1007 NOSIG
WADD 050030Z 10004KT 350V130 9999 FEW016 29/28 Q1007 NOSIG
WADD 050000Z 04005KT 340V060 9999 FEW016 28/27 Q1006 NOSIG
WADD 042330Z 08005KT 9999 FEW016 28/27 Q1006 NOSIG
WADD 042300Z 07006KT 9999 SCT016 27/27 Q1005 NOSIG
WADD 042230Z VRB02KT 9999 SCT016 28/27 Q1005 NOSIG
WADD 042200Z 08006KT 9999 SCT016 27/26 Q1004 NOSIG
WADD 042130Z 32008KT 300V110 9999 FEW015CB BKN016 27/26 Q1004 NOSIG
WADD 042100Z 15008G19KT 140V240 9999 FEW015CB BKN016 28/27 Q1004 NOSIG
WADD 042030Z 09003KT 9999 FEW015CB BKN016 28/27 Q1004 NOSIG
WADD 042000Z 09003KT 9999 SCT016 28/27 Q1005 NOSIG
WADD 041930Z 02003KT 9999 SCT016 28/27 Q1005 NOSIG
WADD 041900Z 06002KT 9999 SCT016 27/27 Q1005 NOSIG
WADD 041830Z 08003KT 9999 SCT016 28/27 Q1005 NOSIG
WADD 041800Z 07004KT 9999 SCT016 28/27 Q1005 NOSIG
WADD 041730Z 09003KT 9999 SCT016 28/27 Q1006 NOSIG
WADD 041700Z 11003KT 9999 SCT016 28/27 Q1006 NOSIG
WADD 041630Z 11003KT 9999 FEW015CB BKN016 28/27 Q1006 RERA NOSIG
WADD 041600Z 08004KT 060V140 8000 -RA FEW015CB BKN016 27/26 Q1007 TEMPO TL1700 -RA
WADD 041530Z 19010KT 8000 -RA FEW015CB BKN016 30/28 Q1007 TEMPO TL1630 -RA
WADD 041500Z 15004KT 9999 FEW017 30/28 Q1007 NOSIG
WADD 041430Z 14003KT 9999 FEW017 30/28 Q1007 NOSIG
WADD 041400Z 13004KT 9999 FEW017 30/28 Q1006 NOSIG
WADD 041330Z 15006KT 9999 FEW017 30/28 Q1007 NOSIG
WADD 041300Z 17009KT 9999 FEW017 30/28 Q1006 NOSIG
WADD 041230Z 16008KT 9999 FEW017 30/28 Q1006 NOSIG
WADD 041200Z 18010KT 9999 FEW017 30/28 Q1006 NOSIG
WADD 041130Z 16008KT 9999 SCT017 30/27 Q1005 NOSIG
WADD 041100Z 14009KT 9999 SCT017 31/27 Q1004 NOSIG
WADD 041030Z 16009KT 9999 SCT017 31/27 Q1004 NOSIG
WADD 041000Z 16006KT 9999 FEW017 32/27 Q1004 NOSIG
WADD 040930Z 13006KT 9999 FEW017 32/25 Q1004 NOSIG
WADD 040900Z 14006KT 070V220 9999 FEW017 32/25 Q1004 NOSIG</description><pubDate>Wed, 05 Feb 2025 08:44:30 </pubDate></item></channel></rss>