<rss version="2.0"><channel><title>Aviation Weather METAR Data for WADD</title><link>https://aviationweather.gov/api/data/metar?ids=WADD&amp;hours=24</link><description>Latest METAR data for WADD</description><item><title>2026-01-06 20:33:14Z</title><link>https://aviationweather.gov/api/data/metar?ids=WADD&amp;hours=24</link><description>METAR WADD 062000Z 31007KT 9999 FEW014CB BKN014 26/25 Q1008 RERA NOSI G
METAR WADD 061930Z 26006KT 230V310 8000 -RA FEW014CB BKN014 27/25 Q1009 TEMPO TL2000 8000 -RA
METAR WADD 061900Z 04004KT 8000 -RA FEW014CB BKN014 26/26 Q1009 TEMPO TL2000 8000 -RA
METAR WADD 061830Z 12004KT 060V170 5000 RA FEW014CB BKN014 26/26 Q1009 TEMPO TL1930 5000 RA
METAR WADD 061800Z 01003KT 5000 RA FEW014CB BKN014 25/25 Q1009 TEMPO TL1830 5000 RA
METAR WADD 061730Z 32009G16KT 280V010 5000 RA FEW014CB BKN015 26/24 Q1009 TEMPO TL1830 5000 RA
METAR WADD 061700Z 28005KT 260V330 8000 -RA SCT015 27/26 Q1009 TEMPO TL1800 8000 -RA
METAR WADD 061630Z 31006KT 260V350 9999 FEW016 28/25 Q1009 NOSIG
METAR WADD 061600Z 28009KT 9999 FEW016 28/25 Q1010 NOSIG
METAR WADD 061530Z 28010KT 9999 FEW016 28/25 Q1010 NOSIG
METAR WADD 061500Z 27007KT 9999 FEW016 28/25 Q1010 NOSIG
METAR WADD 061430Z 31007KT 9999 FEW016 28/25 Q1010 NOSIG
METAR WADD 061400Z 33005KT 290V020 9999 FEW016 28/24 Q1010 NOSIG
METAR WADD 061330Z 32006KT 290V350 9999 FEW016 28/24 Q1010 NOSIG
METAR WADD 061300Z 32008KT 9999 FEW016 28/24 Q1010 NOSIG
METAR WADD 061230Z 32008KT 9999 FEW016 28/24 Q1009 NOSIG
METAR WADD 061200Z 32008KT 9999 FEW016 28/24 Q1009 NOSIG
METAR WADD 061130Z 31009KT 9999 SCT016 28/25 Q1009 NOSIG
METAR WADD 061100Z 29013KT 9999 SCT016 28/25 Q1009 NOSIG
METAR WADD 061030Z 29012KT 9999 SCT016 28/25 Q1008 NOSIG
METAR WADD 061000Z 28013KT 9999 SCT016 28/25 Q1008 NOSIG
METAR WADD 060930Z 27012KT 9999 BKN016 28/24 Q1008 NOSIG
METAR WADD 060900Z 28011KT 9999 BKN016 28/26 Q1008 NOSIG
METAR WADD 060830Z 25009KT 9999 FEW015CB BKN016 28/26 Q1008 RERA NOSI G
METAR WADD 060800Z 25009KT 8000 -RA FEW015CB BKN016 27/26 Q1007 TEMPO TL0900 -RA
METAR WADD 060730Z 25010KT 9999 FEW015CB BKN016 27/25 Q1008 NOSIG
METAR WADD 060700Z 25012KT 9999 FEW014CB BKN014 27/25 Q1008 NOSIG
METAR WADD 060630Z 26015KT 9999 FEW013CB BKN014 27/25 Q1008 RERA NOSI G
METAR WADD 060600Z 27019KT 7000 -RA FEW014CB BKN015 27/26 Q1008 TEMPO TL0700 -RA
METAR WADD 060530Z 27018KT 6000 -RA FEW014CB BKN015 27/26 Q1008 TEMPO TL0630 -RA
METAR WADD 060500Z 29012KT 7000 -RA FEW014CB BKN015 28/27 Q1009 TEMPO TL0600 -RA
METAR WADD 060430Z 28016KT 8000 -RA FEW014CB SCT015 28/26 Q1009 TEMPO TL0530 -RA
METAR WADD 060400Z 28014KT 9999 SCT016 30/26 Q1009 NOSIG
METAR WADD 060330Z 29015KT 9999 SCT017 30/26 Q1009 NOSIG
METAR WADD 060300Z 29016KT 9999 SCT017 31/26 Q1009 NOSIG
METAR WADD 060230Z 29015KT 9999 SCT016 30/25 Q1010 NOSIG
METAR WADD 060200Z 28014KT 9999 SCT016 30/26 Q1010 NOSIG
METAR WADD 060130Z 28015KT 9999 FEW017 30/26 Q1010 NOSIG
METAR WADD 060100Z 29014KT 9999 FEW017 29/26 Q1010 NOSIG
METAR WADD 060030Z 30013KT 9999 SCT016 29/26 Q1010 NOSIG
METAR WADD 060000Z 27008KT 9999 BKN016 29/26 Q1010 NOSIG
METAR WADD 052330Z 28013KT 9999 BKN016 28/25 Q1010 RERA NOSIG
METAR WADD 052300Z 29015KT 6000 -RA FEW015CB BKN016 27/25 Q1010 TEMPO TL2400 6000 -RA RMK CB IN APCH
METAR WADD 052230Z 29015KT 8000 -RA FEW015CB BKN016 26/24 Q1009 TEMPO TL2330 -RA
METAR WADD 052200Z 29008KT 8000 -RA FEW015CB BKN016 26/25 Q1009 TEMPO TL2300 -RA
METAR WADD 052130Z 28009KT 8000 -RA BKN016 27/25 Q1009 TEMPO TL2230 -RA
METAR WADD 052100Z 28014KT 8000 -RA BKN016 27/25 Q1009 TEMPO TL2200 -RA</description><pubDate>Tue, 06 Jan 2026 20:33:14 </pubDate></item></channel></rss>