<rss version="2.0"><channel><title>Aviation Weather METAR Data for WADD</title><link>https://aviationweather.gov/api/data/metar?ids=WADD&amp;hours=24</link><description>Latest METAR data for WADD</description><item><title>2025-10-19 18:47:08Z</title><link>https://aviationweather.gov/api/data/metar?ids=WADD&amp;hours=24</link><description>METAR WADD 191830Z 31002KT 9999 SCT016 28/26 Q1006 NOSIG
METAR WADD 191800Z VRB02KT 9999 SCT016 27/26 Q1006 NOSIG
 WADD 191730Z 09004KT 9999 SCT016 28/26 Q1006 NOSIG
METAR WADD 191700Z 07005KT 9999 SCT016 28/26 Q1007 NOSIG
 WADD 191630Z 08004KT 9999 SCT016 28/26 Q1007 NOSIG
METAR WADD 191600Z 04004KT 010V080 9999 SCT016 28/26 Q1007 NOSIG
METAR WADD 191530Z 08006KT 9999 SCT016 28/26 Q1007 NOSIG
METAR WADD 191500Z 09007KT 9999 SCT016 28/27 Q1008 NOSIG
METAR WADD 191430Z 09007KT 9999 SCT016 28/27 Q1008 NOSIG
METAR WADD 191400Z 09006KT 9999 SCT016 28/27 Q1008 NOSIG
METAR WADD 191330Z 10006KT 9999 SCT016 28/27 Q1008 NOSIG
METAR WADD 191300Z 11006KT 9999 SCT016 29/27 Q1007 NOSIG
METAR WADD 191230Z 09006KT 9999 SCT016 28/26 Q1007 NOSIG
METAR WADD 191200Z 09006KT 9999 SCT016 28/26 Q1007 NOSIG
 WADD 191130Z 11006KT 9999 SCT016 28/26 Q1006 NOSIG
 WADD 191100Z 13007KT 9999 SCT016 29/26 Q1006 NOSIG
METAR WADD 191030Z 13007KT 9999 SCT016 29/27 Q1005 NOSIG
METAR WADD 191000Z 12008KT 9999 SCT016 29/26 Q1005 NOSIG
METAR WADD 190930Z 13008KT 9999 SCT016 30/26 Q1005 NOSIG
METAR WADD 190900Z 20004KT 9999 SCT016 30/27 Q1004 NOSIG
METAR WADD 190830Z 10007KT 9999 SCT016 29/26 Q1004 NOSIG
METAR WADD 190800Z 01004KT 330V080 9999 SCT016 28/27 Q1004 RERA NOSIG
METAR WADD 190730Z 01011KT 350V060 9000 -RA BKN016 26/25 Q1004 TEMPO TL0830 9000 -RA
METAR WADD 190700Z 17007KT 9999 TS FEW015CB BKN015 30/26 Q1004 TEMPO TL0800 TS
METAR WADD 190630Z 17009KT 9999 TS FEW015CB SCT015 30/27 Q1004 TEMPO TL0730 TS
METAR WADD 190600Z 23004KT 9999 SCT016 32/27 Q1004 NOSIG
METAR WADD 190530Z 17006KT 9999 SCT016 32/27 Q1004 NOSIG
METAR WADD 190500Z 16007KT 9999 SCT016 31/27 Q1005 NOSIG
METAR WADD 190430Z 24004KT 180V260 9999 FEW017 30/27 Q1005 NOSIG
METAR WADD 190400Z 25008KT 9999 FEW017 30/26 Q1006 NOSIG
METAR WADD 190330Z 19006KT 170V230 9999 FEW017 31/27 Q1006 NOSIG
METAR WADD 190300Z 12008KT 9999 FEW015CB SCT016 31/26 Q1006 NOSIG
METAR WADD 190230Z 11014KT 9999 FEW015CB SCT016 30/26 Q1007 NOSIG
METAR WADD 190200Z 11007KT 9999 FEW015CB BKN016 30/26 Q1007 NOSIG
METAR WADD 190130Z 11008KT 9999 FEW015CB SCT016 30/26 Q1007 NOSIG
METAR WADD 190100Z 14008KT 9999 SCT016 29/27 Q1007 NOSIG
METAR WADD 190030Z 10008KT 9999 SCT016 30/26 Q1007 NOSIG
METAR WADD 190000Z 13006KT 9999 SCT016 29/27 Q1007 NOSIG
METAR WADD 182330Z 14003KT 9999 SCT017 28/27 Q1006 NOSIG
METAR WADD 182300Z 13003KT 9999 SCT017 28/27 Q1006 NOSIG
METAR WADD 182230Z 12003KT 9999 SCT016 27/27 Q1006 NOSIG
METAR WADD 182200Z 13003KT 9999 SCT016 27/27 Q1005 NOSIG
METAR WADD 182130Z 14005KT 9999 SCT016 27/27 Q1005 NOSIG
METAR WADD 182100Z 12005KT 9999 SCT016 27/27 Q1005 NOSIG
METAR WADD 182030Z 11005KT 9999 SCT016 27/27 Q1005 NOSIG
METAR WADD 182000Z 13003KT 9999 SCT016 28/27 Q1005 NOSIG
METAR WADD 181930Z 13004KT 9999 SCT016 28/27 Q1005 NOSIG
METAR WADD 181900Z 13003KT 9999 SCT016 28/27 Q1005 NOSIG</description><pubDate>Sun, 19 Oct 2025 18:47:08 </pubDate></item></channel></rss>