<rss version="2.0"><channel><title>Aviation Weather METAR Data for WADD</title><link>https://aviationweather.gov/api/data/metar?ids=WADD&amp;hours=24</link><description>Latest METAR data for WADD</description><item><title>2026-03-27 14:31:43Z</title><link>https://aviationweather.gov/api/data/metar?ids=WADD&amp;hours=24</link><description>METAR WADD 271400Z 09004KT 9999 SCT016 28/26 Q1009 NOSIG
METAR WADD 271330Z 06004KT 9999 SCT016 29/25 Q1009 NOSIG
METAR WADD 271300Z 06006KT 9999 FEW016 29/25 Q1009 NOSIG
METAR WADD 271230Z 14004KT 090V160 9999 FEW016 29/25 Q1008 NOSIG
METAR WADD 271200Z 10003KT 9999 FEW016 29/24 Q1008 NOSIG
METAR WADD 271130Z 19004KT 9999 FEW016 29/25 Q1007 NOSIG
METAR WADD 271100Z 13005KT 9999 FEW016 29/25 Q1007 NOSIG
METAR WADD 271030Z 13005KT 9999 FEW016 30/25 Q1006 NOSIG
METAR WADD 271000Z 13008KT 9999 FEW016 30/25 Q1006 NOSIG
METAR WADD 270930Z 13009KT 9999 SCT016 30/25 Q1006 NOSIG
METAR WADD 270900Z 15009KT 9999 SCT016 30/26 Q1006 NOSIG
METAR WADD 270830Z 15005KT 110V170 9999 SCT016 32/27 Q1005 NOSIG
METAR WADD 270800Z 20005KT 180V240 9999 FEW015CB SCT016 33/27 Q1006 R ETS NOSIG
METAR WADD 270730Z 18006KT 150V220 9999 TS FEW015CB SCT016 33/27 Q1006 TEMPO TL0830 TS
SPECI WADD 270714Z 16010KT 9999 TS FEW015CB SCT016 32/27 Q1006 TEMPO TL0814 TS
METAR WADD 270700Z 16010KT 9999 FEW015CB SCT016 32/27 Q1006 NOSIG
METAR WADD 270630Z 14009KT 9999 FEW015CB SCT016 33/27 Q1006 NOSIG
METAR WADD 270600Z 14006KT 100V230 9999 FEW015CB SCT016 34/26 Q1007 N OSIG
METAR WADD 270530Z VRB06KT 9999 FEW015CB SCT016 34/26 Q1007 NOSIG
METAR WADD 270500Z 20004KT 100V280 9999 FEW017 33/26 Q1008 NOSIG
METAR WADD 270430Z VRB06KT 9999 FEW017 32/27 Q1008 NOSIG
METAR WADD 270400Z 25008KT 230V290 9999 FEW017 32/27 Q1008 NOSIG
METAR WADD 270330Z 26007KT 220V290 9999 FEW017 32/27 Q1009 NOSIG
METAR WADD 270300Z 24006KT 210V270 9999 FEW017 32/27 Q1009 NOSIG
METAR WADD 270230Z 25007KT 9999 FEW017 32/27 Q1009 NOSIG
METAR WADD 270200Z 22006KT 9999 FEW017 31/26 Q1009 NOSIG
METAR WADD 270130Z 21004KT 9999 FEW016 32/26 Q1009 NOSIG
METAR WADD 270100Z 07004KT 010V130 9999 FEW016 31/25 Q1009 NOSIG
METAR WADD 270030Z 04007KT 9999 FEW016 30/25 Q1009 NOSIG
METAR WADD 270000Z 04005KT 9999 SCT016 28/25 Q1009 NOSIG
METAR WADD 262330Z 07006KT 050V110 9999 SCT016 27/25 Q1009 NOSIG
METAR WADD 262300Z 08004KT 030V110 9999 SCT016 27/25 Q1009 NOSIG
METAR WADD 262230Z 10003KT 9999 SCT016 26/26 Q1008 NOSIG
METAR WADD 262200Z 11002KT 9999 SCT016 26/26 Q1008 NOSIG
METAR WADD 262130Z VRB01KT 9999 SCT016 26/26 Q1008 NOSIG
METAR WADD 262100Z VRB01KT 9999 SCT016 27/27 Q1008 NOSIG
METAR WADD 262030Z VRB01KT 9999 SCT016 26/26 Q1008 NOSIG
METAR WADD 262000Z VRB02KT 9999 SCT016 26/26 Q1008 NOSIG
METAR WADD 261930Z VRB01KT 9999 SCT016 26/26 Q1008 NOSIG
METAR WADD 261900Z 03002KT 9999 SCT016 26/26 Q1008 NOSIG
METAR WADD 261830Z 15001KT 9999 SCT016 26/26 Q1008 NOSIG
METAR WADD 261800Z VRB01KT 9999 SCT016 26/26 Q1008 NOSIG
METAR WADD 261730Z 07004KT 020V100 9999 SCT016 26/26 Q1008 NOSIG
METAR WADD 261700Z VRB01KT 9999 SCT016 26/26 Q1009 NOSIG
METAR WADD 261630Z VRB02KT 9999 SCT016 26/26 Q1009 NOSIG
METAR WADD 261600Z 14003KT 8000 BKN016 26/26 Q1010 NOSIG
METAR WADD 261530Z VRB02KT 6000 FEW015CB BKN016 26/26 Q1010 RETSRA NO SIG
METAR WADD 261500Z 22004KT 180V250 4000 -TSRA FEW014CB BKN015 26/26 Q 1011 TEMPO TL1500 4000 -TSRA RMK CB IN CLIMB-OUT</description><pubDate>Fri, 27 Mar 2026 14:31:43 </pubDate></item></channel></rss>