<rss version="2.0"><channel><title>Aviation Weather METAR Data for WADD</title><link>https://aviationweather.gov/api/data/metar?ids=WADD&amp;hours=24</link><description>Latest METAR data for WADD</description><item><title>2025-12-30 09:33:31Z</title><link>https://aviationweather.gov/api/data/metar?ids=WADD&amp;hours=24</link><description>METAR WADD 300900Z 24008KT 9999 SCT017 30/24 Q1006 NOSIG
METAR WADD 300830Z 22006KT 140V260 9999 FEW017 30/25 Q1005 NOSIG
METAR WADD 300800Z 23008KT 9999 FEW017 31/25 Q1005 NOSIG
METAR WADD 300730Z 25010KT 9999 FEW017 30/25 Q1005 NOSIG
METAR WADD 300700Z 26011KT 9999 FEW017 31/25 Q1006 NOSIG
METAR WADD 300630Z 26009KT 9999 FEW017 31/25 Q1006 NOSIG
METAR WADD 300600Z 26012KT 9999 FEW017 31/25 Q1006 NOSIG
METAR WADD 300530Z 26011KT 9999 FEW017 31/25 Q1006 NOSIG
METAR WADD 300500Z 25009KT 9999 FEW017 31/26 Q1007 NOSIG
METAR WADD 300430Z 26010KT 9999 FEW017 31/26 Q1007 NOSIG
METAR WADD 300400Z 25010KT 9999 FEW017 30/25 Q1008 NOSIG
METAR WADD 300330Z 26009KT 9999 SCT016 30/25 Q1008 NOSIG
METAR WADD 300300Z 26010KT 9999 SCT016 30/25 Q1008 NOSIG
METAR WADD 300230Z 26010KT 9999 SCT016 30/25 Q1008 NOSIG
METAR WADD 300200Z 25008KT 9999 SCT016 30/25 Q1008 NOSIG
METAR WADD 300130Z 26008KT 9999 SCT016 30/25 Q1009 NOSIG
METAR WADD 300100Z 25008KT 9999 SCT016 29/25 Q1009 NOSIG
METAR WADD 300030Z 26008KT 9999 SCT016 29/25 Q1008 NOSIG
METAR WADD 300000Z 25007KT 9999 SCT016 29/24 Q1008 NOSIG
METAR WADD 292330Z 26007KT 9999 SCT016 29/25 Q1008 NOSIG
METAR WADD 292300Z 26007KT 9999 SCT016 28/24 Q1008 NOSIG
METAR WADD 292230Z 26006KT 9999 BKN016 28/24 Q1008 NOSIG
METAR WADD 292200Z 25004KT 9999 BKN016 28/25 Q1007 NOSIG
METAR WADD 292130Z 25006KT 9999 SCT016 28/24 Q1007 NOSIG
METAR WADD 292100Z 25006KT 9999 SCT016 28/24 Q1007 NOSIG
METAR WADD 292030Z 23004KT 9999 SCT016 28/25 Q1007 NOSIG
METAR WADD 292000Z 23004KT 160V270 9999 SCT016 28/25 Q1007 NOSIG
METAR WADD 291930Z 25006KT 9999 SCT016 28/24 Q1006 NOSIG
METAR WADD 291900Z 23004KT 200V280 9999 SCT016 28/25 Q1007 NOSIG
METAR WADD 291830Z 22004KT 170V260 9999 SCT016 28/25 Q1007 NOSIG
METAR WADD 291800Z 23003KT 9999 SCT016 28/25 Q1007 NOSIG
METAR WADD 291730Z 23003KT 9999 SCT016 28/25 Q1007 NOSIG
METAR WADD 291700Z 23005KT 190V260 9999 SCT016 28/25 Q1007 NOSIG
METAR WADD 291630Z 23005KT 9999 SCT016 28/25 Q1008 NOSIG
METAR WADD 291600Z 23004KT 9999 SCT016 28/25 Q1008 NOSIG
METAR WADD 291530Z 22004KT 190V250 9999 SCT017 28/24 Q1009 NOSIG
METAR WADD 291500Z 23004KT 200V270 9999 SCT017 28/25 Q1009 NOSIG
METAR WADD 291430Z 24005KT 9999 SCT017 28/24 Q1009 NOSIG
METAR WADD 291400Z 22004KT 190V250 9999 SCT017 28/24 Q1009 NOSIG
METAR WADD 291330Z 23004KT 200V260 9999 SCT017 28/25 Q1009 NOSIG
METAR WADD 291300Z 23005KT 180V260 9999 SCT017 29/25 Q1009 NOSIG
METAR WADD 291230Z 23006KT 190V260 9999 SCT017 29/25 Q1009 NOSIG
METAR WADD 291200Z 23006KT 9999 SCT017 29/25 Q1008 NOSIG
METAR WADD 291130Z 23006KT 190V300 9999 SCT017 29/25 Q1008 NOSIG
METAR WADD 291100Z 24007KT 9999 SCT017 29/25 Q1008 NOSIG
METAR WADD 291030Z 25008KT 9999 SCT017 29/25 Q1007 NOSIG
METAR WADD 291000Z 25008KT 9999 SCT017 29/25 Q1007 NOSIG</description><pubDate>Tue, 30 Dec 2025 09:33:31 </pubDate></item></channel></rss>