<rss version="2.0"><channel><title>Aviation Weather METAR Data for WADD</title><link>https://aviationweather.gov/api/data/metar?ids=WADD&amp;hours=24</link><description>Latest METAR data for WADD</description><item><title>2026-02-04 20:00:33Z</title><link>https://aviationweather.gov/api/data/metar?ids=WADD&amp;hours=24</link><description>METAR WADD 041930Z 31007KT 9999 SCT016 27/25 Q1009 NOSIG
METAR WADD 041900Z 28012KT 9999 SCT016 27/24 Q1009 NOSIG
METAR WADD 041830Z 28010KT 9999 SCT016 27/24 Q1009 NOSIG
METAR WADD 041800Z 28012KT 9999 SCT016 27/24 Q1009 NOSIG
METAR WADD 041730Z 28011KT 9999 SCT016 27/25 Q1009 NOSIG
METAR WADD 041700Z 27011KT 9999 FEW015CB SCT016 27/24 Q1009 NOSIG
METAR WADD 041630Z 27012KT 9999 FEW015CB SCT016 27/24 Q1009 NOSIG
METAR WADD 041600Z 28013KT 9999 FEW015CB SCT016 27/24 Q1010 NOSIG
METAR WADD 041530Z 28013KT 9999 FEW015CB SCT016 27/24 Q1010 NOSIG
METAR WADD 041500Z 28013KT 9999 FEW014CB BKN015 27/25 Q1010 NOSIG RMK CB IN APCH
METAR WADD 041430Z 28012KT 9999 FEW014CB BKN015 27/25 Q1010 NOSIG RMK CB IN APCH
METAR WADD 041330Z 25008KT 9999 FEW014CB BKN015 27/25 Q1010 RERA NOSIG RMK CB IN APCH AND CLIMB-OUT
METAR WADD 041300Z 22003G14KT 6000 -RA FEW014CB BKN015 26/24 Q1010 TEMPO TL1400 6000 -RA RMK CB IN APCH
METAR WADD 041230Z 26007KT 9999 FEW015CB SCT016 28/24 Q1010 NOSIG
METAR WADD 041200Z 26008KT 9999 SCT016 28/25 Q1009 NOSIG
METAR WADD 041130Z 26007KT 9999 SCT015 28/25 Q1009 NOSIG
METAR WADD 041100Z 26008KT 9999 SCT015 28/25 Q1009 NOSIG
METAR WADD 041030Z 26009KT 9999 FEW016 28/25 Q1009 NOSIG
METAR WADD 041000Z 26010KT 9999 FEW016 29/25 Q1008 NOSIG
METAR WADD 040930Z 26010KT 9999 FEW016 29/25 Q1008 NOSIG
METAR WADD 040900Z 26007KT 9999 SCT016 29/25 Q1009 NOSIG
METAR WADD 040830Z 26011KT 9999 FEW016 30/25 Q1008 NOSIG
METAR WADD 040800Z 26011KT 9999 FEW016 30/25 Q1008 NOSIG
METAR WADD 040730Z 26012KT 9999 SCT016 31/25 Q1008 NOSIG
METAR WADD 040700Z 26012KT 9999 SCT016 31/25 Q1008 NOSIG
METAR WADD 040630Z 26012KT 9999 SCT016 31/25 Q1009 NOSIG
METAR WADD 040600Z 27013KT 9999 SCT016 31/25 Q1009 NOSIG
METAR WADD 040530Z 27019KT 8000 -RA FEW015CB BKN015 28/24 Q1010 TEMPO TL0630 8000 -RA RMK CB IN APCH AND CLIMB-OUT
METAR WADD 040500Z 26011KT 9999 SCT016 31/25 Q1009 NOSIG
METAR WADD 040430Z 26012KT 9999 SCT016 31/25 Q1010 NOSIG
METAR WADD 040400Z 26010KT 9999 SCT016 30/25 Q1010 NOSIG
METAR WADD 040330Z 26011KT 9999 SCT016 30/25 Q1010 NOSIG
METAR WADD 040300Z 26010KT 9999 SCT016 30/24 Q1010 NOSIG
METAR WADD 040230Z 26011KT 9999 SCT016 30/25 Q1011 NOSIG
METAR WADD 040200Z 25009KT 9999 SCT016 30/25 Q1011 NOSIG
METAR WADD 040130Z 26010KT 9999 SCT016 30/24 Q1011 NOSIG
METAR WADD 040030Z 24009KT 9999 SCT016 29/24 Q1011 NOSIG
METAR WADD 040000Z 25009KT 9999 FEW015CB SCT015 29/24 Q1010 NOSIG
METAR WADD 032330Z 24007KT 9999 SCT015 28/24 Q1010 NOSIG
METAR WADD 032300Z 25007KT 9999 SCT015 28/24 Q1010 NOSIG
METAR WADD 032230Z 26009KT 9999 SCT015 28/24 Q1010 NOSIG
METAR WADD 032200Z 26009KT 9999 SCT016 28/24 Q1010 NOSIG
METAR WADD 032130Z 26009KT 9999 SCT016 28/24 Q1009 NOSIG
METAR WADD 032100Z 25009KT 9999 SCT016 28/24 Q1009 NOSIG
METAR WADD 032030Z 27010KT 9999 FEW017 28/24 Q1009 NOSIG</description><pubDate>Wed, 04 Feb 2026 20:00:33 </pubDate></item></channel></rss>