<rss version="2.0"><channel><title>Aviation Weather METAR Data for WADD</title><link>https://aviationweather.gov/api/data/metar?ids=WADD&amp;hours=24</link><description>Latest METAR data for WADD</description><item><title>2025-12-12 08:39:13Z</title><link>https://aviationweather.gov/api/data/metar?ids=WADD&amp;hours=24</link><description>METAR WADD 120830Z 25009KT 9999 FEW015CB BKN016 30/25 Q1005 NOSIG
METAR WADD 120800Z 26011KT 9999 BKN016 30/26 Q1005 NOSIG
METAR WADD 120730Z 25010KT 9999 FEW015CB BKN016 30/25 Q1005 NOSIG
METAR WADD 120700Z 26010KT 9999 FEW015CB BKN016 30/25 Q1005 NOSIG
METAR WADD 120630Z 25010KT 9999 SCT016 30/25 Q1005 NOSIG
METAR WADD 120600Z 25009KT 210V270 9999 SCT016 30/25 Q1006 NOSIG
METAR WADD 120530Z 25009KT 9999 FEW017 30/25 Q1006 NOSIG
METAR WADD 120500Z 25009KT 210V280 9999 FEW017 30/25 Q1006 NOSIG
METAR WADD 120430Z 26011KT 9999 FEW017 30/25 Q1006 NOSIG
METAR WADD 120400Z 26011KT 9999 SCT017 30/25 Q1007 NOSIG
METAR WADD 120330Z 29011KT 9999 FEW017 30/24 Q1007 NOSIG
METAR WADD 120300Z 29011KT 9999 FEW017 31/25 Q1007 NOSIG
METAR WADD 120230Z 29012KT 9999 SCT017 30/24 Q1007 NOSIG
METAR WADD 120200Z 28013KT 9999 SCT017 30/24 Q1008 NOSIG
METAR WADD 120130Z 30010KT 9999 FEW017 30/24 Q1008 NOSIG
METAR WADD 120100Z 30009KT 9999 FEW017 30/24 Q1008 NOSIG
METAR WADD 120030Z 29008KT 9999 FEW017 30/24 Q1008 NOSIG
METAR WADD 120000Z 28010KT 9999 FEW017 29/24 Q1008 NOSIG
METAR WADD 112330Z 28012KT 9999 FEW017 29/24 Q1008 NOSIG
METAR WADD 112300Z 28010KT 9999 FEW017 28/24 Q1007 NOSIG
METAR WADD 112230Z 30005KT 9999 FEW017 27/24 Q1006 NOSIG
METAR WADD 112200Z 31005KT 9999 FEW017 27/23 Q1006 NOSIG
METAR WADD 112130Z 32005KT 9999 FEW017 27/23 Q1006 NOSIG
METAR WADD 112100Z 32007KT 9999 FEW016 27/24 Q1006 NOSIG
METAR WADD 112030Z 29010KT 9999 SCT016 28/24 Q1006 NOSIG
METAR WADD 112000Z 30008KT 9999 FEW017 28/25 Q1006 NOSIG
METAR WADD 111930Z 30008KT 9999 FEW017 27/25 Q1006 NOSIG
METAR WADD 111900Z 30006KT 9999 FEW017 27/24 Q1006 NOSIG
METAR WADD 111830Z 30007KT 9999 SCT016 27/25 Q1006 NOSIG
METAR WADD 111800Z 31008KT 9999 SCT017 27/24 Q1006 NOSIG
METAR WADD 111730Z 30008KT 9999 SCT016 28/24 Q1007 NOSIG
METAR WADD 111700Z 31008KT 9999 FEW016 27/24 Q1007 NOSIG
METAR WADD 111630Z 32009KT 9999 FEW016 27/24 Q1008 NOSIG
METAR WADD 111600Z 32008KT 9999 FEW016 27/25 Q1008 NOSIG
METAR WADD 111530Z 31007KT 9999 SCT016 27/25 Q1008 NOSIG
METAR WADD 111500Z 33005KT 300V360 9999 SCT016 27/25 Q1008 NOSIG
METAR WADD 111430Z 33005KT 9999 SCT016 27/24 Q1009 NOSIG
METAR WADD 111400Z 34005KT 290V030 9999 SCT016 27/25 Q1009 NOSIG
METAR WADD 111330Z 33005KT 280V360 9999 SCT016 27/25 Q1009 RERA NOSIG
METAR WADD 111300Z 34005KT 300V360 8000 -RA BKN016 26/25 Q1009 8000 T EMPO TL1400 -RA
METAR WADD 111230Z 33006KT 290V010 8000 -RA BKN016 26/25 Q1008 TEMPO TL1330 -RA
METAR WADD 111200Z 34007KT 300V360 7000 -RA FEW015CB BKN015 26/25 Q10 08 NOSIG
METAR WADD 111130Z 34005KT 310V020 8000 -RA FEW014CB BKN015 26/25 Q1008 TEMPO TL1230 -RA
METAR WADD 111100Z 30003KT 7000 -RA FEW014CB BKN015 26/25 Q1008 T EMPO TL1200 -RA
METAR WADD 111030Z 34004KT 260V020 6000 -RA FEW014CB BKN014 26/25 Q1008 TEMPO TL1130 -RA
METAR WADD 111000Z 29008KT 250V350 6000 -RA FEW014CB BKN014 27/24 Q10 07 TEMPO TL1100 -RA
METAR WADD 110930Z 26008KT 7000 -RA FEW014CB BKN015 29/24 Q1007 RETS TEMPO TL1030 -RA
METAR WADD 110900Z 25008KT 9999 TS FEW014CB BKN015 29/24 Q1007 TEMPO TL1000 TS</description><pubDate>Fri, 12 Dec 2025 08:39:13 </pubDate></item></channel></rss>