<rss version="2.0"><channel><title>Aviation Weather METAR Data for WADD</title><link>https://aviationweather.gov/api/data/metar?ids=WADD&amp;hours=24</link><description>Latest METAR data for WADD</description><item><title>2025-06-12 10:30:49Z</title><link>https://aviationweather.gov/api/data/metar?ids=WADD&amp;hours=24</link><description>WADD 121000Z 13017KT 9999 FEW017 28/25 Q1009 NOSIG
WADD 120930Z 12017KT 9999 FEW017 28/25 Q1009 NOSIG
WADD 120900Z 13016KT 9999 FEW017 28/25 Q1009 NOSIG
WADD 120830Z 13018KT 9999 FEW017 29/25 Q1009 NOSIG
WADD 120800Z 12018KT 9999 FEW017 29/25 Q1009 NOSIG
WADD 120730Z 12019KT 9999 FEW017 29/25 Q1009 NOSIG
WADD 120700Z 12017KT 9999 FEW017 30/25 Q1009 NOSIG
WADD 120630Z 11017KT 9999 FEW017 30/25 Q1009 NOSIG
WADD 120600Z 12017KT 9999 FEW017 29/25 Q1010 NOSIG
WADD 120530Z 12017KT 9999 FEW016 30/25 Q1010 NOSIG
WADD 120500Z 12017KT 9999 FEW016 30/25 Q1010 NOSIG
WADD 120430Z 12017KT 9999 FEW016 30/25 Q1011 NOSIG
WADD 120400Z 12017KT 9999 FEW017 30/25 Q1011 NOSIG
WADD 120330Z 12016KT 9999 FEW016 29/25 Q1011 NOSIG
WADD 120300Z 11016KT 9999 FEW016 30/25 Q1011 NOSIG
WADD 120230Z 11015KT 9999 SCT016 30/25 Q1011 NOSIG
WADD 120200Z 10012KT 9999 SCT016 30/25 Q1011 NOSIG
WADD 120130Z 10011KT 9999 FEW016 29/25 Q1011 NOSIG
WADD 120100Z 10007KT 060V130 9999 FEW016 29/25 Q1011 NOSIG
WADD 120030Z 06006KT 9999 SCT016 28/25 Q1011 NOSIG
WADD 120000Z 03004KT 9999 SCT016 27/24 Q1011 NOSIG
WADD 112330Z 04007KT 010V080 9999 FEW016 26/23 Q1011 NOSIG
WADD 112300Z 04004KT 9999 SCT016 25/23 Q1011 NOSIG
WADD 112230Z 01006KT 9999 SCT017 25/23 Q1010 NOSIG
WADD 112200Z 04003KT 9999 SCT017 25/23 Q1010 NOSIG
WADD 112130Z 10008KT 9999 SCT017 27/24 Q1010 NOSIG
WADD 112100Z 10008KT 9999 SCT017 27/24 Q1010 NOSIG
WADD 112030Z 11008KT 9999 FEW017 27/24 Q1010 NOSIG
WADD 112000Z 11009KT 9999 FEW017 27/24 Q1010 NOSIG
WADD 111930Z 12009KT 9999 FEW017 27/24 Q1010 NOSIG
WADD 111900Z 10009KT 9999 FEW017 27/23 Q1010 NOSIG
WADD 111830Z 10008KT 9999 FEW017 27/23 Q1010 NOSIG
WADD 111800Z 11009KT 9999 SCT017 27/23 Q1010 NOSIG
WADD 111730Z 12010KT 9999 SCT016 27/24 Q1010 NOSIG
WADD 111700Z 12009KT 9999 SCT017 27/24 Q1010 NOSIG
WADD 111630Z 12009KT 9999 FEW017 28/24 Q1011 NOSIG
WADD 111600Z 12008KT 9999 FEW017 28/24 Q1011 NOSIG
WADD 111530Z 13007KT 9999 FEW017 28/24 Q1011 NOSIG
WADD 111500Z 12009KT 9999 FEW017 28/24 Q1011 NOSIG
WADD 111430Z 13010KT 9999 SCT017 28/24 Q1011 NOSIG
WADD 111400Z 12010KT 9999 SCT017 28/24 Q1011 NOSIG
WADD 111330Z 13009KT 9999 SCT017 28/24 Q1011 NOSIG
WADD 111300Z 13008KT 9999 SCT017 28/24 Q1011 NOSIG
WADD 111230Z 13009KT 9999 FEW017 28/24 Q1011 NOSIG
WADD 111200Z 13009KT 9999 FEW017 28/24 Q1010 NOSIG
WADD 111130Z 13009KT 9999 FEW017 28/24 Q1010 NOSIG
WADD 111100Z 13009KT 9999 FEW017 28/24 Q1009 NOSIG</description><pubDate>Thu, 12 Jun 2025 10:30:49 </pubDate></item></channel></rss>