<rss version="2.0"><channel><title>Aviation Weather METAR Data for WADD</title><link>https://aviationweather.gov/api/data/metar?ids=WADD&amp;hours=24</link><description>Latest METAR data for WADD</description><item><title>2026-04-27 21:34:39Z</title><link>https://aviationweather.gov/api/data/metar?ids=WADD&amp;hours=24</link><description>METAR WADD 272100Z 06007KT 8000 -RA FEW015CB BKN015 26/26 Q1009 TEMPO TL2200 -RA
METAR WADD 272030Z 08007KT 9999 SCT016 26/25 Q1008 NOSIG
METAR WADD 272000Z 07005KT 9999 SCT016 26/25 Q1008 NOSIG
METAR WADD 271930Z 08004KT 9999 BKN016 26/25 Q1008 NOSIG
METAR WADD 271900Z 05004KT 9999 BKN016 26/25 Q1008 RERA NOSIG
METAR WADD 271830Z 36004KT 7000 -RA FEW015CB BKN015 26/25 Q1009 TEMPO TL1930 -RA
METAR WADD 271800Z 35006KT 7000 -RA FEW015CB BKN015 26/25 Q1009 TEMPO TL1900 -RA
METAR WADD 271730Z 35007KT 4000 RA FEW015CB BKN015 26/26 Q1009 TEMPO TL1830 7000 -RA RMK CB IN APCH AND CLIMB-OUT
SPECI WADD 271724Z 32006KT 300V020 4000 RA FEW015CB BKN015 26/26 Q1009 TEMPO TL1842 7000 -RA
METAR WADD 271700Z 32006KT 300V020 9999 FEW015CB BKN015 26/26 Q1009 N OSIG
METAR WADD 271630Z 31005KT 270V360 9999 FEW015CB BKN016 27/26 Q1010 R ERA NOSIG
METAR WADD 271600Z VRB02KT 8000 -RA FEW015CB BKN015 27/26 Q1010 T EMPO TL1700 -RA RMK CB IN APCH
SPECI WADD 271545Z COR 30004KT 5000 RA FEW015CB BKN015 27/26 Q1010 TEMPO TL1645 8000 -RA
METAR WADD 271530Z 32003KT 9999 SCT016 27/26 Q1010 NOSIG
METAR WADD 271500Z 28002KT 9999 SCT016 27/26 Q1010 NOSIG
METAR WADD 271430Z VRB03KT 9999 SCT016 27/25 Q1010 NOSIG
METAR WADD 271400Z VRB02KT 9999 SCT016 27/25 Q1010 NOSIG
METAR WADD 271330Z 20002KT 9999 SCT016 27/26 Q1010 NOSIG
METAR WADD 271300Z 02003KT 9999 BKN015 26/25 Q1010 RETSRA NOSIG
METAR WADD 271230Z 36005KT 340V050 6000 -TSRA FEW015CB BKN015 27/25 Q1010 TEMPO TL1330 -TSRA RMK CB IN APCH AND CLIMB-OUT
SPECI WADD 271215Z 36006KT 330V050 7000 -TSRA FEW015CB BKN015 26/25 Q1009 TEMPO TL1315 -TSRA RMK CB IN CLIMB-OUT
METAR WADD 271200Z 33006KT 300V030 9999 FEW015CB BKN015 26/25 Q1009 R ERA NOSIG
METAR WADD 271130Z 18005KT 7000 -RA FEW015CB BKN015 28/26 Q1009 NOSIG RMK CB IN APCH
METAR WADD 271100Z 18004KT 7000 -RA FEW015CB BKN015 28/26 Q1009 NOSIG RMK CB IN APCH
METAR WADD 271030Z VRB02KT 7000 -RA FEW015CB BKN015 28/26 Q1008 NOSIG RMK CB IN APCH
METAR WADD 271000Z 13005KT 7000 -RA FEW015CB BKN015 28/26 Q1008 NOSIG RMK CB IN APCH
METAR WADD 270930Z 13009KT 8000 -RA FEW015CB SCT015 29/27 Q1007 NOSIG RMK CB IN APCH
SPECI WADD 270911Z 14011KT 8000 -RA FEW015CB SCT015 30/27 Q1007 NOSIG RMK CB IN APCH
METAR WADD 270900Z 14011KT 9999 FEW015CB SCT015 30/27 Q1007 NOSIG
METAR WADD 270830Z 14014KT 9999 SCT016 30/26 Q1007 NOSIG
METAR WADD 270800Z 13010KT 9999 SCT016 30/26 Q1006 NOSIG
METAR WADD 270730Z 14012KT 9999 FEW017 31/26 Q1006 NOSIG
METAR WADD 270700Z 13011KT 9999 FEW017 31/26 Q1006 NOSIG
METAR WADD 270630Z 13011KT 9999 FEW017 31/27 Q1007 NOSIG
METAR WADD 270600Z 13010KT 080V150 9999 FEW017 32/27 Q1007 NOSIG
METAR WADD 270530Z 12011KT 9999 FEW015 32/27 Q1007 NOSIG
METAR WADD 270500Z 12010KT 9999 FEW016 32/27 Q1007 NOSIG
METAR WADD 270430Z 11011KT 9999 FEW016 31/26 Q1007 NOSIG
METAR WADD 270400Z 11010KT 9999 FEW016 31/26 Q1008 NOSIG
METAR WADD 270330Z 11008KT 9999 FEW016 32/26 Q1008 NOSIG
METAR WADD 270300Z 13008KT 9999 FEW016 31/26 Q1008 NOSIG
METAR WADD 270230Z 11006KT 9999 FEW016 31/26 Q1009 NOSIG
METAR WADD 270200Z 14005KT 100V180 9999 FEW016 31/26 Q1009 NOSIG
METAR WADD 270130Z 18004KT 9999 FEW016 30/26 Q1009 NOSIG
METAR WADD 270100Z 15003KT 9999 FEW016 29/26 Q1009 NOSIG
METAR WADD 270030Z VRB01KT 9999 FEW016 27/26 Q1009 NOSIG
METAR WADD 270000Z 03004KT 9999 FEW016 26/25 Q1009 NOSIG
METAR WADD 262330Z 04006KT 9999 BKN015 25/25 Q1009 NOSIG
METAR WADD 262300Z 04006KT 9999 BKN015 25/24 Q1009 RERA NOSIG
METAR WADD 262230Z 08004KT 7000 -RA BKN015 24/24 Q1009 TEMPO TL2330 - RA
METAR WADD 262200Z 13008KT 7000 -RA FEW015CB BKN015 25/24 Q1009 R ETS TEMPO TL2330 -RA</description><pubDate>Mon, 27 Apr 2026 21:34:39 </pubDate></item></channel></rss>