<rss version="2.0"><channel><title>Aviation Weather METAR Data for WADD</title><link>https://aviationweather.gov/api/data/metar?ids=WADD&amp;hours=24</link><description>Latest METAR data for WADD</description><item><title>2025-06-10 10:30:21Z</title><link>https://aviationweather.gov/api/data/metar?ids=WADD&amp;hours=24</link><description>WADD 100730Z 13018KT 9999 SCT016 30/25 Q1007 NOSIG
WADD 100700Z 12017KT 9999 SCT016 30/25 Q1007 NOSIG
WADD 100630Z 12017KT 9999 SCT016 30/25 Q1007 NOSIG
WADD 100600Z 11017KT 9999 SCT016 30/25 Q1008 NOSIG
WADD 100530Z 13018KT 9999 SCT016 29/25 Q1008 NOSIG
WADD 100500Z 12017KT 9999 BKN016 29/26 Q1009 NOSIG
WADD 100430Z 13017KT 9999 BKN016 30/25 Q1009 NOSIG
WADD 100400Z 12018KT 9999 SCT016 30/26 Q1009 NOSIG
WADD 100330Z 12017KT 9999 SCT016 30/25 Q1010 NOSIG
WADD 100300Z 12016KT 9999 SCT016 29/25 Q1010 NOSIG
WADD 100230Z 12014KT 9999 SCT016 29/25 Q1010 NOSIG
WADD 100200Z 12014KT 9999 BKN016 29/25 Q1010 NOSIG
WADD 100130Z 12013KT 9999 BKN016 29/25 Q1010 NOSIG
WADD 100100Z 11013KT 9999 BKN016 29/25 Q1010 NOSIG
WADD 100030Z 12014KT 9999 BKN016 28/25 Q1010 NOSIG
WADD 100000Z 12014KT 9999 SCT016 28/25 Q1010 NOSIG
WADD 092330Z 12013KT 9999 SCT016 28/25 Q1009 NOSIG
WADD 092300Z 13012KT 9999 SCT016 28/25 Q1009 NOSIG
WADD 092230Z 13013KT 9999 SCT016 28/25 Q1009 NOSIG
WADD 092200Z 13013KT 9999 SCT017 28/25 Q1009 NOSIG
WADD 092130Z 13014KT 9999 SCT017 28/25 Q1009 NOSIG
WADD 092100Z 12015KT 9999 SCT017 28/25 Q1008 NOSIG
WADD 092030Z 12014KT 9999 SCT017 28/25 Q1008 NOSIG
WADD 092000Z 12013KT 9999 SCT017 28/25 Q1008 NOSIG
WADD 091930Z 12011KT 9999 SCT017 28/25 Q1008 NOSIG
WADD 091900Z 12013KT 9999 SCT017 28/25 Q1008 NOSIG
WADD 091830Z 12012KT 9999 FEW017 28/25 Q1008 NOSIG
WADD 091800Z 12011KT 9999 FEW017 28/25 Q1009 NOSIG
WADD 091730Z 12013KT 9999 FEW017 28/25 Q1009 NOSIG
WADD 091700Z 12012KT 9999 FEW017 28/25 Q1009 NOSIG
WADD 091630Z 11012KT 9999 FEW017 28/25 Q1009 NOSIG
WADD 091600Z 11012KT 9999 FEW017 28/25 Q1010 NOSIG
WADD 091530Z 12012KT 9999 FEW017 28/25 Q1010 NOSIG
WADD 091500Z 12013KT 9999 FEW017 28/25 Q1010 NOSIG
WADD 091430Z 12013KT 9999 SCT017 28/25 Q1010 NOSIG
WADD 091400Z 12012KT 9999 SCT017 28/25 Q1010 NOSIG
WADD 091330Z 12012KT 9999 SCT017 28/25 Q1010 NOSIG
WADD 091300Z 12012KT 9999 SCT017 28/25 Q1010 NOSIG
WADD 091230Z 12011KT 9999 SCT017 28/25 Q1009 NOSIG
WADD 091200Z 11010KT 9999 SCT017 28/25 Q1009 NOSIG
WADD 091130Z 12011KT 9999 SCT017 28/25 Q1009 NOSIG
WADD 091100Z 12011KT 9999 SCT017 28/25 Q1008 NOSIG</description><pubDate>Tue, 10 Jun 2025 10:30:21 </pubDate></item></channel></rss>