<rss version="2.0"><channel><title>Aviation Weather METAR Data for WADD</title><link>https://aviationweather.gov/api/data/metar?ids=WADD&amp;hours=24</link><description>Latest METAR data for WADD</description><item><title>2025-09-07 15:39:23Z</title><link>https://aviationweather.gov/api/data/metar?ids=WADD&amp;hours=24</link><description>WADD 071530Z 13010KT 9999 SCT016 27/24 Q1014 NOSIG
METAR WADD 071500Z 13011KT 9999 SCT016 27/23 Q1014 NOSIG
 WADD 071430Z 13012KT 9999 SCT016 27/23 Q1014 NOSIG
METAR WADD 071400Z 12010KT 9999 SCT016 27/22 Q1014 NOSIG
METAR WADD 071330Z 13010KT 9999 SCT016 27/23 Q1014 NOSIG
METAR WADD 071300Z 13011KT 9999 SCT016 27/23 Q1013 NOSIG
METAR WADD 071230Z 13011KT 9999 BKN016 27/23 Q1013 NOSIG
METAR WADD 071200Z 13013KT 9999 BKN016 27/23 Q1013 NOSIG
 WADD 071130Z 13011KT 9999 SCT016 27/23 Q1012 NOSIG
METAR WADD 071100Z 14012KT 9999 SCT016 27/23 Q1012 NOSIG
METAR WADD 071030Z 14015KT 9999 SCT016 27/23 Q1012 NOSIG
METAR WADD 071000Z 14015KT 9999 SCT016 27/23 Q1011 NOSIG
METAR WADD 070930Z 14015KT 9999 SCT016 27/22 Q1011 NOSIG
METAR WADD 070900Z 14014KT 9999 SCT016 27/22 Q1011 NOSIG
METAR WADD 070830Z 14015KT 9999 SCT016 27/22 Q1011 NOSIG
 WADD 070800Z 14015KT 9999 BKN016 27/23 Q1011 NOSIG
METAR WADD 070730Z 13015KT 9999 BKN016 27/22 Q1011 NOSIG
METAR WADD 070700Z 13015KT 9999 BKN016 28/22 Q1011 NOSIG
METAR WADD 070630Z 14014KT 9999 BKN016 28/22 Q1011 NOSIG
METAR WADD 070600Z 13015KT 9999 BKN016 28/22 Q1012 NOSIG
METAR WADD 070530Z 14015KT 9999 BKN016 28/22 Q1012 NOSIG
METAR WADD 070500Z 14015KT 9999 SCT016 29/22 Q1012 NOSIG
METAR WADD 070430Z 10014KT 9999 BKN016 29/21 Q1013 NOSIG
METAR WADD 070400Z 14012KT 9999 BKN016 28/22 Q1013 NOSIG
METAR WADD 070330Z 15012KT 9999 BKN016 28/22 Q1013 NOSIG
METAR WADD 070300Z 15010KT 9999 SCT016 28/22 Q1013 NOSIG
METAR WADD 070230Z 11005KT 9999 SCT016 28/22 Q1014 NOSIG
METAR WADD 070200Z 10004KT 050V140 9999 BKN016 27/22 Q1014 NOSIG
METAR WADD 070130Z VRB02KT 9999 BKN016 27/22 Q1014 NOSIG
METAR WADD 070100Z VRB02KT 9999 SCT016 27/21 Q1014 NOSIG
METAR WADD 070030Z 02005KT 9999 SCT016 26/21 Q1014 NOSIG
METAR WADD 070000Z 36006KT 9999 SCT016 25/21 Q1013 NOSIG
METAR WADD 062330Z 36005KT 330V050 9999 SCT016 25/21 Q1013 NOSIG
METAR WADD 062300Z 01005KT 9999 SCT016 24/21 Q1013 NOSIG
METAR WADD 062230Z 36003KT 9999 SCT016 24/21 Q1013 NOSIG
METAR WADD 062200Z 01004KT 9999 SCT017 24/21 Q1012 NOSIG
METAR WADD 062130Z 35003KT 9999 SCT017 24/22 Q1012 NOSIG
METAR WADD 062100Z VRB02KT 9999 FEW017 24/21 Q1012 NOSIG
METAR WADD 062030Z VRB02KT 9999 FEW017 24/21 Q1012 NOSIG
METAR WADD 062000Z 15004KT 9999 SCT017 25/22 Q1012 NOSIG
METAR WADD 061930Z 14003KT 9999 SCT017 24/21 Q1012 NOSIG
METAR WADD 061900Z 15004KT 9999 FEW017 25/22 Q1012 NOSIG
METAR WADD 061830Z 13004KT 9999 FEW017 25/21 Q1012 NOSIG
METAR WADD 061800Z 15004KT 9999 FEW017 25/22 Q1013 NOSIG
METAR WADD 061700Z 15002KT 9999 FEW017 24/21 Q1013 NOSIG
METAR WADD 061630Z 16002KT 9999 FEW017 26/22 Q1014 NOSIG
METAR WADD 061600Z 16003KT 9999 FEW017 26/22 Q1014 NOSIG</description><pubDate>Sun, 07 Sep 2025 15:39:23 </pubDate></item></channel></rss>