<rss version="2.0"><channel><title>Aviation Weather METAR Data for WADD</title><link>https://aviationweather.gov/api/data/metar?ids=WADD&amp;hours=24</link><description>Latest METAR data for WADD</description><item><title>2025-03-11 06:33:59Z</title><link>https://aviationweather.gov/api/data/metar?ids=WADD&amp;hours=24</link><description>WADD 110600Z 11007KT 090V150 9999 FEW017 31/27 Q1007 NOSIG
WADD 110530Z 10007KT 080V140 9999 FEW016 31/27 Q1008 NOSIG
WADD 110500Z 11008KT 9999 FEW016 31/27 Q1009 NOSIG
WADD 110430Z 09009KT 9999 FEW016 31/27 Q1009 NOSIG
WADD 110400Z 09009KT 9999 FEW016 30/27 Q1010 NOSIG
WADD 110330Z 08008KT 9999 FEW016 30/26 Q1010 NOSIG
WADD 110300Z 09007KT 070V130 9999 FEW016 30/27 Q1010 NOSIG
WADD 110230Z 11006KT 060V170 9999 FEW016 30/26 Q1010 NOSIG
WADD 110200Z 10006KT 060V130 9999 FEW017 30/26 Q1010 NOSIG
WADD 110130Z 11005KT 9999 FEW017 29/26 Q1010 NOSIG
WADD 110100Z 08003KT 9999 FEW018 29/26 Q1010 NOSIG
WADD 110030Z 03003KT 9999 FEW017 29/26 Q1009 NOSIG
WADD 110000Z 06003KT 9999 FEW017 28/25 Q1009 NOSIG
WADD 102330Z 05002KT 9999 FEW017 27/25 Q1009 NOSIG
WADD 102300Z 02004KT 9999 FEW017 26/25 Q1009 NOSIG
WADD 102230Z 03005KT 9999 FEW017 26/25 Q1009 NOSIG
WADD 102200Z 02004KT 9999 FEW017 27/25 Q1008 NOSIG
WADD 102130Z 27002KT 9999 FEW017 27/25 Q1008 NOSIG
WADD 102100Z 28003KT 9999 FEW016 27/25 Q1008 NOSIG
WADD 102030Z 27006KT 9999 SCT016 27/25 Q1008 NOSIG
WADD 102000Z 28007KT 9999 SCT016 28/25 Q1008 NOSIG
WADD 101930Z 28008KT 9999 SCT016 28/26 Q1009 NOSIG
WADD 101900Z 28008KT 9999 SCT016 28/26 Q1009 NOSIG
WADD 101830Z 28008KT 9999 SCT016 28/26 Q1009 NOSIG
WADD 101800Z 26008KT 9999 SCT016 28/26 Q1009 NOSIG
WADD 101730Z 25006KT 9999 SCT017 28/26 Q1009 NOSIG
WADD 101700Z 25004KT 9999 FEW017 28/26 Q1010 NOSIG
WADD 101630Z 26004KT 9999 FEW017 28/26 Q1010 NOSIG
WADD 101600Z 25004KT 210V280 9999 FEW017 28/26 Q1011 NOSIG
WADD 101530Z 24003KT 9999 FEW017 28/26 Q1011 NOSIG
WADD 101500Z 25003KT 9999 FEW017 28/25 Q1011 NOSIG
WADD 101430Z VRB03KT 9999 FEW017 28/25 Q1011 NOSIG
WADD 101400Z 21003KT 9999 FEW017 29/26 Q1011 NOSIG
WADD 101330Z VRB02KT 9999 FEW017 29/26 Q1011 NOSIG
WADD 101300Z 27004KT 9999 FEW017 28/25 Q1011 NOSIG
WADD 101230Z 27007KT 9999 FEW017 28/25 Q1011 NOSIG
WADD 101200Z 27007KT 9999 FEW017 28/25 Q1010 NOSIG
WADD 101130Z 26003KT 9999 FEW017 28/25 Q1010 NOSIG
WADD 101100Z 24002KT 9999 FEW017 29/25 Q1009 NOSIG
WADD 101030Z VRB02KT 9999 FEW017 29/25 Q1009 NOSIG
WADD 101000Z 30005KT 280V340 9999 FEW017 29/25 Q1008 NOSIG
WADD 100930Z VRB02KT 9999 FEW017 30/25 Q1008 NOSIG
WADD 100900Z 02003KT 9999 SCT017 29/26 Q1008 NOSIG
WADD 100830Z 02003KT 300V060 9999 SCT017 29/25 Q1008 RERA NOSIG
WADD 100800Z 01009KT 8000 -RA FEW016CB BKN017 30/26 Q1008 TEMPO TL0900 -RA
WADD 100730Z VRB06G16KT 9999 FEW016CB SCT017 32/25 Q1008 NOSIG
WADD 100700Z 24003KT 200V280 9999 FEW016CB SCT017 32/24 Q1008 NOSIG</description><pubDate>Tue, 11 Mar 2025 06:33:59 </pubDate></item></channel></rss>