<rss version="2.0"><channel><title>Aviation Weather METAR Data for WADD</title><link>https://aviationweather.gov/api/data/metar?ids=WADD&amp;hours=24</link><description>Latest METAR data for WADD</description><item><title>2025-01-31 17:20:04Z</title><link>https://aviationweather.gov/api/data/metar?ids=WADD&amp;hours=24</link><description>WADD 311700Z VRB02KT 9999 SCT016 28/25 Q1006 TREND NOSIG
WADD 311630Z 04004KT 360V090 9999 SCT016 27/25 Q1006 NOSIG
WADD 311600Z 05005KT 9999 SCT016 27/26 Q1006 NOSIG
WADD 311530Z 06005KT 9999 SCT016 27/26 Q1006 NOSIG
WADD 311500Z 05006KT 9999 SCT016 28/26 Q1007 NOSIG
WADD 311430Z 06006KT 9999 FEW016 28/26 Q1007 NOSIG
WADD 311400Z 10004KT 9999 FEW016 27/26 Q1007 NOSIG
WADD 311330Z 10004KT 9999 FEW016 28/26 Q1007 NOSIG
WADD 311300Z 09004KT 9999 FEW016 27/26 Q1007 NOSIG
WADD 311230Z 07006KT 9999 SCT016 28/26 Q1006 NOSIG
WADD 311200Z 06003KT 9999 FEW017 28/25 Q1006 NOSIG
WADD 311130Z 07004KT 030V110 9999 FEW017 28/25 Q1006 NOSIG
WADD 311100Z 06006KT 020V080 9999 FEW017 28/25 Q1005
WADD 311030Z VRB02KT 9999 FEW017 29/24 Q1005 NOSIG
WADD 311000Z VRB02KT 9999 FEW017 29/23 Q1005 NOSIG
WADD 310930Z VRB02KT 9999 FEW017 29/23 Q1005 NOSIG
WADD 310900Z 26004KT 9999 FEW017 29/23 Q1005 NOSIG
WADD 310830Z 22003KT 9999 FEW017 30/23 Q1005 NOSIG
WADD 310800Z 23003KT 9999 FEW017 30/24 Q1005 NOSIG
WADD 310730Z 23004KT 9999 FEW017 30/24 Q1005 NOSIG
WADD 310700Z 22003KT 9999 FEW017 30/23 Q1005 NOSIG
WADD 310630Z 25004KT 9999 FEW017 30/23 Q1005 NOSIG
WADD 310600Z 23003KT 9999 FEW017 30/22 Q1006 NOSIG
WADD 310530Z 27004KT 200V310 9999 FEW017 30/23 Q1006 NOSIG
WADD 310500Z VRB03KT 9999 FEW017 31/23 Q1006 NOSIG
WADD 310430Z VRB01KT 9999 FEW017 30/25 Q1006 NOSIG
WADD 310400Z VRB02KT 9999 FEW016 29/25 Q1006 NOSIG
WADD 310330Z 32003KT 9999 FEW016 30/23 Q1007 NOSIG
WADD 310300Z 28003KT 9999 FEW016 29/24 Q1007 NOSIG
WADD 310230Z 28003KT 9999 FEW016 29/24 Q1007 NOSIG
WADD 310200Z 30004KT 270V340 9999 FEW016 29/25 Q1007 NOSIG
WADD 310130Z VRB03KT 9999 FEW016 29/25 Q1007 NOSIG
WADD 310100Z 32003KT 9999 FEW016 28/25 Q1007 NOSIG
WADD 310030Z VRB02KT 9999 FEW016 28/25 Q1007 NOSIG
WADD 310000Z VRB01KT 9999 FEW016 27/26 Q1007 NOSIG
WADD 302330Z VRB02KT 9999 FEW016 27/26 Q1006 NOSIG
WADD 302300Z 28002KT 9999 FEW016 26/25 Q1006 NOSIG
WADD 302230Z VRB01KT 9999 SCT016 26/26 Q1005 NOSIG
WADD 302200Z VRB02KT 9999 SCT016 26/26 Q1005 NOSIG
WADD 302130Z 31002KT 9999 SCT016 26/26 Q1005 NOSIG
WADD 302100Z VRB01KT 9999 SCT016 26/26 Q1005 NOSIG
WADD 302030Z 08002KT 9999 SCT016 26/26 Q1004 NOSIG
WADD 302000Z VRB02KT 9999 SCT016 26/26 Q1004 NOSIG
WADD 301930Z VRB01KT 9999 SCT016 26/26 Q1005 NOSIG
WADD 301900Z VRB01KT 9999 SCT016 26/26 Q1005 NOSIG
WADD 301830Z 34002KT 9999 SCT016 26/25 Q1005 NOSIG
WADD 301800Z VRB03KT 9999 SCT016 26/25 Q1006 NOSIG
WADD 301730Z 08002KT 9999 SCT016 26/25 Q1006 NOSIG</description><pubDate>Fri, 31 Jan 2025 17:20:04 </pubDate></item></channel></rss>