<rss version="2.0"><channel><title>Aviation Weather METAR Data for WADD</title><link>https://aviationweather.gov/api/data/metar?ids=WADD&amp;hours=24</link><description>Latest METAR data for WADD</description><item><title>2025-01-28 03:41:16Z</title><link>https://aviationweather.gov/api/data/metar?ids=WADD&amp;hours=24</link><description>WADD 280330Z 28005KT 220V310 9999 SCT016 31/25 Q1008 NOSIG
WADD 280300Z 29007KT 250V310 9999 SCT016 30/26 Q1008 NOSIG
WADD 280230Z 31005KT 260V350 9999 SCT016 29/26 Q1008 NOSIG
WADD 280200Z 32005KT 280V340 9999 SCT016 29/26 Q1008 NOSIG
WADD 280130Z 33006KT 310V020 9999 BKN015 29/26 Q1008 NOSIG
WADD 280100Z 34003KT 9999 BKN015 8/26 Q1008 NOSIG
WADD 280030Z 05003KT 9999 BKN015 28/27 Q1008 NOSIG
WADD 280000Z VRB01KT 9999 BKN015 27/26 Q1007 NOSIG
WADD 272330Z VRB02KT 9999 BKN015 26/26 Q1007 NOSIG
WADD 272300Z VRB02KT 9999 SCT015 26/25 Q1007 NOSIG
WADD 272230Z VRB01KT 9999 SCT015 25/25 Q1007 NOSIG
WADD 272200Z VRB02KT 9999 SCT015 26/25 Q1007 NOSIG
WADD 272130Z VRB02KT 9999 BKN015 26/25 Q1007 NOSIG
WADD 272100Z VRB02KT 9999 BKN015 26/25 Q1007 RERA NOSIG
WADD 272030Z VRB03KT 7000 -RA FEW015CB BKN015 25/25 Q1007 TEMPO TL2130 -RA
WADD 272000Z VRB01KT 5000 RA FEW015CB BKN015 25/25 Q1007 TEMPO TL2100 7000 -RA
WADD 271930Z 03003KT 9999 FEW015CB BKN015 27/26 Q1007 NOSIG
WADD 271900Z VRB02KT 9999 BKN016 27/26 Q1007 NOSIG
WADD 271830Z 25005KT 9999 SCT016 28/26 Q1007 RERA NOSIG
WADD 271800Z 26004KT 9000 -RA BKN016 27/26 Q1007 TEMPO TL1900 -RA
WADD 271730Z 26004KT 9000 -RA BKN016 27/26 Q1007 TEMPO TL1830 -RA
WADD 271700Z 26006KT 9000 -RA SCT016 28/26 Q1007 TEMPO TL1800 -RA
WADD 271630Z 27010KT 9999 FEW017 28/25 Q1007 NOSIG
WADD 271600Z 27009KT 9999 FEW017 28/25 Q1008 NOSIG
WADD 271530Z 27010KT 9999 FEW017 28/25 Q1008 NOSIG
WADD 271500Z 27010KT 9999 FEW017 28/25 Q1008 NOSIG
WADD 271430Z 26010KT 9999 FEW017 28/26 Q1008 NOSIG
WADD 271400Z 25010KT 9999 FEW017 28/26 Q1007 NOSIG
WADD 271330Z 25008KT 9999 SCT015 28/26 Q1007 NOSIG
WADD 271300Z 25010KT 9999 SCT015 28/26 Q1006 NOSIG
WADD 271230Z 25009KT 9999 SCT017 28/26 Q1006 NOSIG
WADD 271200Z 25011KT 9999 SCT017 28/26 Q1006 NOSIG
WADD 271130Z 26011KT 9999 SCT017 28/26 Q1005 NOSIG
WADD 271100Z 25011KT 9999 FEW017 28/26 Q1005 NOSIG
WADD 271030Z 26012KT 9999 FEW017 29/26 Q1005 NOSIG
WADD 271000Z 25011KT 9999 FEW017 29/26 Q1004 NOSIG
WADD 270930Z 25009KT 9999 FEW017 29/26 Q1004 NOSIG
WADD 270900Z 26011KT 9999 FEW017 29/26 Q1004 NOSIG
WADD 270830Z 25009KT 9999 FEW017 29/26 Q1004 NOSIG
WADD 270800Z 26009KT 9999 FEW017 30/26 Q1004 NOSIG
WADD 270730Z 28012KT 9999 FEW017 30/25 Q1004 NOSIG
WADD 270700Z 29014KT 9999 FEW017 30/26 Q1004 NOSIG
WADD 270630Z 29013KT 9999 FEW017 30/26 Q1004 NOSIG
WADD 270600Z 28012KT 9999 FEW016 30/26 Q1004 NOSIG
WADD 270530Z 28012KT 9999 FEW016 29/27 Q1005 NOSIG
WADD 270500Z 30010KT 9999 SCT016 28/26 Q1006 RERA NOSIG
WADD 270430Z 32007KT 9000-RA BKN015 27/26 Q1006 TEMPO TL0530 -RA
WADD 270400Z 30011KT 8000 -RA BKN015 27/26 Q1007 TREND TEMPO TL0500 -RA</description><pubDate>Tue, 28 Jan 2025 03:41:16 </pubDate></item></channel></rss>