<rss version="2.0"><channel><title>Aviation Weather METAR Data for WADD</title><link>https://aviationweather.gov/api/data/metar?ids=WADD&amp;hours=24</link><description>Latest METAR data for WADD</description><item><title>2026-01-08 10:53:55Z</title><link>https://aviationweather.gov/api/data/metar?ids=WADD&amp;hours=24</link><description>METAR WADD 081030Z 27008KT 9999 BKN015 27/25 Q1008 NOSIG
METAR WADD 081000Z 29008KT 9999 BKN015 27/25 Q1008 NOSIG
METAR WADD 080930Z 31008KT 9999 FEW014CB BKN014 27/26 Q1008 NOSIG
SPECI WADD 080912Z 30010KT 9999 FEW014CB BKN014 27/25 Q1007 RERA NOSIG
METAR WADD 080900Z 28015KT 6000 -RA FEW014CB BKN014 26/25 Q1008 TEMPO TL1000 -RA
METAR WADD 080830Z 25007KT 9999 FEW014CB SCT014 29/25 Q1007 NOSIG RMK CB IN CLIMB-OUT
METAR WADD 080800Z 26010KT 9999 SCT016 30/26 Q1007 NOSIG
METAR WADD 080730Z 26009KT 9999 SCT016 29/26 Q1007 NOSIG
METAR WADD 080700Z 25008KT 9999 SCT016 29/26 Q1008 NOSIG
METAR WADD 080630Z 26009KT 220V290 9999 SCT016 29/25 Q1008 NOSIG
METAR WADD 080600Z 26008KT 9999 SCT016 28/25 Q1008 NOSIG
METAR WADD 080530Z 26008KT 9999 BKN016 28/24 Q1008 NOSIG
METAR WADD 080500Z 26010KT 9999 BKN016 27/24 Q1009 NOSIG
METAR WADD 080430Z 26009KT 230V290 9999 FEW014CB BKN015 27/25 Q1009 R ERA NOSIG
METAR WADD 080400Z 26010KT 8000 -RA FEW014CB BKN015 27/26 Q1010 TEMPO TL0500 -RA
METAR WADD 080330Z 25010KT 8000 -RA FEW014CB BKN015 26/25 Q1010 RETS TEMPO TL0430 -RA
METAR WADD 080300Z 26012KT 5000 -TSRA FEW013CB BKN014 26/25 Q1010 TEMPO TL0400 -RA RMK CB IN APCH AND CLIMB-OUT
METAR WADD 080230Z 24006KT 6000 -TSRA FEW013CB BKN014 26/25 Q1010 TEM PO TL0330 -RA RMK CB IN APCH AND CLIMB-OUT
METAR WADD 080200Z VRB02KT 6000 -RA FEW012CB BKN013 25/25 Q1010 TEMPO TL0300 -RA RMK CB IN APCH AND CLIMB-OUT
METAR WADD 080130Z VRB02KT 6000 -RA FEW012CB BKN013 24/24 Q1011 RETS TEMPO TL0230 -RA RMK CB IN APCH AND CLIMB-OUT
METAR WADD 080100Z 25003KT 5000 TSRA FEW010CB BKN011 24/24 Q1011 TEMPO TL0200 7000 -RA RMK CB IN APCH AND CLIMB-OUT
METAR WADD 080030Z 14006KT 090V230 0400 +TSRA FEW010CB BKN011 24/24 Q 1011 TEMPO TL0130 5000 RA RMK CB IN APCH AND CLIMB-OUT
METAR WADD 080000Z VRB05KT 1000 + RA FEW010CB BKN011 24/24 Q1011 TEMPO TL0100 5000 RA RMK CB IN APCH AND CLIMB-OUT
METAR WADD 072330Z 13006KT 110V180 0500 HVY RA FEW012CB BKN013 24/24 Q1010 TEMPO TL0000 0500 +RA RMK CB IN APCH AND CLIMB-OUT
METAR WADD 072300Z 24010G18KT 220V320 3000 TSRA FEW012CB BKN013 26/25 Q1009 TEMPO TL2330 3000 RA RMK CB IN APCH AND CLIMB-OUT
METAR WADD 072230Z VRB06KT 4000 RA FEW012CB BKN013 26/26 Q1009 TEMPO TL2300 4000 RA RMK CB IN APCH AND CLIMB-OUT
METAR WADD 072200Z 34007KT 3000 RA FEW015CB BKN016 26/25 Q1008 RETS TEMPO TL2200 3000 RA RMK CB IN APCH AND CLIMB-OUT
METAR WADD 072130Z 31011G28KT 270V330 1000 TSRA FEW015CB BKN016 26/25 Q1008 TEMPO TL2200 1000 TSRA RMK CB IN APCH AND CLIMB-OUT
METAR WADD 072100Z 28008KT 230V320 5000 -RA FEW015CB BKN016 27/25 Q1008 TEMPO TL2130 5000 -RA RMK CB IN APCH
METAR WADD 072030Z 29010KT 8000 FEW015CB BKN016 28/25 Q1008 NOSIG
METAR WADD 072000Z 27013KT 9999 SCT016 28/25 Q1008 NOSIG
METAR WADD 071930Z 26012KT 9999 SCT016 28/24 Q1007 NOSIG
METAR WADD 071900Z 26010KT 9999 SCT016 28/25 Q1007 NOSIG
METAR WADD 071830Z 26010KT 9999 SCT016 28/25 Q1007 NOSIG
METAR WADD 071800Z 27012KT 9999 SCT016 28/25 Q1008 NOSIG
METAR WADD 071730Z 27010KT 9999 SCT016 28/25 Q1008 NOSIG
METAR WADD 071700Z 26006KT 9999 SCT017 28/26 Q1008 NOSIG
METAR WADD 071630Z 26009KT 9999 SCT016 28/26 Q1009 RERA NOSIG
METAR WADD 071600Z 33009G18KT 5000 -RA FEW014CB BKN015 27/25 Q1009 TE MPO TL1630 5000 -RA RMK CB IN APCH
METAR WADD 071530Z 27026G37KT 1000 +RA FEW014CB BKN015 27/24 Q1009 TEMPO TL1400 1000 RA RMK CB IN APCH AND CLIMB-OUT
METAR WADD 071500Z 27010KT 9999 SCT017 29/25 Q1009 NOSIG
METAR WADD 071430Z 27011KT 9999 FEW017 29/25 Q1010 NOSIG
METAR WADD 071400Z 27009KT 9999 FEW017 29/25 Q1009 NOSIG
METAR WADD 071330Z 26009KT 9999 FEW017 29/25 Q1009 NOSIG
METAR WADD 071300Z 27010KT 9999 FEW017 28/24 Q1009 NOSIG
METAR WADD 071230Z 26008KT 9999 FEW015CB SCT016 29/25 Q1009 NOSIG RMK CB IN CLIMB-OUT
METAR WADD 071200Z 26011KT 9999 FEW017 29/25 Q1009 NOSIG
METAR WADD 071130Z 26010KT 9999 SCT016 29/25 Q1009 NOSIG
METAR WADD 071100Z 26010KT 9999 SCT016 29/25 Q1009 NOSIG</description><pubDate>Thu, 08 Jan 2026 10:53:55 </pubDate></item></channel></rss>