<rss version="2.0"><channel><title>Aviation Weather METAR Data for WADD</title><link>https://aviationweather.gov/api/data/metar?ids=WADD&amp;hours=24</link><description>Latest METAR data for WADD</description><item><title>2025-07-23 13:43:20Z</title><link>https://aviationweather.gov/api/data/metar?ids=WADD&amp;hours=24</link><description>WADD 231330Z 13010KT 9999 BKN016 27/25 Q1010 NOSIG
WADD 231300Z 13010KT 9999 BKN016 27/25 Q1010 NOSIG
WADD 231230Z 12011KT 9999 SCT016 27/25 Q1009 NOSIG
WADD 231200Z 13009KT 9999 SCT017 27/25 Q1009 NOSIG
WADD 231130Z 13010KT 9999 BKN017 27/24 Q1009 NOSIG
WADD 231100Z 13010KT 9999 BKN017 27/24 Q1008 NOSIG
WADD 231030Z 13012KT 9999 BKN017 27/24 Q1008 NOSIG
WADD 231000Z 13012KT 9999 SCT017 27/24 Q1008 NOSIG
WADD 230930Z 14014KT 9999 SCT017 28/25 Q1007 NOSIG
WADD 230900Z 14012KT 9999 SCT017 28/24 Q1007 NOSIG
WADD 230830Z 13014KT 9999 FEW017 28/24 Q1007 NOSIG
WADD 230800Z 13013KT 9999 FEW017 29/24 Q1007 NOSIG
WADD 230730Z 14013KT 9999 FEW017 29/24 Q1007 NOSIG
WADD 230700Z 13012KT 9999 FEW017 29/25 Q1007 NOSIG
WADD 230630Z 14013KT 9999 FEW017 29/25 Q1007 NOSIG
WADD 230600Z 11012KT 9999 FEW017 30/25 Q1008 NOSIG
WADD 230530Z 11012KT 9999 FEW017 30/25 Q1008 NOSIG
WADD 230500Z 11011KT 9999 FEW017 29/24 Q1009 NOSIG
WADD 230430Z 11011KT 9999 SCT016 30/25 Q1009 NOSIG
WADD 230400Z 09010KT 9999 FEW017 30/25 Q1010 NOSIG
WADD 230330Z 09010KT 9999 FEW017 30/25 Q1010 NOSIG
WADD 230300Z 11009KT 9999 FEW017 29/25 Q1010 NOSIG
WADD 230230Z 10008KT 9999 FEW017 29/25 Q1011 NOSIG
WADD 230200Z 11008KT 9999 FEW017 28/25 Q1011 NOSIG
WADD 230130Z VRB01KT 9999 FEW017 27/24 Q1011 NOSIG
WADD 230100Z 23002KT 9999 FEW017 26/24 Q1011 NOSIG
WADD 230030Z 22002KT 9999 FEW017 26/24 Q1011 NOSIG
WADD 230000Z 22002KT 9999 FEW017 25/23 Q1010 NOSIG
WADD 222330Z 03004KT 340V060 9999 FEW017 25/23 Q1010 NOSIG
WADD 222300Z 01005KT 9999 FEW017 24/23 Q1010 NOSIG
WADD 222230Z 01004KT 9999 FEW017 23/23 Q1010 NOSIG
WADD 222200Z 01003KT 9999 SCT017 24/24 Q1009 NOSIG
WADD 222130Z 01003KT 9999 SCT017 24/24 Q1009 NOSIG
WADD 222100Z 36004KT 9999 SCT017 25/24 Q1009 NOSIG
WADD 222030Z 15003KT 9999 SCT017 26/24 Q1009 NOSIG
WADD 222000Z 13004KT 9999 SCT017 26/24 Q1009 NOSIG
WADD 221930Z 13005KT 9999 SCT017 26/24 Q1009 NOSIG
WADD 221900Z 12006KT 9999 SCT017 26/24 Q1009 NOSIG
WADD 221830Z 13007KT 9999 SCT017 26/24 Q1010 NOSIG
WADD 221800Z 12006KT 9999 SCT017 26/24 Q1010 NOSIG
WADD 221730Z 12007KT 9999 FEW017 26/24 Q1010 NOSIG
WADD 221700Z 12007KT 9999 FEW017 26/24 Q1010 NOSIG
WADD 221630Z 11007KT 9999 FEW017 26/24 Q1010 NOSIG
WADD 221600Z 12008KT 9999 FEW017 26/24 Q1010 NOSIG
WADD 221530Z 12008KT 9999 SCT017 26/24 Q1010 NOSIG
WADD 221500Z 12009KT 9999 SCT017 26/24 Q1010 NOSIG
WADD 221430Z 12010KT 9999 SCT017 27/24 Q1010 NOSIG
WADD 221400Z 12009KT 9999 SCT017 27/24 Q1010 NOSIG</description><pubDate>Wed, 23 Jul 2025 13:43:20 </pubDate></item></channel></rss>