<rss version="2.0"><channel><title>Aviation Weather METAR Data for WADD</title><link>https://aviationweather.gov/api/data/metar?ids=WADD&amp;hours=24</link><description>Latest METAR data for WADD</description><item><title>2025-01-04 05:21:59Z</title><link>https://aviationweather.gov/api/data/metar?ids=WADD&amp;hours=24</link><description>WADD 040500Z 28007KT 8000 -RA FEW014CB BKN015 25/25 Q1008 TEMPO TL0600 -RA RMK CB IN CLIMB-OUT
WADD 040430Z 28007KT 8000 -RA FEW014CB BKN015 25/25 Q1008 TEMPO TL0530 -RA RMK CB IN CLIMB-OUT
WADD 040400Z 27004KT 3000 RA FEW014CB BKN015 25/24 Q1009 TEMPO TL0500 RA RMK CB IN APCH AND CLIMB-OUT
WADD 040330Z VRB04KT 2000 RA FEW014CB BKN015 25/24 Q1009 TEMPO TL0430 RA RMK CB IN CLIMB-OUT
WADD 040300Z 33006KT 290V360 7000 -RA FEW014CB BKN015 25/25 Q1009 TEMPO TL0400 -RA
WADD 040230Z 32006KT 290V360 1500 +RA FEW014CB BKN015 25/25 Q1009 TEMPO TL0330 +RA RMK CB IN APCH AND CLIMB-OUT
WADD 040200Z 31006KT 270V340 0500 +RA FEW014CB BKN015 25/24 Q1010 TEMPO TL0300 +RA RMK CB IN APCH AND CLIMB-OUT
WADD 040130Z 31007KT 270V340 2000 +RA FEW014CB BKN015 27/25 Q1009 TEMPO TL0230 +RA RMK CB IN APCH AND CLIMB-OUT
WADD 040100Z 33006KT 9999 FEW015CB SCT016 26/25 Q1009 RERA NOSIG
WADD 040030Z 32007KT 300V360 8000 -RA FEW015CB BKN016 25/24 Q1009 TL0200 -RA
WADD 040000Z 32005KT 280V350 8000 VCSH FEW014CB BKN015 27/25 Q1008 TEMPO TL0200 RA RMK CB IN CLIMB-OUT
WADD 032330Z 33005KT 9999 BKN016 26/25 Q1008 NOSIG
WADD 032300Z 33004KT 9999 BKN016 26/25 Q1008 NOSIG
WADD 032230Z 35004KT 9999 BKN015 25/25 Q1008 NOSIG
WADD 032200Z 35004KT 8000 -RA FEW015CB BKN016 25/24 Q1008 TEMPO TL2300 -RA RMK CB IN APCH
WADD 032130Z 01004KT 9999 FEW015CB BKN016 25/24 Q1007 NOSIG
WADD 032100Z 31004KT 9999 BKN016 25/24 Q1007 NOSIG
WADD 032030Z 35004KT 9999 SCT016 25/24 Q1007 NOSIG
WADD 032000Z 33005KT 9999 BKN016 24/24 Q1007 NOSIG
WADD 031930Z 32004KT 9999 BKN016 25/24 Q1007 NOSIG
WADD 031900Z VRB02KT 9999 BKN016 24/24 Q1008 NOSIG
WADD 031830Z 33005KT 9999 BKN016 24/24 Q1008 NOSIG
WADD 031800Z 36004KT 320V020 9999 FEW015CB BKN016 24/24 Q1008 RERA NOSIG
WADD 031730Z 31007KT 280V360 7000 -RA FEW015CB BKN016 25/24 Q1009 TEMPO TL1830 -RA RMK CB IN APCH
WADD 031700Z 32005KT 280V350 8000 -RA FEW015CB BKN016 25/24 Q1009 TEMPO TL1800 -RA
WADD 031630Z 34005KT 300V010 9999 FEW015CB BKN016 25/24 Q1009 RERA NOSIG
WADD 031600Z 36007KT 320V030 8000 -RA FEW015CB BKN016 25/24 Q1009 TEMPO TL1700 -RA
WADD 031530Z 35006KT 290V040 9999 FEW015CB BKN016 26/25 Q1010 NOSIG
WADD 031500Z 36005KT 310V030 9999 FEW015CB BKN016 26/25 Q1010 NOSIG
WADD 031430Z VRB02KT 9999 FEW015CB BKN016 26/25 Q1010 NOSIG
WADD 031400Z VRB01KT 9000 -RA FEW015CB BKN016 26/25 Q1010 TEMPO TL1500 -RA
WADD 031330Z VRB02KT 9999 FEW015CB BKN016 26/25 Q1009 NOSIG
WADD 031300Z 15003KT 9999 FEW015CB BKN015 26/25 Q1009 NOSIG
WADD 031230Z VRB01KT 9999 FEW015CB BKN015 26/25 Q1009 RERA NOSIG
WADD 031200Z 25004KT 210V270 8000 -RA FEW015CB BKN015 26/25 Q1009 TEMPO TL1300 -RA RMK CB IN CLIMB-OUT
WADD 031130Z 25004KT 8000 -RA FEW015CB BKN016 26/25 Q1008 TEMPO TL1230 -RA
WADD 031100Z 24005KT 9999 BKN016 27/25 Q1008 RERA NOSIG
WADD 031030Z 24005KT 8000 -RA BKN015 27/25 Q1008 TEMPO TL1130 -RA
WADD 031000Z 24005KT 9999 BKN016 27/25 Q1008 RERA NOSIG
WADD 030930Z 23005KT 200V270 8000 -RA FEW015CB BKN016 28/25 Q1008 TEMPO TL1030 -RA
WADD 030900Z 24007KT 7000 -RA FEW015CB BKN016 27/25 Q1007 TEMPO TL1000 -RA
WADD 030830Z 24007KT 9999 BKN016 28/25 Q1007 NOSIG
WADD 030800Z 24007KT 9999 BKN016 28/25 Q1007 NOSIG
WADD 030730Z 25009KT 9999 SCT016 28/25 Q1007 NOSIG
WADD 030700Z 26009KT 9999 SCT016 29/26 Q1007 NOSIG
WADD 030630Z 25008KT 210V270 9999 SCT016 28/26 Q1008 NOSIG
WADD 030600Z 26009KT 9999 SCT016 28/25 Q1008 NOSIG
WADD 030530Z 26009KT 9999 SCT016 28/25 Q1009 NOSIG</description><pubDate>Sat, 04 Jan 2025 05:21:59 </pubDate></item></channel></rss>