<rss version="2.0"><channel><title>Aviation Weather METAR Data for WADD</title><link>https://aviationweather.gov/api/data/metar?ids=WADD&amp;hours=24</link><description>Latest METAR data for WADD</description><item><title>2026-04-30 11:00:12Z</title><link>https://aviationweather.gov/api/data/metar?ids=WADD&amp;hours=24</link><description>METAR WADD 301030Z 13010KT 9999 SCT016 29/26 Q1008 NOSIG
METAR WADD 301000Z 12011KT 9999 SCT016 29/26 Q1008 NOSIG
METAR WADD 300930Z 13013KT 9999 SCT016 29/26 Q1008 NOSIG
METAR WADD 300900Z 13012KT 9999 SCT016 30/27 Q1008 NOSIG
METAR WADD 300830Z 13013KT 9999 SCT016 30/26 Q1007 NOSIG
METAR WADD 300800Z 13013KT 9999 SCT016 30/27 Q1007 NOSIG
METAR WADD 300730Z 13012KT 9999 SCT016 31/27 Q1007 NOSIG
METAR WADD 300700Z 13012KT 9999 SCT017 31/26 Q1008 NOSIG
METAR WADD 300630Z 13011KT 9999 SCT016 31/27 Q1008 NOSIG
METAR WADD 300600Z 11010KT 9999 SCT016 31/26 Q1008 NOSIG
METAR WADD 300530Z 12010KT 9999 SCT016 31/26 Q1008 NOSIG
METAR WADD 300500Z 11011KT 9999 SCT016 31/27 Q1009 NOSIG
METAR WADD 300430Z 10012KT 9999 SCT016 31/26 Q1009 NOSIG
METAR WADD 300400Z 11011KT 9999 SCT016 31/26 Q1010 NOSIG
METAR WADD 300330Z 10012KT 9999 SCT016 31/26 Q1010 NOSIG
METAR WADD 300300Z 10012KT 9999 SCT016 31/26 Q1010 NOSIG
METAR WADD 300230Z 10014KT 9999 SCT016 29/26 Q1011 NOSIG
METAR WADD 300200Z 11013KT 9999 SCT016 29/27 Q1011 NOSIG
METAR WADD 300130Z 12011KT 9999 FEW015CB BKN016 27/26 Q1011 RERA NOSIG RMK CB IN APCH
SPECI WADD 300112Z 12005KT 5000 RA FEW015CB BKN016 28/26 Q1011 TEMPO TL0212 8000 -RA RMK CB IN APCH AND CLIMB-OUT
SPECI WADD 300108Z 12005KT 5000 RA BKN016 28/26 Q1011 TEMPO TL0208 -RA
METAR WADD 300100Z 12005KT 9999 BKN016 28/26 Q1011 NOSIG
METAR WADD 300030Z 11005KT 9999 FEW015CB BKN016 27/26 Q1011 NOSIG
SPECI WADD 292337Z 12009KT 6000 -TSRA FEW015CB BKN016 26/25 Q1010 TEMPO TL2437 -TSRA
METAR WADD 292330Z 10007KT 7000 -RA FEW015CB BKN016 26/25 Q1010 NOSIG RMK CB IN CLIMB-OUT
METAR WADD 292300Z 14006KT 080V160 7000 -RA FEW015CB BKN016 26/25 Q1010 NOSIG RMK CB IN CLIMB-OUT
METAR WADD 292230Z 07003KT 8000 FEW015CB BKN016 26/25 Q1009 RERA NOSIG RMK CB IN CLIMB-OUT
METAR WADD 292200Z 05005KT 7000 -RA FEW015CB BKN016 26/25 Q1009 NOSIG RMK CB IN CLIMB-OUT
METAR WADD 292130Z 34004KT 7000 -RA FEW015CB BKN016 26/25 Q1009 NOSIG RMK CB IN APCH
METAR WADD 292100Z VRB02KT 9999 FEW015CB BKN016 26/25 Q1009 NOSIG RMK CB IN APCH
METAR WADD 292030Z 02003KT 9999 FEW015CB SCT016 26/25 Q1009 NOSIG
METAR WADD 292000Z 02006KT 9999 FEW015CB SCT016 26/25 Q1009 NOSIG
METAR WADD 291930Z 01005KT 9999 FEW015CB SCT016 26/25 Q1009 NOSIG
METAR WADD 291900Z 05005KT 9999 FEW015CB SCT016 26/25 Q1009 NOSIG
METAR WADD 291830Z 01008KT 9999 FEW015CB SCT016 27/25 Q1010 NOSIG
METAR WADD 291800Z 01007KT 340V050 9999 FEW015CB SCT016 27/25 Q1010 N OSIG
METAR WADD 291730Z 36008KT 9999 FEW015CB SCT016 27/25 Q1010 NOSIG
METAR WADD 291700Z 09008KT 9999 FEW015CB SCT016 28/26 Q1010 NOSIG
METAR WADD 291630Z 12011KT 9999 FEW015CB SCT016 28/26 Q1010 NOSIG
METAR WADD 291600Z 13013KT 7000 FEW014CB BKN016 28/26 Q1010 RERA NOSI G RMK CB IN APCH
METAR WADD 291530Z 14011KT 2000 +RA FEW014CB BKN015 28/26 Q1010 TEMPO TL1700 5000 RA RMK CB IN CLIMB-OUT
METAR WADD 291500Z 14009KT 6000 -RA BKN016 29/26 Q1010 NOSIG
METAR WADD 291430Z 13008KT 9999 SCT016 29/26 Q1010 NOSIG
METAR WADD 291400Z 12010KT 9999 SCT016 29/26 Q1010 NOSIG
METAR WADD 291330Z 11008KT 9999 SCT016 29/26 Q1010 NOSIG
METAR WADD 291300Z 13010KT 9999 SCT016 29/26 Q1010 NOSIG
METAR WADD 291230Z 12010KT 9999 SCT016 29/26 Q1010 NOSIG
METAR WADD 291200Z 13011KT 9999 FEW016CB SCT016 29/26 Q1009 NOSIG
METAR WADD 291130Z 14010KT 9999 FEW016CB SCT016 29/26 Q1009 NOSIG</description><pubDate>Thu, 30 Apr 2026 11:00:12 </pubDate></item></channel></rss>