<rss version="2.0"><channel><title>Aviation Weather METAR Data for WADD</title><link>https://aviationweather.gov/api/data/metar?ids=WADD&amp;hours=24</link><description>Latest METAR data for WADD</description><item><title>2025-08-17 14:44:29Z</title><link>https://aviationweather.gov/api/data/metar?ids=WADD&amp;hours=24</link><description>WADD 171430Z 10009KT 9999 FEW017 26/24 Q1013 NOSIG
WADD 171400Z 11011KT 9999 FEW017 26/24 Q1013 NOSIG
WADD 171330Z 11011KT 9999 FEW017 26/24 Q1013 NOSIG
WADD 171300Z 11010KT 9999 SCT017 26/24 Q1013 NOSIG
WADD 171230Z 12012KT 9999 FEW017 26/24 Q1012 NOSIG
WADD 171200Z 12012KT 9999 FEW017 26/24 Q1012 NOSIG
WADD 171130Z 12011KT 9999 FEW017 27/24 Q1012 NOSIG
WADD 171100Z 13014KT 9999 FEW017 27/24 Q1011 NOSIG
WADD 171030Z 13015KT 9999 FEW017 27/24 Q1011 NOSIG
WADD 171000Z 13014KT 9999 FEW017 27/24 Q1011 NOSIG
WADD 170930Z 12015KT 9999 FEW017 28/24 Q1011 NOSIG
WADD 170900Z 13016KT 9999 FEW017 28/24 Q1010 NOSIG
WADD 170830Z 11015KT 9999 FEW017 28/23 Q1010 NOSIG
WADD 170800Z 12015KT 9999 FEW017 28/23 Q1010 NOSIG
WADD 170730Z 13019KT 9999 FEW017 28/23 Q1010 NOSIG
WADD 170700Z 12017KT 9999 FEW017 28/23 Q1010 NOSIG
WADD 170630Z 12017KT 9999 FEW017 28/23 Q1010 NOSIG
WADD 170600Z 13017KT 9999 FEW017 29/23 Q1011 NOSIG
WADD 170530Z 12017KT 9999 FEW017 29/23 Q1011 NOSIG
WADD 170500Z 12015KT 9999 FEW017 29/23 Q1012 NOSIG
WADD 170430Z 11015KT 9999 SCT016 29/23 Q1012 NOSIG
WADD 170400Z 11015KT 9999 SCT016 29/24 Q1012 NOSIG
WADD 170330Z 11012KT 9999 SCT016 29/24 Q1013 NOSIG
WADD 170300Z 11014KT 9999 SCT016 28/23 Q1013 NOSIG
WADD 170230Z 11009KT 9999 FEW016 28/24 Q1013 NOSIG
WADD 170200Z 12008KT 9999 FEW016 28/24 Q1013 NOSIG
WADD 170130Z 12008KT 9999 FEW016 27/24 Q1013 NOSIG
WADD 170100Z 10006KT 9999 FEW017 27/24 Q1013 NOSIG
WADD 170030Z 12006KT 9999 FEW017 26/24 Q1013 NOSIG
WADD 170000Z 06005KT 020V090 9999 FEW017 26/23 Q1013 NOSIG
WADD 162330Z 05004KT 010V130 9999 FEW016 25/23 Q1013 NOSIG
WADD 162300Z 36005KT 9999 FEW016 24/22 Q1012 NOSIG
WADD 162230Z 01006KT 9999 FEW017 24/23 Q1012 NOSIG
WADD 162200Z 08005KT 9999 SCT016 25/24 Q1011 NOSIG
WADD 162130Z 12007KT 9999 FEW017 26/24 Q1011 NOSIG
WADD 162100Z 11007KT 9999 FEW017 26/24 Q1011 NOSIG
WADD 162030Z 12008KT 9999 FEW017 26/24 Q1011 NOSIG
WADD 162000Z 10006KT 9999 SCT016 26/24 Q1011 NOSIG
WADD 161930Z 10007KT 9999 SCT016 25/24 Q1011 NOSIG
WADD 161900Z 09007KT 9999 FEW017 25/24 Q1011 NOSIG
WADD 161830Z 12010KT 9999 FEW017 26/24 Q1010 NOSIG
WADD 161800Z 12009KT 9999 SCT016 26/24 Q1011 NOSIG
WADD 161730Z 12010KT 9999 SCT016 26/24 Q1011 NOSIG
WADD 161700Z 12008KT 9999 FEW017 26/24 Q1011 NOSIG
WADD 161630Z 13008KT 9999 FEW017 26/24 Q1012 NOSIG
WADD 161600Z 12009KT 9999 FEW017 26/24 Q1011 NOSIG
WADD 161530Z 11007KT 9999 FEW017 26/24 Q1011 NOSIG
WADD 161500Z 10007KT 9999 FEW017 25/24 Q1012 NOSIG</description><pubDate>Sun, 17 Aug 2025 14:44:29 </pubDate></item></channel></rss>