<rss version="2.0"><channel><title>Aviation Weather METAR Data for WADD</title><link>https://aviationweather.gov/api/data/metar?ids=WADD&amp;hours=24</link><description>Latest METAR data for WADD</description><item><title>2026-06-19 12:14:54Z</title><link>https://aviationweather.gov/api/data/metar?ids=WADD&amp;hours=24</link><description>METAR WADD 191200Z 13010KT 9999 BKN016 27/25 Q1012 NOSIG
METAR WADD 191130Z 13010KT 9999 SCT016 27/25 Q1012 NOSIG
METAR WADD 191100Z 14013KT 9999 SCT016 27/25 Q1012 NOSIG
METAR WADD 191030Z 13012KT 9999 SCT016 27/25 Q1011 NOSIG
METAR WADD 191000Z 13012KT 9999 SCT016 27/25 Q1011 NOSIG
METAR WADD 190930Z 13014KT 9999 SCT016 27/25 Q1011 NOSIG
METAR WADD 190900Z 13013KT 9999 SCT016 28/25 Q1011 NOSIG
METAR WADD 190830Z 13014KT 9999 SCT016 28/25 Q1011 NOSIG
METAR WADD 190800Z 14015KT 9999 SCT016 28/24 Q1011 NOSIG
METAR WADD 190730Z 12013KT 9999 SCT016 29/25 Q1011 NOSIG
METAR WADD 190700Z 14012KT 9999 SCT016 28/25 Q1011 NOSIG
METAR WADD 190630Z 13013KT 9999 SCT016 28/25 Q1011 NOSIG
METAR WADD 190600Z 13013KT 9999 SCT016 29/25 Q1011 NOSIG
METAR WADD 190530Z 12012KT 9999 SCT017 29/24 Q1012 NOSIG
METAR WADD 190500Z 11013KT 9999 SCT017 30/24 Q1012 NOSIG
METAR WADD 190430Z 11010KT 9999 SCT017 30/25 Q1012 NOSIG
METAR WADD 190400Z 12013KT 9999 SCT017 30/25 Q1013 NOSIG
METAR WADD 190330Z 12009KT 9999 SCT017 29/25 Q1013 NOSIG
METAR WADD 190300Z 11008KT 9999 FEW017 30/25 Q1013 NOSIG
METAR WADD 190230Z 11007KT 070V130 9999 FEW017 30/25 Q1013 NOSIG
METAR WADD 190200Z 13006KT 080V150 9999 FEW017 30/25 Q1013 NOSIG
METAR WADD 190130Z 12005KT 9999 FEW017 29/24 Q1013 NOSIG
METAR WADD 190100Z 14004KT 9999 FEW017 29/25 Q1014 NOSIG
METAR WADD 190030Z 36004KT 320V030 9999 FEW017 28/24 Q1013 NOSIG
METAR WADD 190000Z 03004KT 9999 FEW017 27/24 Q1013 NOSIG
METAR WADD 182330Z 07004KT 020V120 9999 FEW017 25/23 Q1013 NOSIG
METAR WADD 182300Z 05001KT 9999 FEW017 24/23 Q1013 NOSIG
METAR WADD 182230Z 34001KT 9999 FEW017 24/23 Q1012 NOSIG
METAR WADD 182200Z VRB01KT 9999 FEW017 24/23 Q1012 NOSIG
METAR WADD 182130Z 05002KT 9999 FEW017 24/23 Q1012 NOSIG
METAR WADD 182100Z 03003KT 9999 FEW017 25/23 Q1012 NOSIG
METAR WADD 182030Z 03004KT 9999 FEW017 25/24 Q1012 NOSIG
METAR WADD 182000Z 02004KT 9999 FEW017 25/24 Q1012 NOSIG
METAR WADD 181930Z 09004KT 9999 FEW017 26/25 Q1012 NOSIG
METAR WADD 181900Z 10005KT 9999 FEW017 26/25 Q1012 NOSIG
METAR WADD 181830Z 09006KT 9999 FEW017 25/24 Q1013 NOSIG
METAR WADD 181800Z 11005KT 9999 FEW017 26/25 Q1013 NOSIG
METAR WADD 181730Z 11006KT 9999 FEW017 26/25 Q1013 NOSIG
METAR WADD 181700Z 11007KT 9999 FEW016CB SCT017 26/25 Q1013 NOSIG
METAR WADD 181630Z 11012KT 9999 FEW016CB SCT017 26/25 Q1013 RERA NOSIG RMK CB IN APCH
SPECI WADD 181611Z 10007KT 3000 RA FEW015CB BKN016 27/25 Q1013 TEMPO TL1730 3000 RA RMK CB IN APCH AND CLIMB-OUT
METAR WADD 181600Z 10007KT 9999 FEW016CB SCT017 27/25 Q1013 NOSIG
METAR WADD 181530Z 10009KT 9999 FEW016CB SCT017 27/25 Q1013 NOSIG RMK CB IN APCH
METAR WADD 181500Z 10009KT 9999 FEW017 27/25 Q1013 NOSIG
METAR WADD 181430Z 11007KT 9999 FEW017 27/25 Q1013 NOSIG
METAR WADD 181400Z 12007KT 9999 FEW017 27/25 Q1013 NOSIG
METAR WADD 181330Z 12007KT 9999 FEW017 27/25 Q1013 NOSIG
METAR WADD 181300Z 12008KT 9999 FEW017 27/25 Q1013 NOSIG
METAR WADD 181230Z 12008KT 9999 FEW017 27/25 Q1012 NOSIG</description><pubDate>Fri, 19 Jun 2026 12:14:54 </pubDate></item></channel></rss>