<rss version="2.0"><channel><title>Aviation Weather METAR Data for WADD</title><link>https://aviationweather.gov/api/data/metar?ids=WADD&amp;hours=24</link><description>Latest METAR data for WADD</description><item><title>2025-10-04 12:47:02Z</title><link>https://aviationweather.gov/api/data/metar?ids=WADD&amp;hours=24</link><description>METAR WADD 041230Z 15005KT 9999 FEW017 28/25 Q1013 NOSIG
METAR WADD 041200Z 14006KT 9999 FEW017 28/25 Q1012 NOSIG
METAR WADD 041130Z 13005KT 9999 FEW017 28/25 Q1012 NOSIG
METAR WADD 041100Z 13007KT 9999 FEW017 28/25 Q1012 NOSIG
METAR WADD 041030Z 16008KT 9999 FEW017 29/25 Q1011 NOSIG
METAR WADD 041000Z 15009KT 9999 FEW017 29/25 Q1011 NOSIG
METAR WADD 040930Z 14008KT 9999 SCT017 29/25 Q1011 NOSIG
METAR WADD 040900Z 15009KT 9999 FEW017 30/24 Q1010 NOSIG
METAR WADD 040830Z 15010KT 9999 FEW017 30/25 Q1010 NOSIG
METAR WADD 040700Z 16008KT 9999 FEW017 30/25 Q1010 NOSIG
METAR WADD 040630Z 14007KT 9999 FEW017 31/24 Q1011 NOSIG
METAR WADD 040600Z 14010KT 9999 FEW017 31/25 Q1011 NOSIG
METAR WADD 040530Z 18005KT 140V220 9999 OVC033 30/25 Q1011 NOSIG
METAR WADD 040500Z 25005KT 9999 FEW017 31/24 Q1011 NOSIG
METAR WADD 040430Z 25006KT 9999 FEW017 31/25 Q1012 NOSIG
METAR WADD 040400Z 25006KT 9999 FEW017 31/25 Q1012 NOSIG
METAR WADD 040330Z 09007KT 9999 FEW017 30/24 Q1013 NOSIG
METAR WADD 040300Z 08008KT 060V130 9999 FEW017 30/24 Q1013 NOSIG
METAR WADD 040230Z 10006KT 060V130 9999 FEW017 30/23 Q1013 NOSIG
METAR WADD 040200Z 08006KT 050V130 9999 FEW0117 30/24 Q1014 NOSIG
METAR WADD 040130Z 07006KT 040V120 9999 SCT016 30/24 Q1014 NOSIG
METAR WADD 040100Z 08004KT 030V150 9999 SCT016 29/23 Q1014 NOSIG
METAR WADD 040030Z 06003KT 9999 FEW016 29/24 Q1014 NOSIG
METAR WADD 040000Z VRB02KT 9999 FEW016 28/23 Q1014 NOSIG
 WADD 032330Z VRB02KT 9999 FEW016 28/24 Q1014 NOSIG
METAR WADD 032300Z VRB02KT 9999 FEW016 26/24 Q1013 NOSIG
METAR WADD 032230Z 01004KT 9999 FEW016 25/23 Q1013 NOSIG
METAR WADD 032200Z VRB01KT 9999 BKN016 26/23 Q1013 NOSIG
 WADD 032130Z VRB01KT 9999 BKN016 26/24 Q1013 NOSIG
METAR WADD 032100Z VRB02KT 9999 SCT016 26/24 Q1013 NOSIG
 WADD 032030Z VRB01KT 9999 SCT016 25/23 Q1012 NOSIG
METAR WADD 032000Z 16002KT 9999 SCT016 26/23 Q1012 NOSIG
METAR WADD 031930Z VRB02KT 9999 SCT016 25/23 Q1012 NOSIG
METAR WADD 031900Z VRB01KT 9999 SCT016 25/23 Q1012 NOSIG
METAR WADD 031830Z 23002KT 9999 SCT016 26/23 Q1012 NOSIG
METAR WADD 031800Z VRB01KT 9999 SCT016 26/23 Q1013 NOSIG
METAR WADD 031730Z 29001KT 9999 SCT016 26/23 Q1013 NOSIG
METAR WADD 031700Z 00000KT 9999 SCT016 25/23 Q1013 NOSIG
METAR WADD 031630Z 27002KT 9999 SCT016 26/23 Q1013 NOSIG
METAR WADD 031600Z 25001KT 9999 SCT016 26/23 Q1014 NOSIG
METAR WADD 031530Z 24002KT 9999 SCT016 26/24 Q1014 NOSIG
METAR WADD 031500Z VRB01KT 9999 SCT016 26/24 Q1014 NOSIG
METAR WADD 031430Z 25001KT 9999 SCT016 26/24 Q1014 NOSIG
METAR WADD 031400Z VRB01KT 9999 SCT016 27/24 Q1014 NOSIG
METAR WADD 031330Z 25002KT 9999 SCT016 27/24 Q1014 NOSIG
METAR WADD 031300Z 26002KT 9999 SCT016 27/24 Q1014 NOSIG</description><pubDate>Sat, 04 Oct 2025 12:47:02 </pubDate></item></channel></rss>