<rss version="2.0"><channel><title>Aviation Weather METAR Data for WADD</title><link>https://aviationweather.gov/api/data/metar?ids=WADD&amp;hours=24</link><description>Latest METAR data for WADD</description><item><title>2025-06-06 10:48:22Z</title><link>https://aviationweather.gov/api/data/metar?ids=WADD&amp;hours=24</link><description>WADD 061030Z 14010KT 9999 SCT016 29/25 Q1009 NOSIG
WADD 061000Z 14012KT 9999 FEW016 29/26 Q1009 NOSIG
WADD 060930Z 13012KT 9999 FEW017 29/25 Q1009 NOSIG
WADD 060900Z 14012KT 9999 FEW017 29/25 Q1009 NOSIG
WADD 060830Z 14012KT 9999 FEW017 30/25 Q1009 NOSIG
WADD 060800Z 15011KT 9999 FEW017 30/25 Q1009 NOSIG
WADD 060730Z 14012KT 9999 SCT017 30/25 Q1009 NOSIG
WADD 060700Z 14013KT 9999 FEW017 30/25 Q1009 NOSIG
WADD 060630Z 14012KT 9999 FEW017 30/25 Q1009 NOSIG
WADD 060600Z 14012KT 9999 FEW017 30/25 Q1009 NOSIG
WADD 060530Z 14011KT 9999 FEW017 31/25 Q1010 NOSIG
WADD 060500Z 11012KT 9999 SCT017 31/25 Q1010 NOSIG
WADD 060430Z 12012KT 9999 SCT017 31/25 Q1010 NOSIG
WADD 060400Z 11011KT 9999 SCT017 31/25 Q1011 NOSIG
WADD 060330Z 10011KT 9999 SCT017 30/25 Q1011 NOSIG
WADD 060300Z 10011KT 9999 SCT017 30/25 Q1012 NOSIG
WADD 060230Z 13009KT 9999 SCT017 30/25 Q1012 NOSIG
WADD 060200Z 10008KT 9999 SCT017 29/25 Q1012 NOSIG
WADD 060130Z 10006KT 070V140 9999 SCT017 29/25 Q1012 NOSIG
WADD 060100Z 08005KT 9999 FEW017 29/26 Q1012 NOSIG
WADD 060030Z 10003KT 9999 FEW017 28/25 Q1012 NOSIG
WADD 060000Z 07004KT 050V120 9999 FEW017 27/24 Q1012 NOSIG
WADD 052330Z 12003KT 9999 FEW024 26/24 Q1012 NOSIG
WADD 052300Z VRB01KT 9999 FEW017 25/23 Q1012 NOSIG
WADD 052230Z 06003KT 9999 FEW017 25/23 Q1011 NOSIG
WADD 052200Z 06003KT 9999 FEW017 24/23 Q1011 NOSIG
WADD 052130Z 08003KT 9999 FEW017 25/24 Q1011 NOSIG
WADD 052100Z VRB01KT 9999 FEW017 25/23 Q1011 NOSIG
WADD 052030Z VRB01KT 9999 FEW017 26/24 Q1011 NOSIG
WADD 052000Z 07004KT 9999 FEW017 25/24 Q1011 NOSIG
WADD 051930Z 06005KT 9999 SCT017 25/24 Q1011 NOSIG
WADD 051900Z 07006KT 9999 SCT017 26/24 Q1011 NOSIG
WADD 051830Z 04004KT 9999 SCT016 26/24 Q1011 NOSIG
WADD 051800Z 02004KT 9999 SCT016 26/24 Q1011 NOSIG
WADD 051730Z 02005KT 9999 SCT017 26/24 Q1012 NOSIG
WADD 051700Z 03006KT 9999 FEW017 27/24 Q1012 NOSIG
WADD 051630Z 06006KT 010V100 9999 FEW017 27/24 Q1012 NOSIG
WADD 051600Z 06006KT 9999 FEW017 27/24 Q1012 NOSIG
WADD 051530Z 08007KT 9999 FEW017 27/24 Q1012 NOSIG
WADD 051500Z 08007KT 9999 FEW017 27/24 Q1012 NOSIG
WADD 051430Z 12007KT 9999 FEW017 28/25 Q1012 NOSIG
WADD 051400Z 11007KT 9999 FEW017 28/24 Q1012 NOSIG
WADD 051330Z 12009KT 9999 FEW017 28/24 Q1012 NOSIG
WADD 051300Z 13008KT 9999 FEW017 28/25 Q1012 NOSIG
WADD 051230Z 13008KT 9999 FEW017 28/25 Q1012 NOSIG
WADD 051200Z 13006KT 9999 FEW017 28/25 Q1011 NOSIG
WADD 051130Z 13007KT 9999 FEW017 28/24 Q1011 NOSIG
WADD 051100Z 13009KT 9999 FEW017 28/25 Q1011 NOSIG</description><pubDate>Fri, 06 Jun 2025 10:48:22 </pubDate></item></channel></rss>