<rss version="2.0"><channel><title>Aviation Weather METAR Data for WADD</title><link>https://aviationweather.gov/api/data/metar?ids=WADD&amp;hours=24</link><description>Latest METAR data for WADD</description><item><title>2025-02-07 10:43:02Z</title><link>https://aviationweather.gov/api/data/metar?ids=WADD&amp;hours=24</link><description>WADD 071030Z 25006KT 9999 FEW017 29/26 Q1006 NOSIG
WADD 071000Z 25008KT 9999 FEW017 30/26 Q1006 NOSIG
WADD 070930Z 26007KT 9999 FEW017 30/26 Q1006 NOSIG
WADD 070900Z 27008KT 9999 FEW017 30/26 Q1005 NOSIG
WADD 070830Z 26007KT 9999 FEW017 30/26 Q1005 NOSIG
WADD 070800Z 26008KT 220V290 9999 FEW017 31/26 Q1005 NOSIG
WADD 070730Z 25007KT 200V290 9999 FEW017 31/26 Q1005 NOSIG
WADD 070700Z 27008KT 220V290 9999 FEW017 31/25 Q1006 NOSIG
WADD 070630Z 27008KT 9999 FEW017 31/25 Q1006 NOSIG
WADD 070600Z 29009KT 240V330 9999 FEW017 32/26 Q1006 NOSIG
WADD 070530Z 28009KT 9999 FEW017 31/26 Q1006 NOSIG
WADD 070500Z 26008KT 240V300 9999 FEW017 31/26 Q1007 NOSIG
WADD 070430Z 29009KT 250V320 9999 FEW017 31/27 Q1007 NOSIG
WADD 070400Z 28009KT 240V320 9999 FEW017 31/26 Q1007 NOSIG
WADD 070330Z 28009KT 250V320 9999 FEW017 31/26 Q1008 NOSIG
WADD 070300Z 29009KT 9999 SCT017 30/26 Q1008 NOSIG
WADD 070230Z 29009KT 9999 SCT017 30/27 Q1008 NOSIG
WADD 070200Z 26009KT 9999 FEW017 30/26 Q1008 NOSIG
WADD 070130Z 28010KT 9999 FEW017 30/26 Q1008 NOSIG
WADD 070100Z 26010KT 9999 FEW016 30/26 Q1008 NOSIG
WADD 070030Z 26008KT 9999 SCT016 29/26 Q1008 NOSIG
WADD 070000Z 26005KT 9999 SCT016 29/26 Q1008 NOSIG
WADD 062330Z 26004KT 9999 BKN016 28/26 Q1008 NOSIG
WADD 062300Z 27006KT 9999 FEW016 27/26 Q1007 NOSIG
WADD 062230Z 27006KT 9999 FEW016 27/25 Q1007 NOSIG
WADD 062200Z 27007KT 9999 SCT016 27/25 Q1007 NOSIG
WADD 062130Z 27007KT 9999 SCT016 27/26 Q1006 NOSIG
WADD 062100Z 28010KT 9999 SCT016 28/25 Q1006 NOSIG
WADD 062030Z 28009KT 9999 SCT016 28/26 Q1006 NOSIG
WADD 062000Z 28009KT 9999 SCT016 28/26 Q1006 NOSIG
WADD 061930Z 30007KT 9999 SCT016 28/26 Q1006 NOSIG
WADD 061900Z 28011KT 9999 SCT016 28/26 Q1006 NOSIG
WADD 061830Z 28007KT 9999 FEW017 27/26 Q1006 NOSIG
WADD 061800Z 27007KT 9999 FEW017 28/25 Q1006 NOSIG
WADD 061730Z 26005KT 9999 FEW017 28/25 Q1006 NOSIG
WADD 061700Z 26005KT 9999 FEW017 28/25 Q1007 NOSIG
WADD 061630Z 27007KT 9999 FEW017 28/25 Q1007 NOSIG
WADD 061600Z 26005KT 9999 FEW017 28/25 Q1007 NOSIG
WADD 061530Z 27006KT 9999 FEW017 27/24 Q1007 NOSIG
WADD 061500Z 26004KT 9999 FEW016 28/24 Q1007 NOSIG
WADD 061430Z 26004KT 9999 FEW016 27/24 Q1008 NOSIG
WADD 061400Z 25004KT 9999 FEW016 28/23 Q1007 NOSIG
WADD 061330Z 27003KT 9999 SCT016 27/23 Q1007 NOSIG
WADD 061300Z 31003KT 9999 SCT016 27/22 Q1007 NOSIG
WADD 061230Z VRB02KT 9999 SCT016 27/23 Q1007 NOSIG
WADD 061200Z 35004KT 300V030 9999 SCT016 27/23 Q1007 NOSIG
WADD 061130Z VRB03KT 9999 SCT016 26/23 Q1006 NOSIG
WADD 061100Z 34008G19KT 9999 FEW015CB BKN015 26/23 Q1006 NOSIG</description><pubDate>Fri, 07 Feb 2025 10:43:02 </pubDate></item></channel></rss>