<rss version="2.0"><channel><title>Aviation Weather METAR Data for WADD</title><link>https://aviationweather.gov/api/data/metar?ids=WADD&amp;hours=24</link><description>Latest METAR data for WADD</description><item><title>2025-10-11 04:28:26Z</title><link>https://aviationweather.gov/api/data/metar?ids=WADD&amp;hours=24</link><description>METAR WADD 110400Z 14008KT 9999 SCT017 31/25 Q1011 NOSIG
 WADD 110330Z 13009KT 9999 SCT016 30/25 Q1012 NOSIG
METAR WADD 110300Z 14007KT 9999 SCT016 30/25 Q1012 NOSIG
METAR WADD 110230Z 13009KT 9999 SCT016 30/25 Q1012 NOSIG
METAR WADD 110200Z 13008KT 9999 SCT016 29/25 Q1013 NOSIG
METAR WADD 110130Z 14007KT 9999 SCT016 29/25 Q1013 NOSIG
 WADD 110100Z 13005KT 090V160 9999 SCT016 29/25 Q1013 NOSIG
METAR WADD 110030Z 13008KT 9999 SCT016 29/25 Q1013 NOSIG
METAR WADD 110000Z 15005KT 9999 SCT016 28/25 Q1013 NOSIG
METAR WADD 102330Z 14003KT 9999 SCT016 28/25 Q1012 NOSIG
METAR WADD 102300Z 15004KT 9999 SCT016 27/25 Q1012 NOSIG
METAR WADD 102230Z 15004KT 9999 SCT016 27/24 Q1012 NOSIG
METAR WADD 102200Z 14004KT 9999 SCT01627/25 Q1011 NOSIG
METAR WADD 102130Z 14006KT 9999 SCT016 27/25 Q1011 NOSIG
METAR WADD 102100Z 14007KT 9999 SCT016 27/25 Q1011 NOSIG
METAR WADD 102030Z 13004KT 9999 SCT016 27/24 Q1011 NOSIG
METAR WADD 102000Z 14006KT 9999 SCT016 27/24 Q1011 NOSIG
METAR WADD 101930Z 14007KT 9999 SCT016 27/25 Q1011 NOSIG
METAR WADD 101900Z 14006KT 9999 SCT016 27/25 Q1011 NOSIG
METAR WADD 101830Z 13007KT 9999 SCT016 27/25 Q1011 NOSIG
METAR WADD 101800Z 13008KT 9999 SCT016 27/25 Q1011 NOSIG
METAR WADD 101730Z 12006KT 9999 SCT016 27/24 Q1011 NOSIG
METAR WADD 101700Z 15007KT 9999 SCT016 27/25 Q1011 NOSIG
METAR WADD 101630Z 13006KT 9999 SCT016 27/25 Q1012 NOSIG
METAR WADD 101600Z 14008KT 9999 SCT016 27/25 Q1012 NOSIG
METAR WADD 101530Z 14009KT 9999 SCT016 28/25 Q1012 NOSIG
METAR WADD 101500Z 13009KT 9999 SCT016 28/25 Q1012 NOSIG
METAR WADD 101430Z 14010KT 9999 SCT016 28/25 Q1012 NOSIG
METAR WADD 101400Z 14010KT 9999 SCT016 28/25 Q1013 NOSIG
METAR WADD 101330Z 14009KT 9999 SCT016 28/24 Q1012 NOSIG
METAR WADD 101300Z 13010KT 9999 SCT016 28/25 Q1012 NOSIG
METAR WADD 101230Z 13008KT 9999 SCT016 28/24 Q1012 NOSIG
METAR WADD 101200Z 14007KT 9999 SCT016 28/24 Q1012 NOSIG
METAR WADD 101130Z 14008KT 9999 SCT016 28/24 Q1012 NOSIG
METAR WADD 101100Z 16009KT 9999 SCT016 28/24 Q1011 NOSIG
METAR WADD 101030Z 16010KT 9999 SCT016 28/25 Q1011 NOSIG
METAR WADD 101000Z 16010KT 9999 FEW017 28/24 Q1011 NOSIG
METAR WADD 100930Z 16009KT 9999 FEW017 29/24 Q1010 NOSIG
METAR WADD 100900Z 16007KT 9999 FEW016 29/24 Q1010 NOSIG
METAR WADD 100830Z 16009KT 9999 FEW016 29/24 Q1010 NOSIG
METAR WADD 100800Z 18010KT 9999 FEW016 29/24 Q1010 NOSIG
METAR WADD 100730Z 18011KT 9999 FEW016 30/24 Q1009 NOSIG
METAR WADD 100700Z 16011KT 9999 FEW016 30/24 Q1009 NOSIG
METAR WADD 100630Z 17011KT 9999 FEW016 31/24 Q1010 NOSIG
METAR WADD 100600Z 17009KT 9999 FEW016 31/24 Q1010 NOSIG
METAR WADD 100530Z 19007KT 9999 FEW016 31/24 Q1010 NOSIG
METAR WADD 100500Z 17008KT 9999 SCT016 31/24 Q1011 NOSIG
METAR WADD 100430Z 12008KT 090V160 9999 SCT016 30/24 Q1011 NOSIG</description><pubDate>Sat, 11 Oct 2025 04:28:26 </pubDate></item></channel></rss>