<rss version="2.0"><channel><title>Aviation Weather METAR Data for WADD</title><link>https://aviationweather.gov/api/data/metar?ids=WADD&amp;hours=24</link><description>Latest METAR data for WADD</description><item><title>2025-02-07 22:40:42Z</title><link>https://aviationweather.gov/api/data/metar?ids=WADD&amp;hours=24</link><description>WADD 072230Z 25010KT 9999 FEW016CB BKN016 29/26 Q1007 NOSIG
WADD 072200Z 25009KT 9999 FEW016CB BKN016 29/26 Q1007 NOSIG
WADD 072130Z 26011KT 9999 FEW016CB BKN016 29/26 Q1006 NOSIG
WADD 072100Z 25008KT 9999 FEW016CB SCT016 29/26 Q1006 NOSIG
WADD 072030Z 25010KT 9999 FEW016CB SCT016 29/26 Q1006 NOSIG
WADD 072000Z 25011KT 9999 SCT016 29/26 Q1006 NOSIG
WADD 071930Z 26011KT 9999 SCT016 29/26 Q1006 NOSIG
WADD 071900Z 26013KT 9999 FEW016CB BKN016 28/26 Q1006 NOSIG
WADD 071830Z 26011KT 9999 few016cb BKN016 28/26 Q1006 RERA NOSIG
WADD 071800Z 24009KT 5000 RA FEW016CB BKN016 29/26 Q1006 TEMPO TL1900 5000 RA
WADD 071730Z 26011KT 9999 SCT017 29/26 Q1007 NOSIG
WADD 071700Z 27013KT 9999 SCT017 29/25 Q1007 NOSIG
WADD 071630Z 27012KT 9999 SCT017 29/25 Q1007 NOSIG
WADD 071600Z 27010KT 9999 SCT017 29/26 Q1008 NOSIG
WADD 071530Z 27009KT 9999 FEW017 29/26 Q1008 NOSIG
WADD 071500Z 27010KT 9999 SCT017 29/26 Q1009 NOSIG
WADD 071430Z 27008KT 9999 SCT017 29/26 Q1009 NOSIG
WADD 071400Z 27008KT 9999 SCT017 29/26 Q1009 NOSIG
WADD 071330Z 26006KT 9999 SCT017 29/26 Q1009 NOSIG
WADD 071300Z 26006KT 9999 SCT017 29/26 Q1008 NOSIG
WADD 071230Z 24005KT 9999 FEW017 29/26 Q1008 NOSIG
WADD 071200Z 23004KT 9999 FEW017 29/26 Q1008 NOSIG
WADD 071130Z 24005KT 200V270 9999 FEW017 29/26 Q1007 NOSIG
WADD 071100Z 26007KT 9999 FEW017 29/26 Q1007 NOSIG
WADD 071030Z 25006KT 9999 FEW017 29/26 Q1006 NOSIG
WADD 071000Z 25008KT 9999 FEW017 30/26 Q1006 NOSIG
WADD 070930Z 26007KT 9999 FEW017 30/26 Q1006 NOSIG
WADD 070900Z 27008KT 9999 FEW017 30/26 Q1005 NOSIG
WADD 070830Z 26007KT 9999 FEW017 30/26 Q1005 NOSIG
WADD 070800Z 26008KT 220V290 9999 FEW017 31/26 Q1005 NOSIG
WADD 070730Z 25007KT 200V290 9999 FEW017 31/26 Q1005 NOSIG
WADD 070700Z 27008KT 220V290 9999 FEW017 31/25 Q1006 NOSIG
WADD 070630Z 27008KT 9999 FEW017 31/25 Q1006 NOSIG
WADD 070600Z 29009KT 240V330 9999 FEW017 32/26 Q1006 NOSIG
WADD 070530Z 28009KT 9999 FEW017 31/26 Q1006 NOSIG
WADD 070500Z 26008KT 240V300 9999 FEW017 31/26 Q1007 NOSIG
WADD 070430Z 29009KT 250V320 9999 FEW017 31/27 Q1007 NOSIG
WADD 070400Z 28009KT 240V320 9999 FEW017 31/26 Q1007 NOSIG
WADD 070330Z 28009KT 250V320 9999 FEW017 31/26 Q1008 NOSIG
WADD 070300Z 29009KT 9999 SCT017 30/26 Q1008 NOSIG
WADD 070230Z 29009KT 9999 SCT017 30/27 Q1008 NOSIG
WADD 070200Z 26009KT 9999 FEW017 30/26 Q1008 NOSIG
WADD 070130Z 28010KT 9999 FEW017 30/26 Q1008 NOSIG
WADD 070100Z 26010KT 9999 FEW016 30/26 Q1008 NOSIG
WADD 070030Z 26008KT 9999 SCT016 29/26 Q1008 NOSIG
WADD 070000Z 26005KT 9999 SCT016 29/26 Q1008 NOSIG
WADD 062330Z 26004KT 9999 BKN016 28/26 Q1008 NOSIG
WADD 062300Z 27006KT 9999 FEW016 27/26 Q1007 NOSIG</description><pubDate>Fri, 07 Feb 2025 22:40:42 </pubDate></item></channel></rss>