<rss version="2.0"><channel><title>Aviation Weather METAR Data for WADD</title><link>https://aviationweather.gov/api/data/metar?ids=WADD&amp;hours=24</link><description>Latest METAR data for WADD</description><item><title>2025-05-09 11:40:56Z</title><link>https://aviationweather.gov/api/data/metar?ids=WADD&amp;hours=24</link><description>WADD 091130Z 27003KT 9999 SCT016 27/26 Q1009 NOSIG
WADD 091100Z VRB01KT 9999 SCT016 28/26 Q1009 NOSIG
WADD 091030Z VRB02KT 9999 SCT016 28/26 Q1008
WADD 091000Z VRB02KT 9999 FEW017 28/25 Q1008 NOSIG
WADD 090930Z 24004KT 9999 FEW016 28/25 Q1008 NOSIG
WADD 090900Z 26007KT 9999 FEW016 28/25 Q1007 NOSIG
WADD 090830Z 25008KT 9999 SCT016 28/27 Q1007 NOSIG
WADD 090800Z 15007KT 9999 FEW016CB SCT016 28/28 Q1007 NOSIG
WADD 090730Z 14007KT 9999 FEW015CB SCT016 29/29 Q1006 NOSIG
WADD 090700Z 13009KT 9999 FEW015CB SCT015 29/29 Q1007 NOSIG RMK CB IN APCH
WADD 090630Z 12006KT 9999 FEW015CB BKN015 30/29 Q1008 NOSIG
WADD 090600Z 11008KT 9999 SCT017 30/30 Q1008 NOSIG
WADD 090530Z 09006KT 040V130 9999 SCT017 31/30 Q1008 NOSIG
WADD 090500Z 10007KT 060V140 9999 SCT017 30/30 Q1008 NOSIG
WADD 090430Z 11008KT 9999 SCT017 29/29 Q1009 NOSIG
WADD 090400Z 12008KT 9999 SCT017 30/29 Q1009 NOSIG
WADD 090200Z 08008KT 9999 FEW017 29/28 Q1010 NOSIG
WADD 090130Z 08009KT 9999 SCT016 28/28 Q1010 NOSIG
WADD 090100Z 08009KT 9999 SCT016 27/27 Q1010 NOSIG
WADD 090000Z 13008KT 8000 FEW014CB SCT015 26/26 Q1009 RERA NOSIG RMK CB IN CLIMBT-OUT
WADD 082300Z 15005KT 9999 TS FEW015CB SCT016 26/26 Q1009 TEMPO TL0000 TS
WADD 082230Z 02004KT 360V080 9999 TS FEW015CB SCT016 25/25 Q1009 NOSIG
WADD 082200Z 01004KT 9999 FEW015CB SCT016 25/25 Q1008 NOSIG
WADD 082100Z 01004KT 9999 BKN016 26/26 Q1008 NOSIG
WADD 082030Z 07004KT 9999 BKN016 26/26 Q1008 NOSIG
WADD 082000Z VRB02KT 9999 FEW014CB BKN016 26/26 Q1008 NOSIG RMK CB IN CLIMB-OUT
WADD 081930Z VRB02KT 9999 SCT017 26/26 Q1008 NOSIG
WADD 081900Z 06003KT 9999 SCT017 26/26 Q1008 NOSIG
WADD 081830Z 05003KT 9999 SCT017 26/26 Q1008 NOSIG
WADD 081800Z 08003KT 9999 FEW017 26/26 Q1008 NOSIG
WADD 081700Z 05004KT 020V090 9999 FEW017 26/26 Q1009 NOSIG
WADD 081600Z 05006KT 9999 FEW017 26/25 Q1009 NOSIG
WADD 081530Z 04006KT 9999 FEW017 27/26 Q1009 NOSIG
WADD 081500Z 11009KT 9999 FEW017 27/26 Q1009 NOSIG
WADD 081430Z 11005KT 9999 FEW017 27/26 Q1009 NOSIG
WADD 081400Z 10005KT 9999 FEW017 27/26 Q1009 NOSIG
WADD 081300Z 12005KT 9999 FEW017 28/26 Q1009 NOSIG
WADD 081230Z 11007KT 9999 FEW017 28/26 Q1009 NOSIG</description><pubDate>Fri, 09 May 2025 11:40:56 </pubDate></item></channel></rss>