<rss version="2.0"><channel><title>Aviation Weather METAR Data for WADD</title><link>https://aviationweather.gov/api/data/metar?ids=WADD&amp;hours=24</link><description>Latest METAR data for WADD</description><item><title>2026-02-14 16:40:43Z</title><link>https://aviationweather.gov/api/data/metar?ids=WADD&amp;hours=24</link><description>METAR WADD 141630Z 29010KT 9999 SCT016 27/25 Q1008 NOSIG
METAR WADD 141600Z 28009KT 9999 FEW016CB SCT016 27/25 Q1008 NOSIG RMK CB IN APCH
METAR WADD 141530Z 30009KT 9999 FEW015CB BKN015 28/25 Q1009 RERA NOSIG RMK CB IN APCH
METAR WADD 141500Z 20004KT 170V270 3000 RA FEW015CB BKN015 27/25 Q1009 TEMPO TL1600 4000 RA RMK CB IN APCH AND CLIMB-OUT
METAR WADD 141430Z 27009KT 6000 -RA FEW015CB BKN015 27/25 Q1009 TEMPO TL1530 6000 -RA RMK CB IN APCH AND CLIMB-OUT
METAR WADD 141400Z 29013KT 9999 FEW016CB BKN016 28/24 Q1009 NOSIG RMK CB IN APCH
METAR WADD 141330Z 29013KT 9999 FEW016CB SCT016 28/25 Q1009 NOSIG RMK CB IN APCH
METAR WADD 141300Z 26009KT 9999 FEW016CB SCT016 28/25 Q1008 NOSIG
METAR WADD 141230Z 26010KT 9999 SCT016 28/25 Q1008 NOSIG
METAR WADD 141200Z 27011KT 9999 SCT015 27/24 Q1008 NOSIG
METAR WADD 141130Z 27013KT 9999 FEW015CB BKN015 28/24 Q1008 NOSIG RMK CB IN APCH AND CLIMB-OUT
METAR WADD 141100Z 27014KT 9999 FEW015CB BKN015 28/25 Q1007 NOSIG RMK CB IN APCH AND CLIMB-OUT
METAR WADD 141030Z 27015KT 9999 FEW015CB BKN015 28/24 Q1007 NOSIG RMK CB IN APCH AND CLIMB-OUT
METAR WADD 141000Z 26014KT 9999 FEW015CB BKN015 28/24 Q1007 NOSIG RMK CB IN APCH AND CLIMB-OUT
METAR WADD 140930Z 26013KT 9999 FEW015CB BKN015 28/24 Q1007 NOSIG RMK CB IN APCH AND CLIMB-OUT
METAR WADD 140900Z 27013KT 9999 FEW015CB BKN015 29/25 Q1006 NOSIG RMK CB IN APCH AND CLIMB-OUT
METAR WADD 140830Z 26011KT 9999 FEW015CB BKN015 29/25 Q1006 NOSIG
METAR WADD 140800Z 27012KT 9999 BKN015 29/25 Q1006 NOSIG
METAR WADD 140730Z 30011KT 9999 BKN015 29/24 Q1006 NOSIG
METAR WADD 140700Z 29011KT 9999 BKN015 29/24 Q1007 NOSIG
METAR WADD 140630Z 28011KT 9999 BKN015 29/24 Q1007 NOSIG
METAR WADD 140600Z 27012KT 9999 SCT016 29/24 Q1007 NOSIG
METAR WADD 140530Z 28013KT 9999 SCT016 29/23 Q1007 NOSIG
METAR WADD 140500Z 29013KT 9999 SCT016 29/23 Q1008 NOSIG
METAR WADD 140430Z 29013KT 9999 SCT016 28/24 Q1008 NOSIG
METAR WADD 140400Z 29016KT 9999 SCT016 28/24 Q1008 NOSIG
METAR WADD 140330Z 29015KT 9999 BKN015 28/25 Q1009 RERA NOSIG
METAR WADD 140300Z 28017KT 8000 -RA FEW014CB BKN015 27/24 Q1009 TEMPO TL0400 -RA
METAR WADD 140230Z 28021KT 8000 -RA FEW014CB BKN015 27/24 Q1009 TEMPO TL0330 -RA
METAR WADD 140130Z 28024KT 6000 -RA FEW014CB BKN015 26/24 Q1009 TEMPO TL0230 6000 -RA RMK CB IN APCH
METAR WADD 140100Z 28013KT 8000 -RA FEW015CB BKN016 28/26 Q1009 TEMPO TL0200 -RA RMK CB IN CLIMB-OUT
METAR WADD 140030Z 28012KT 8000 -RA SCT016 27/25 Q1009 TEMPO TL0130 -RA
METAR WADD 140000Z 27013KT 8000 -RA SCT016 26/23 Q1009 TEMPO TL0100 -RA
METAR WADD 132330Z 27012KT 8000 -RA BKN016 26/24 Q1008 TEMPO TL2430 -RA
METAR WADD 132300Z 28011KT 8000 -RA BKN015 26/23 Q1008 TEMPO TL2400 8000 -RA
METAR WADD 132230Z 29013KT 8000 -RA BKN015 25/23 Q1008 TEMPO TL2330 8 000 -RA
METAR WADD 132200Z 28011KT 8000 -RA FEW014CB BKN015 24/22 Q1008 TEMPO TL2300 8000 -RA
METAR WADD 132130Z 27018KT 3000 RA FEW014CB BKN014 24/23 Q1008 TEMPO TL2230 3000 RA RMK CB IN APCH AND CLIMB-OUT
METAR WADD 132100Z 28017G32KT 2000 RA FEW014CB BKN014 26/24 Q1008 TEM PO TL2200 2000 RA RMK CB IN APCH AND CLIMB-OUT
METAR WADD 132030Z 31008KT 9999 FEW015CB SCT016 27/25 Q1007 NOSIG
METAR WADD 132000Z 32006KT 9999 FEW015CB SCT016 27/25 Q1007 NOSIG
METAR WADD 131930Z 32007KT 9999 FEW015CB SCT016 27/25 Q1007 NOSIG
METAR WADD 131900Z 29009KT 9999 FEW015CB SCT016 28/25 Q1007 NOSIG
METAR WADD 131830Z 29012KT 9999 FEW015CB SCT016 28/25 Q1007 NOSIG RMK CB IN APCH
METAR WADD 131800Z 28011KT 9999 FEW015CB SCT016 28/25 Q1008 NOSIG RMK CB IN APCH
METAR WADD 131730Z 28012KT 9999 FEW015CB SCT016 28/25 Q1008 NOSIG RMK CB IN APCH
METAR WADD 131700Z 27012KT 9999 SCT016 28/25 Q1008 NOSIG</description><pubDate>Sat, 14 Feb 2026 16:40:43 </pubDate></item></channel></rss>