<rss version="2.0"><channel><title>Aviation Weather METAR Data for WADD</title><link>https://aviationweather.gov/api/data/metar?ids=WADD&amp;hours=24</link><description>Latest METAR data for WADD</description><item><title>2026-05-09 04:53:35Z</title><link>https://aviationweather.gov/api/data/metar?ids=WADD&amp;hours=24</link><description>METAR WADD 090430Z 11014KT 9999 FEW016 30/25 Q1009 NOSIG
METAR WADD 090400Z 12014KT 9999 SCT06 30/25 Q1009
METAR WADD 090330Z 11013KT 9999 SCT016 31/25 Q1009 NOSIG
METAR WADD 090300Z 11013KT SCT016 30/25 Q1010 NOSIG
METAR WADD 090200Z 12014KT 9999 SCT016 30/24 Q1010 NOSIG
METAR WADD 090130Z 11015KT 9999 SCT016 29/24 Q1010 NOSIG
METAR WADD 090100Z 10012KT 9999 SCT016 30/24 Q1010 NOSIG
METAR WADD 090030Z 12011KT 9999 SCT016 29/25 Q1010 NOSIG
METAR WADD 090000Z 10008KT 9999 SCT016 28/25 Q1010 NOSIG
METAR WADD 082330Z 09006KT 9999 FEW017 28/25 Q1010 NOSIG
METAR WADD 082300Z 09005KT 9999 FEW017 26/24 Q1010 NOSIG
METAR WADD 082230Z 04003KT 9999 SCT016 25/23 Q1009 NOSIG
METAR WADD 082200Z 04005KT 9999 FEW017 26/24 Q1009 NOSIG
METAR WADD 082130Z 08005KT 9999 FEW017 26/24 Q1009 NOSIG
METAR WADD 082100Z 09006KT 9999 FEW017 26/24 Q1009 NOSIG
METAR WADD 082030Z 08008KT 9999 FEW017 26/24 Q1009 NOSIG
METAR WADD 082000Z 09008KT 9999 FEW017 27/24 Q1009 NOSIG
METAR WADD 081930Z 10008KT 9999 FEW017 27/24 Q1009 NOSIG
METAR WADD 081900Z 10007KT 9999 FEW017 27/24 Q1009 NOSIG
METAR WADD 081830Z 11009KT 9999 FEW017 27/24 Q1009 NOSIG
METAR WADD 081800Z 10010KT 9999 FEW017 27/25 Q1009 NOSIG
METAR WADD 081730Z 10013KT 9999 FEW017 27/25 Q1009 NOSIG
METAR WADD 081700Z 11013KT 9999 FEW017 28/24 Q1010 NOSIG
METAR WADD 081600Z 11012KT 9999 FEW017 28/24 Q1010 NOSIG
METAR WADD 081530Z 12011KT 9999 FEW017 28/24 Q1010 NOSIG
METAR WADD 081500Z 12012KT 9999 FEW017 28/25 Q1010 NOSIG
METAR WADD 081430Z 13012KT 9999 FEW017 28/25 Q1010 NOSIG
METAR WADD 081400Z 12012KT 9999 FEW017 28/25 Q1010 NOSIG
METAR WADD 081330Z 13012KT 9999 FEW017 28/25 Q1010 NOSIG
METAR WADD 081300Z 13013KT 9999 FEW017 28/25 Q1010 NOSIG
METAR WADD 081230Z 13012KT 9999 FEW017 28/25 Q1010 NOSIG
METAR WADD 081200Z 12011KT 9999 FEW017 28/25 Q1009 NOSIG
METAR WADD 081130Z 12014KT 9999 FEW017 28/25 Q1009 NOSIG
METAR WADD 081100Z 12013KT 9999 FEW017 28/25 Q1008 NOSIG
METAR WADD 081030Z 13014KT 9999 FEW017 28/26 Q1008 NOSIG
METAR WADD 081000Z 12014KT 9999 FEW017 29/26 Q1008 NOSIG
METAR WADD 080930Z 12017KT 9999 FEW017 29/25 Q1007 NOSIG
METAR WADD 080900Z 12016KT 9999 FEW017 30/25 Q1007 NOSIG
METAR WADD 080830Z 12017KT 9999 FEW017 30/25 Q1007 NOSIG
METAR WADD 080800Z 12016KT 9999 FEW017 30/25 Q1007 NOSIG
METAR WADD 080730Z 12016KT 9999 FEW017 30/25 Q1007 NOSIG
METAR WADD 080700Z 11016KT 9999 FEW017 30/25 Q1007 NOSIG
METAR WADD 080630Z 12016KT 9999 FEW017 30/26 Q1007 NOSIG
METAR WADD 080600Z 12016KT 9999 FEW017 30/26 Q1007 NOSIG
METAR WADD 080530Z 12018KT 9999 FEW017 30/25 Q1008 NOSIG
METAR WADD 080500Z 11016KT 9999 FEW017 30/26 Q1008 NOSIG</description><pubDate>Sat, 09 May 2026 04:53:35 </pubDate></item></channel></rss>