<rss version="2.0"><channel><title>Aviation Weather METAR Data for WADD</title><link>https://aviationweather.gov/api/data/metar?ids=WADD&amp;hours=24</link><description>Latest METAR data for WADD</description><item><title>2025-04-10 10:28:30Z</title><link>https://aviationweather.gov/api/data/metar?ids=WADD&amp;hours=24</link><description>WADD 101000Z 36006KT 320V040 9999 FEW015CB BKN016 28/27 Q1007 NOSIG
WADD 100930Z 33007KT 300V040 9999 FEW015CB BKN016 28/27 Q1007 NOSIG
WADD 100900Z 01005KT 350V050 9999 FEW015CB BKN016 28/27 Q1007 NOSIG
WADD 100830Z 34009KT 320V040 9999 FEW015CB BKN016 28/27 Q1007 NOSIG
WADD 100800Z 15007KT 9999 FEW015CB SCT016 31/28 Q1006 NOSIG
WADD 100730Z 14010KT 9999 FEW015CB SCT016 31/28 Q1006 NOSIG
WADD 100700Z 12009KT 090V170 9999 FEW016 32/27 Q1006 NOSIG
WADD 100630Z 10010KT 9999 SCT016 32/27 Q1006 NOSIG
WADD 100600Z 9999 SCT016 31/27 Q1007 NOSIG
WADD 100530Z 14008KT 9999 FEW017 32/28 Q1007 NOSIG
WADD 100500Z 11011KT 9999 FEW017 32/28 Q1008 NOSIG
WADD 100430Z 12007KT 9999 FEW017 32/27 Q1008 NOSIG
WADD 100400Z 11008KT 9999 FEW017 31/26 Q1009 NOSIG
WADD 100330Z 10007KT 9999 SCT016 31/27 Q1009 NOSIG
WADD 100300Z 10007KT 9999 SCT016 31/27 Q1010 NOSIG
WADD 100230Z 13006KT 9999 SCT016 30/28 Q1010 NOSIG
WADD 100200Z 19004KT 150V220 9999 SCT016 29/28 Q1010 NOSIG
WADD 100130Z 32004KT 290V020 9999 BKN016 29/28 Q1010 NOSIG
WADD 100100Z 33004KT 9999 BKN016 28/27 Q1010 RETS NOSIG
WADD 100030Z 34004KT 310V030 9999 TS FEW015CB BKN015 27/27 Q1010 TEMPO TL0130 TS
WADD 100000Z VRB02KT 9000 TS FEW014CB BKN015 27/27 Q1010 TEMPO TL0100 TS RMK CB IN APCH
WADD 092330Z VRB02KT 8000 -TSRA FEW014CB BKN015 27/27 Q1010 TEMPO TL0100 -TSRA RMK CB IN APCH
WADD 092300Z 12003KT 9000 -TSRA FEW015CB BKN015 27/27 Q1010 TEMPO TL2400 9000 -TSRA RMK CB IN CLIMB-OUT
WADD 092230Z 07003KT 9999 BKN015 26/26 Q1009 RERA NOSIG
WADD 092200Z 09002KT 9000 -RA BKN015 27/27 Q1009 TEMPO TL2300 9000 -RA
WADD 092130Z 04003KT 9999 SCT016 27/27 Q1009 NOSIG
WADD 092100Z 02003KT 9999 SCT016 27/27 Q1008 NOSIG
WADD 092030Z 36004KT 9999 SCT016 27/27 Q1008 NOSIG
WADD 092000Z 03002KT 9999 SCT016 27/26 Q1008 NOSIG
WADD 091930Z 35002KT 9999 SCT016 27/26 Q1008 NOSIG
WADD 091900Z VRB01KT 9999 SCT016 27/25 Q1008 NOSIG
WADD 091830Z 08002KT 9999 FEW016 27/25 Q1008 NOSIG
WADD 091800Z 07002KT 9999 FEW016 27/25 Q1009 NOSIG
WADD 091730Z 06005KT 9999 FEW016 27/25 Q1009 NOSIG
WADD 091700Z VRB02KT 9999 FEW016 26/26 Q1009 NOSIG
WADD 091630Z 12003KT 9999 FEW016 27/26 Q1010 NOSIG
WADD 091600Z 12003KT 9999 FEW016 27/26 Q1010 NOSIG
WADD 091530Z 15003KT 9999 FEW016 28/26 Q1010 NOSIG
WADD 091500Z 02005KT 9999 FEW016 27/25 Q1011 NOSIG
WADD 091430Z 03006KT 360V070 9999 FEW016 27/25 Q1011 NOSIG
WADD 091330Z 07007KT 010V100 9999 VCTS FEW016CB BKN016 28/27 Q1011 NOSIG
WADD 091300Z 10007KT 9999 VCTS FEW016CB FEW016 29/28 Q1011 NOSIG
WADD 091230Z 12007KT 9999 VCTS FEW016CB FEW016 29/28 Q1010 NOSIG
WADD 091200Z 11008KT 9999 VCTS FEW016CB FEW016 29/28 Q1010 NOSIG
WADD 091130Z 12007KT 9999 SCT016 29/28 Q1010 NOSIG
WADD 091100Z 13008KT 9999 SCT016 29/28 Q1009 NOSIG
WADD 091030Z 13008KT 9999 SCT016 29/28 Q1009 NOSIG</description><pubDate>Thu, 10 Apr 2025 10:28:30 </pubDate></item></channel></rss>