<rss version="2.0"><channel><title>Aviation Weather METAR Data for WADD</title><link>https://aviationweather.gov/api/data/metar?ids=WADD&amp;hours=24</link><description>Latest METAR data for WADD</description><item><title>2025-12-21 19:40:52Z</title><link>https://aviationweather.gov/api/data/metar?ids=WADD&amp;hours=24</link><description>METAR WADD 211930Z 29011KT 9999 SCT016 28/25 Q1006 NOSIG
METAR WADD 211900Z 28013KT 9999 SCT016 27/25 Q1006 NOSIG
METAR WADD 211830Z 28015KT 9999 SCT016 27/25 Q1007 NOSIG
METAR WADD 211800Z 27012KT 9999 SCT016 27/25 Q1007 NOSIG
METAR WADD 211730Z 27012KT 9999 FEW015CB BKN015 26/24 Q1007 RERA NOSI G
METAR WADD 211700Z 26018G26KT 8000 -RA FEW015CB BKN015 27/24 Q1008 TE MPO TL1800 8000 -RA
METAR WADD 211630Z 26009KT 9999 FEW015CB BKN015 29/25 Q1008 NOSIG
METAR WADD 211600Z 29008KT 9999 FEW015CB BKN015 28/25 Q1008 NOSIGF
METAR WADD 211530Z 32006KT 9999 SCT016 28/25 Q1008 NOSIG
METAR WADD 211500Z 31005KT 9999 SCT016 28/25 Q1008 NOSIG
METAR WADD 211430Z 31004KT 9999 SCT016 28/25 Q1009 NOSIG
METAR WADD 211400Z 32005KT 9999 SCT016 28/25 Q1009 NOSIG
METAR WADD 211330Z 32006KT 9999 SCT016 28/24 Q1008 NOSIG
METAR WADD 211300Z 10007KT 9999 SCT016 29/26 Q1009 NOSIG
METAR WADD 211230Z 26007KT 9999 SCT016 29/25 Q1008 NOSIG
METAR WADD 211200Z 25004KT 9999 SCT016 29/25 Q1008 NOSIG
METAR WADD 211130Z 23004KT 9999 SCT016 29/25 Q1007 NOSIG
METAR WADD 211100Z 24004KT 9999 SCT016 29/25 Q1007 NOSIG
METAR WADD 211030Z 24004KT 9999 SCT016 29/25 Q1006 NOSIG
METAR WADD 211000Z 22005KT 9999 SCT016 30/25 Q1006 NOSIG
METAR WADD 210930Z 25006KT 9999 FEW015CB SCT016 29/26 Q1006 NOSIG
METAR WADD 210900Z 24006KT 9999 FEW015CB SCT016 29/26 Q1006 NOSIG
METAR WADD 210830Z 25008KT 9999 FEW016 31/26 Q1005 NOSIG
METAR WADD 210800Z 25008KT 9999 FEW016 31/26 Q1005 NOSIG
METAR WADD 210730Z 26007KT 9999 FEW016 30/26 Q1005 NOSIG
METAR WADD 210700Z 25007KT 9999 FEW016 30/25 Q1005 NOSIG
METAR WADD 210630Z 26007KT 9999 FEW016 30/25 Q1006 NOSIG
METAR WADD 210600Z 26007KT 9999 FEW016 30/25 Q1006 NOSIG
METAR WADD 210530Z 25007KT 9999 FEW016 31/26 Q1006 NOSIG
METAR WADD 210500Z 26007KT 9999 FEW016 30/25 Q1007 NOSIG
METAR WADD 210430Z 24007KT 9999 FEW016 30/24 Q1007 NOSIG
METAR WADD 210400Z 24007KT 9999 FEW016 31/24 Q1007 NOSIG
METAR WADD 210330Z 28006KT 250V320 9999 FEW016 31/24 Q1007 NOSIG
METAR WADD 210300Z 26004KT 9999 FEW016 31/26 Q1007 NOSIG
METAR WADD 210230Z 27005KT 9999 FEW016 31/26 Q1008 NOSIG
METAR WADD 210200Z VRB02KT 9999 FEW016 30/26 Q1008 NOSIG
METAR WADD 210130Z 35003KT 9999 FEW016 29/25 Q1008 NOSIG
METAR WADD 210100Z 33004KT 9999 FEW016 29/26 Q1008 NOSIG
METAR WADD 210030Z 32003KT 9999 FEW016 29/26 Q1008 NOSIG
METAR WADD 210000Z 33003KT 9999 FEW016 29/26 Q1007 NOSIG
METAR WADD 202330Z 34003KT 9999 FEW016 28/26 Q1007 NOSIG
METAR WADD 202300Z 01003KT 9999 FEW016 27/26 Q1007 NOSIG
METAR WADD 202230Z 03003KT 9999 SCT016 27/26 Q1007 NOSIG
METAR WADD 202200Z 35004KT 9999 SCT016 27/26 Q1007 NOSIG
METAR WADD 202130Z 02005KT 9999 SCT016 26/26 Q1006 NOSIG
METAR WADD 202100Z 03003KT 9999 SCT016 26/25 Q1006 NOSIG
METAR WADD 202030Z 01003KT 9999 SCT016 27/25 Q1006 NOSIG
METAR WADD 202000Z 02003KT 9999 SCT016 26/26 Q1005 NOSIG</description><pubDate>Sun, 21 Dec 2025 19:40:52 </pubDate></item></channel></rss>