<rss version="2.0"><channel><title>Aviation Weather METAR Data for WADD</title><link>https://aviationweather.gov/api/data/metar?ids=WADD&amp;hours=24</link><description>Latest METAR data for WADD</description><item><title>2025-11-26 22:43:19Z</title><link>https://aviationweather.gov/api/data/metar?ids=WADD&amp;hours=24</link><description>METAR WADD 262230Z 29010KT 8000 FEW015CB BKN016 27/25 Q1009 TEMPO FM2 240 4000 RA RMK CB IN APCH
METAR WADD 262200Z 28010KT 9999 SCT016 27/26 Q1009 NOSIG
METAR WADD 262130Z 29010KT 8000 SCT016 27/25 Q1008 RERA NOSIG
METAR WADD 262100Z 31008KT 5000 RA BKN016 27/25 Q1008 TEMPO TL2200 5000 RA
METAR WADD 262030Z 31008KT 9999 SCT016 27/25 Q1008 NOSIG
METAR WADD 262000Z 34006KT 9999 SCT016 26/25 Q1008 NOSIG
METAR WADD 261930Z 33005KT 9999 SCT016 26/25 Q1008 NOSIG
METAR WADD 261900Z 29009KT 9999 SCT016 27/26 Q1008 NOSIG
METAR WADD 261830Z 31007KT 9999 SCT016 26/25 Q1008 NOSIG
METAR WADD 261800Z 28006KT 9999 SCT016 26/25 Q1008 RERA NOSIG
METAR WADD 261730Z 28010KT 6000 -RA FEW015CB SCT016 26/25 Q1008 TEMPO TL1800 6000 -RA RMK CB IN CLIMB-OUT
METAR WADD 261700Z 28013KT 4000 RA FEW015CB SCT016 26/25 Q1008 TEMPO TL1800 4000 RA RMK CB IN APCH AND CLIMB-OUT
METAR WADD 261630Z 28010KT 3000 RA FEW015CB SCT016 26/25 Q1009 TEMPO TL1730 3000 RA RMK CB IN APCH AND CLIMB-OUT
METAR WADD 261600Z 30010KT 9999 FEW015CB SCT016 27/25 Q1009 RERA NOSIG RMK CB IN CLIMB-OUT
METAR WADD 261530Z 30013KT 8000 -RA FEW015CB SCT016 26/25 Q1009 NOSIG RMK CB IN APCH
METAR WADD 261500Z 30013KT 4000 RA FEW015CB BKN012 26/25 Q1009 TEMPO TL1530 4000 RA RMK CB IN APCH AND CLIMB-OUT
METAR WADD 261430Z 28016KT 4000 RA FEW015CB BKN016 27/25 Q1009 TEMPO TL1530 3000 RA RMK CB IN APCH AND CLIMB-OUT
METAR WADD 261400Z 28016KT 8000 FEW015CB SCT016 27/25 Q1009 NOSIG RMK CB IN APCH
METAR WADD 261330Z 28012KT 4000 RA FEW015CB BKN016 27/25 Q1009 TEMPO TL1345 4000 RA RMK CB IN APCH
METAR WADD 261300Z 26010KT 8000 FEW015CB SCT016 27/26 Q1009 TEMPO FM1310 4000 RA RMK CB IN CLIMB-OUT
METAR WADD 261230Z 30010KT 260V320 9999 FEW015CB SCT016 27/25 Q1008 N OSIG
METAR WADD 261200Z 30007KT 9999 VCTS FEW015CB BKN016 27/25 Q1008 NOSIG RMK CB IN CLIMB-OUT
METAR WADD 261130Z VRB03KT 9999 TS FEW015CB BKN016 27/25 Q1007 TEMPO TL1230 TS
METAR WADD 261100Z VRB02KT 9999 FEW015CB BKN016 26/25 Q1007 RETS NOSI G
METAR WADD 261030Z 33003KT 9999 TS FEW015CB BKN015 26/25 Q1007 TEMPO TL1130 TS
METAR WADD 261000Z 30005KT 9000 TS FEW014CB BKN015 26/25 Q1007 RERA TEMPO TL1130 TS
METAR WADD 260930Z 01005KT 310V050 8000 -TSRA FEW014CB BKN015 26/25 Q1006 TEMPO TL1030 -TSRA
METAR WADD 260900Z VRB05KT 7000 -TSRA FEW014CB BKN015 26/25 Q1006 TEMPO TL1030 -TSRA
METAR WADD 260830Z 07007KT 350V090 6000 -TSRA FEW014CB BKN015 26/24 Q1006 TEMPO TL0930 -TSRA RMK CB IN APCH AND CLIMB-OUT
METAR WADD 260800Z 34007KT 290V030 8000 -TSRA FEW014CB BKN015 27/24 Q 1005 TEMPO TL0930 -TSRA RMK CB IN CLIMB-OUT
METAR WADD 260730Z 26012KT 9999 TS FEW015CB BKN015 29/26 Q1005 TEMPO TL0830 TS
METAR WADD 260700Z 25009KT 9999 TS FEW015CB SCT016 30/26 Q1005 TEMPO TL0830 TS
METAR WADD 260630Z 25011KT 9999 TS FEW015CB SCT016 30/26 Q1005 TEMPO TL0730 TS
METAR WADD 260600Z 25011KT 9999 FEW016CB SCT016 31/27 Q1005 NOSIG
METAR WADD 260530Z 26011KT 9999 SCT017 31/27 Q1006 NOSIG
METAR WADD 260500Z 25010KT 9999 SCT017 31/27 Q1006 NOSIG
METAR WADD 260430Z 26011KT 9999 SCT017 31/27 Q1006 NOSIG
METAR WADD 260400Z 25010KT 9999 SCT017 31/26 Q1007 NOSIG
METAR WADD 260330Z 26009KT 9999 SCT017 31/26 Q1007 NOSIG
METAR WADD 260300Z 26010KT 9999 BKN017 30/26 Q1007 NOSIG
METAR WADD 260230Z 25009KT 9999 SCT017 30/26 Q1007 NOSIG
METAR WADD 260200Z 27009KT 9999 SCT017 30/26 Q1007 NOSIG
METAR WADD 260130Z 26008KT 9999 SCT017 30/26 Q1007 NOSIG
METAR WADD 260100Z 29007KT 250V320 9999 SCT017 30/25 Q1007 NOSIG
METAR WADD 260030Z 28006KT 260V340 9999 FEW017 30/25 Q1007 NOSIG
METAR WADD 260000Z 32006KT 9999 FEW017 29/25 Q1007 NOSIG
METAR WADD 252330Z 33006KT 300V010 9999 FEW017 28/24 Q1007 NOSIG
METAR WADD 252300Z 33005KT 9999 FEW017 27/24 Q1007 NOSIG</description><pubDate>Wed, 26 Nov 2025 22:43:19 </pubDate></item></channel></rss>