<rss version="2.0"><channel><title>Aviation Weather METAR Data for WADD</title><link>https://aviationweather.gov/api/data/metar?ids=WADD&amp;hours=24</link><description>Latest METAR data for WADD</description><item><title>2026-02-11 20:50:05Z</title><link>https://aviationweather.gov/api/data/metar?ids=WADD&amp;hours=24</link><description>METAR WADD 112030Z 28009KT 9999 SCT016 27/25 Q1008 NOSIG
METAR WADD 112000Z 31005KT 9999 SCT016 27/25 Q1008 NOSIG
METAR WADD 111930Z 30004KT 9999 SCT016 26/25 Q1009 NOSIG
METAR WADD 111900Z 31006KT 9999 SCT016 26/25 Q1009 NOSIG
METAR WADD 111830Z 32005KT 290V350 9999 SCT016 26/25 Q1010 NOSIG
METAR WADD 111800Z 31004KT 9999 SCT016 26/25 Q1009 NOSIG
METAR WADD 111730Z 31005KT 9999 SCT016 26/25 Q1009 NOSIG
METAR WADD 111700Z 32005KT 290V350 8000 SCT016 26/25 Q1010 NOSIG
METAR WADD 111630Z 32005KT 9999 SCT015 26/24 Q1010 NOSIG
METAR WADD 111600Z 33004KT 280V010 8000 SCT015 26/24 Q1010 NOSIG
METAR WADD 111530Z 35005KT 300V020 8000 BKN015 25/24 Q1011 NOSIG
METAR WADD 111500Z 32004KT 260V360 8000 BKN015 26/24 Q1011 NOSIG
METAR WADD 111430Z 33005KT 280V020 8000 FEW015CB SCT016 26/24 Q1011 NOSIG RMK CB IN APCH
METAR WADD 111400Z 32007KT 8000 FEW015CB SCT016 25/24 Q1011 RETS NOSIG RMK CB IN APCH
METAR WADD 111330Z 29008KT 260V330 6000 TS FEW014CB BKN015 26/25 Q1011 RERA TEMPO TL1400 TS RMK CB IN APCH
METAR WADD 111300Z 27018KT 2000 RA FEW012CB BKN013 25/24 Q1011 TEMPO TL1330 2000 RA RMK CB IN APCH AND CLIMB-OUT
METAR WADD 111230Z VRB02KT 8000 FEW014CB SCT015 27/25 Q1010 TEMPO FM1240 3000 RA RMK CB IN CLIMB-OUT
METAR WADD 111200Z 22003KT 9999 SCT017 27/25 Q1010 NOSIG
METAR WADD 111130Z VRB01KT 9999 SCT017 27/25 Q1010 NOSIG
METAR WADD 111100Z 23003KT 9999 SCT016 27/25 Q1010 NOSIG
METAR WADD 111030Z 23004KT 200V270 9999 FEW017 27/25 Q1009 NOSIG
METAR WADD 111000Z 25005KT 9999 FEW017 28/25 Q1009 NOSIG
METAR WADD 110930Z 24005KT 210V270 9999 FEW017 28/25 Q1009 NOSIG
METAR WADD 110900Z 24005KT 9999 FEW017 28/24 Q1009 NOSIG
METAR WADD 110830Z 24005KT 210V280 9999 FEW017 28/25 Q1008 NOSIG
METAR WADD 110800Z 26006KT 9999 FEW017 28/25 Q1009 NOSIG
METAR WADD 110730Z 25007KT 220V280 9999 FEW017 28/24 Q1009 NOSIG
METAR WADD 110700Z 26010KT 9999 FEW017 28/24 Q1009 NOSIG
METAR WADD 110630Z 28012KT 9999 FEW016 28/25 Q1009 NOSIG
METAR WADD 110600Z 28012KT 9999 SCT016 28/25 Q1009 NOSIG
METAR WADD 110530Z 29014KT 9999 SCT015 27/25 Q1010 RERA NOSIG
METAR WADD 110500Z 30008KT 8000 -RA FEW015CB BKN015 27/25 Q1010 TEMPO TL0600 8000 -RA
METAR WADD 110430Z 30013KT 8000 -RA FEW015CB BKN015 27/25 Q1011 TEMPO TL0530 8000 -RA
METAR WADD 110400Z 29015KT 7000 -RA FEW015CB BKN015 27/25 Q1011 TEMPO TL0500 7000 -RA
METAR WADD 110330Z 28010KT 9999 FEW015CB BKN015 27/25 Q1012 RERA NOSI G
METAR WADD 110300Z 26008KT 8000 -RA FEW015CB BKN016 27/26 Q1012 TEMPO TL0400 8000 -RA
METAR WADD 110230Z 26006KT 8000 -RA BKN016 26/25 Q1012 TEMPO TL0330 8 000 -RA
METAR WADD 110200Z 25008KT 6000 -RA BKN016 25/25 Q1013 TEMPO TL0300 6000 -RA
METAR WADD 110130Z 29010KT 7000 -RA FEW015CB BKN016 25/24 Q1013 TEMPO TL0230 7000 -RA
METAR WADD 110100Z 29013KT 7000 2000W -RA FEW015CB BKN016 25/24 Q1013 TEMPO TL0200 7000 -RA
METAR WADD 110030Z 28012KT 8000 -RA FEW015CB BKN016 26/25 Q1013 TEMPO TL0130 8000 -RA
METAR WADD 110000Z 26008KT 7000 -RA FEW015CB BKN016 24/23 Q1012 TEMPO TL0100 7000 -RA
METAR WADD 102330Z VRB05KT 1500 +RA FEW015CB BKN016 25/25 Q1012 TEMPO TL2430 1500 +RA RMK CB IN APCH AND CLIMB-OUT
METAR WADD 102300Z VRB02KT 9999 FEW015CB BKN016 25/25 Q1011 NOSIG
METAR WADD 102230Z VRB01KT 9999 FEW015CB BKN016 25/24 Q1011 RERA NOSI G
METAR WADD 102200Z VRB02KT 8000 -RA FEW015CB BKN016 25/24 Q1011 TEMPO TL2300 -RA
METAR WADD 102130Z 22003KT 8000 -RA FEW015CB BKN016 25/24 Q1011 TEMPO TL2230 -RA
METAR WADD 102100Z 24004KT 220V280 4000 RA FEW015CB BKN016 25/24 Q1010 TEMPO TL2200 4000 RA RMK CB IN APCH</description><pubDate>Wed, 11 Feb 2026 20:50:05 </pubDate></item></channel></rss>