<rss version="2.0"><channel><title>Aviation Weather METAR Data for WADD</title><link>https://aviationweather.gov/api/data/metar?ids=WADD&amp;hours=24</link><description>Latest METAR data for WADD</description><item><title>2026-02-19 23:38:43Z</title><link>https://aviationweather.gov/api/data/metar?ids=WADD&amp;hours=24</link><description>METAR WADD 192330Z 01004KT 350V050 9999 FEW017 26/26 Q1009 NOSIG
METAR WADD 192300Z 02005KT 9999 FEW017 26/25 Q1009 NOSIG
METAR WADD 192230Z 02003KT 9999 FEW017 26/25 Q1009 NOSIG
METAR WADD 192200Z 10002KT 9999 FEW017 26/25 Q1008 NOSIG
METAR WADD 192130Z 08003KT 9999 FEW017 26/25 Q1008 NOSIG
METAR WADD 192100Z 07002KT 9999 FEW017 26/25 Q1008 NOSIG
METAR WADD 192030Z 07001KT 9999 FEW017 26/25 Q1008 NOSIG
METAR WADD 192000Z 07001KT 9999 FEW017 26/25 Q1008 NOSIG
METAR WADD 191930Z 03003KT 9999 FEW017 27/25 Q1008 NOSIG
METAR WADD 191900Z 36005KT 9999 FEW017 27/25 Q1008 NOSIG
METAR WADD 191830Z 01005KT 9999 FEW017 27/25 Q1009 NOSIG
METAR WADD 191800Z 03003KT 9999 FEW017 27/25 Q1009 NOSIG
METAR WADD 191730Z VRB02KT 9999 FEW017 27/26 Q1009 NOSIG
METAR WADD 191700Z VRB02KT 9999 FEW017 27/25 Q1009 NOSIG
METAR WADD 191630Z VRB01KT 9999 FEW017 27/25 Q1010 NOSIG
METAR WADD 191600Z 02003KT 9999 FEW017 28/25 Q1010 NOSIG
METAR WADD 191530Z 03004KT 020V090 9999 FEW017 28/25 Q1010 NOSIG
METAR WADD 191500Z 03004KT 9999 FEW017 28/25 Q1010 NOSIG
METAR WADD 191430Z 10003KT 9999 FEW017 28/25 Q1010 NOSIG
METAR WADD 191400Z 13003KT 9999 FEW016 28/25 Q1010 NOSIG
METAR WADD 191330Z 12003KT 9999 FEW016 29/25 Q1010 NOSIG
METAR WADD 191300Z VRB01KT 9999 FEW016 28/25 Q1009 NOSIG
METAR WADD 191230Z 11003KT 9999 FEW016 28/25 Q1009 NOSIG
METAR WADD 191200Z 14002KT 9999 FEW016 28/24 Q1009 NOSIG
METAR WADD 191130Z 15003KT 9999 FEW016 28/24 Q1009 NOSIG
METAR WADD 191100Z VRB02KT 9999 FEW016 28/24 Q1009 NOSIG
METAR WADD 191030Z 14003KT 9999 FEW016 29/24 Q1009 NOSIG
METAR WADD 191000Z 14004KT 100V190 9999 FEW016 29/24 Q1008 NOSIG
METAR WADD 190930Z 15004KT 110V200 9999 SCT016 30/24 Q1008 NOSIG
METAR WADD 190900Z 23004KT 160V260 9999 SCT016 30/24 Q1008 NOSIG
METAR WADD 190830Z 25007KT 9999 SCT016 30/24 Q1008 NOSIG
METAR WADD 190800Z 26007KT 9999 FEW016 30/24 Q1008 NOSIG
METAR WADD 190730Z 26007KT 9999 FEW016 30/24 Q1008 NOSIG
METAR WADD 190700Z 26008KT 9999 FEW016 31/24 Q1008 NOSIG
METAR WADD 190630Z 26008KT 230V290 9999 FEW016 31/24 Q1009 NOSIG
METAR WADD 190600Z 26008KT 9999 FEW016 31/24 Q1009 NOSIG
METAR WADD 190530Z 26008KT 9999 FEW016 30/25 Q1009 NOSIG
METAR WADD 190500Z 26009KT 9999 FEW016 30/25 Q1009 NOSIG
METAR WADD 190430Z COR 26008KT 9999 FEW016 31/24 Q1010 NOSIG
METAR WADD 190400Z 27009KT 9999 FEW016 30/24 Q1010 NOSIG
METAR WADD 190330Z 26008KT 9999 FEW016 31/25 Q1010 NOSIG
METAR WADD 190300Z 26006KT 220V290 9999 FEW016 30/23 Q1010 NOSIG
METAR WADD 190230Z 27004KT 9999 FEW016 30/22 Q1010 NOSIG
METAR WADD 190200Z 28003KT 9999 FEW016 29/23 Q1010 NOSIG
METAR WADD 190130Z VRB03KT 9999 FEW016 29/23 Q1010 NOSIG
METAR WADD 190100Z VRB02KT 9999 FEW016 28/24 Q1010 NOSIG
METAR WADD 190030Z VRB02KT 9999 FEW016 28/24 Q1010 NOSIG
METAR WADD 190000Z 35003KT 9999 SCT016 27/24 Q1009 NOSIG</description><pubDate>Thu, 19 Feb 2026 23:38:43 </pubDate></item></channel></rss>