<rss version="2.0"><channel><title>Aviation Weather METAR Data for WADD</title><link>https://aviationweather.gov/api/data/metar?ids=WADD&amp;hours=24</link><description>Latest METAR data for WADD</description><item><title>2025-10-22 16:35:08Z</title><link>https://aviationweather.gov/api/data/metar?ids=WADD&amp;hours=24</link><description>METAR WADD 221630Z 03003KT 9999 FEW017 28/26 Q1008 NOSIG
METAR WADD 221600Z VRB01KT 9999 FEW017 28/25 Q1009 NOSIG
METAR WADD 221530Z 35002KT 9999 FEW017 28/26 Q1009 NOSIG
METAR WADD 221500Z VRB02KT 9999 FEW017 28/26 Q1010 NOSIG
METAR WADD 221430Z 34003KT 9999 FEW017 28/26 Q1010 NOSIG
METAR WADD 221400Z 35004KT 330V030 9999 FEW017 28/26 Q1010 NOSIG
METAR WADD 221230Z 34005KT 290V030 9999 SCT016 28/26 Q1009 NOSIG
METAR WADD 221200Z VRB04KT 9999 SCT016 28/26 Q1009 NOSIG
METAR WADD 221130Z 32005KT 300V020 9999 SCT016 28/25 Q1009 NOSIG
METAR WADD 221100Z 32005KT 290V030 9999 SCT016 28/25 Q1009 NOSIG
METAR WADD 221030Z 35004KT 300V090 9999 SCT016 28/25 Q1008 NOSIG
METAR WADD 221000Z 35007KT 300V030 9999 SCT016 28/26 Q1008 NOSIG
METAR WADD 220930Z 33010KT 320V030 9999 SCT016 29/26 Q1007 NOSIG
METAR WADD 220900Z 12005KT 090V160 9999 FEW016CB SCT016 31/26 Q1007 NOSIG
METAR WADD 220830Z 13007KT 9999 SCT016 31/26 Q1007 NOSIG
METAR WADD 220800Z 15009KT 9999 FEW016CB SCT016 31/26 Q1006 NOSIG
METAR WADD 220730Z 12010KT 9999 FEW016CB SCT016 31/26 Q1006 NOSIG
METAR WADD 220700Z 17006KT 9999 FEW016CB SCT016 32/26 Q1007 NOSIG
METAR WADD 220630Z 16008KT 9999 SCT016 32/26 Q1007 NOSIG
METAR WADD 220600Z 16009KT 9999 SCT016 32/26 Q1007 NOSIG
METAR WADD 220530Z 20004KT 140V240 9999 SCT016 31/26 Q1007 NOSIG
METAR WADD 220500Z 22003KT 9999 SCT016 32/26 Q1008 NOSIG
METAR WADD 220430Z 24003KT 9999 SCT016 31/27 Q1008 NOSIG
METAR WADD 220400Z 24004KT 9999 SCT016 30/27 Q1008 NOSIG
METAR WADD 220330Z 24005KT 9999 SCT016 31/27 Q1009 NOSIG
METAR WADD 220300Z 23005KT 9999 FEW016 30/27 Q1009 NOSIG
METAR WADD 220230Z 24005KT 9999 FEW016 30/27 Q1009 NOSIG
METAR WADD 220200Z 21004KT 120V250 9999 FEW016 30/27 Q1009 NOSIG
METAR WADD 220130Z 24004KT 9999 FEW016 30/27 Q1009 NOSIG
METAR WADD 220100Z 23003KT 9999 FEW016 Q1010 NOSIG
METAR WADD 220030Z 24004KT 220V280 9999 FEW017 28/27 Q1010 NOSIG
METAR WADD 220000Z 24003KT 9999 FEW017 28/26 Q1009 NOSIG
METAR WADD 212330Z 21002KT 9999 FEW017 28/26 Q1009 NOSIG
 WADD 212300Z 19002KT 9999 FEW017 27/26 Q1008 NOSIG
METAR WADD 212230Z 18003KT 9999 FEW017 27/26 Q1008 NOSIG
METAR WADD 212200Z VRB02KT 9999 FEW017 27/25 Q1008 NOSIG
METAR WADD 212130Z VRB01KT 9999 FEW017 27/25 Q1007 NOSIG
METAR WADD 212100Z 02004KT 9999 SCT016 26/25 Q1007 NOSIG
METAR WADD 212030Z 36004KT 9999 SCT016 26/25 Q1006 NOSIG
METAR WADD 212000Z 35005KT 9999 SCT016 26/25 Q1006 NOSIG
 WADD 211930Z 35005KT 9999 SCT016 26/25 Q1006 NOSIG
METAR WADD 211900Z 35004KT 9999 SCT016 26/25 Q1006 NOSIG
METAR WADD 211830Z 34004KT 9999 SCT016 26/25 Q1007 NOSIG
METAR WADD 211800Z 32005KT 280V350 9999 SCT016 27/26 Q1007 NOSIG
 WADD 211730Z 22003KT 9999 SCT016 28/27 Q1007 NOSIG
METAR WADD 211700Z 22004KT 9999 SCT016 28/27 Q1007 NOSIG</description><pubDate>Wed, 22 Oct 2025 16:35:08 </pubDate></item></channel></rss>