<rss version="2.0"><channel><title>Aviation Weather METAR Data for WADD</title><link>https://aviationweather.gov/api/data/metar?ids=WADD&amp;hours=24</link><description>Latest METAR data for WADD</description><item><title>2025-01-14 03:40:35Z</title><link>https://aviationweather.gov/api/data/metar?ids=WADD&amp;hours=24</link><description>WADD 140330Z 27007KT 9999 FEW017 30/27 Q1009 NOSIG
WADD 140300Z 28008KT 9999 FEW017 30/27 Q1009 NOSIG
WADD 140230Z 30007KT 230V330 9999 BKN020 30/27 Q1010 NOSIG
WADD 140200Z 30005KT 250V330 9999 BKN020 29/26 Q1010 NOSIG
WADD 140130Z 28004KT 9999 SCT017 29/26 Q1010 NOSIG
WADD 140100Z 29004KT 9999 FEW017 29/26 Q1010 NOSIG
WADD 140030Z 31003KT 9999 FEW017 29/26 Q1010 NOSIG
WADD 140000Z VRB02KT 9999 FEW017 28/26 Q1009 NOSIG
WADD 132330Z VRB02KT 9999 FEW017 27/25 Q1009 NOSIG
WADD 132300Z 09003KT 9999 SCT016 26/26 Q1009 NOSIG
WADD 132230Z 03002KT 9999 SCT016 26/25 Q1009 NOSIG
WADD 132200Z 09002KT 9999 BKN016 26/25 Q1008 NOSIG
WADD 132130Z VRB01KT 9999 BKN016 26/25 Q1008 NOSIG
WADD 132100Z 05001KT 9999 BKN016 27/26 Q1008 NOSIG
WADD 132030Z VRB02KT 9999 BKN016 27/25 Q1008 NOSIG
WADD 132000Z 34004KT 9999 FEW015CB BKN016 27/26 Q1008 NOSIG
WADD 131930Z 33005KT 9999 FEW015CB BKN016 27/26 Q1008 NOSIG
WADD 131900Z 33003KT 9999 FEW015CB BKN016 28/26 Q1008 NOSIG
WADD 131830Z 31006KT 9999 FEW015CB BKN016 28/26 Q1008 NOSIG
WADD 131800Z 31008KT 9999 FEW015CB BKN016 28/26 Q1008 NOSIG
WADD 131730Z 31007KT 9999 FEW015CB SCT016 28/26 Q1008 NOSIG
WADD 131700Z 30010KT 9999 SCT016 28/26 Q1008 NOSIG
WADD 131630Z 27009KT 9999 SCT016 28/26 Q1008 NOSIG
WADD 131600Z 26008KT 9999 SCT016 28/26 Q1008 NOSIG
WADD 131530Z 26008KT 9999 SCT016 28/26 Q1008 NOSIG
WADD 131500Z 26008KT 9999 SCT016 28/26 Q1008 NOSIG
WADD 131430Z 25008KT 9999 SCT016 28/26 Q1008 NOSIG
WADD 131400Z 23004KT 9999 SCT016 28/26 Q1008 NOSIG
WADD 131330Z 23004KT 160V270 9999 SCT016 28/26 Q1008 NOSIG
WADD 131300Z 23005KT 9999 SCT016 28/26 Q1007 NOSIG
WADD 131230Z 24007KT 9999 SCT016 28/26 Q1007 NOSIG
WADD 131200Z 25007KT 9999 BKN016 28/26 Q1007 NOSIG
WADD 131130Z 24005KT 150V270 9999 SCT016 28/26 Q1006 NOSIG
WADD 131100Z 24006KT 9999 BKN016 28/26 Q1006 NOSIG
WADD 131030Z 24005KT 9999 BKN016 29/26 Q1006 NOSIG
WADD 131000Z 23006KT 200V260 9999 BKN015 29/26 Q1006 NOSIG
WADD 130930Z 24007KT 210V270 9999 BKN015 29/26 Q1005 NOSIG
WADD 130900Z 25007KT 9999 SCT016 29/26 Q1005 NOSIG
WADD 130830Z 25005KT 220V290 9999 SCT016 29/26 Q1005 NOSIG
WADD 130800Z 25006KT 220V280 9999 SCT016 29/26 Q1005 NOSIG
WADD 130730Z 24005KT 210V290 9999 SCT016 29/26 Q1006 NOSIG
WADD 130700Z 26006KT 9999 SCT016 29/26 Q1006 NOSIG
WADD 130630Z 26007KT 220V280 9999 SCT016 30/26 Q1006 NOSIG
WADD 130600Z 26007KT 9999 BKN015 29/25 Q1007 NOSIG
WADD 130530Z 28010KT 9999 SCT016 30/26 Q1007 NOSIG
WADD 130500Z 28011KT 9999 SCT016 30/26 Q1007 NOSIG
WADD 130430Z 26009KT 9999 SCT015 28/27 Q1008 RERA NOSIG
WADD 130400Z 26013KT 6000 -RA FEW014CB BKN015 28/26 Q1008 TEMPO TL0500 6000 -RA</description><pubDate>Tue, 14 Jan 2025 03:40:35 </pubDate></item></channel></rss>