<rss version="2.0"><channel><title>Aviation Weather METAR Data for WADD</title><link>https://aviationweather.gov/api/data/metar?ids=WADD</link><description>Latest METAR data for WADD</description><item><title>2024-12-31 09:39:47Z</title><link>https://aviationweather.gov/api/data/metar?ids=WADD</link><description>WADD 310900Z 24006KT 210V270 9999 SCT016 30/27 Q1006 NOSIG</description><pubDate>Tue, 31 Dec 2024 09:39:47 </pubDate></item></channel></rss>