<rss version="2.0"><channel><title>Aviation Weather METAR Data for WADD</title><link>https://aviationweather.gov/api/data/metar?ids=WADD&amp;hours=24</link><description>Latest METAR data for WADD</description><item><title>2026-01-26 23:31:14Z</title><link>https://aviationweather.gov/api/data/metar?ids=WADD&amp;hours=24</link><description>METAR WADD 262300Z 26012KT 8000 -RA FEW015CB SCT015 26/23 Q1010 RETS TEMPO TL2400 8000 -RA RMK CB IN APCH AND CLIMB-OUT
METAR WADD 262230Z 25010KT 8000 -TSRA FEW015CB BKN015 26/24 Q1010 TEM PO TL2300 8000 -TSRA RMK CB IN APCH AND CLIMB-OUT
METAR WADD 262200Z 30009KT 5000 TSRA FEW015CB SCT015 25/24 Q1010 TEMPO TL2300 5000 TSRA RMK CB IN CLIMB-OUT
METAR WADD 262130Z 24006G23KT 200V280 8000 -TSRA FEW015CB SCT015 27/24 Q1010 TEMPO TL2300 8000 -TSRA RMK CB IN CLIMB-OUT
METAR WADD 262100Z 23005KT 9999 TS FEW015CB SCT015 28/24 Q1009 TEMPO TL2130 TS
METAR WADD 262030Z 26006KT 9999 FEW015CB SCT015 27/25 Q1009 TEMPO TL2 130 TS
METAR WADD 262000Z 28008KT 9999 FEW015CB SCT015 26/24 Q1009 TEMPO TL2130 TS
METAR WADD 261930Z 30016G23KT 9999 FEW015CB SCT015 26/24 Q1009 NOSIG
METAR WADD 261900Z 26010KT 9999 FEW016 28/25 Q1009 NOSIG
METAR WADD 261830Z 26009KT 9999 FEW016 28/24 Q1009 NOSIG
METAR WADD 261800Z 26008KT 9999 FEW016 28/24 Q1009 NOSIG
METAR WADD 261730Z 27011KT 9999 FEW016 28/25 Q1009 NOSIG
METAR WADD 261700Z 27010KT 9999 FEW016 28/24 Q1009 NOSIG
METAR WADD 261630Z 27011KT 9999 FEW016 28/24 Q1010 NOSIG
METAR WADD 261600Z 27010KT 9999 FEW016 28/24 Q1010 NOSIG
METAR WADD 261530Z 27011KT 9999 FEW016 28/24 Q1010 NOSIG
METAR WADD 261500Z 26013KT 9999 FEW016 28/24 Q1010 NOSIG
METAR WADD 261430Z 27013KT 9999 FEW016 28/25 Q1011 NOSIG
METAR WADD 261400Z 27012KT 9999 FEW016 28/25 Q1011 NOSIG
METAR WADD 261330Z 26010KT 9999 FEW016 28/25 Q1011 NOSIG
METAR WADD 261300Z 26010KT 9999 FEW016 28/25 Q1010 NOSIG
METAR WADD 261230Z 25011KT 9999 FEW016 28/24 Q1010 NOSIG
METAR WADD 261200Z 24009KT 9999 FEW016 28/23 Q1010 NOSIG
METAR WADD 261130Z 25010KT 9999 SCT016 28/25 Q1010 NOSIG
METAR WADD 261100Z 25013KT 9999 SCT016 28/25 Q1009 NOSIG
METAR WADD 261030Z 25011G22KT 9999 SCT016 29/25 Q1009 NOSIG
METAR WADD 261000Z 26013G21KT 9999 SCT016 29/25 Q1008 NOSIG
METAR WADD 260930Z 26014KT 9999 FEW016 29/24 Q1008 NOSIG
METAR WADD 260900Z 25011G19KT 9999 SCT016 29/25 Q1008 NOSIG
METAR WADD 260830Z 25013G25KT 9999 SCT016 29/25 Q1008 NOSIG
METAR WADD 260800Z 26017KT 9999 SCT016 30/25 Q1008 NOSIG
METAR WADD 260730Z 26014KT 9999 SCT016 30/24 Q1008 NOSIG
METAR WADD 260700Z 27015KT 9999 SCT016 30/24 Q1007 NOSIG
METAR WADD 260630Z 27015KT 9999 FEW016 30/24 Q1008 NOSIG
METAR WADD 260600Z 26015KT 9999 FEW016 30/24 Q1008 NOSIG
METAR WADD 260530Z 27015KT 9999 FEW016 30/24 Q1008 NOSIG
METAR WADD 260500Z 28015KT 9999 FEW016 30/24 Q1009 NOSIG
METAR WADD 260430Z 28014KT 9999 FEW016 31/24 Q1009 NOSIG
METAR WADD 260400Z 28016KT 9999 FEW016 30/24 Q1009 NOSIG
METAR WADD 260330Z 27018KT 9999 FEW016 30/24 Q1010 NOSIG
METAR WADD 260300Z 27011KT 9999 FEW015 30/25 Q1010 NOSIG
METAR WADD 260230Z 27009KT 9999 FEW015 30/26 Q1010 NOSIG
METAR WADD 260200Z 28008KT 9999 SCT015 29/25 Q1011 NOSIG
METAR WADD 260130Z 28004KT 9999 SCT015 29/25 Q1011 NOSIG
METAR WADD 260100Z 33003KT 9999 SCT015 29/25 Q1011 NOSIG
METAR WADD 260030Z 33003KT 9999 SCT015 28/24 Q1010 NOSIG
METAR WADD 260000Z VRB01KT 9999 SCT015 27/25 Q1010 NOSIG</description><pubDate>Mon, 26 Jan 2026 23:31:14 </pubDate></item></channel></rss>