<rss version="2.0"><channel><title>Aviation Weather METAR Data for WADD</title><link>https://aviationweather.gov/api/data/metar?ids=WADD&amp;hours=24</link><description>Latest METAR data for WADD</description><item><title>2025-11-10 07:26:02Z</title><link>https://aviationweather.gov/api/data/metar?ids=WADD&amp;hours=24</link><description>METAR WADD 100700Z 06004KT 020V120 9999 FEW017 30/25 Q1007 NOSIG
METAR WADD 100630Z 28004KT 250V360 9999 SCT016 29/25 Q1007 NOSIG
METAR WADD 100600Z VRB01KT 9999 FEW015CB SCT016 29/24 Q1007 RERA NOSI G
METAR WADD 100530Z 24004KT 190V270 9999 FEW016CB SCT017 29/23 Q1007 N OSIG
METAR WADD 100500Z 23010KT 9999 FEW016CB SCT017 29/24 Q1008 NOSIG
METAR WADD 100430Z 25008KT 220V290 9999 FEW016CB FEW017 30/25 Q1008 N OSIG
METAR WADD 100400Z 24007KT 9999 FEW017 31/25 Q1009 NOSIG
METAR WADD 100330Z 25007KT 220V300 9999 FEW017 31/25 Q1009 NOSIG
METAR WADD 100300Z VRB04KT 9999 FEW017 31/24 Q1009 NOSIG
METAR WADD 100230Z 26004KT 240V330 9999 FEW017 30/24 Q1010 NOSIG
METAR WADD 100200Z 30005KT 190V310 9999 FEW017 30/24 Q1010 NOSIG
METAR WADD 100130Z 29005KT 250V320 9999 FEW017 30/26 Q1010 NOSIG
METAR WADD 100100Z 23002KT 9999 FEW017 29/26 Q1010 NOSIG
METAR WADD 100030Z VRB02KT 9999 FEW017 28/26 Q1010 NOSIG
METAR WADD 100000Z VRB02KT 9999 FEW017 28/26 Q1010 NOSIG
METAR WADD 092330Z 13002KT 9999 FEW017 27/25 Q1010 NOSIG
METAR WADD 092300Z 08005KT 9999 FEW017 26/25 Q1009 NOSIG
METAR WADD 092230Z 07005KT 9999 FEW017 25/25 Q1009 NOSIG
METAR WADD 092200Z 06003KT 9999 FEW017 25/25 Q1008 NOSIG
METAR WADD 092130Z 06003KT 9999 SCT016 25/24 Q1008 NOSIG
METAR WADD 092100Z 04003KT 9999 SCT016 25/24 Q1007 NOSIG
METAR WADD 092030Z 09002KT 9999 SCT016 25/25 Q1007 NOSIG
METAR WADD 092000Z 07003KT 9999 SCT016 25/25 Q1007 NOSIG
METAR WADD 091930Z VRB02KT 9999 SCT016 25/25 Q1007 NOSIG
METAR WADD 091900Z 05002KT 9000 SCT016 26/25 Q1007 NOSIG
METAR WADD 091830Z 08002KT 9999 FEW017 26/25 Q1007 NOSIG
METAR WADD 091800Z 15002KT 9999 FEW017 26/25 Q1007 NOSIG
METAR WADD 091730Z VRB01KT 9999 FEW017 26/24 Q1008 NOSIG
METAR WADD 091630Z 22002KT 9999 FEW017 26/25 Q1009 NOSIG
METAR WADD 091600Z 22005KT 9999 FEW017 28/25 Q1009 NOSIG
METAR WADD 091530Z 22005KT 9999 FEW017 28/25 Q1009 NOSIG
METAR WADD 091500Z 30003KT 9999 FEW017 28/24 Q1010 NOSIG
METAR WADD 091430Z 35003KT 9999 FEW017 27/24 Q1010 NOSIG
METAR WADD 091400Z 02006KT 330V060 9999 FEW017 27/25 Q1010 NOSIG
METAR WADD 091330Z 04005KT 290V070 9999 FEW017 27/24 Q1010 NOSIG
METAR WADD 091300Z 04005KT 350V060 9999 FEW017 26/25 Q1010 NOSIG
METAR WADD 091230Z 03004KT 340V060 9999 FEW016 27/25 Q1009 NOSIG
METAR WADD 091200Z 04003KT 9999 FEW016 27/25 Q1009 NOSIG
METAR WADD 091130Z 05004KT 020V100 9999 FEW017 27/25 Q1009 NOSIG
METAR WADD 091100Z 03005KT 310V070 9999 FEW017 27/25 Q1009 NOSIG
METAR WADD 091030Z 35003KT 9999 FEW017 27/24 Q1009 NOSIG
METAR WADD 091000Z 31004KT 9999 FEW017 27/24 Q1008 NOSIG
METAR WADD 090930Z 31006KT 9999 FEW017 27/24 Q1008 NOSIG
METAR WADD 090900Z 27004KT 9999 FEW016 28/25 Q1008 NOSIG
METAR WADD 090830Z 26005KT 230V290 9999 FEW016 28/25 Q1008 NOSIG
METAR WADD 090800Z 27006KT 9999 BKN016 27/25 Q1008 NOSIG
METAR WADD 090730Z 27007KT 9999 BKN016 27/25 Q1008 NOSIG</description><pubDate>Mon, 10 Nov 2025 07:26:02 </pubDate></item></channel></rss>