<rss version="2.0"><channel><title>Aviation Weather METAR Data for WADD</title><link>https://aviationweather.gov/api/data/metar?ids=WADD&amp;hours=24</link><description>Latest METAR data for WADD</description><item><title>2025-10-27 15:43:01Z</title><link>https://aviationweather.gov/api/data/metar?ids=WADD&amp;hours=24</link><description>METAR WADD 271530Z 09006KT 9999 FEW017 28/26 Q1010 NOSIG
METAR WADD 271500Z 10007KT 9999 FEW017 28/26 Q1011 NOSIG
METAR WADD 271430Z 10006KT 9999 FEW017 28/26 Q1011 NOSIG
METAR WADD 271400Z 10006KT 9999 FEW017 28/26 Q1011 NOSIG
METAR WADD 271330Z 10007KT 9999 FEW017 28/26 Q1011 NOSIG
METAR WADD 271300Z 09007KT 9999 FEW017 28/26 Q1010 NOSIG
METAR WADD 271230Z 12008KT 9999 FEW017 28/27 Q1010 NOSIG
METAR WADD 271200Z 13008KT 9999 FEW017 29/27 Q1010 NOSIG
METAR WADD 271130Z 13007KT 9999 FEW017 29/26 Q1010 NOSIG
METAR WADD 271100Z 12009KT 9999 FEW017 29/26 Q1010 NOSIG
METAR WADD 271030Z 13010KT 9999 FEW017 29/26 Q1009 NOSIG
METAR WADD 271000Z 13008KT 9999 FEW017 29/26 Q1009 NOSIG
METAR WADD 270930Z 12007KT 9999 FEW017 29/26 Q1008 NOSIG
METAR WADD 270900Z 13008KT 9999 FEW017 30/27 Q1008 NOSIG
METAR WADD 270800Z 12008KT 9999 SCT017 30/26 Q1008 NOSIG
METAR WADD 270730Z 11008KT 9999 SCT017 30/26 Q1008 NOSIG
METAR WADD 270700Z 11009KT 9999 SCT017 31/26 Q1008 NOSIG
METAR WADD 270630Z 10008KT 9999 SCT017 30/26 Q1008 NOSIG
METAR WADD 270600Z 10008KT 9999 SCT016 31/26 Q1009 NOSIG
METAR WADD 270530Z VRB09KT 9999 SCT016 30/27 Q1009 NOSIG
METAR WADD 270500Z 23005KT 9999 SCT016 30/27 Q1009 NOSIG
METAR WADD 270430Z 17007KT 130V220 9999 SCT016 30/26 Q1010 NOSIG
METAR WADD 270400Z 16008KT 120V260 9999 FEW016CB SCT016 30/26 Q1011 NOSIG
METAR WADD 270330Z 11008KT 9999 FEW016CB SCT016 31/26 Q1011 NOSIG
METAR WADD 270300Z 14007KT 9999 FEW016CB SCT016 31/25 Q1011 NOSIG
METAR WADD 270230Z 12006KT 9999 FEW017 30/26 Q1011 NOSIG
METAR WADD 270200Z 18005KT 070V230 9999 FEW016 29/27 Q1011 NOSIG
METAR WADD 270130Z VRB04KT 9999 FEW016 29/26 Q1012 NOSIG
METAR WADD 270100Z 32005KT 290V030 9999 FEW016 29/26 Q1011 NOSIG
METAR WADD 270030Z 32005KT 300V010 9999 FEW016 29/26 Q1012 NOSIG
METAR WADD 270000Z 33004KT 290V030 9999 FEW016 28/26 Q1011 NOSIG
 WADD 262330Z 36003KT 9999 FEW016 28/26 Q1011 NOSIG
METAR WADD 262300Z 36003KT 9999 FEW017 27/25 Q1011 NOSIG
 WADD 262230Z 01003KT 9999 FEW017 27/25 Q1010 NOSIG
METAR WADD 262200Z 01003KT 9999 FEW017 26/25 Q1010 NOSIG
METAR WADD 262130Z 02003KT 9999 FEW017 26/25 Q1010 NOSIG
METAR WADD 262100Z 36003KT 9999 FEW017 26/25 Q1010 NOSIG
METAR WADD 262030Z 34003KT 9999 FEW017 27/26 Q1009 NOSIG
METAR WADD 262000Z 31004KT 9999 FEW017 26/26 Q1009 NOSIG
METAR WADD 261930Z 26003KT 9999 FEW017 27/26 Q1009 NOSIG
METAR WADD 261900Z 29001KT 9999 FEW017 27/26 Q1009 NOSIG
 WADD 261830Z 24002KT 9999 FEW017 27/26 Q1009 NOSIG
METAR WADD 261800Z 13002KT 9999 FEW017 28/26 Q1009 NOSIG
METAR WADD 261730Z VRB02KT 9999 FEW017 28/27 Q1010 NOSIG
METAR WADD 261700Z VRB01KT 9999 FEW017 28/27 Q1010 NOSIG
METAR WADD 261630Z VRB01KT 9999 FEW017 28/27 Q1010 NOSIG
METAR WADD 261600Z 16002KT 9999 FEW017 28/27 Q1010 NOSIG</description><pubDate>Mon, 27 Oct 2025 15:43:01 </pubDate></item></channel></rss>