<rss version="2.0"><channel><title>Aviation Weather METAR Data for WADD</title><link>https://aviationweather.gov/api/data/metar?ids=WADD&amp;hours=24</link><description>Latest METAR data for WADD</description><item><title>2026-04-26 20:04:26Z</title><link>https://aviationweather.gov/api/data/metar?ids=WADD&amp;hours=24</link><description>METAR WADD 261930Z 36002KT 7000 -RA BKN015 26/25 Q1009 TEMPO TL2030 - RA
SPECI WADD 261908Z VRB01G13KT 6000 -RA BKN015 27/25 Q1009 TEMPO TL2030 -RA
METAR WADD 261900Z 18005KT 3000 RA BKN015 27/25 Q1009 TEMPO TL2030 6000 -RA
METAR WADD 261830Z VRB02KT 9999 SCT016 26/25 Q1009 NOSIG
METAR WADD 261800Z 30003KT 9999 SCT016 26/24 Q1009 NOSIG
METAR WADD 261730Z VRB01KT 9999 SCT016 25/24 Q1009 NOSIG
METAR WADD 261700Z VRB01KT 9999 SCT016 25/24 Q1009 NOSIG
METAR WADD 261630Z VRB01KT 9999 SCT016 26/24 Q1010 NOSIG
METAR WADD 261600Z 05003KT 9999 SCT016 26/24 Q1010 RERA NOSIG
METAR WADD 261530Z 03005KT 7000 -RA BKN015 26/25 Q1010 TEMPO TL1630 -RA
METAR WADD 261500Z 05007KT 7000 -RA FEW015CB BKN015 26/25 Q1011 TEMPO TL1600 -RA RMK CB IN APCH
METAR WADD 261430Z 02007KT 340V040 5000 -RA FEW015CB BKN015 28/26 Q1011 TEMPO TL1600 -RA RMK CB IN CLIMB-OUT
SPECI WADD 261424Z COR 10006KT 5000 -RA FEW015CB BKN015 28/26 Q1011 TEMPO TL1600 -RA RMK CB IN CLIMB-OUT
METAR WADD 261400Z 10006KT 9000 FEW015CB BKN016 28/26 Q1011 NOSIG RMK CB IN APCH
METAR WADD 261330Z 13010KT 9000 BKN016 29/26 Q1011 NOSIG
METAR WADD 261300Z 13007KT 9999 SCT016 29/26 Q1010 NOSIG
METAR WADD 261230Z 13009KT 9999 SCT016 29/26 Q1010 NOSIG
METAR WADD 261200Z 13009KT 9999 SCT016 29/26 Q1010 NOSIG
METAR WADD 261130Z 13007KT 9999 SCT016 29/26 Q1009 NOSIG
METAR WADD 261100Z 14009KT 9999 SCT016 29/26 Q1009 NOSIG
METAR WADD 261030Z 13009KT 9999 SCT016 29/26 Q1008 NOSIG
METAR WADD 261000Z 13008KT 9999 SCT016 29/26 Q1008 NOSIG
METAR WADD 260930Z 14009KT 9999 SCT016 30/26 Q1008 NOSIG
METAR WADD 260900Z 12010KT 9999 SCT016 30/26 Q1007 NOSIG
METAR WADD 260830Z 13010KT 9999 FEW015CB SCT016 30/26 Q1007 NOSIG
METAR WADD 260800Z 12009KT 9999 FEW015CB SCT016 31/26 Q1007 NOSIG
METAR WADD 260730Z 14011KT 9999 FEW016CB SCT017 31/26 Q1006 NOSIG
METAR WADD 260700Z 14009KT 9999 FEW017 32/26 Q1007 NOSIG
METAR WADD 260630Z 16010KT 9999 FEW017 32/26 Q1006 NOSIG
METAR WADD 260600Z 17010KT 9999 FEW017 32/26 Q1007 NOSIG
METAR WADD 260530Z 15006KT 100V200 9999 FEW016 33/26 Q1007 NOSIG
METAR WADD 260500Z 18005KT 080V250 9999 FEW016 33/26 Q1007 NOSIG
METAR WADD 260430Z 26009KT 9999 FEW016 31/27 Q1008 NOSIG
METAR WADD 260400Z 25008KT 210V290 9999 FEW016 31/27 Q1008 NOSIG
METAR WADD 260330Z 26007KT 220V280 9999 FEW016 31/27 Q1009 NOSIG
METAR WADD 260300Z 26007KT 9999 FEW016 31/27 Q1009 NOSIG
METAR WADD 260230Z 23004KT 200V280 9999 FEW016 32/26 Q1009 NOSIG
METAR WADD 260200Z VRB03KT 9999 FEW016 33/27 Q1010 NOSIG
METAR WADD 260130Z 33003KT 9999 FEW016 31/26 Q1010 NOSIG
METAR WADD 260100Z 32005KT 300V010 9999 FEW016 31/26 Q1010 NOSIG
METAR WADD 260030Z 31005KT 9999 FEW016 30/26 Q1010 NOSIG
METAR WADD 260000Z 33006KT 9999 FEW016 29/26 Q1010 NOSIG
METAR WADD 252330Z COR 32005KT 9999 SCT016 28/25 Q1009 NOSIG
METAR WADD 252300Z 32005KT 9999 FEW017 27/25 Q1009 NOSIG
METAR WADD 252230Z 35004KT 9999 FEW017 27/25 Q1009 NOSIG
METAR WADD 252200Z 32005KT 9999 FEW017 27/26 Q1009 NOSIG
METAR WADD 252130Z 06004KT 310V080 9999 FEW017 27/26 Q1008 NOSIG
METAR WADD 252100Z 10006KT 9999 FEW017 28/26 Q1008 NOSIG
METAR WADD 252030Z 12006KT 9999 FEW017 28/26 Q1008 NOSIG</description><pubDate>Sun, 26 Apr 2026 20:04:26 </pubDate></item></channel></rss>