<rss version="2.0"><channel><title>Aviation Weather METAR Data for WADD</title><link>https://aviationweather.gov/api/data/metar?ids=WADD&amp;hours=24</link><description>Latest METAR data for WADD</description><item><title>2025-01-16 18:44:09Z</title><link>https://aviationweather.gov/api/data/metar?ids=WADD&amp;hours=24</link><description>WADD 161830Z 32007KT 9999 FEW 1700FT 27/25 Q1006 NOSIG
WADD 161800Z 32006KT 9999 FEW016 27/25 Q1006 NOSIG
WADD 161730Z 31008KT 9999 SCT016 28/25 Q1006 NOSIG
WADD 161700Z 30007KT 280V340 9999 SCT016 28/25 Q1007 NOSIG
WADD 161630Z 30008KT 9999 FEW016 28/25 Q1007 NOSIG
WADD 161600Z 31005KT 9999 FEW016 28/25 Q1007 NOSIG
WADD 161530Z 32005KT 9999 FEW017 28/25 Q1007 NOSIG
WADD 161500Z 31006KT 9999 FEW017 28/25 Q1007 NOSIG
WADD 161430Z 29008KT 9999 FEW017 28/26 Q1007 NOSIG
WADD 161400Z 29008KT 9999 FEW017 28/26 Q1007 NOSIG
WADD 161330Z 27007KT 9999 FEW017 28/25 Q1007 NOSIG
WADD 161300Z 27009KT 9999 FEW017 29/25 Q1007 NOSIG
WADD 161230Z 27008KT 9999 FEW017 28/25 Q1007 NOSIG
WADD 161200Z 27009KT 9999 FEW017 29/24 Q1007 NOSIG
WADD 161130Z 27009KT 9999 FEW017 29/25 Q1007 NOSIG
WADD 161100Z 29010KT 9999 FEW017 29/25 Q1006 NOSIG
WADD 161030Z 27011KT 9999 FEW017 29/25 Q1006 NOSIG
WADD 161000Z 26009KT 9999 FEW017 30/25 Q1006 NOSIG
WADD 160930Z 26008KT 9999 FEW017 30/25 Q1005 NOSIG
WADD 160900Z 25009KT 9999 FEW017 30/25 Q1005 NOSIG
WADD 160830Z 26010KT 9999 FEW017 30/25 Q1005 NOSIG
WADD 160800Z 26009KT 9999 FEW017 30/26 Q1005 NOSIG
WADD 160730Z 26009KT 9999 FEW017 30/25 Q1005 NOSIG
WADD 160700Z 26008KT 210V300 9999 FEW017 30/26 Q1005 NOSIG
WADD 160630Z 28009KT 230V320 9999 FEW017 30/25 Q1005 NOSIG
WADD 160600Z 30009KT 270V330 9999 FEW017 31/26 Q1006 NOSIG
WADD 160530Z 30010KT 9999 FEW017 30/25 Q1006 NOSIG
WADD 160500Z 29009KT 260V330 9999 FEW017 31/25 Q1007 NOSIG
WADD 160430Z 30009KT 260V340 9999 FEW017 31/25 Q1007 NOSIG
WADD 160400Z 31008KT 280V360 9999 FEW017 31/25 Q1007 NOSIG
WADD 160330Z 25005KT 220V300 9999 FEW017 31/26 Q1007 NOSIG
WADD 160300Z 26006KT 240V300 9999 FEW016 30/25 Q1007 NOSIG
WADD 160230Z 31006KT 260V330 9999 FEW016 29/26 Q1007 NOSIG
WADD 160200Z 29008KT 9999 FEW016 29/26 Q1007 NOSIG
WADD 160130Z 30007KT 9999 SCT016 28/25 Q1008 NOSIG
WADD 160100Z 32007KT 9999 BKN016 27/25 Q1008 NOSIG
WADD 160030Z 33006KT 9999 BKN016 26/25 Q1008 NOSIG
WADD 160000Z 32006KT 9999 BKN016 26/25 Q1008 RERA NOSIG
WADD 152330Z 31004KT 7000 -RA FEW014CB BKN014 26/25 Q1008 RETS TEMPO TL2430 -RA
WADD 152300Z VRB02KT 6000 -TSRA FEW014CB BKN014 25/25 Q1008 TEMPO TL24000 6000 -TSRA
WADD 152230Z 30007KT 4000 TSRA FEW013CB BKN014 25/25 Q1008 TEMPO TL2330 4000 TSRA
WADD 152200Z 35007KT 310V020 3000 TSRA FEW014CB BKN014 25/25 Q1008 TEMPO TL2300 7000 -TSRA
WADD 152130Z 06004KT 030V110 7000 -TSRA FEW014CB BKN015 25/25 Q1007 TEMPO TL2230 7000 -TSRA
WADD 152100Z 20003KT 4000 TSRA FEW014CB BKN015 26/25 Q1007 TEMPO TL2200 4000 TSRA
WADD 152030Z 03004KT 9999 TS FEW014CB BKN015 26/25 Q1007 TEMPO TL2130 TS
WADD 152000Z VRB02KT 9999 SCT016 26/26 Q1007 NOSIG
WADD 151930Z 05004KT 9999 SCT016 26/25 Q1006 NOSIG
WADD 151900Z 09003KT 9999 SCT016 26/25 Q1007 RERA NOSIG</description><pubDate>Thu, 16 Jan 2025 18:44:09 </pubDate></item></channel></rss>