<rss version="2.0"><channel><title>Aviation Weather METAR Data for WADD</title><link>https://aviationweather.gov/api/data/metar?ids=WADD&amp;hours=24</link><description>Latest METAR data for WADD</description><item><title>2025-08-25 19:21:12Z</title><link>https://aviationweather.gov/api/data/metar?ids=WADD&amp;hours=24</link><description>WADD 251900Z 16008KT 9999 FEW017 26/24 Q1012 NOSIG
WADD 251830Z 14008KT 9999 FEW017 26/24 Q1012 NOSIG
WADD 251800Z 15007KT 9999 FEW017 26/24 Q1013 NOSIG
WADD 251730Z 14008KT 9999 FEW017 26/24 Q1013 NOSIG
WADD 251700Z 14007KT 9999 FEW017 26/24 Q1013 NOSIG
WADD 251630Z 14007KT 9999 FEW017 26/24 Q1013 NOSIG
WADD 251600Z 13006KT 9999 FEW017 26/24 Q1014 NOSIG
WADD 251530Z 13007KT 9999 FEW017 26/24 Q1014 NOSIG
WADD 251500Z 13008KT 9999 FEW017 26/24 Q1014 NOSIG
WADD 251430Z 13008KT 9999 FEW017 26/24 Q1014 NOSIG
WADD 251400Z 14009KT 9999 FEW017 26/24 Q1014 NOSIG
WADD 251330Z 13009KT 9999 FEW017 26/24 Q1013 NOSIG
WADD 251300Z 13008KT 9999 FEW017 27/23 Q1013 NOSIG
WADD 251230Z 14010KT 9999 FEW017 26/23 Q1013 NOSIG
WADD 251200Z 14010KT 9999 FEW017 27/23 Q1013 NOSIG
WADD 251130Z 14011KT 9999 FEW016 27/23 Q1012 NOSIG
WADD 251100Z 15011KT 9999 FEW016 27/23 Q1012 NOSIG
WADD 251030Z 16013KT 9999 SCT016 27/23 Q1012 NOSIG
WADD 251000Z 16013KT 9999 SCT016 27/23 Q1012 NOSIG
WADD 250930Z 15014KT 9999 SCT016 27/23 Q1011 NOSIG
WADD 250900Z 15012KT 9999 FEW016 28/23 Q1011 NOSIG
WADD 250830Z 16012KT 9999 FEW016 28/23 Q1011 NOSIG
WADD 250800Z 16012KT 9999 FEW016 28/23 Q1011 NOSIG
WADD 250730Z 16013KT 9999 FEW016 28/24 Q1011 NOSIG
WADD 250700Z 16012KT 9999 FEW016 28/24 Q1011 NOSIG
WADD 250630Z 16011KT 9999 SCT016 28/23 Q1011 NOSIG
WADD 250600Z 17012KT 9999 SCT016 28/23 Q1011 NOSIG
WADD 250530Z 18010KT 9999 SCT016 28/24 Q1012 NOSIG
WADD 250500Z 17011KT 9999 SCT016 28/24 Q1012 NOSIG
WADD 250430Z 17010KT 9999 SCT016 28/24 Q1012 NOSIG
WADD 250400Z 17010KT 9999 SCT016 28/24 Q1013 NOSIG
WADD 250330Z 25003KT 9999 SCT016 27/24 Q1013 NOSIG
WADD 250300Z 30005KT 250V350 9999 SCT015 27/24 Q1013 NOSIG
WADD 250230Z 31006KT 280V350 9999 SCT015 27/24 Q1014 NOSIG
WADD 250200Z 27003KT 9999 SCT016 27/24 Q1014 NOSIG
WADD 250130Z 25004KT 200V280 8000 SCT016 26/24 Q1014 NOSIG
WADD 250100Z 27003KT 8000 FEW016 26/24 Q1014 NOSIG
WADD 250030Z 31004KT 9999 FEW015 26/24 Q1013 NOSIG
WADD 250000Z 33003KT 9999 FEW017 26/24 Q1013 NOSIG
WADD 242330Z 32004KT 290V030 9999 SCT016 25/23 Q1013
WADD 242300Z 35004KT 8000 SCT016 24/23 Q1013 NOSIG
WADD 242230Z VRB01KT 9999 SCT016 24/23 Q1012 NOSIG
WADD 242200Z VRB01KT 9999 SCT016 25/23 Q1012 NOSIG
WADD 242130Z VRB01KT 9999 SCT016 24/23 Q1011 NOSIG
WADD 242100Z VRB02KT 9999 SCT016 25/23 Q1011 NOSIG
WADD 242030Z 36003KT 9999 BKN016 24/23 Q1011 NOSIG
WADD 242000Z VRB02KT 9999 BKN016 25/23 Q1011 NOSIG
WADD 241930Z VRB02KT 9999 BKN016 26/24 Q1011 NOSIG</description><pubDate>Mon, 25 Aug 2025 19:21:12 </pubDate></item></channel></rss>