<rss version="2.0"><channel><title>Aviation Weather METAR Data for WADD</title><link>https://aviationweather.gov/api/data/metar?ids=WADD&amp;hours=24</link><description>Latest METAR data for WADD</description><item><title>2025-12-07 05:42:55Z</title><link>https://aviationweather.gov/api/data/metar?ids=WADD&amp;hours=24</link><description>METAR WADD 070530Z 26009KT 9999 SCT016 30/26 Q1008 NOSIG
METAR WADD 070500Z 26008KT 230V290 9999 SCT016 31/26 Q1008 NOSIG
METAR WADD 070430Z 26008KT 210V280 9999 FEW016 30/26 Q1009 NOSIG
METAR WADD 070400Z 25008KT 200V280 9999 FEW016 30/26 Q1009 NOSIG
METAR WADD 070330Z 25007KT 210V280 9999 FEW016 30/26 Q1009 NOSIG
METAR WADD 070300Z 26008KT 220V280 9999 SCT016 30/26 Q1009 NOSIG
METAR WADD 070230Z 27007KT 240V320 9999 SCT016 30/25 Q1010 NOSIG
METAR WADD 070200Z 25006KT 220V280 9999 SCT016 29/25 Q1010 NOSIG
METAR WADD 070130Z 29007KT 260V320 9999 SCT016 29/26 Q1010 NOSIG
METAR WADD 070100Z 29006KT 260V330 9999 FEW016 29/26 Q1010 NOSIG
METAR WADD 070030Z 30006KT 9999 FEW016 29/25 Q1010 NOSIG
METAR WADD 070000Z 30006KT 9999 FEW016 28/25 Q1010 NOSIG
METAR WADD 062330Z 31006KT 9999 FEW016 28/25 Q1010 NOSIG
METAR WADD 062300Z 32004KT 290V350 9999 SCT016 27/25 Q1009 NOSIG
METAR WADD 062230Z VRB02KT 9999 SCT016 26/24 Q1009 NOSIG
METAR WADD 062200Z 35004KT 9999 SCT016 26/24 Q1009 NOSIG
METAR WADD 062130Z 32005KT 9999 SCT016 26/24 Q1009 NOSIG
METAR WADD 062100Z 36003KT 9999 SCT016 26/24 Q1009 NOSIG
METAR WADD 062030Z 02004KT 9999 SCT016 26/24 Q1009 NOSIG
METAR WADD 062000Z VRB02KT 9999 SCT016 26/24 Q1009 NOSIG
METAR WADD 061930Z 34003KT 9999 SCT016 26/24 Q1008 NOSIG
METAR WADD 061900Z 33002KT 9999 SCT016 26/24 Q1008 NOSIG
METAR WADD 061830Z 05003KT 9999 SCT0216 27/24 Q1009 NOSIG
METAR WADD 061800Z VRB01KT 9999 SCT016 27/25 Q1009 NOSIG
METAR WADD 061730Z 24002KT 9999 SCT016 27/25 Q1009 NOSIG
METAR WADD 061700Z 26004KT 9999 SCT016 27/24 Q1009 NOSIG
METAR WADD 061630Z 24002KT 9999 SCT016 27/24 Q1009 NOSIG
METAR WADD 061600Z 23003KT 9999 BKN016 27/24 Q1010 RETS NOSIG
METAR WADD 061530Z 23005KT 9999 TS FEW015CB BKN016 26/24 Q1010 TEMPO TL1630 TS
METAR WADD 061500Z COR 18011KT 140V210 9999 TS FEW015CB BKN016 28/26 Q1010 TEMPO TL1600 TS
METAR WADD 061430Z 06007KT 9999 FEW015CB BKN016 27/24 Q1010 NOSIG
METAR WADD 061400Z 35004KT 290V020 9999 FEW015CB SCT016 28/24 Q1010 N OSIG
METAR WADD 061330Z VRB01KT 9999 FEW015CB SCT016 28/23 Q1010 RERA NOSI G
METAR WADD 061300Z 13007KT 090V170 9999 FEW015CB SCT016 28/25 Q1010 N OSIG
METAR WADD 061230Z 12003KT 9999 FEW015CB SCT016 28/25 Q1010 NOSIG
METAR WADD 061200Z VRB02KT 9999 FEW015CB FEW016 29/25 Q1009 NOSIG
METAR WADD 061130Z VRB01KT 9999 FEW015CB FEW016 29/25 Q1009 NOSIG
METAR WADD 061100Z VRB02KT 9999 FEW015CB FEW016 29/24 Q1009 NOSIG
METAR WADD 061030Z 16003KT 9999 FEW015CB FEW016 29/24 Q1008 NOSIG
METAR WADD 061000Z 16004KT 080V200 9999 FEW015 29/24 Q1008 NOSIG
METAR WADD 060930Z VRB03KT 9999 FEW015 30/24 Q1008 NOSIG
METAR WADD 060900Z 15005KT 100V220 9999 FEW015 31/24 Q1007 NOSIG
METAR WADD 060830Z 17005KT 9999 FEW015CB FEW016 31/24 Q1007 NOSIG
METAR WADD 060800Z 15005KT 110V230 9999 FEW015CB FEW016 32/24 Q1007 N OSIG
METAR WADD 060730Z 28015KT 9999 BKN016 29/24 Q1007 NOSIG
METAR WADD 060700Z 14006KT 100V200 9999 SCT016 31/24 Q1007 NOSIG
METAR WADD 060630Z 14007KT 110V170 9999 SCT016 31/24 Q1007 NOSIG
METAR WADD 060600Z VRB04KT 9999 SCT016 30/25 Q1008 NOSIG</description><pubDate>Sun, 07 Dec 2025 05:42:55 </pubDate></item></channel></rss>