<rss version="2.0"><channel><title>Aviation Weather METAR Data for WADD</title><link>https://aviationweather.gov/api/data/metar?ids=WADD&amp;hours=24</link><description>Latest METAR data for WADD</description><item><title>2026-05-12 10:59:57Z</title><link>https://aviationweather.gov/api/data/metar?ids=WADD&amp;hours=24</link><description>METAR WADD 121030Z 13015KT 9999 SCT016 29/26 Q1008 NOSIG
METAR WADD 121000Z 14015KT 9999 SCT016 29/26 Q1008 NOSIG
METAR WADD 120930Z 14016KT 9999 SCT016 29/26 Q1008 NOSIG
METAR WADD 120900Z 13013KT 9999 SCT016 30/26 Q1008 NOSIG
METAR WADD 120830Z 13016KT 9999 SCT017 30/26 Q1007 NOSIG
METAR WADD 120800Z 13015KT 9999 SCT017 30/26 Q1007 NOSIG
METAR WADD 120730Z 13015KT 9999 SCT017 30/26 Q1007 NOSIG
METAR WADD 120700Z 11015KT 9999 SCT017 31/25 Q1007 NOSIG
METAR WADD 120630Z 12015KT 9999 SCT017 31/25 Q1008 NOSIG
METAR WADD 120600Z 13016KT 9999 FEW017 31/26 Q1008 NOSIG
METAR WADD 120530Z 11015KT 9999 FEW017 31/26 Q1008 NOSIG
METAR WADD 120500Z 12014KT 9999 SCT016 31/25 Q1009 NOSIG
METAR WADD 120430Z 11014KT 9999 SCT016 31/25 Q1009 NOSIG
METAR WADD 120400Z 12015KT 9999 SCT016 31/26 Q1009 NOSIG
METAR WADD 120330Z 11015KT 9999 BKN016 30/26 Q1010 NOSIG
METAR WADD 120300Z 11016KT 9999 BKN016 30/26 Q1011 NOSIG
METAR WADD 120230Z 12013KT 9999 BKN016 30/26 Q1011 NOSIG
METAR WADD 120200Z 12016KT 9999 SCT016 30/26 Q1011 NOSIG
METAR WADD 120130Z 12014KT 9999 SCT016 30/26 Q1011 NOSIG
METAR WADD 120100Z 13015KT 9999 SCT016 30/26 Q1011 NOSIG
METAR WADD 120030Z 13014KT 9999 SCT016 29/26 Q1011 NOSIG
METAR WADD 120000Z 12011KT 9999 SCT016 28/26 Q1011 NOSIG
METAR WADD 112330Z 13011KT 9999 SCT016 28/26 Q1010 NOSIG
METAR WADD 112300Z 13011KT 9999 SCT016 28/25 Q1010 NOSIG
METAR WADD 112230Z 12011KT SCT017 28/25 Q1010 NOSIG
METAR WADD 112200Z 12010KT 9999 FEW017 28/25 Q1010 NOSIG
METAR WADD 112130Z 12011KT 9999 FEW017 28/25 Q1010 NOSIG
METAR WADD 112100Z 12012KT 9999 FEW017 28/25 Q1010 NOSIG
METAR WADD 112030Z 12011KT 9999 FEW017 28/25 Q1010 NOSIG
METAR WADD 112000Z 12012KT 9999 FEW017 28/25 Q1010 NOSIG
METAR WADD 111930Z 12015KT 9999 FEW017 28/25 Q1010 NOSIG
METAR WADD 111900Z 12012KT 9999 FEW017 28/25 Q1010 NOSIG
METAR WADD 111830Z 12013KT 9999 FEW017 28/25 Q1010 NOSIG
METAR WADD 111800Z 12012KT 9999 FEW017 28/25 Q1010 NOSIG
METAR WADD 111730Z 12011KT 9999 FEW017 28/25 Q1010 NOSIG
METAR WADD 111700Z COR 12011KT 9999 FEW017 28/25 Q1011 NOSIG
METAR WADD 111630Z 12011KT 9999 FEW017 28/25 Q1011 NOSIG
METAR WADD 111600Z 12010KT 9999 FEW017 28/25 Q1011 NOSIG
METAR WADD 111530Z 12010KT 9999 FEW017 28/25 Q1011 NOSIG
METAR WADD 111500Z 12012KT 9999 FEW017 28/25 Q1012 NOSIG
METAR WADD 111430Z 12011KT 9999 FEW017 28/25 Q1011 NOSIG
METAR WADD 111400Z 12012KT 9999 FEW017 28/25 Q1011 NOSIG
METAR WADD 111330Z 12011KT 9999 FEW017 28/25 Q1011 NOSIG
METAR WADD 111300Z 12012KT 9999 FEW017 28/25 Q1011 NOSIG
METAR WADD 111230Z 13013KT 9999 FEW017 28/25 Q1011 NOSIG
METAR WADD 111200Z 12014KT 9999 FEW017 28/25 Q1010 NOSIG
METAR WADD 111130Z 13015KT 9999 FEW017 28/25 Q1010 NOSIG
METAR WADD 111100Z 13013KT 9999 FEW017 28/25 Q1009 NOSIG</description><pubDate>Tue, 12 May 2026 10:59:57 </pubDate></item></channel></rss>