<rss version="2.0"><channel><title>Aviation Weather METAR Data for WADD</title><link>https://aviationweather.gov/api/data/metar?ids=WADD&amp;hours=24</link><description>Latest METAR data for WADD</description><item><title>2025-10-25 09:40:10Z</title><link>https://aviationweather.gov/api/data/metar?ids=WADD&amp;hours=24</link><description>METAR WADD 250930Z 16007KT 9999 SCT016 30/26 Q1007 NOSIG
METAR WADD 250900Z 17007KT 9999 SCT016 30/26 Q1007 NOSIG
METAR WADD 250830Z 17007KT 9999 SCT016 30/26 Q1007 NOSIG
METAR WADD 250800Z 17008KT 9999 SCT016 30/26 Q1007 NOSIG
METAR WADD 250730Z 16009KT 9999 SCT016 31/26 Q1007 NOSIG
METAR WADD 250700Z 17009KT 9999 SCT016 31/26 Q1007 NOSIG
METAR WADD 250630Z 16009KT 9999 SCT016 31/26 Q1007 NOSIG
METAR WADD 250600Z 21004KT 9999 SCT016 32/26 Q1007 NOSIG
METAR WADD 250530Z 21006KT 9999 SCT016 32/27 Q1008 NOSIG
METAR WADD 250500Z 19005KT 9999 SCT016 31/27 Q1008 NOSIG
METAR WADD 250430Z 25009KT 9999 SCT016 31/27 Q1009 NOSIG
METAR WADD 250400Z 25008KT 9999 SCT016 31/27 Q1009 NOSIG
METAR WADD 250330Z 24008KT 9999 FEW016 30/27 Q1010 NOSIG
METAR WADD 250300Z 24007KT 9999 FEW016 30/27 Q1010 NOSIG
METAR WADD 250230Z 24004KT 210V290 9999 SCT016 30/27 Q1010 NOSIG
METAR WADD 250200Z 27006KT 9999 SCT016 30/27 Q1010 NOSIG
METAR WADD 250130Z 29005KT 9999 SCT016 29/26 Q1010 NOSIG
METAR WADD 250100Z 28003KT 9999 SCT016 29/26 Q1010 NOSIG
METAR WADD 250030Z 29004KT 260V320 9999 FEW017 28/25 Q1011 NOSIG
METAR WADD 250000Z 30003KT 9999 FEW017 28/25 Q1010 NOSIG
METAR WADD 242330Z VRB02KT 9999 SCT016 28/25 Q1010 NOSIG
 WADD 242300Z 36003KT 9999 SCT016 27/25 Q1009 NOSIG
METAR WADD 242230Z 36005KT 9999 FEW017 26/24 Q1009 NOSIG
METAR WADD 242200Z 01004KT 9999 FEW016 26/24 Q1009 NOSIG
METAR WADD 242130Z 02005KT 9999 SCT016 26/25 Q1008 NOSIG
METAR WADD 242100Z 35005KT 9999 SCT016 26/25 Q1008 NOSIG
METAR WADD 242030Z 13002KT 9999 SCT016 27/26 Q1008 NOSIG
METAR WADD 242000Z 11002KT 9999 SCT016 27/26 Q1008 NOSIG
METAR WADD 241930Z 13004KT 9999 SCT016 28/26 Q1008 NOSIG
METAR WADD 241900Z 13003KT 9999 SCT016 28/26 Q1008 NOSIG
METAR WADD 241830Z 14003KT 9999 SCT016 28/26 Q1009 NOSIG
METAR WADD 241800Z 15003KT 9999 FEW016 28/26 Q1009 NOSIG
METAR WADD 241730Z 14004KT 9999 FEW016 28/27 Q1009 NOSIG
METAR WADD 241700Z 14004KT 9999 FEW016 28/27 Q1009 NOSIG
METAR WADD 241630Z 12005KT 9999 FEW016 28/26 Q1009 NOSIG
METAR WADD 241600Z 13005KT 9999 FEW016 28/27 Q1010 NOSIG
METAR WADD 241530Z 12005KT 9999 FEW016 28/26 Q1010 NOSIG
METAR WADD 241500Z 14005KT 9999 FEW016 28/26 Q1010 NOSIG
METAR WADD 241430Z 14004KT 9999 FEW016 29/26 Q1010 NOSIG
METAR WADD 241400Z 14004KT 9999 FEW016 29/26 Q1010 NOSIG
METAR WADD 241330Z 12007KT 9999 FEW016 29/26 Q1009 NOSIG
METAR WADD 241300Z 12007KT 9999 FEW016 29/26 Q1009 NOSIG
METAR WADD 241230Z 11007KT 9999 SCT016 29/26 Q1009 NOSIG
METAR WADD 241200Z 13007KT 9999 SCT016 29/26 Q1009 NOSIG
METAR WADD 241130Z 13008KT 9999 BKN015 29/26 Q1009 NOSIG
METAR WADD 241100Z 12010KT 9999 BKN015 29/26 Q1008 NOSIG
 WADD 241030Z 13011KT 9999 BKN015 29/26 Q1008 NOSIG
 WADD 241000Z 13011KT 9999 BKN015 29/26 Q1007 NOSIG</description><pubDate>Sat, 25 Oct 2025 09:40:10 </pubDate></item></channel></rss>