<rss version="2.0"><channel><title>Aviation Weather METAR Data for WADD</title><link>https://aviationweather.gov/api/data/metar?ids=WADD&amp;hours=24</link><description>Latest METAR data for WADD</description><item><title>2025-01-19 16:41:52Z</title><link>https://aviationweather.gov/api/data/metar?ids=WADD&amp;hours=24</link><description>WADD 191630Z 28011KT 9999 BKN015 27/26 Q1006 NOSIG
WADD 191600Z 28010KT 9999 BKN015 27/26 Q1006 NOSIG
WADD 191530Z 29010KT 9999 BKN015 27/26 Q1007 NOSIG
WADD 191500Z 29010KT 9999 BKN015 27/26 Q1006 RERA NOSIG
WADD 191430Z 30011KT 8000 -RA FEW014CB BKN015 27/26 Q1006 TEMPO TL1530 -RA
WADD 191400Z 30010KT 8000 -RA FEW014CB BKN015 27/26 Q1007 TEMPO TL1500 -RA
WADD 191330Z 30012KT 8000 -RA FEW014CB BKN015 27/26 Q1006 TEMPO TL1430 -RA
WADD 191300Z 30011KT 8000 -RA FEW014CB BKN015 27/26 Q1006 TEMPO TL1400 -RA
WADD 191230Z 30011KT 8000 -RA FEW014CB BKN015 27/26 Q1006 RETS TEMPO TL1330 -RA
WADD 191200Z 31011KT 290V010 8000 -TSRA FEW014CB BKN015 26/26 Q1006 TEMPO TL1300 -TSRA RMK CB IN APCH
WADD 191130Z VRB06KT 6000 -TSRA FEW014CB BKN014 26/26 Q1006 TEMPO TL1300 -TSRA RMK CB IN APCH AND CLIMB-OUT
WADD 191100Z 28015KT 1500 TSRA FEW014CB BKN014 28/26 Q1005 TEMPO TL1200 3000 TSRA
WADD 191030Z 28015KT 9000 TS FEW015CB BKN015 28/26 Q1004 RERA TEMPO TL1200 TS
WADD 191000Z 26013KT 8000 -TSRA FEW015CB BKN015 29/26 Q1004 TEMPO TL1100 -TSRA
WADD 190930Z 26015KT 9999 TS FEW015CB SCT016 29/26 Q1004 TEMPO TL1100 TS
WADD 190900Z 26013KT 9999 FEW015CB SCT016 29/26 Q1003 NOSIG
WADD 190830Z 26013KT 9999 FEW015CB SCT016 30/27 Q1003 NOSIG
WADD 190800Z 25013KT 9999 FEW015CB SCT016 30/26 Q1003 NOSIG
WADD 190730Z 26013KT 9999 SCT017 30/27 Q1003 NOSIG
WADD 190700Z 26012KT 9999 SCT017 31/27 Q1003 NOSIG
WADD 190630Z 26011KT 9999 FEW017 31/27 Q1004 NOSIG
WADD 190600Z 26010KT 220V280 9999 FEW017 30/26 Q1004 NOSIG
WADD 190530Z 27009KT 230V290 9999 FEW017 31/26 Q1004 NOSIG
WADD 190500Z 28009KT 9999 FEW017 30/26 Q1005 NOSIG
WADD 190430Z 29010KT 9999 SCT017 30/26 Q1005 NOSIG
WADD 190400Z 29009KT 9999 SCT017 30/25 Q1005 NOSIG
WADD 190330Z 29009KT 9999 SCT016 30/26 Q1005 NOSIG
WADD 190300Z 28012KT 9999 SCT016 30/26 Q1005 NOSIG
WADD 190230Z 28013KT 9999 SCT016 30/26 Q1006 NOSIG
WADD 190200Z 28012KT 9999 SCT017 30/26 Q1006 NOSIG
WADD 190130Z 28010KT 9999 FEW017 30/26 Q1006 NOSIG
WADD 190100Z 29010KT 9999 FEW017 29/26 Q1006 NOSIG
WADD 190030Z 31008KT 9999 FEW017 29/25 Q1006 NOSIG
WADD 190000Z 32008KT 9999 SCT016 28/25 Q1006 NOSIG
WADD 182330Z 29011KT 9999 SCT016 28/26 Q1005 NOSIG
WADD 182300Z 27010KT 9999 SCT016 27/26 Q1005 NOSIG
WADD 182230Z 27012KT 9999 SCT015 27/25 Q1005 NOSIG
WADD 182200Z 26011KT 9999 SCT016 27/26 Q1005 NOSIG
WADD 182130Z 25011KT 9999 SCT016 27/25 Q1004 NOSIG
WADD 182100Z 27012KT 9999 FEW017 27/25 Q1004 NOSIG
WADD 182030Z 27012KT 9999 FEW017 27/25 Q1004 NOSIG
WADD 182000Z 29009KT 9999 FEW017 27/25 Q1004 NOSIG
WADD 181930Z 30008KT 9999 FEW017 27/25 Q1004 NOSIG
WADD 181900Z 30008KT 9999 SCT016 27/25 Q1004 NOSIG
WADD 181830Z 29010KT 9999 SCT16 27/25 Q1005 NOSIG
WADD 181800Z 30011KT 9999 FEW017 27/25 Q1005 NOSIG
WADD 181730Z 30015G25KT 9999 FEW017 27/25 Q1005 NOSIG
WADD 181700Z 29015KT 9999 FEW017 27/26 Q1005 NOSIG</description><pubDate>Sun, 19 Jan 2025 16:41:52 </pubDate></item></channel></rss>