<rss version="2.0"><channel><title>Aviation Weather METAR Data for WADD</title><link>https://aviationweather.gov/api/data/metar?ids=WADD&amp;hours=24</link><description>Latest METAR data for WADD</description><item><title>2025-07-21 13:00:44Z</title><link>https://aviationweather.gov/api/data/metar?ids=WADD&amp;hours=24</link><description>WADD 211230Z 17005KT 9999 BKN017 26/24 Q1011 NOSIG
WADD 211200Z 21005KT 9999 BKN017 26/24 Q1011 NOSIG
WADD 211130Z 21005KT 9999 SCT016 26/24 Q1010 NOSIG
WADD 211100Z 20006KT 9999 BKN016 26/24 Q1010 NOSIG
WADD 211030Z 18008KT 9999 BKN016 26/24 Q1010 NOSIG
WADD 211000Z 17008KT 9999 BKN016 27/24 Q1010 NOSIG
WADD 210930Z 17011KT 9999 SCT015 27/24 Q1010 NOSIG
WADD 210900Z 17010KT 9999 SCT016 27/24 Q1009 NOSIG
WADD 210830Z 18008KT 9999 SCT016 27/24 Q1009 NOSIG
WADD 210800Z 16004KT 120V230 9999 SCT016 27/23 Q1009 NOSIG
WADD 210730Z 14006KT 100V180 9999 BKN016 27/23 Q1009 NOSIG
WADD 210700Z 17005KT 110V260 9999 BKN016 28/22 Q1009 NOSIG
WADD 210630Z 16005KT 130V240 9999 BKN016 28/22 Q1010 NOSIG
WADD 210600Z 16004KT 120V290 9999 BKN016 28/22 Q1010 NOSIG
WADD 210530Z 18004KT 100V250 9999 BKN016 27/22 Q1010 NOSIG
WADD 210500Z 26007KT 9999 BKN016 27/23 Q1011 NOSIG
WADD 210430Z 26009KT 9999 SCT017 28/23 Q1011 NOSIG
WADD 210400Z 26008KT 220V290 9999 SCT017 28/23 Q1011 NOSIG
WADD 210330Z 25007KT 9999 SCT016 27/22 Q1012 NOSIG
WADD 210300Z 24006KT 210V280 9999 SCT016 27/21 Q1013 NOSIG
WADD 210230Z 28006KT 250V310 9999 SCT016 27/21 Q1013 NOSIG
WADD 210200Z 29005KT 260V320 9999 SCT016 26/22 Q1013 NOSIG
WADD 210130Z 31006KT 280V360 9999 FEW016 26/21 Q1013 NOSIG
WADD 210100Z 31004KT 9999 FEW017 26/21 Q1013 NOSIG
WADD 210030Z VRB02KT 9999 SCT017 25/22 Q1013 NOSIG
WADD 210000Z 32003KT 9999 FEW017 25/22 Q1013 NOSIG
WADD 202330Z VRB02KT 9999 FEW017 24/22 Q1012
WADD 202300Z 34002KT 9999 FEW017 22/21 Q1012 NOSIG
WADD 202230Z 34001KT 9999 FEW017 22/21 Q1012 NOSIG
WADD 202200Z 35001KT 9999 FEW017 22/21 Q1011 NOSIG
WADD 202130Z 35003KT 9999 FEW017 22/21 Q1011 NOSIG
WADD 202100Z 35003KT 9999 FEW017 23/21 Q1011 NOSIG
WADD 202030Z VRB01KT 9999 FEW017 23/22 Q1011 NOSIG
WADD 202000Z 02004KT 9999 FEW017 23/22 Q1010 NOSIG
WADD 201930Z 36004KT 9999 FEW017 23/22 Q1010 NOSIG
WADD 201900Z 02004KT 9999 FEW017 23/22 Q1011 NOSIG
WADD 201830Z 11005KT 9999 FEW017 25/22 Q1011 NOSIG
WADD 201800Z 12006KT 9999 FEW017 25/23 Q1011 NOSIG
WADD 201730Z 12006KT 9999 FEW017 25/23 Q1011 NOSIG
WADD 201700Z 10008KT 9999 FEW017 25/22 Q1011 NOSIG
WADD 201630Z 10004KT 9999 FEW017 25/23 Q1011 NOSIG
WADD 201600Z 12006KT 9999 FEW017 26/23 Q1011 NOSIG
WADD 201530Z 13007KT 9999 FEW017 26/22 Q1011 NOSIG
WADD 201500Z 12007KT 9999 FEW017 26/22 Q1011 NOSIG
WADD 201430Z 13007KT 9999 FEW017 26/23 Q1011 NOSIG
WADD 201400Z 13007KT 9999 FEW017 26/23 Q1011 NOSIG
WADD 201330Z 13009KT 9999 SCT017 26/23 Q1011 NOSIG</description><pubDate>Mon, 21 Jul 2025 13:00:44 </pubDate></item></channel></rss>