<rss version="2.0"><channel><title>Aviation Weather METAR Data for WADD</title><link>https://aviationweather.gov/api/data/metar?ids=WADD&amp;hours=24</link><description>Latest METAR data for WADD</description><item><title>2026-04-17 23:09:43Z</title><link>https://aviationweather.gov/api/data/metar?ids=WADD&amp;hours=24</link><description>METAR WADD 172300Z 13006KT 9999 FEW015CB SCT016 26/25 Q1010 NOSIG
METAR WADD 172230Z 10004KT 9999 FEW015CB SCT016 26/24 Q1009 RERA NOSI G
METAR WADD 172200Z 13007KT 8000 -RA FEW015CB BKN016 26/24 Q1009 TEMPO TL2300 -RA
METAR WADD 172130Z 01005KT 9999 SCT017 27/24 Q1009 NOSIG
METAR WADD 172100Z 04005KT 9999 SCT017 27/24 Q1009 NOSIG
METAR WADD 172000Z 07006KT 9999 FEW017 27/24 Q1009 NOSIG
METAR WADD 171930Z 08007KT 9999 FEW017 26/24 Q1009 NOSIG
METAR WADD 171900Z 08006KT 9999 FEW017 27/24 Q1009 NOSIG
METAR WADD 171830Z 07007KT 9999 FEW017 27/24 Q1009 NOSIG
METAR WADD 171800Z 07009KT 9999 FEW017 27/25 Q1009 NOSIG
METAR WADD 171730Z 10011KT 9999 FEW017 28/25 Q1010 NOSIG
METAR WADD 171700Z 10011KT 9999 FEW017 28/25 Q1010 NOSIG
METAR WADD 171630Z 11012KT 9999 FEW017 28/25 Q1010 NOSIG
METAR WADD 171600Z 10010KT 9999 FEW017 28/25 Q1010 NOSIG
METAR WADD 171530Z 10009KT 9999 FEW017 28/25 Q1011 NOSIG
METAR WADD 171500Z 11010KT 9999 FEW017 28/25 Q1011 NOSIG
METAR WADD 171430Z 11007KT 9999 FEW017 28/25 Q1011 NOSIG
METAR WADD 171400Z 12009KT 9999 FEW017 28/25 Q1011 NOSIG
METAR WADD 171330Z 13009KT 9999 FEW017 28/25 Q1011 NOSIG
METAR WADD 171300Z 13010KT 9999 FEW017 28/25 Q1010 NOSIG
METAR WADD 171230Z 13009KT 9999 FEW017 28/25 Q1010 NOSIG
METAR WADD 171200Z 13009KT 9999 FEW017 28/25 Q1010 NOSIG
METAR WADD 171130Z 13009KT 9999 FEW017 28/25 Q1009 NOSIG
METAR WADD 171100Z 12007KT 9999 FEW017 28/25 Q1009 NOSIG
METAR WADD 171030Z 14008KT 9999 FEW017 29/25 Q1009 NOSIG
METAR WADD 171000Z 15012KT 9999 FEW017 29/25 Q1009 NOSIG
METAR WADD 170930Z 14012KT 9999 FEW017 30/25 Q1008 NOSIG
METAR WADD 170900Z 14012KT 9999 FEW017 30/24 Q1008 NOSIG
METAR WADD 170830Z 14012KT 9999 FEW017 31/24 Q1008 NOSIG
METAR WADD 170800Z 15013KT 9999 FEW017 31/24 Q1008 NOSIG
METAR WADD 170730Z 14012KT 9999 FEW017 31/24 Q1008 NOSIG
METAR WADD 170700Z 14012KT 9999 FEW017 31/24 Q1008 NOSIG
METAR WADD 170630Z 12012KT 9999 FEW017 31/25 Q1008 NOSIG
METAR WADD 170600Z 11011KT 9999 FEW017 31/24 Q1009 NOSIG
METAR WADD 170530Z 11011KT 9999 FEW017 31/25 Q1009 NOSIG
METAR WADD 170500Z 15011KT 9999 FEW017 31/24 Q1009 NOSIG
METAR WADD 170430Z 11009KT 9999 FEW017 32/25 Q1010 NOSIG
METAR WADD 170400Z 11010KT 9999 FEW017 32/25 Q1010 NOSIG
METAR WADD 170330Z 10009KT 9999 FEW017 32/24 Q1010 NOSIG
METAR WADD 170300Z 12009KT 9999 FEW017 31/25 Q1011 NOSIG
METAR WADD 170230Z 12010KT 9999 FEW017 31/25 Q1011 NOSIG
METAR WADD 170200Z 11008KT 9999 FEW017 31/25 Q1011 NOSIG
METAR WADD 170130Z 11008KT 9999 FEW017 31/25 Q1011 NOSIG
METAR WADD 170100Z 09008KT 9999 FEW017 31/25 Q1011 NOSIG
METAR WADD 170030Z 09005KT 9999 FEW018 30/25 Q1011 NOSIG
METAR WADD 170000Z VRB03KT 9999 FEW018 28/24 Q1011 NOSIG
METAR WADD 162330Z 05004KT 350V100 9999 FEW018 27/24 Q1011 NOSIG</description><pubDate>Fri, 17 Apr 2026 23:09:43 </pubDate></item></channel></rss>