<rss version="2.0"><channel><title>Aviation Weather METAR Data for WADD</title><link>https://aviationweather.gov/api/data/metar?ids=WADD&amp;hours=24</link><description>Latest METAR data for WADD</description><item><title>2026-03-12 19:48:43Z</title><link>https://aviationweather.gov/api/data/metar?ids=WADD&amp;hours=24</link><description>METAR WADD 121930Z 28015KT 9999 FEW017 28/26 Q1007 NOSIG
METAR WADD 121900Z 27014KT 9999 FEW017 27/26 Q1007 NOSIG
METAR WADD 121830Z 27012KT 9999 FEW017 27/25 Q1007 NOSIG
METAR WADD 121800Z 28015KT 9999 FEW017 28/26 Q1007 NOSIG
METAR WADD 121730Z 28013KT 9999 FEW017 28/26 Q1008 NOSIG
METAR WADD 121700Z 27012KT 9999 FEW017 28/26 Q1008 NOSIG
METAR WADD 121630Z 27012KT 9999 FEW017 28/26 Q1008 NOSIG
METAR WADD 121600Z 27012KT 9999 FEW017 28/26 Q1008 NOSIG
METAR WADD 121530Z 26013KT 9999 FEW017 28/25 Q1008 NOSIG
METAR WADD 121500Z 26013KT 9999 FEW017 28/26 Q1008 NOSIG
METAR WADD 121430Z 27013KT 9999 FEW017 28/26 Q1009 NOSIG
METAR WADD 121400Z 26013KT 9999 FEW017 28/25 Q1008 NOSIG
METAR WADD 121330Z 26012KT 9999 FEW017 28/25 Q1008 NOSIG
METAR WADD 121300Z 27013KT 9999 FEW017 28/25 Q1008 NOSIG
METAR WADD 121230Z 27014KT 9999 FEW017 28/25 Q1008 NOSIG
METAR WADD 121200Z 27015KT 9999 FEW017 28/25 Q1008 NOSIG
METAR WADD 121130Z 27014KT 9999 FEW017 28/25 Q1007 NOSIG
METAR WADD 121100Z 27013KT 9999 FEW017 28/25 Q1007 NOSIG
METAR WADD 121030Z 27015KT 9999 FEW017 29/25 Q1007 NOSIG
METAR WADD 121000Z 26015KT 9999 FEW017 29/25 Q1007 NOSIG
METAR WADD 120930Z 27016KT 9999 FEW017 30/25 Q1006 NOSIG
METAR WADD 120900Z 27016KT 9999 FEW017 30/25 Q1006 NOSIG
METAR WADD 120830Z 26016KT 9999 FEW017 31/25 Q1006 NOSIG
METAR WADD 120800Z 26016KT 9999 FEW017 31/25 Q1006 NOSIG
METAR WADD 120730Z 26015KT 9999 FEW017 31/25 Q1006 NOSIG
METAR WADD 120700Z 26016KT 9999 FEW017 31/25 Q1006 NOSIG
METAR WADD 120630Z 26017KT 9999 FEW017 31/25 Q1006 NOSIG
METAR WADD 120600Z 26017KT 9999 FEW017 31/25 Q1006 NOSIG
METAR WADD 120530Z 26017KT 9999 FEW017 31/25 Q1007 NOSIG
METAR WADD 120500Z 26018KT 9999 FEW017 31/25 Q1007 NOSIG
METAR WADD 120430Z 26015KT 9999 FEW017 31/26 Q1007 NOSIG
METAR WADD 120400Z 26016KT 9999 FEW017 31/25 Q1008 NOSIG
METAR WADD 120330Z 26015KT 9999 SCT017 31/26 Q1008 NOSIG
METAR WADD 120300Z 26016KT 9999 SCT017 31/25 Q1008 NOSIG
METAR WADD 120230Z 26017KT 9999 SCT017 31/25 Q1008 NOSIG
METAR WADD 120200Z 27017KT 9999 SCT017 30/25 Q1009 NOSIG
METAR WADD 120130Z 27017KT 9999 SCT017 29/25 Q1009 NOSIG
METAR WADD 120100Z 27018KT 9999 SCT017 30/25 Q1009 NOSIG
METAR WADD 120030Z 27017KT 9999 SCT016 29/25 Q1009 NOSIG
METAR WADD 120000Z 26016KT 9999 SCT016 29/24 Q1008 NOSIG
METAR WADD 112330Z 27015KT 9999 SCT016 27/25 Q1008 NOSIG
METAR WADD 112300Z 27016KT 9999 SCT016 27/25 Q1008 NOSIG
METAR WADD 112230Z 28017KT 9999 FEW015CB SCT016 27/25 Q1007 NOSIG
METAR WADD 112200Z 31008KT 9999 FEW015CB SCT016 26/25 Q1007 NOSIG
METAR WADD 112130Z 29008KT 240V310 9999 FEW015CB SCT016 25/25 Q1007 R ERA NOSIG
SPECI WADD 112118Z 29009KT 6000 -RA FEW015CB SCT016 26/25 Q1007 TEMPO TL2218 -RA
METAR WADD 112100Z 30012KT 9999 FEW015CB SCT016 25/25 Q1007 NOSIG
METAR WADD 112030Z 29014KT 9999 FEW015CB SCT016 26/25 Q1007 RERA NOSI G
METAR WADD 112000Z 28019G27KT 6000 -RA FEW015CB SCT016 25/23 Q1007 TEMPO TL2100 -RA</description><pubDate>Thu, 12 Mar 2026 19:48:43 </pubDate></item></channel></rss>