<rss version="2.0"><channel><title>Aviation Weather METAR Data for WADD</title><link>https://aviationweather.gov/api/data/metar?ids=WADD&amp;hours=24</link><description>Latest METAR data for WADD</description><item><title>2025-09-10 22:23:49Z</title><link>https://aviationweather.gov/api/data/metar?ids=WADD&amp;hours=24</link><description>METAR WADD 102200Z 12008KT 9999 BKN015 26/26 Q1010 NOSIG
METAR WADD 102130Z 12007KT 9999 SCT016 26/26 Q1010 NOSIG
METAR WADD 102100Z 12009KT 9999 SCT016 26/26 Q1010 NOSIG
 WADD 102030Z 12010KT 9999 SCT016 26/26 Q1010 NOSIG
METAR WADD 102000Z 12009KT 9999 SCT016 26/26 Q1010 NOSIG
METAR WADD 101930Z 12011KT 9999 SCT016 26/26 Q1010 NOSIG
METAR WADD 101900Z 13007KT 9999 SCT016 26/26 Q1010 NOSIG
METAR WADD 101830Z 13007KT 9999 SCT016 26/26 Q1010 NOSIG
METAR WADD 101800Z 12007KT 9999 SCT016 26/26 Q1010 NOSIG
METAR WADD 101730Z 13008KT 9999 SCT016 26/26 Q1010 NOSIG
METAR WADD 101700Z 13007KT 9999 SCT016 26/26 Q1011 NOSIG
METAR WADD 101630Z 13007KT 9999 FEW016 26/26 Q1011 NOSIG
METAR WADD 101600Z 12004KT 9999 FEW016 26/26 Q1011 NOSIG
METAR WADD 101530Z 12005KT9999 FEW016 26/26 Q1011 NOSIG
METAR WADD 101500Z 11006KT 9999 FEW016 26/26 Q1012 NOSIG
METAR WADD 101430Z 11004KT 9999 FEW016 26/26 Q1012 NOSIG
METAR WADD 101400Z 09009KT 9999 FEW016 26/25 Q1011 NOSIG
METAR WADD 101330Z 10007KT 9999 BKN015 26/26 Q1011 NOSIG
METAR WADD 101300Z 10007KT 9999 BKN015 26/26 Q1011 NOSIG
METAR WADD 101230Z 10006KT 9999 BKN015 26/26 Q1011 NOSIG
METAR WADD 101200Z 10007KT 9999 BKN015 26/26 Q1010 NOSIG
 WADD 101130Z 10008KT 9999 BKN015 26/26 Q1010 NOSIG
METAR WADD 101100Z 12011KT 9999 BKN015 26/26 Q1009 NOSIG
METAR WADD 101030Z 13011KT 9999 BKN015 27/26 Q1009 NOSIG
METAR WADD 101000Z 14009KT 9999 BKN015 27/26 Q1009 NOSIG
METAR WADD 100930Z 14011KT 9999 BKN015 27/27 Q1009 NOSIG
METAR WADD 100900Z 14012KT 9999 BKN015 27/27 Q1008 NOSIG
METAR WADD 100830Z 14013KT 9999 FEW015CB BKN015 27/26 Q1009 NOSIG
METAR WADD 100800Z 14012KT 9999 FEW015CB BKN015 27/27 Q1008 NOSIG
METAR WADD 100730Z 14012KT 9999 FEW015CB BKN015 27/27 Q1008 RERA NOSIG
METAR WADD 100700Z 13013KT 7000 -RA FEW015CB BKN015 28/26 Q1009 TEMPO TL0800 -RA
METAR WADD 100630Z 12012KT 9999 BKN015 28/26 Q1009 NOSIG
METAR WADD 100600Z 13009KT 9999 BKN015 28/27 Q1009 NOSIG
METAR WADD 100530Z VRB03KT 9999 BKN015 26/26 Q1010 RERA NOSIG
METAR WADD 100500Z 22004KT 9000 BKN015 26/26 Q1010 NOSIG
METAR WADD 100430Z 32006KT 270V350 9999 BKN015 26/26 Q1010 NOSIG
METAR WADD 100400Z 34005KT 290V040 9999 BKN015 26/26 Q1011 RERA NOSIG
METAR WADD 100330Z 01003KT 7000 -RA FEW015CB BKN015 25/25 Q1011 TEMPO TL0430 -RA
METAR WADD 100300Z 01005KT 7000 -RA FEW015CB BKN015 25/25 Q1012 TEMPO TL0400 -RA
METAR WADD 100230Z 03006KT 360V060 5000 -RA FEW014CB BKN014 25/25 Q1012 TEMPO TL0330 5000 -RA
METAR WADD 100200Z 05004KT 020V080 7000 -RA FEW014CB BKN014 25/25 Q1013 TEMPO TL0300 -RA
METAR WADD 100130Z 02003KT 7000 -RA FEW014CB BKN014 25/25 Q1012 TEMPO TL0230 -RA
METAR WADD 100100Z 05006KT 360V080 6000 -RA FEW014CB BKN014 24/24 Q1012 TEMPO TL0200 6000 -RA
METAR WADD 100030Z 03005KT 5000 -RA FEW014CB BKN015 24/24 Q1012 TEMPO TL0130 5000 -RA
METAR WADD 100000Z 03005KT 4000 -TSRA FEW015CB BKN015 23/23 Q1012 TEMPO TL0100 -TSRA
METAR WADD 092330Z 16003KT 7000 -TSRA FEW015CB BKN015 24/24 Q1012 TEMPO TL2430 -TSRA
METAR WADD 092300Z VRB02KT 7000 -TSRA FEW015CB BKN015 24/24 Q1011 TEMPO TL2400 -TSRA
 WADD 092230Z 07005KT 8000 -TSRA FEW015CB BKN015 23/23 Q1011 TEMPO TL2330 -TSRA</description><pubDate>Wed, 10 Sep 2025 22:23:49 </pubDate></item></channel></rss>