<rss version="2.0"><channel><title>Aviation Weather METAR Data for WADD</title><link>https://aviationweather.gov/api/data/metar?ids=WADD</link><description>Latest METAR data for WADD</description><item><title>2024-12-29 20:23:01Z</title><link>https://aviationweather.gov/api/data/metar?ids=WADD</link><description>WADD 292000Z 28014KT 9999 SCT016 27/25 Q1008 NOSIG</description><pubDate>Sun, 29 Dec 2024 20:23:01 </pubDate></item></channel></rss>