<rss version="2.0"><channel><title>Aviation Weather METAR Data for WADD</title><link>https://aviationweather.gov/api/data/metar?ids=WADD&amp;hours=24</link><description>Latest METAR data for WADD</description><item><title>2026-02-18 10:24:20Z</title><link>https://aviationweather.gov/api/data/metar?ids=WADD&amp;hours=24</link><description>METAR WADD 181000Z 24005KT 210V280 9999 FEW016 30/24 Q1006 NOSIG
METAR WADD 180900Z 26007KT 9999 FEW016 31/25 Q1005 NOSIG
METAR WADD 180830Z 25007KT 9999 FEW016 31/24 Q1005 NOSIG
METAR WADD 180800Z 26009KT 9999 FEW016 32/25 Q1005 NOSIG
METAR WADD 180730Z COR 26009KT 9999 FEW016 32/25 Q1006 NOSIG
METAR WADD 180700Z 25009KT 9999 FEW016 32/25 Q1006 NOSIG
METAR WADD 180630Z 25009KT 9999 FEW016 31/25 Q1006 NOSIG
METAR WADD 180600Z 26009KT 9999 FEW016 31/25 Q1006 NOSIG
METAR WADD 180530Z 25008KT 9999 SCT016 31/25 Q1007 NOSIG
METAR WADD 180500Z 24008KT 9999 SCT016 31/26 Q1007 NOSIG
METAR WADD 180430Z 25008KT 9999 SCT016 31/26 Q1007 NOSIG
METAR WADD 180400Z 24009KT 9999 SCT016 31/25 Q1007 NOSIG
METAR WADD 180330Z 25009KT 9999 SCT016 31/26 Q1007 NOSIG
METAR WADD 180300Z 24011KT 9999 FEW016 30/26 Q1008 NOSIG
METAR WADD 180230Z 25011KT 9999 FEW016 30/26 Q1008 NOSIG
METAR WADD 180200Z 25009KT 9999 FEW016 30/27 Q1008 NOSIG
METAR WADD 180130Z 25005KT 220V280 9999 FEW016 29/26 Q1008 NOSIG
METAR WADD 180100Z 29005KT 250V320 9999 FEW016 29/26 Q1008 NOSIG
METAR WADD 180030Z 29003KT 9999 FEW016 29/25 Q1008 NOSIG
METAR WADD 180000Z 03003KT 9999 FEW017 28/26 Q1007 NOSIG
METAR WADD 172330Z 35004KT 310V030 9999 FEW017 28/26 Q1007 NOSIG
METAR WADD 172300Z 34003KT 9999 FEW017 27/26 Q1007 NOSIG
METAR WADD 172230Z 33003KT 9999 FEW017 27/26 Q1007 NOSIG
METAR WADD 172130Z 02003KT 9999 FEW017 27/26 Q1006 NOSIG
METAR WADD 172100Z 03003KT 9999 FEW017 27/26 Q1006 NOSIG
METAR WADD 172000Z VRB01KT 9999 FEW017 27/26 Q1006 NOSIG
METAR WADD 171900Z 11002KT 9999 FEW017 27/26 Q1006 NOSIG
METAR WADD 171800Z VRB02KT 9999 FEW017 27/26 Q1006 NOSIG
METAR WADD 171730Z VRB02KT 9999 FEW017 27/26 Q1006 NOSIG
METAR WADD 171700Z VRB01KT 9999 FEW017 27/26 Q1007 NOSIG
METAR WADD 171600Z VRB02KT 9999 FEW017 27/26 Q1007 NOSIG
METAR WADD 171530Z 08003KT 9999 FEW017 28/26 Q1008 NOSIG
METAR WADD 171500Z 12003KT 9999 SCT016 28/26 Q1008 NOSIG
METAR WADD 171430Z 10005KT 070V130 9999 SCT016 28/26 Q1007 NOSIG
METAR WADD 171400Z VRB02KT 9999 FEW015CB SCT016 28/26 Q1007 NOSIG
METAR WADD 171330Z VRB02KT 9999 FEW015CB SCT016 28/26 Q1007 NOSIG
METAR WADD 171300Z VRB01KT 9999 FEW015CB SCT016 27/26 Q1007 NOSIG
METAR WADD 171230Z VRB01KT 9999 FEW015CB SCT016 27/26 Q1007 NOSIG
METAR WADD 171200Z 15003KT 9999 FEW015CB SCT016 28/26 Q1007 NOSIG
METAR WADD 171130Z 20004KT 160V220 9999 FEW016 28/27 Q1006 NOSIG
METAR WADD 171100Z 21005KT 9999 FEW016 29/27 Q1006 NOSIG
METAR WADD 171030Z 20006KT 9999 FEW016 29/26 Q1005 NOSIG</description><pubDate>Wed, 18 Feb 2026 10:24:20 </pubDate></item></channel></rss>