<rss version="2.0"><channel><title>Aviation Weather METAR Data for WADD</title><link>https://aviationweather.gov/api/data/metar?ids=WADD&amp;hours=24</link><description>Latest METAR data for WADD</description><item><title>2025-04-12 08:29:30Z</title><link>https://aviationweather.gov/api/data/metar?ids=WADD&amp;hours=24</link><description>WADD 120800Z 13008KT 9999 FEW017 31/26 Q1007 NOSIG
WADD 120730Z 13008KT 100V160 9999 FEW017 31/26 Q1007 NOSIG
WADD 120700Z 12008KT 090V150 9999 FEW017 31/26 Q1007 NOSIG
WADD 120630Z 13009KT 9999 FEW017 31/26 Q1007 NOSIG
WADD 120600Z 13009KT 080V150 9999 FEW017 31/26 Q1008 NOSIG
WADD 120530Z 12008KT 9999 FEW017 31/26 Q1008 NOSIG
WADD 120500Z 11008KT 9999 FEW017 31/26 Q1008 NOSIG
WADD 120430Z 11008KT 9999 FEW017 31/27 Q1009 NOSIG
WADD 120400Z 11008KT 080V140 9999 FEW017 30/27 Q1009 NOSIG
WADD 120330Z 11007KT 080V140 9999 FEW017 31/27 Q1009 NOSIG
WADD 120300Z 09007KT 9999 FEW017 30/27 Q1010 NOSIG
WADD 120230Z 10007KT 9999 FEW017 30/27 Q1010 NOSIG
WADD 120200Z 10008KT 9999 FEW017 30/26 Q1010 NOSIG
WADD 120130Z 09007KT 9999 FEW017 29/26 Q1010 NOSIG
WADD 120100Z 09007KT 060V130 9999 FEW017 29/26 Q1010 NOSIG
WADD 120030Z 09003KT 9999 FEW017 28/26 Q1010 NOSIG
WADD 120000Z VRB02KT 9999 FEW017 28/25 Q1010 NOSIG
WADD 112330Z VRB02KT 9999 FEW017 26/24 Q1010 NOSIG
WADD 112300Z 02002KT 9999 FEW017 25/24 Q1009 NOSIG
WADD 112230Z 02001KT 9999 FEW016 25/24 Q1009 NOSIG
WADD 112200Z 04002KT 9999 FEW015CB SCT016 25/24 Q1009 NOSIG
WADD 112130Z 05001KT 9999 FEW015CB SCT016 26/25 Q1009 NOSIG
WADD 112100Z 02003KT 9999 FEW015CB SCT016 25/24 Q1009 NOSIG
WADD 112030Z VRB01KT 9999 FEW015CB SCT016 25/25 Q1008 NOSIG
WADD 112000Z VRB01KT 9999 FEW015CB SCT016 25/25 Q1008 NOSIG
WADD 111930Z 04002KT 9999 FEW015CB SCT016 26/25 Q1008 NOSIG
WADD 111900Z VRB02KT 9999 SCT016 26/25 Q1009 NOSIG
WADD 111830Z 08003KT 9999 SCT016 26/26 Q1009 NOSIG
WADD 111600Z 05004KT 9999 SCT016 27/25 Q1010 NOSIG
WADD 111530Z 08003KT 9999 FEW015CB SCT016 26/25 Q1010 NOSIG
WADD 111500Z 09005KT 9999 FEW015CB SCT016 26/26 Q1010 NOSIG
WADD 111430Z 09004KT 9999 FEW015CB FEW016 27/26 Q1010 NOSIG
WADD 111400Z 05007KT 9999 FEW015CB SCT016 26/25 Q1010 NOSIG
WADD 111330Z 06008KT 9999 FEW015CB SCT016 26/25 Q1010 NOSIG
WADD 111300Z 07015KT 7000 RA FEW015CB BKN016 26/26 Q1010 TEMPO TL1400 RA RMK CB IN APCH AND CLIMB-OUT
WADD 111230Z 11010KT 9999 FEW015CB SCT016 29/28 Q1010 NOSIG
WADD 111200Z 12008KT 9999 SCT016 29/28 Q1009 NOSIG
WADD 111130Z 12009KT 9999 SCT017 29/28 Q1009 NOSIG
WADD 111100Z 13005KT 9999 SCT017 29/28 Q1008 NOSIG
WADD 111030Z 14009KT 9999 SCT017 29/28 Q1008 NOSIG
WADD 111000Z 13010KT 9999 SCT017 29/28 Q1008 NOSIG
WADD 110930Z 13012KT 9999 SCT017 30/28 Q1007 NOSIG
WADD 110900Z 14013KT 9999 SCT017 30/27 Q1007 NOSIG
WADD 110830Z 14011KT 9999 FEW017 30/28 Q1006 NOSIG</description><pubDate>Sat, 12 Apr 2025 08:29:30 </pubDate></item></channel></rss>