<rss version="2.0"><channel><title>Aviation Weather METAR Data for WADD</title><link>https://aviationweather.gov/api/data/metar?ids=WADD&amp;hours=24</link><description>Latest METAR data for WADD</description><item><title>2025-10-17 07:41:07Z</title><link>https://aviationweather.gov/api/data/metar?ids=WADD&amp;hours=24</link><description>METAR WADD 170730Z 13021KT 9999 FEW017 31/26 Q1005 NOSIG
METAR WADD 170700Z 14021KT 9999 FEW017 31/26 Q1006 NOSIG
METAR WADD 170630Z 13018KT 9999 FEW017 31/26 Q1006 NOSIG
METAR WADD 170600Z 13019KT 9999 FEW017 31/26 Q1006 NOSIG
 WADD 170530Z 14019KT 9999 FEW017 31/26 Q1007 NOSIG
 WADD 170500Z 14019KT 9999 FEW017 31/26 Q1007 NOSIG
METAR WADD 170430Z 13017KT 9999 FEW017 32/25 Q1007 NOSIG
METAR WADD 170400Z 12013KT 9999 NCD 32/25 Q1008 NOSIG
METAR WADD 170330Z 11010KT 9999 FEW017 32/26 Q1008 NOSIG
METAR WADD 170300Z 11010KT 9999 FEW017 31/25 Q1009 NOSIG
METAR WADD 170230Z 12010KT 9999 FEW017 31/26 Q1009 NOSIG
 WADD 170200Z 12011KT 9999 FEW017 30/26 Q1009 NOSIG
METAR WADD 170130Z 11009KT 9999 FEW017 30/27 Q1009 NOSIG
METAR WADD 170100Z 11007KT 9999 SCT017 30/27 Q1009 NOSIG
METAR WADD 170030Z 10008KT 9999 SCT017 29/27 Q1009 NOSIG
METAR WADD 170000Z 10008KT 9999 SCT017 29/27 Q1009 NOSIG
 WADD 162330Z 11008KT 9999 SCT016 29/27 Q1009 NOSIG
METAR WADD 162300Z 10007KT 9999 BKN016 28/27 Q1008 NOSIG
METAR WADD 162230Z 10006KT 9999 SCT016 28/26 Q1008 NOSIG
METAR WADD 162200Z 13006KT 9999 SCT016 28/26 Q1008 NOSIG
 WADD 162130Z 13006KT 9999 SCT016 28/26 Q1007 NOSIG
METAR WADD 162030Z 10005KT 9999 BKN016 28/26 Q1007 NOSIG
METAR WADD 162000Z 13007KT 9999 BKN015 28/27 Q1007 NOSIG
METAR WADD 161930Z 11005KT 9999 BKN016 28/27 Q1007 RERA NOSIG
METAR WADD 161900Z 11003KT 6000 -RA BKN015 27/27 Q1007 TEMPO TL2000 -RA
METAR WADD 161830Z 07008G16KT 040V140 9000 FEW015CB BKN016 26/26 Q1007 RERA NOSIG
METAR WADD 161800Z 03006G19KT 020V100 7000 -RA FEW015CB BKN015 26/25 Q1007 TEMPO TL1900 5000 RA
METAR WADD 161730Z 11007KT 9999 FEW015CB BKN016 28/27 Q1007 NOSIG RMK CB IN CLIMB-OUT
METAR WADD 161700Z 12007KT 9999 SCT016 28/27 Q1008 NOSIG
METAR WADD 161630Z 11008KT 9999 SCT016 28/27 Q1008 NOSIG
METAR WADD 161600Z 12009KT 9999 SCT017 28/27 Q1008 NOSIG
METAR WADD 161530Z 13009KT 9999 SCT016 28/27 Q1008 NOSIG
METAR WADD 161500Z 13013KT 9999 SCT016 28/27 Q1008 NOSIG
METAR WADD 161430Z 12012KT 9999 SCT016 29/27 Q1009 NOSIG
METAR WADD 161400Z 12012KT 9999 SCT016 28/27 Q1008 NOSIG
METAR WADD 161330Z 12012KT 9999 FEW017 29/26 Q1008 NOSIG
METAR WADD 161300Z 12011KT 9999 FEW017 29/27 Q1008 NOSIG
METAR WADD 161230Z 12011KT 9999 FEW017 29/26 Q1008 NOSIG
METAR WADD 161200Z 12011KT 9999 FEW017 29/26 Q1007 NOSIG
 WADD 161130Z 12013KT 9999 SCT017 29/26 Q1007 NOSIG
METAR WADD 161100Z 13012KT 9999 SCT017 29/26 Q1007 NOSIG
METAR WADD 161030Z 13014KT 9999 SCT017 29/26 Q1007 NOSIG
METAR WADD 161000Z 13017KT 9999 SCT017 29/26 Q1006 NOSIG
METAR WADD 160930Z 13018KT 9999 SCT017 30/26 Q1006 NOSIG
METAR WADD 160900Z 13016KT 9999 SCT017 30/26 Q1006 NOSIG
METAR WADD 160830Z 13018KT 9999 SCT017 30/26 Q1006 NOSIG
METAR WADD 160800Z 13016KT 9999 SCT017 31/26 Q1006 NOSIG</description><pubDate>Fri, 17 Oct 2025 07:41:07 </pubDate></item></channel></rss>