<rss version="2.0"><channel><title>Aviation Weather METAR Data for WADD</title><link>https://aviationweather.gov/api/data/metar?ids=WADD&amp;hours=24</link><description>Latest METAR data for WADD</description><item><title>2025-08-10 11:42:13Z</title><link>https://aviationweather.gov/api/data/metar?ids=WADD&amp;hours=24</link><description>WADD 101130Z 12010KT 9999 FEW017 27/25 Q1011 NOSIG
WADD 101100Z 12010KT 9999 FEW017 27/24 Q1011 NOSIG
WADD 101030Z 13011KT 9999 SCT017 27/25 Q1010 NOSIG
WADD 101000Z 13013KT 9999 SCT017 27/25 Q1010 NOSIG
WADD 100930Z 14011KT 9999 BKN016 27/25 Q1010 NOSIG
WADD 100900Z 14013KT 9999 SCT017 27/25 Q1010 NOSIG
WADD 100830Z 14015KT 9999 SCT017 28/24 Q1010 NOSIG
WADD 100800Z 14015KT 9999 SCT017 28/25 Q1010 NOSIG
WADD 100730Z 13015KT 9999 FEW017 29/24 Q1010 NOSIG
WADD 100700Z 15015KT 9999 FEW017 29/24 Q1010 NOSIG
WADD 100630Z 14013KT 9999 FEW017 29/24 Q1010 NOSIG
WADD 100600Z 14013KT 9999 FEW017 30/24 Q1010 NOSIG
WADD 100530Z 13014KT 9999 FEW017 29/24 Q1011 NOSIG
WADD 100500Z 11012KT 9999 FEW017 29/25 Q1011 NOSIG
WADD 100430Z 11014KT 9999 FEW017 29/25 Q1012 NOSIG
WADD 100400Z 11012KT 9999 FEW017 29/24 Q1012 NOSIG
WADD 100330Z 10013KT 9999 FEW017 29/24 Q1013 NOSIG
WADD 100300Z 11012KT 9999 FEW017 29/24 Q1013 NOSIG
WADD 100230Z 12012KT 080V140 9999 FEW017 28/24 Q1013 NOSIG
WADD 100200Z 11010KT 9999 FEW017 29/25 Q1013 NOSIG
WADD 100130Z 10012KT 9999 FEW017 29/24 Q1013 NOSIG
WADD 100100Z 11012KT 9999 SCT017 28/24 Q1013 NOSIG
WADD 100030Z 11010KT 9999 SCT016 28/25 Q1013 NOSIG
WADD 100000Z 12013KT 9999 SCT016 27/24 Q1013 NOSIG
WADD 092330Z 13011KT 9999 SCT016 27/24 Q1013 NOSIG
WADD 092300Z 13008KT 9999 SCT016 26/25 Q1012 NOSIG
WADD 092230Z 13009KT 9999 FEW017 26/24 Q1012 NOSIG
WADD 092200Z 13007KT 9999 FEW017 26/25 Q1012 NOSIG
WADD 092130Z 13008KT 9999 FEW017 26/25 Q1012 NOSIG
WADD 092100Z 12008KT 9999 FEW017 26/25 Q1011 NOSIG
WADD 092030Z 12009KT 9999 FEW017 26/24 Q1012 NOSIG
WADD 092000Z 12009KT 9999 FEW017 27/25 Q1012 NOSIG
WADD 091930Z 12009KT 9999 FEW017 27/25 Q1012 NOSIG
WADD 091900Z 12008KT 9999 FEW017 27/25 Q1012 NOSIG
WADD 091830Z 12008KT 9999 FEW017 27/25 Q1012 NOSIG
WADD 091800Z 12009KT 9999 FEW017 27/25 Q1012 NOSIG
WADD 091730Z 13009KT 9999 FEW017 27/25 Q1013 NOSIG
WADD 091700Z 13009KT 9999 FEW017 27/25 Q1013 NOSIG
WADD 091630Z 13010KT 9999 FEW017 27/25 Q1013 NOSIG
WADD 091600Z 12009KT 9999 FEW017 27/25 Q1013 NOSIG
WADD 091530Z 13009KT 9999 FEW017 27/25 Q1013 NOSIG
WADD 091500Z 12010KT 9999 FEW017 27/25 Q1013 NOSIG
WADD 091430Z 12010KT 9999 FEW017 27/25 Q1013 NOSIG
WADD 091400Z 12011KT 9999 FEW017 27/25 Q1013 NOSIG
WADD 091330Z 12009KT 9999 FEW017 27/25 Q1013 NOSIG
WADD 091300Z 13012KT 9999 FEW017 27/25 Q1012 NOSIG
WADD 091230Z 13013KT 9999 FEW017 27/25 Q1012 NOSIG
WADD 091200Z 13009KT 9999 FEW017 27/25 Q1012 NOSIG</description><pubDate>Sun, 10 Aug 2025 11:42:13 </pubDate></item></channel></rss>