<rss version="2.0"><channel><title>Aviation Weather METAR Data for WADD</title><link>https://aviationweather.gov/api/data/metar?ids=WADD&amp;hours=24</link><description>Latest METAR data for WADD</description><item><title>2025-02-01 11:40:48Z</title><link>https://aviationweather.gov/api/data/metar?ids=WADD&amp;hours=24</link><description>WADD 011130Z VRB02KT 9999 FEW017 27/25 Q1005 NOSIG
WADD 011100Z 15003KT 9999 FEW017 27/25 Q1005 NOSIG
WADD 011030Z 14005KT 9999 FEW017 28/25 Q1004 NOSIG
WADD 011000Z 13004KT 9999 FEW017 28/25 Q1004 NOSIG
WADD 010930Z 14003KT 9999 FEW017 28/25 Q1003 NOSIG
WADD 010900Z 12004KT 080V170 9999 FEW017 29/25 Q1003 NOSIG
WADD 010830Z VRB03KT 9999 FEW017 28/25 Q1003 NOSIG
WADD 010800Z 30006KT 260V340 9999 FEW017 28/25 Q1003 NOSIG
WADD 010730Z 31007KT 280V340 9999 SCT016 28/25 Q1003 NOSIG
WADD 010700Z 32009KT 9999 SCT016 27/24 Q1004 NOSIG
WADD 010630Z 31010KT 9999 BKN016 27/25 Q1004 NOSIG
WADD 010600Z 29008KT 9999 BKN016 28/25 Q1005 NOSIG
WADD 010530Z 27010KT 9999 FEW015CB BKN016 27/25 Q1005 NOSIG
WADD 010500Z 26013G24KT 9999 FEW015CB BKN016 27/25 Q1006
WADD 010430Z 25014G24KT 9999 FEW015CB BKN016 26/24 Q1006 RERA NOSIG
WADD 010401Z 26015KT 1000 +RA FEW014CB BKN014 25/25 Q1007 TEMPO TL0500 VIS 1500 +RA RA RMK CB IN APCH AND CLIMB-OUT
WADD 010330Z 25016G27KT 1000 +RA FEW014CB BKN014 26/25 Q1008 TEMPO TL0400 VIS 1500 +RA RA RMK CB IN APCH AND CLIMB-OUT
WADD 010300Z 28006KT 9999 SCT016 30/26 Q1007 NOSIG
WADD 010230Z 29006KT 250V330 9999 SCT016 29/26 Q1007 NOSIG
WADD 010200Z 32004KT 9999 SCT016 29/26 Q1007 NOSIG
WADD 010130Z 33003KT 9999 SCT016 29/26 Q1007 NOSIG
WADD 010100Z 34004KT 310V050 9999 SCT016 28/25 Q1007 NOSIG
WADD 010030Z 35004KT 9999 SCT016 28/26 Q1006 NOSIG
WADD 010000Z 35003KT 9999 SCT016 28/26 Q1006 NOSIG
WADD 312330Z 13001KT 9999 SCT016 28/26 Q1006 NOSIG
WADD 312300Z VRB02KT 9999 SCT016 27/25 Q1006 NOSIG
WADD 312230Z VRB01KT 9999 SCT016 26/26 Q1005 NOSIG
WADD 312200Z 14003KT 9999 SCT016 27/26 Q1005 NOSIG
WADD 312130Z 14003KT 9999 SCT016 27/26 Q1005 NOSIG
WADD 312100Z VRB02KT 9999 SCT016 27/25 Q1005 NOSIG
WADD 312030Z 06002KT 9999 SCT016 27/26 Q1005 NOSIG
WADD 312000Z 03003KT 9999 SCT016 27/25 Q1005 NOSIG
WADD 311930Z 03002KT 9999 SCT016 27/26 Q1005 NOSIG
WADD 311900Z 36001KT 9999 SCT016 27/26 Q1005 NOSIG
WADD 311830Z VRB01KT 9999 SCT016 27/26 Q1005 NOSIG
WADD 311800Z 19002KT 9999 SCT016 28/25 Q1006 NOSIG
WADD 311730Z VRB01KT 9999 SCT016 28/25 Q1006 NOSIG
WADD 311700Z VRB02KT 9999 SCT016 28/25 Q1006 TREND NOSIG
WADD 311630Z 04004KT 360V090 9999 SCT016 27/25 Q1006 NOSIG
WADD 311600Z 05005KT 9999 SCT016 27/26 Q1006 NOSIG
WADD 311530Z 06005KT 9999 SCT016 27/26 Q1006 NOSIG
WADD 311500Z 05006KT 9999 SCT016 28/26 Q1007 NOSIG
WADD 311430Z 06006KT 9999 FEW016 28/26 Q1007 NOSIG
WADD 311400Z 10004KT 9999 FEW016 27/26 Q1007 NOSIG
WADD 311330Z 10004KT 9999 FEW016 28/26 Q1007 NOSIG
WADD 311300Z 09004KT 9999 FEW016 27/26 Q1007 NOSIG
WADD 311230Z 07006KT 9999 SCT016 28/26 Q1006 NOSIG
WADD 311200Z 06003KT 9999 FEW017 28/25 Q1006 NOSIG</description><pubDate>Sat, 01 Feb 2025 11:40:48 </pubDate></item></channel></rss>