<rss version="2.0"><channel><title>Aviation Weather METAR Data for WADD</title><link>https://aviationweather.gov/api/data/metar?ids=WADD&amp;hours=24</link><description>Latest METAR data for WADD</description><item><title>2026-04-29 21:40:35Z</title><link>https://aviationweather.gov/api/data/metar?ids=WADD&amp;hours=24</link><description>METAR WADD 292130Z 34004KT 7000 -RA FEW015CB BKN016 26/25 Q1009 NOSIG RMK CB IN APCH
METAR WADD 292100Z VRB02KT 9999 FEW015CB BKN016 26/25 Q1009 NOSIG RMK CB IN APCH
METAR WADD 292030Z 02003KT 9999 FEW015CB SCT016 26/25 Q1009 NOSIG
METAR WADD 292000Z 02006KT 9999 FEW015CB SCT016 26/25 Q1009 NOSIG
METAR WADD 291930Z 01005KT 9999 FEW015CB SCT016 26/25 Q1009 NOSIG
METAR WADD 291900Z 05005KT 9999 FEW015CB SCT016 26/25 Q1009 NOSIG
METAR WADD 291830Z 01008KT 9999 FEW015CB SCT016 27/25 Q1010 NOSIG
METAR WADD 291800Z 01007KT 340V050 9999 FEW015CB SCT016 27/25 Q1010 N OSIG
METAR WADD 291730Z 36008KT 9999 FEW015CB SCT016 27/25 Q1010 NOSIG
METAR WADD 291700Z 09008KT 9999 FEW015CB SCT016 28/26 Q1010 NOSIG
METAR WADD 291630Z 12011KT 9999 FEW015CB SCT016 28/26 Q1010 NOSIG
METAR WADD 291600Z 13013KT 7000 FEW014CB BKN016 28/26 Q1010 RERA NOSI G RMK CB IN APCH
METAR WADD 291530Z 14011KT 2000 +RA FEW014CB BKN015 28/26 Q1010 TEMPO TL1700 5000 RA RMK CB IN CLIMB-OUT
METAR WADD 291500Z 14009KT 6000 -RA BKN016 29/26 Q1010 NOSIG
METAR WADD 291430Z 13008KT 9999 SCT016 29/26 Q1010 NOSIG
METAR WADD 291400Z 12010KT 9999 SCT016 29/26 Q1010 NOSIG
METAR WADD 291330Z 11008KT 9999 SCT016 29/26 Q1010 NOSIG
METAR WADD 291300Z 13010KT 9999 SCT016 29/26 Q1010 NOSIG
METAR WADD 291230Z 12010KT 9999 SCT016 29/26 Q1010 NOSIG
METAR WADD 291200Z 13011KT 9999 FEW016CB SCT016 29/26 Q1009 NOSIG
METAR WADD 291130Z 14010KT 9999 FEW016CB SCT016 29/26 Q1009 NOSIG
METAR WADD 291100Z 13009KT 9999 FEW016CB SCT016 29/26 Q1009 NOSIG
METAR WADD 291030Z 14009KT 9999 FEW016CB SCT016 29/26 Q1009 NOSIG
METAR WADD 291000Z 13008KT 9999 FEW016CB SCT016 29/26 Q1008 RETS NOSI G
METAR WADD 290930Z 13010KT 9999 TS FEW015CB SCT016 29/26 Q1008 TEMPO TL1030 TS
SPECI WADD 290906Z 12010KT 9999 TS FEW015CB SCT016 29/26 Q1008 TEMPO TL1006 TS
METAR WADD 290900Z 12010KT 9999 FEW015CB SCT016 29/26 Q1008 NOSIG
METAR WADD 290830Z 13010KT 9999 FEW015CB SCT016 30/26 Q1008 NOSIG
METAR WADD 290800Z 13012KT 9999 FEW015CB SCT016 30/26 Q1007 NOSIG
METAR WADD 290730Z 12011KT 9999 SCT016 30/26 Q1007 NOSIG
METAR WADD 290700Z 12012KT 9999 SCT016 30/25 Q1007 NOSIG
METAR WADD 290630Z 12013KT 9999 SCT016 31/26 Q1007 NOSIG
METAR WADD 290600Z 11015KT 9999 SCT016 31/26 Q1008 NOSIG
METAR WADD 290530Z 11014KT 9999 SCT016 32/27 Q1008 NOSIG
METAR WADD 290500Z 12014KT 9999 SCT016 32/26 Q1008 NOSIG
METAR WADD 290430Z 12013KT 9999 FEW015CB SCT016 31/27 Q1009 NOSIG
METAR WADD 290400Z 12012KT 9999 FEW015CB SCT016 32/27 Q1009 NOSIG
METAR WADD 290330Z 13011KT 9999 FEW015CB SCT016 31/27 Q1010 NOSIG
METAR WADD 290300Z 12012KT 9999 FEW015CB SCT016 32/27 Q1010 NOSIG
METAR WADD 290230Z 13007KT 9999 SCT017 32/27 Q1010 NOSIG
METAR WADD 290200Z 11006KT 070V140 9999 SCT016 32/27 Q1010 NOSIG
METAR WADD 290130Z VRB03KT 9999 SCT016 33/27 Q1010 NOSIG
METAR WADD 290100Z 08004KT 050V140 9999 SCT016 30/27 Q1010 NOSIG
METAR WADD 290030Z 08004KT 050V120 9999 SCT016 29/27 Q1009 NOSIG
METAR WADD 290000Z VRB01KT 9999 SCT016 29/27 Q1009 NOSIG
METAR WADD 282330Z 10003KT 9999 FEW015CB SCT016 28/26 Q1009 NOSIG
METAR WADD 282300Z COR VRB02KT 9999 FEW015CB SCT016 27/26 Q1009 NOSIG
METAR WADD 282230Z 07004KT 9999 SCT016 27/25 Q1009 NOSIG
METAR WADD 282200Z 15006KT 9999 FEW015CB SCT016 27/26 Q1009 NOSIG</description><pubDate>Wed, 29 Apr 2026 21:40:35 </pubDate></item></channel></rss>