<rss version="2.0"><channel><title>Aviation Weather METAR Data for WADD</title><link>https://aviationweather.gov/api/data/metar?ids=WADD&amp;hours=24</link><description>Latest METAR data for WADD</description><item><title>2026-05-01 21:27:46Z</title><link>https://aviationweather.gov/api/data/metar?ids=WADD&amp;hours=24</link><description>METAR WADD 012100Z 18006KT 9999 SCT015 26/25 Q1008 NOSIG
METAR WADD 012000Z 11002KT 9999 SCT015 26/24 Q1009 NOSIG
METAR WADD 011930Z 14004KT 9999 SCT016 26/25 Q1009 NOSIG
METAR WADD 011900Z 15009KT SCT016 26/25 Q1009 NOSIG
METAR WADD 011830Z 08005KT 9999 SCT016 27/25 Q1009 NOSIG
METAR WADD 011800Z 07006KT 9999 SCT016 27/25 Q1009 NOSIG
METAR WADD 011730Z 07007KT 9999 SCT016 28/25 Q1009 NOSIG
METAR WADD 011700Z 09007KT 9999 SCT016 28/25 Q1010 NOSIG
METAR WADD 011630Z 09008KT 9999 SCT016 28/25 Q1010 NOSIG
METAR WADD 011600Z 10008KT 9999 SCT016 28/25 Q1010 NOSIG
METAR WADD 011530Z 13008KT 9999 SCT016 28/26 Q1010 NOSIG
METAR WADD 011500Z 13008KT 9999 SCT016 28/26 Q1010 NOSIG
METAR WADD 011430Z 12009KT 9999 SCT016 28/26 Q1010 NOSIG
METAR WADD 011400Z 11009KT 9999 SCT016 28/26 Q1010 NOSIG
METAR WADD 011330Z 12010KT 9999 SCT016 28/26 Q1010 NOSIG
METAR WADD 011300Z 13010KT 9999 SCT016 28/26 Q1010 NOSIG
METAR WADD 011230Z 13008KT 9999 FEW016 28/26 Q1010 NOSIG
METAR WADD 011200Z 15011KT 9999 SCT016 28/26 Q1010 NOSIG
METAR WADD 011130Z 12009KT 9999 SCT016 28/26 Q1009 NOSIG
METAR WADD 011100Z 13008KT 9999 SCT016 28/26 Q1009 NOSIG
METAR WADD 011030Z 14010KT 9999 SCT016 28/26 Q1009 NOSIG
METAR WADD 011000Z 12011KT 9999 SCT016 29/26 Q1009 NOSIG
METAR WADD 010930Z 13012KT 9999 SCT016 29/26 Q1009 NOSIG
METAR WADD 010900Z 14012KT 9999 SCT016 29/26 Q1008 NOSIG
METAR WADD 010830Z 13015KT 9999 SCT016 30/26 Q1008 NOSIG
METAR WADD 010800Z 13014KT 9999 SCT016 30/26 Q1008 NOSIG
METAR WADD 010730Z 12016KT 9999 SCT016 30/26 Q1008 NOSIG
METAR WADD 010700Z 13014KT 9999 SCT016 30/26 Q1008 RERA NOSIG
METAR WADD 010630Z 11014KT 8000 -RA SCT016 30/26 Q1009 TEMPO TL0730 -RA
METAR WADD 010600Z 11014KT 9999 SCT016 31/26 Q1009 NOSIG
METAR WADD 010530Z 11012KT 9999 SCT016 31/26 Q1009 NOSIG
METAR WADD 010500Z 12015KT 9999 FEW015CB SCT016 31/26 Q1010 NOSIG
METAR WADD 010430Z 10014KT 9999 FEW017 31/26 Q1010 NOSIG
METAR WADD 010400Z 11010KT 9999 FEW017 31/26 Q1011 NOSIG
METAR WADD 010330Z 12013KT 9999 FEW017 30/26 Q1011 NOSIG
METAR WADD 010300Z 11013KT 9999 FEW017 29/26 Q1011 NOSIG
METAR WADD 010230Z 10010KT 9999 FEW016 31/26 Q1011 NOSIG
METAR WADD 010200Z 10010KT 9999 FEW016 30/26 Q1011 NOSIG
METAR WADD 010130Z 10008KT 9999 SCT016 30/26 Q1012 NOSIG
METAR WADD 010100Z 09009KT 9999 FEW017 29/26 Q1012 NOSIG
METAR WADD 010030Z 08007KT 9999 FEW016CB SCT016 29/26 Q1011 NOSIG
METAR WADD 010000Z 06008KT 9999 FEW016CB SCT016 27/26 Q1011 NOSIG
METAR WADD 302330Z 05008KT 9999 FEW016CB SCT016 27/26 Q1011 NOSIG
METAR WADD 302300Z 08004KT 9999 FEW016CB BKN016 27/26 Q1010 RETS NOSI G
METAR WADD 302230Z 06003KT 9999 TS FEW016CB BKN016 27/26 Q1010 TEMPO TL2330 TS
METAR WADD 302200Z 04004KT 9999 TS FEW016CB BKN016 26/26 Q1010 TEMPO TL2300 TS
METAR WADD 302130Z 09004KT 9999 FEW016CB SCT016 26/26 Q1010 NOSIG</description><pubDate>Fri, 01 May 2026 21:27:46 </pubDate></item></channel></rss>