<rss version="2.0"><channel><title>Aviation Weather METAR Data for WADD</title><link>https://aviationweather.gov/api/data/metar?ids=WADD&amp;hours=24</link><description>Latest METAR data for WADD</description><item><title>2025-04-20 17:22:55Z</title><link>https://aviationweather.gov/api/data/metar?ids=WADD&amp;hours=24</link><description>WADD 201700Z VRB02KT 9999 FEW017 28/26 Q1010 NOSIG
WADD 201630Z VRB02KT 9999 FEW017 27/26 Q1010 NOSIG
WADD 201600Z 11002KT 9999 FEW017 28/26 Q1010 NOSIG
WADD 201530Z 09003KT 9999 FEW017 27/26 Q1010 NOSIG
WADD 201500Z 10003KT 9999 FEW017 27/26 Q1010 NOSIG
WADD 201430Z 10003KT 9999 FEW017 27/26 Q1011 NOSIG
WADD 201400Z 09005KT 9999 FEW017 27/26 Q1011 NOSIG
WADD 201330Z 11004KT 9999 FEW017 27/27 Q1010 NOSIG
WADD 201300Z 12006KT 9999 FEW017 28/27 Q1010 NOSIG
WADD 201230Z 14007KT 9999 FEW017 29/27 Q1010 NOSIG
WADD 201200Z 14007KT 9999 FEW017 29/27 Q1010 NOSIG
WADD 201130Z 12007KT 9999 FEW017 29/27 Q1009 NOSIG
WADD 201100Z 13008KT 9999 FEW017 29/27 Q1009 NOSIG
WADD 201030Z 14005KT 9999 FEW017 29/26 Q1008 NOSIG
WADD 201000Z 15004KT 9999 FEW017 29/25 Q1008 NOSIG
WADD 200930Z 17003KT 9999 FEW017 30/25 Q1008 NOSIG
WADD 200900Z 18004KT 9999 FEW017 31/25 Q1008 NOSIG
WADD 200830Z 18004KT 9999 FEW017 31/25 Q1007 NOSIG
WADD 200800Z 20005KT 9999 FEW017 32/24 Q1007 NOSIG
WADD 200730Z 26006KT 9999 FEW017 32/25 Q1007 NOSIG
WADD 200700Z 25007KT 9999 SCT0017 31/26 Q1007 NOSIG
WADD 200630Z 11005KT 9999 SCT017 32/26 Q1008 NOSIG
WADD 200600Z 10005KT 9999 SCT017 30/26 Q1008 NOSIG
WADD 200530Z 13004KT 090V170 9999 SCT016 31/26 Q1008 NOSIG
WADD 200500Z 12005KT 100V160 9999 SCT016 30/26 Q1008 NOSIG
WADD 200430Z 25006KT 210V290 9999 FEW015CB FEW016 30/26 Q1009 NOSIG
WADD 200400Z 27007KT 230V290 9999 FEW015CB FEW016 30/26 Q1009 NOSIG
WADD 200330Z 26006KT 190V280 9999 FEW015CB FEW016 30/26 Q1009 RMK CB IN APCH
WADD 200300Z 28006KT 250V310 9999 FEW015CB FEW016 30/28 Q1009 NOSIG
WADD 200230Z 26005KT 9999 FEW016 30/28 Q1010 NOSIG
WADD 200200Z 28004KT 230V320 9999 FEW016 30/28 Q1010 NOSIG
WADD 200130Z 28003KT 9999 FEW016 30/28 Q1010 NOSIG
WADD 200030Z 32004KT 300V360 9999 FEW017 29/28 Q1009 NOSIG
WADD 200000Z 35004KT 300V060 9999 FEW017 28/27 Q1009 NOSIG
WADD 192330Z 35004KT 310V060 9999 SCT016 28/27 Q1009 NOSIG
WADD 192300Z 01003KT 9999 BKN016 27/26 Q1009 NOSIG
WADD 192230Z 01004KT 9999 BKN016 27/27 Q1008 NOSIG
WADD 192200Z 35002KT 9999 BKN016 27/26 Q1008 NOSIG
WADD 192130Z VRB01KT 9999 BKN016 27/26 Q1008 NOSIG
WADD 192100Z VRB02KT 9999 BKN016 27/26 Q1008 NOSIG
WADD 192030Z VRB02KT 9999 BKN016 27/26 Q1008 NOSIG
WADD 192000Z VRB02KT 9999 FEW015CB BKN016 27/26 Q1008 NOSIG
WADD 191930Z 33002KT 9999 FEW015CB BKN01627/26 Q1008 RERA NOSIG
WADD 191900Z 36003KT 9999 -RA FEW015CB BKN016 27/26 Q1008 NOSIG TEMPO TL 1930 -RA RMK CB CLIMB OUT
WADD 191830Z 06003KT 9999 FEW015CB SCT016 27/26 Q1008 CB CLIMB OUT NOSIG
WADD 191800Z 05004KT 9999 FEW015CB SCT016 27/26 Q1008 NOSIG
WADD 191730Z VRB02KT 9999 FEW015CB FEW016 27/26 Q1008 NOSIG</description><pubDate>Sun, 20 Apr 2025 17:22:55 </pubDate></item></channel></rss>