<rss version="2.0"><channel><title>Aviation Weather METAR Data for WADD</title><link>https://aviationweather.gov/api/data/metar?ids=WADD&amp;hours=24</link><description>Latest METAR data for WADD</description><item><title>2025-01-31 08:28:11Z</title><link>https://aviationweather.gov/api/data/metar?ids=WADD&amp;hours=24</link><description>WADD 310800Z 23003KT 9999 FEW017 30/24 Q1005 NOSIG
WADD 310730Z 23004KT 9999 FEW017 30/24 Q1005 NOSIG
WADD 310700Z 22003KT 9999 FEW017 30/23 Q1005 NOSIG
WADD 310630Z 25004KT 9999 FEW017 30/23 Q1005 NOSIG
WADD 310600Z 23003KT 9999 FEW017 30/22 Q1006 NOSIG
WADD 310530Z 27004KT 200V310 9999 FEW017 30/23 Q1006 NOSIG
WADD 310500Z VRB03KT 9999 FEW017 31/23 Q1006 NOSIG
WADD 310430Z VRB01KT 9999 FEW017 30/25 Q1006 NOSIG
WADD 310400Z VRB02KT 9999 FEW016 29/25 Q1006 NOSIG
WADD 310330Z 32003KT 9999 FEW016 30/23 Q1007 NOSIG
WADD 310300Z 28003KT 9999 FEW016 29/24 Q1007 NOSIG
WADD 310230Z 28003KT 9999 FEW016 29/24 Q1007 NOSIG
WADD 310200Z 30004KT 270V340 9999 FEW016 29/25 Q1007 NOSIG
WADD 310130Z VRB03KT 9999 FEW016 29/25 Q1007 NOSIG
WADD 310100Z 32003KT 9999 FEW016 28/25 Q1007 NOSIG
WADD 310030Z VRB02KT 9999 FEW016 28/25 Q1007 NOSIG
WADD 310000Z VRB01KT 9999 FEW016 27/26 Q1007 NOSIG
WADD 302330Z VRB02KT 9999 FEW016 27/26 Q1006 NOSIG
WADD 302300Z 28002KT 9999 FEW016 26/25 Q1006 NOSIG
WADD 302230Z VRB01KT 9999 SCT016 26/26 Q1005 NOSIG
WADD 302200Z VRB02KT 9999 SCT016 26/26 Q1005 NOSIG
WADD 302130Z 31002KT 9999 SCT016 26/26 Q1005 NOSIG
WADD 302100Z VRB01KT 9999 SCT016 26/26 Q1005 NOSIG
WADD 302030Z 08002KT 9999 SCT016 26/26 Q1004 NOSIG
WADD 302000Z VRB02KT 9999 SCT016 26/26 Q1004 NOSIG
WADD 301930Z VRB01KT 9999 SCT016 26/26 Q1005 NOSIG
WADD 301900Z VRB01KT 9999 SCT016 26/26 Q1005 NOSIG
WADD 301830Z 34002KT 9999 SCT016 26/25 Q1005 NOSIG
WADD 301800Z VRB03KT 9999 SCT016 26/25 Q1006 NOSIG
WADD 301730Z 08002KT 9999 SCT016 26/25 Q1006 NOSIG
WADD 301700Z VRB01KT 9999 SCT016 26/25 Q1006 NOSIG
WADD 301630Z VRB02KT 9999 SCT016 27/25 Q1006 NOSIG
WADD 301600Z 06003KT 9999 SCT016 27/25 Q1007 NOSIG
WADD 301530Z 35003KT 9999 SCT016 27/24 Q1007 NOSIG
WADD 301500Z 32005KT 9999 SCT016 28/24 Q1007 NOSIG
WADD 301430Z 32008KT 9999 BKN016 28/24 Q1007 NOSIG
WADD 301400Z 32005KT 9999 BKN016 28/25 Q1007 NOSIG
WADD 301330Z 32006KT 9999 BKN016 28/25 Q1007 NOSIG
WADD 301300Z 30006KT 9999 BKN016 28/25 Q1007 NOSIG
WADD 301230Z 30007KT 9999 BKN016 28/25 Q1007 NOSIG
WADD 301200Z 26004KT 9999 BKN016 28/25 Q1007 NOSIG
WADD 301130Z 26005KT 9999 SCT016 28/25 Q1006 NOSIG
WADD 301100Z 25005KT 9999 SCT016 28/25 Q1006 NOSIG
WADD 301030Z 27006KT 9999 FEW015 28/25 Q1006 NOSIG
WADD 301000Z 28009KT 9999 FEW016 28/25 Q1005 NOSIG
WADD 300930Z 29010KT 9999 FEW016 29/25 Q1005 NOSIG
WADD 300900Z 28011KT 9999 FEW016 29/25 Q1005 NOSIG
WADD 300830Z 27008KT 240V300 9999 FEW016 29/25 Q1004 NOSIG</description><pubDate>Fri, 31 Jan 2025 08:28:11 </pubDate></item></channel></rss>