<rss version="2.0"><channel><title>Aviation Weather METAR Data for WADD</title><link>https://aviationweather.gov/api/data/metar?ids=WADD&amp;hours=24</link><description>Latest METAR data for WADD</description><item><title>2026-01-27 17:36:52Z</title><link>https://aviationweather.gov/api/data/metar?ids=WADD&amp;hours=24</link><description>METAR WADD 271730Z 36005KT 9999 SCT016 26/25 Q1010 NOSIG
METAR WADD 271700Z 36004KT 310V030 9999 SCT016 26/25 Q1010 NOSIG
METAR WADD 271630Z 03005KT 340V080 9999 SCT016 26/25 Q1010 NOSIG
METAR WADD 271600Z 05003KT 9999 SCT016 26/25 Q1011 NOSIG
METAR WADD 271530Z VRB02KT 9999 SCT016 27/25 Q1011 NOSIG
METAR WADD 271500Z VRB02KT 9999 SCT016 27/25 Q1011 NOSIG
METAR WADD 271430Z VRB01KT 9999 SCT016 27/25 Q1011 NOSIG
METAR WADD 271400Z VRB01KT 9999 SCT016 26/25 Q1011 NOSIG
METAR WADD 271330Z 04003KT 9999 SCT016 27/25 Q1011 NOSIG
METAR WADD 271300Z 33004KT 9999 SCT016 27/25 Q1010 NOSIG
METAR WADD 271230Z 27004KT 240V330 9999 SCT016 27/24 Q1010 NOSIG
METAR WADD 271200Z 30005KT 9999 SCT016 27/24 Q1010 NOSIG
METAR WADD 271130Z 30006KT 9999 SCT016 27/24 Q1010 NOSIG
METAR WADD 271100Z 33004KT 9999 SCT016 27/24 Q1009 NOSIG
METAR WADD 271030Z 30006KT 240V310 9999 FEW014CB BKN015 27/25 Q1009 N OSIG RMK CB IN APCH
METAR WADD 271000Z 24007KT 9999 FEW014CB BKN015 28/25 Q1009 NOSIG RMK CB IN APCH
METAR WADD 270930Z 25009KT 9999 FEW014CB BKN015 28/25 Q1009 NOSIG
METAR WADD 270900Z 26008KT 9999 FEW014CB BKN015 28/25 Q1009 NOSIG RMK CB IN CLIMB-OUT
METAR WADD 270830Z 26009KT 9999 SCT016 28/25 Q1009 NOSIG
METAR WADD 270800Z 25010KT 9999 SCT016 28/25 Q1009 NOSIG
METAR WADD 270730Z 24008KT 210V270 9999 SCT016 28/25 Q1009 NOSIG
METAR WADD 270700Z 23007KT 190V270 9999 SCT016 28/25 Q1009 NOSIG
METAR WADD 270630Z 23005KT 200V270 9999 FEW014CB BKN015 27/24 Q1009 N OSIG
METAR WADD 270600Z 23008KT 9999 FEW014CB BKN015 27/24 Q1010 NOSIG
METAR WADD 270530Z 25006KT 8000 FEW015CB SCT016 28/25 Q1010 TEMPO FM0600 4000 RA RMK CB IN CLIMB-OUT
METAR WADD 270500Z 24008KT 200V270 8000 FEW015CB SCT016 27/25 Q1010 N OSIG
METAR WADD 270430Z 25007KT 210V270 8000 FEW015CB SCT016 28/25 Q1010 N OSIG
METAR WADD 270400Z 25008KT 210V290 8000 FEW015CB SCT016 28/25 Q1011 T EMPO FM0420 4000 RA RMK CB IN CLIMB-OUT
METAR WADD 270330Z 29006KT 260V320 9999 FEW016 29/25 Q1011 NOSIG
METAR WADD 270300Z 29007KT 9999 FEW016 29/25 Q1011 NOSIG
METAR WADD 270230Z 29005KT 260V320 9999 SCT016 28/25 Q1011 NOSIG
METAR WADD 270200Z 36003KT 9999 SCT016 28/25 Q1011 NOSIG
METAR WADD 270130Z 03004KT 340V070 9999 SCT016 27/25 Q1011 NOSIG
METAR WADD 270100Z 02003KT 9999 SCT016 26/25 Q1011 RERA NOSIG
METAR WADD 270030Z 31007KT 8000 -RA BKN015 27/25 Q1011 TEMPO TL0100 8000 -RA
METAR WADD 270000Z 27011KT 8000 -RA BKN015 26/24 Q1011 TEMPO TL0100 8000 -RA
METAR WADD 262330Z 27011KT 8000 -RA BKN015 26/24 Q1011 TEMPO TL2400 8 000 -RA
METAR WADD 262300Z 26012KT 8000 -RA FEW015CB SCT015 26/23 Q1010 RETS TEMPO TL2400 8000 -RA RMK CB IN APCH AND CLIMB-OUT
METAR WADD 262230Z 25010KT 8000 -TSRA FEW015CB BKN015 26/24 Q1010 TEM PO TL2300 8000 -TSRA RMK CB IN APCH AND CLIMB-OUT
METAR WADD 262200Z 30009KT 5000 TSRA FEW015CB SCT015 25/24 Q1010 TEMPO TL2300 5000 TSRA RMK CB IN CLIMB-OUT
METAR WADD 262130Z 24006G23KT 200V280 8000 -TSRA FEW015CB SCT015 27/24 Q1010 TEMPO TL2300 8000 -TSRA RMK CB IN CLIMB-OUT
METAR WADD 262100Z 23005KT 9999 TS FEW015CB SCT015 28/24 Q1009 TEMPO TL2130 TS
METAR WADD 262030Z 26006KT 9999 FEW015CB SCT015 27/25 Q1009 TEMPO TL2 130 TS
METAR WADD 262000Z 28008KT 9999 FEW015CB SCT015 26/24 Q1009 TEMPO TL2130 TS
METAR WADD 261930Z 30016G23KT 9999 FEW015CB SCT015 26/24 Q1009 NOSIG
METAR WADD 261900Z 26010KT 9999 FEW016 28/25 Q1009 NOSIG
METAR WADD 261830Z 26009KT 9999 FEW016 28/24 Q1009 NOSIG
METAR WADD 261800Z 26008KT 9999 FEW016 28/24 Q1009 NOSIG</description><pubDate>Tue, 27 Jan 2026 17:36:52 </pubDate></item></channel></rss>