<rss version="2.0"><channel><title>Aviation Weather METAR Data for WADD</title><link>https://aviationweather.gov/api/data/metar?ids=WADD&amp;hours=24</link><description>Latest METAR data for WADD</description><item><title>2025-03-23 07:40:03Z</title><link>https://aviationweather.gov/api/data/metar?ids=WADD&amp;hours=24</link><description>WADD 230730Z 28019KT 9999 SCT017 31/25 Q1006 NOSIG
WADD 230700Z 27016KT 9999 SCT017 30/26 Q1006 NOSIG
WADD 230630Z 27019KT 9999 SCT017 30/25 Q1006 NOSIG
WADD 230600Z 27016KT 9999 SCT015 31/26 Q1007 NOSIG
WADD 230530Z 26018KT 9999 SCT016 30/26 Q1007 NOSIG
WADD 230500Z 26019KT 9999 FEW015CB SCT016 30/25 Q1008 NOSIG
WADD 230430Z 28013KT 9999 FEW015CB SCT016 31/25 Q1008 NOSIG
WADD 230400Z 29014KT 9999 SCT016 30/24 Q1008 NOSIG
WADD 230330Z 29014KT 9999 SCT016 30/25 Q1009 NOSIG
WADD 230300Z 29014KT 9999 SCT016 30/25 Q1009 NOSIG
WADD 230230Z 29014KT 9999 SCT016 29/25 Q1009 NOSIG
WADD 230200Z 29013KT 9999 SCT016 29/25 Q1009 NOSIG
WADD 230130Z 29011KT 9999 SCT016 29/26 Q1009 NOSIG
WADD 230100Z 30007KT 8000 -RA BKN016 27/25 Q1009 TEMPO TL0200 -RA
WADD 230030Z 30012KT 8000 -RA FEW014CB SCT014 25/23 Q1009 TEMPO TL0130 -RA
WADD 230000Z 28026KT 5000 -RA FEW014CB BKN014 25/24 Q1010 TEMPO TL0100 -RA
WADD 222330Z 29015KT 2000 RA FEW014CB BKN014 28/24 Q1008 TEMPO TL2430 RA
WADD 222300Z 30013KT 9999 BKN016 28/24 Q1008 NOSIG
WADD 222230Z 29014KT 9999 SCT016 28/24 Q1008 NOSIG
WADD 222200Z 29014KT 9999 SCT016 28/24 Q1008 NOSIG
WADD 222130Z 28016KT 9999 FEW017 27/24 Q1008 NOSIG
WADD 222100Z 29013KT 9999 FEW017 27/24 Q1007 NOSIG
WADD 222030Z 30011KT 9999 FEW017 27/24 Q1007 NOSIG
WADD 222000Z 30011KT 9999 FEW017 27/24 Q1007 NOSIG
WADD 221930Z 29016KT 9999 SCT017 27/24 Q1007 NOSIG
WADD 221900Z 29017KT 9999 SCT016 26/24 Q1007 NOSIG
WADD 221830Z 29019KT 9999 BKN015 25/24 Q1008 RERA NOSIG
WADD 221800Z 29021G36KT 2000 RA FEW014CB BKN014 25/24 Q1008 TEMPO TL1900 2000 RA
WADD 221730Z 27029KT 3000 RA FEW014CB BKN014 27/24 Q1008 TEMPO TL1830 3000 RA RMK CB OVR THE FIELD
WADD 221700Z 29014KT 9999 SCT015 28/25 Q1008 NOSIG
WADD 221630Z 30012KT 9999 FEW017 28/24 Q1008 NOSIG
WADD 221600Z 31011KT 9999 SCT016 27/24 Q1008 NOSIG
WADD 221530Z 29015KT 9999 SCT016 28/24 Q1009 NOSIG
WADD 221500Z 30011KT 9999 SCT016 27/24 Q1009 NOSIG
WADD 221430Z 30015KT 9999 SCT016 27/24 Q1009 NOSIG
WADD 221400Z 30019KT 9999 BKN015 25/24 Q1009 RERA NOSIG
WADD 221330Z 28033KT 4000 -RA FEW014CB BKN014 26/24 Q1010 TEMPO TL1417 4000 -RA
WADD 221300Z 29015KT 9999 SCT015 27/24 Q1009 NOSIG
WADD 221230Z 28018G28KT 9999 BKN015 26/24 Q1009 NOSIG
WADD 221200Z 27029G40KT 8000 FEW015CB BKN015 25/24 Q1009 RERA NOSIG
WADD 221130Z 29019KT 9999 FEW015CB BKN015 27/24 Q1008 NOSIG
WADD 221100Z 29018KT 9999 FEW015CB BKN015 27/24 Q1008 RERA NOSIG
WADD 221030Z 28020G27KT 8000 -RA FEW014CB BKN014 27/24 Q1008 TEMPO TL1100 8000 -RA RMK CB IN APCH AND CLIMB-OUT
WADD 221000Z 29019G27KT 8000 -RA FEW014CB BKN014 26/24 Q1008 TEMPO TL1100 8000 -RA RMK CB IN APCH AND CLIMB-OUT
WADD 220930Z 29018G27KT 8000 -RA FEW014CB BKN014 25/25 Q1008 TEMPO TL1100 8000 -RA RMK CB IN APCH AND CLIMB-OUT
WADD 220900Z 28027G37KT 5000 -RA FEW013CB BKN013 25/25 Q1007 TEMPO TL1000 5000 -RA RMK CB IN APCH AND CLIMB-OUT
WADD 220830Z 30012KT 9999 FEW014CB BKN014 28/24 Q1007 NOSIG RMK CB IN CLIMB-OUT
WADD 220800Z 30014KT 9999 FEW014CB BKN014 28/24 Q1006 NOSIG</description><pubDate>Sun, 23 Mar 2025 07:40:03 </pubDate></item></channel></rss>