<rss version="2.0"><channel><title>Aviation Weather METAR Data for WADD</title><link>https://aviationweather.gov/api/data/metar?ids=WADD&amp;hours=24</link><description>Latest METAR data for WADD</description><item><title>2025-08-20 22:25:04Z</title><link>https://aviationweather.gov/api/data/metar?ids=WADD&amp;hours=24</link><description>WADD 202200Z 10006KT 9999 FEW017 26/23 Q1012 NOSIG
WADD 202130Z 10007KT 9999 FEW017 26/23 Q1012 NOSIG
WADD 202100Z 11007KT 9999 FEW017 26/24 Q1011 NOSIG
WADD 202030Z 12007KT 9999 FEW017 26/24 Q1011 NOSIG
WADD 202000Z 13006KT 9999 FEW017 26/24 Q1011 NOSIG
WADD 201930Z 13005KT 9999 FEW017 26/24 Q1012 NOSIG
WADD 201900Z 11004KT 9999 FEW017 25/23 Q1012 NOSIG
WADD 201830Z 14006KT 9999 FEW017 26/24 Q1011 NOSIG
WADD 201800Z 13006KT 9999 FEW017 26/24 Q1012 NOSIG
WADD 201730Z 13006KT 9999 FEW017 26/24 Q1012 NOSIG
WADD 201700Z 13006KT 9999 FEW017 27/24 Q1012 NOSIG
WADD 201630Z 13007KT 9999 FEW017 27/24 Q1012 NOSIG
WADD 201600Z 13008KT 9999 FEW017 27/24 Q1012 NOSIG
WADD 201530Z 12008KT 9999 FEW017 27/24 Q1013 NOSIG
WADD 201500Z 12008KT 9999 FEW017 27/24 Q1013 NOSIG
WADD 201430Z 13009KT 9999 FEW017 27/24 Q1013 NOSIG
WADD 201400Z 13008KT 9999 FEW017 27/24 Q1013 NOSIG
WADD 201330Z 13007KT 9999 FEW017 27/24 Q1013 NOSIG
WADD 201300Z 13008KT 9999 FEW017 27/24 Q1012 NOSIG
WADD 201230Z 13007KT 9999 FEW017 27/24 Q1012 NOSIG
WADD 201200Z 13008KT 9999 FEW017 27/24 Q1012 NOSIG
WADD 201130Z 13009KT 9999 FEW017 27/24 Q1011 NOSIG
WADD 201100Z 13009KT 9999 FEW017 27/25 Q1011 NOSIG
WADD 201030Z 13011KT 9999 FEW017 27/25 Q1011 NOSIG
WADD 201000Z 13011KT 9999 FEW017 28/25 Q1010 NOSIG
WADD 200930Z 14011KT 9999 FEW017 28/25 Q1010 NOSIG
WADD 200900Z 14011KT 9999 FEW017 29/24 Q1010 NOSIG
WADD 200830Z 14012KT 9999 FEW017 29/24 Q1010 NOSIG
WADD 200800Z 14013KT 9999 FEW017 29/24 Q1010 NOSIG
WADD 200730Z 14014KT 9999 FEW017 29/24 Q1010 NOSIG
WADD 200700Z 13012KT 9999 FEW017 30/24 Q1010 NOSIG
WADD 200630Z 11011KT 9999 FEW017 30/24 Q1010 NOSIG
WADD 200600Z 11011KT 9999 FEW017 30/24 Q1010 NOSIG
WADD 200530Z 12011KT 9999 FEW017 30/24 Q1010 NOSIG
WADD 200500Z 11010KT 9999 FEW017 29/25 Q1010 NOSIG
WADD 200430Z 12011KT 9999 FEW017 29/25 Q1011 NOSIG
WADD 200400Z 12009KT 9999 FEW017 29/25 Q1011 NOSIG
WADD 200330Z 11011KT 9999 FEW017 29/25 Q1011 NOSIG
WADD 200300Z 12010KT 9999 FEW017 29/24 Q1012 NOSIG
WADD 200230Z 10009KT 9999 FEW017 29/24 Q1012 NOSIG
WADD 200200Z 10006KT 9999 FEW017 29/24 Q1013 NOSIG
WADD 200130Z 11005KT 070V140 9999 FEW017 28/24 Q1013 NOSIG
WADD 200100Z 12004KT 070V180 9999 FEW017 28/24 Q1013 NOSIG
WADD 200030Z 07004KT 330V110 9999 FEW017 Q1013 NOSIG
WADD 200000Z 01005KT 9999 FEW017 26/25 Q1012 NOSIG
WADD 192330Z 07003KT 9999 FEW017 26/25 Q1012 NOSIG
WADD 192300Z 09002KT 9999 FEW017 25/24 Q1012 NOSIG
WADD 192230Z 15003KT 9999 FEW017 26/25 Q1012 NOSIG</description><pubDate>Wed, 20 Aug 2025 22:25:04 </pubDate></item></channel></rss>