<rss version="2.0"><channel><title>Aviation Weather METAR Data for WADD</title><link>https://aviationweather.gov/api/data/metar?ids=WADD&amp;hours=24</link><description>Latest METAR data for WADD</description><item><title>2025-08-03 10:48:23Z</title><link>https://aviationweather.gov/api/data/metar?ids=WADD&amp;hours=24</link><description>WADD 031030Z 12011KT 9999 FEW017 28/25 Q1010 NOSIG
WADD 031000Z 12011KT 9999 FEW017 28/26 Q1010 NOSIG
WADD 030930Z 12013KT 9999 FEW017 28/25 Q1010 NOSIG
WADD 030900Z 11013KT 9999 FEW017 29/25 Q1009 NOSIG
WADD 030830Z 13013KT 9999 FEW017 29/26 Q1009 NOSIG
WADD 030800Z 14014KT 9999 FEW017 29/26 Q1009 NOSIG
WADD 030730Z 14015KT 9999 SCT016 29/26 Q1009 NOSIG
WADD 030700Z 11011KT 9999 SCT016 30/26 Q1010 NOSIG
WADD 030630Z 10012KT 9999 FEW016 30/26 Q1010 NOSIG
WADD 030600Z 12012KT 9999 SCT016 30/26 Q1011 NOSIG
WADD 030530Z 11012KT 9999 SCT016 30/26 Q1011 NOSIG
WADD 030500Z 12011KT 9999 BKN016 29/26 Q1011 NOSIG
WADD 030430Z 10012KT 9999 BKN016 29/26 Q1012 NOSIG
WADD 030400Z 13010KT 9999 SCT016 30/26 Q1012 NOSIG
WADD 030330Z 12010KT 9999 SCT016 29/26 Q1012 NOSIG
WADD 030300Z 10011KT 9999 SCT016 30/26 Q1013 NOSIG
WADD 030230Z 11012KT 9999 SCT016 29/26 Q1013 NOSIG
WADD 030200Z 11011KT 9999 SCT015 29/26 Q1013 NOSIG
WADD 030130Z 10008KT 9999 FEW014CB BKN015 28/26 Q1013 NOSIG
WADD 030100Z 11011KT 9999 FEW014CB BKN015 28/26 Q1013 NOSIG
WADD 030030Z 12008KT 9999 FEW014CB BKN015 27/26 Q1013 NOSIG
WADD 030000Z 13005KT 9999 FEW014CB BKN015 27/26 Q1013 NOSIG
WADD 022330Z 13006KT 9999 BKN015 26/26 Q1012 NOSIG
WADD 022300Z 12004KT 9999 BKN015 26/25 Q1012 NOSIG
WADD 022230Z 14005KT 9999 BKN015 26/25 Q1012 NOSIG
WADD 022200Z 16005KT 090V190 9999 BKN016 26/25 Q1012 NOSIG
WADD 022130Z 30003KT 9999 BKN016 26/25 Q1011 NOSIG
WADD 022100Z 27001KT 9999 BKN016 26/25 Q1011 NOSIG
WADD 022030Z VRB01KT 9999 SCT016 26/25 Q1011 NOSIG
WADD 022000Z VRB02KT 9999 SCT016 26/25 Q1011 NOSIG
WADD 021930Z 14006KT 9999 BKN015 27/26 Q1011 NOSIG
WADD 021900Z 13005KT 9999 BKN015 27/26 Q1011 NOSIG
WADD 021830Z 16007KT 9999 BKN015 26/25 Q1011 NOSIG
WADD 021800Z 15007KT 9999 BKN015 27/26 Q1011 NOSIG
WADD 021730Z 14007KT 9999 BKN015 27/26 Q1011 NOSIG
WADD 021700Z 13007KT 9999 BKN015 26/25 Q1012 NOSIG
WADD 021630Z 12005KT 9999 SCT016 26/25 Q1012 NOSIG
WADD 021600Z 13007KT 9999 SCT016 26/25 Q1012 NOSIG
WADD 021530Z 13008KT 9999 SCT016 26/25 Q1012 NOSIG
WADD 021500Z 12008KT 9999 SCT016 26/25 Q1011 NOSIG
WADD 021430Z 12010KT 9999 FEW017 26/25 Q1011 NOSIG
WADD 021400Z 13010KT 9999 FEW017 27/25 Q1011 NOSIG
WADD 021330Z 12008KT 9999 FEW017 27/25 Q1011 NOSIG
WADD 021300Z 12008KT 9999 FEW017 27/25 Q1011 NOSIG
WADD 021230Z 12009KT 9999 FEW017 27/25 Q1011 NOSIG
WADD 021200Z 12008KT 9999 FEW017 27/25 Q1010 NOSIG
WADD 021130Z 12008KT 9999 FEW017 27/25 Q1010 NOSIG
WADD 021100Z 13009KT 9999 FEW017 27/25 Q1010 NOSIG</description><pubDate>Sun, 03 Aug 2025 10:48:23 </pubDate></item></channel></rss>