<rss version="2.0"><channel><title>Aviation Weather METAR Data for WADD</title><link>https://aviationweather.gov/api/data/metar?ids=WADD&amp;hours=24</link><description>Latest METAR data for WADD</description><item><title>2025-09-05 18:33:53Z</title><link>https://aviationweather.gov/api/data/metar?ids=WADD&amp;hours=24</link><description>METAR WADD 051800Z 16005KT 9999 FEW017 26/23 Q1012 NOSIG
METAR WADD 051730Z 16005KT 9999 FEW017 26/23 Q1012 NOSIG
METAR WADD 051700Z 16005KT 9999 FEW017 26/23 Q1013 NOSIG
METAR WADD 051630Z 15005KT 9999 FEW017 26/23 Q1013 NOSIG
METAR WADD 051600Z 14005KT 9999 FEW017 26/23 Q1013 NOSIG
METAR WADD 051530Z 14005KT 9999 FEW017 26/23 Q1013 NOSIG
METAR WADD 051500Z 13007KT 9999 FEW017 26/23 Q1013 NOSIG
METAR WADD 051430Z 13007KT 9999 FEW017 26/23 Q1013 NOSIG
METAR WADD 051400Z 14007KT 9999 FEW017 26/23 Q1013 NOSIG
METAR WADD 051330Z 13007KT 9999 FEW017 26/23 Q1012 NOSIG
METAR WADD 051300Z 13008KT 9999 FEW017 27/23 Q1012 NOSIG
METAR WADD 051230Z 13008KT 9999 FEW017 27/23 Q1012 NOSIG
METAR WADD 051200Z 14010KT 9999 FEW017 27/23 Q1011 NOSIG
METAR WADD 051130Z 14010KT 9999 SCT016 27/23 Q1011 NOSIG
METAR WADD 051100Z 14010KT 9999 SCT016 27/23 Q1011 NOSIG
METAR WADD 051030Z 15013KT 9999 SCT016 27/23 Q1010 NOSIG
METAR WADD 051000Z 15014KT 9999 SCT016 27/23 Q1010 NOSIG
METAR WADD 050930Z 14013KT 9999 SCT016 28/23 Q1010 NOSIG
METAR WADD 050900Z 15013KT 9999 FEW016 28/23 Q1010 NOSIG
METAR WADD 050830Z 14011KT 9999 FEW016 29/23 Q1009 NOSIG
METAR WADD 050800Z 15012KT 9999 FEW016 29/23 Q1009 NOSIG
METAR WADD 050730Z 13012KT 9999 FEW016 30/23 Q1009 NOSIG
METAR WADD 050700Z 13012KT 9999 FEW016 29/23 Q1009 NOSIG
METAR WADD 050630Z 13010KT 9999 FEW016 30/23 Q1010 NOSIG
METAR WADD 050600Z 11012KT 9999 FEW016 30/22 Q1010 NOSIG
 WADD 050530Z 11011KT 9999 FEW017 30/23 Q1010 NOSIG
 WADD 050500Z 11010KT 9999 SCT017 30/22 Q1011 NOSIG
METAR WADD 050430Z 11011KT 9999 SCT017 30/22 Q1011 NOSIG
 WADD 050400Z 12012KT 9999 SCT017 30/23 Q1011 NOSIG
 WADD 050330Z 11011KT 9999 BKN017 29/23 Q1012 NOSIG
 WADD 050300Z 11011KT 9999 BKN017 29/22 Q1012 NOSIG
 WADD 050230Z 11010KT 070V130 9999 SCT017 29/22 Q1013 NOSIG
METAR WADD 050200Z 10008KT 050V130 9999 SCT017 29/22 Q1013 NOSIG
METAR WADD 050130Z 10006KT 060V130 9999 SCT017 29/22 Q1013 NOSIG
METAR WADD 050100Z 10007KT 070V130 9999 SCT017 28/22 Q1013 NOSIG
METAR WADD 050030Z 09007KT 050V120 9999 FEW017 28/23 Q1012 NOSIG
METAR WADD 050000Z 04005KT 350V090 9999 FEW017 27/22 Q1012 NOSIG
 WADD 042330Z 02005KT 350V080 9999 FEW017 26/22 Q1012 NOSIG
METAR WADD 042300Z 03003KT 9999 SCT016 25/22 Q1012 NOSIG
METAR WADD 042230Z 03003KT 9999 SCT016 25/22 Q1012 NOSIG
METAR WADD 042200Z 10007KT 9999 SCT017 26/22 Q1011 NOSIG
METAR WADD 042130Z 11006KT 9999 FEW017 26/22 Q1011 NOSIG
METAR WADD 042100Z 09006KT 9999 FEW017 26/22 Q1010 NOSIG
METAR WADD 042030Z 11009KT 9999 FEW017 26/22 Q1010 NOSIG
METAR WADD 042000Z 13007KT 9999 FEW017 26/23 Q1010 NOSIG
METAR WADD 041930Z 12008KT 9999 SCT017 26/23 Q1011 NOSIG
METAR WADD 041900Z 12009KT 9999 SCT017 26/23 Q1011 NOSIG</description><pubDate>Fri, 05 Sep 2025 18:33:53 </pubDate></item></channel></rss>