<rss version="2.0"><channel><title>Aviation Weather METAR Data for WADD</title><link>https://aviationweather.gov/api/data/metar?ids=WADD&amp;hours=24</link><description>Latest METAR data for WADD</description><item><title>2025-05-15 07:26:07Z</title><link>https://aviationweather.gov/api/data/metar?ids=WADD&amp;hours=24</link><description>WADD 150700Z 17008KT 8000 TS FEW016CB SCT016 31/27 Q1008 NOSIG TEMPO TL0800 TS
WADD 150630Z 9999 FEW016CB SCT016 30/27 Q1008 NOSIG
WADD 150600Z 25007KT 9999 FEW016 31/27 Q1008 NOSIG
WADD 150530Z 19005KT 9999 SCT016 31/26 Q1008 NOSIG
WADD 150500Z 20005KT 9999 FEW017 31/27 Q1008 NOSIG
WADD 150430Z 12006KT 9999 FEW017 31/26 Q1009 NOSIG
WADD 150400Z 12007KT 9999 FEW017 31/26 Q1009 NOSIG
WADD 150330Z 13005KT 9999 FEW017 31/27 Q1010 NOSIG
WADD 150300Z 11007KT 9999 FEW017 31/26 Q1010 NOSIG
WADD 150230Z 12006KT 9999 FEW017 30/26 Q1010 NOSIG
WADD 150200Z 11007KT 9999 FEW017 29/26 Q1011 NOSIG
WADD 150130Z 12006KT 9999 SCT016 29/27 Q1011 NOSIG
WADD 150100Z 08004KT 060V120 9999 SCT016 29/27 Q1011 NOSIG
WADD 150030Z 06004KT 360V140 9999 FEW017 29/26 Q1010 NOSIG
WADD 150000Z 06003KT 9999 FEW017 27/26 Q1010 NOSIG
WADD 142330Z 05006KT 9999 FEW017 27/26 Q1010 NOSIG
WADD 142300Z 04005KT 9999 SCT016 26/25 Q1010 NOSIG
WADD 142230Z 01004KT 9999 SCT016 26/25 Q1010 NOSIG
WADD 142200Z 06005KT 9999 FEW017 27/26 Q1009 NOSIG
WADD 142130Z 07005KT 040V120 9999 FEW017 27/27 Q1009 NOSIG
WADD 142100Z 10006KT 9999 FEW017 27/26 Q1009 NOSIG
WADD 142030Z 10004KT 9999 FEW017 27/26 Q1009 NOSIG
WADD 142000Z 08005KT 9999 FEW016 26/26 Q1009 NOSIG
WADD 141930Z 07005KT 9999 FEW017 27/26 Q1009 NOSIG
WADD 141900Z 06004KT 9999 SCT016 27/26 Q1010 NOSIG
WADD 141830Z 08005KT 9999 FEW017 27/26 Q1010 NOSIG
WADD 141800Z 09006KT 9999 FEW017 27/26 Q1010 NOSIG
WADD 141730Z 09007KT 9999 FEW017 27/27 Q1010 NOSIG
WADD 141700Z 10006KT 9999 FEW017 27/27 Q1010 NOSIG
WADD 141630Z 10006KT 9999 FEW017 27/27 Q1010 NOSIG
WADD 141600Z 11007KT 9999 FEW017 28/27 Q1011 NOSIG
WADD 141530Z 12010KT 9999 FEW017 28/27 Q1011 NOSIG
WADD 141500Z 12009KT 9999 FEW017 28/27 Q1011 NOSIG
WADD 141430Z 12009KT 9999 FEW017 28/27 Q1011 NOSIG
WADD 141400Z 12007KT 9999 FEW017 28/26 Q1011 NOSIG
WADD 141330Z 12010KT 9999 FEW017 28/26 Q1011 NOSIG
WADD 141300Z 12010KT 9999 FEW017 28/26 Q1011 NOSIG
WADD 141230Z 12009KT 9999 FEW017 28/26 Q1011 NOSIG
WADD 141200Z 12008KT 9999 FEW017 28/27 Q1010 NOSIG
WADD 141130Z 11009KT 9999 FEW017 28/27 Q1009 NOSIG
WADD 141100Z 11010KT 9999 FEW017 28/27 Q1009 NOSIG
WADD 141030Z 11008KT 9999 SCT017 28/27 Q1009 NOSIG
WADD 141000Z 11009KT 9999 SCT017 28/27 Q1009 NOSIG
WADD 140930Z 11011KT 9999 SCT016 28/27 Q1008 RERA NOSIG
WADD 140900Z 11009KT 9000 -RA SCT016 28/27 Q1009 TEMPO TL1000 -RA
WADD 140830Z 11010KT 9999 SCT016 29/27 Q1009 NOSIG
WADD 140800Z 11009KT 9999 SCT016 29/27 Q1009 NOSIG
WADD 140730Z 11008KT 9999 SCT016 29/27 Q1008 NOSIG</description><pubDate>Thu, 15 May 2025 07:26:07 </pubDate></item></channel></rss>