<rss version="2.0"><channel><title>Aviation Weather METAR Data for WADD</title><link>https://aviationweather.gov/api/data/metar?ids=WADD&amp;hours=24</link><description>Latest METAR data for WADD</description><item><title>2026-02-11 11:52:28Z</title><link>https://aviationweather.gov/api/data/metar?ids=WADD&amp;hours=24</link><description>METAR WADD 111130Z VRB01KT 9999 SCT017 27/25 Q1010 NOSIG
METAR WADD 111100Z 23003KT 9999 SCT016 27/25 Q1010 NOSIG
METAR WADD 111030Z 23004KT 200V270 9999 FEW017 27/25 Q1009 NOSIG
METAR WADD 111000Z 25005KT 9999 FEW017 28/25 Q1009 NOSIG
METAR WADD 110930Z 24005KT 210V270 9999 FEW017 28/25 Q1009 NOSIG
METAR WADD 110900Z 24005KT 9999 FEW017 28/24 Q1009 NOSIG
METAR WADD 110830Z 24005KT 210V280 9999 FEW017 28/25 Q1008 NOSIG
METAR WADD 110800Z 26006KT 9999 FEW017 28/25 Q1009 NOSIG
METAR WADD 110730Z 25007KT 220V280 9999 FEW017 28/24 Q1009 NOSIG
METAR WADD 110700Z 26010KT 9999 FEW017 28/24 Q1009 NOSIG
METAR WADD 110630Z 28012KT 9999 FEW016 28/25 Q1009 NOSIG
METAR WADD 110600Z 28012KT 9999 SCT016 28/25 Q1009 NOSIG
METAR WADD 110530Z 29014KT 9999 SCT015 27/25 Q1010 RERA NOSIG
METAR WADD 110500Z 30008KT 8000 -RA FEW015CB BKN015 27/25 Q1010 TEMPO TL0600 8000 -RA
METAR WADD 110430Z 30013KT 8000 -RA FEW015CB BKN015 27/25 Q1011 TEMPO TL0530 8000 -RA
METAR WADD 110400Z 29015KT 7000 -RA FEW015CB BKN015 27/25 Q1011 TEMPO TL0500 7000 -RA
METAR WADD 110330Z 28010KT 9999 FEW015CB BKN015 27/25 Q1012 RERA NOSI G
METAR WADD 110300Z 26008KT 8000 -RA FEW015CB BKN016 27/26 Q1012 TEMPO TL0400 8000 -RA
METAR WADD 110230Z 26006KT 8000 -RA BKN016 26/25 Q1012 TEMPO TL0330 8 000 -RA
METAR WADD 110200Z 25008KT 6000 -RA BKN016 25/25 Q1013 TEMPO TL0300 6000 -RA
METAR WADD 110130Z 29010KT 7000 -RA FEW015CB BKN016 25/24 Q1013 TEMPO TL0230 7000 -RA
METAR WADD 110100Z 29013KT 7000 2000W -RA FEW015CB BKN016 25/24 Q1013 TEMPO TL0200 7000 -RA
METAR WADD 110030Z 28012KT 8000 -RA FEW015CB BKN016 26/25 Q1013 TEMPO TL0130 8000 -RA
METAR WADD 110000Z 26008KT 7000 -RA FEW015CB BKN016 24/23 Q1012 TEMPO TL0100 7000 -RA
METAR WADD 102330Z VRB05KT 1500 +RA FEW015CB BKN016 25/25 Q1012 TEMPO TL2430 1500 +RA RMK CB IN APCH AND CLIMB-OUT
METAR WADD 102300Z VRB02KT 9999 FEW015CB BKN016 25/25 Q1011 NOSIG
METAR WADD 102230Z VRB01KT 9999 FEW015CB BKN016 25/24 Q1011 RERA NOSI G
METAR WADD 102200Z VRB02KT 8000 -RA FEW015CB BKN016 25/24 Q1011 TEMPO TL2300 -RA
METAR WADD 102130Z 22003KT 8000 -RA FEW015CB BKN016 25/24 Q1011 TEMPO TL2230 -RA
METAR WADD 102100Z 24004KT 220V280 4000 RA FEW015CB BKN016 25/24 Q1010 TEMPO TL2200 4000 RA RMK CB IN APCH
METAR WADD 102030Z 26009KT 220V290 1200 +RA FEW015CB BKN016 25/25 Q1010 TEMPO TL2130 1200 +RA RMK CB IN APCH AND CLIMB-OUT
METAR WADD 102000Z 06003KT 8000 -RA FEW015CB BKN016 26/25 Q1010 TEMPO TL2100 -RA
METAR WADD 101930Z 12004KT 060V130 9999 FEW015CB SCT016 26/25 Q1010 N OSIG
METAR WADD 101900Z VRB01KT 9999 SCT016 26/25 Q1010 NOSIG
METAR WADD 101830Z 35004KT 9999 SCT016 26/25 Q1010 NOSIG
METAR WADD 101800Z 32003KT 9999 SCT016 26/25 Q1010 NOSIG
METAR WADD 101730Z 30006KT 9999 SCT016 26/25 Q1010 NOSIG
METAR WADD 101700Z 31007KT 9999 SCT016 26/25 Q1010 NOSIG
METAR WADD 101630Z 29009KT 9999 SCT016 26/24 Q1011 NOSIG
METAR WADD 101600Z 29009KT 9999 FEW015CB SCT016 26/24 Q1011 NOSIG
METAR WADD 101530Z 30008KT 9999 FEW015CB SCT016 26/24 Q1011 NOSIG
METAR WADD 101500Z 29010KT 9999 FEW015CB SCT016 26/24 Q1011 NOSIG
METAR WADD 101430Z 28014KT 260V320 9999 FEW015CB SCT016 27/25 Q1012 N OSIG
METAR WADD 101400Z 30006KT 270V330 9999 FEW015CB SCT016 26/24 Q1012 R ERA NOSIG
METAR WADD 101330Z 25004KT 8000 -RA FEW015CB BKN016 25/24 Q1011 TEMPO TL1430 -RA
METAR WADD 101300Z 27010KT 4000 RA FEW015CB BKN016 25/23 Q1011 TEMPO TL1400 4000 RA
METAR WADD 101230Z 27015KT 2000 +RA FEW015CB BKN016 25/24 Q1011 TEMPO TL1330 2000 +RA
METAR WADD 101200Z 25004KT 8000 -RA FEW015CB BKN016 26/25 Q1011 TEMPO TL1300 -RA RMK CB IN CLIMB-OUT</description><pubDate>Wed, 11 Feb 2026 11:52:28 </pubDate></item></channel></rss>