<rss version="2.0"><channel><title>Aviation Weather METAR Data for WADD</title><link>https://aviationweather.gov/api/data/metar?ids=WADD&amp;hours=24</link><description>Latest METAR data for WADD</description><item><title>2025-11-18 09:45:29Z</title><link>https://aviationweather.gov/api/data/metar?ids=WADD&amp;hours=24</link><description>METAR WADD 180930Z 14006KT 9999 SCT016 28/25 Q1006 NOSIG
METAR WADD 180900Z 14008KT 9999 SCT016 28/25 Q1006 NOSIG
METAR WADD 180830Z 14007KT 090V170 9999 SCT016 29/25 Q1006 NOSIG
METAR WADD 180800Z 14007KT 090V180 9999 SCT016 29/26 Q1006 NOSIG
METAR WADD 180730Z 15006KT 110V200 9999 SCT016 30/25 Q1006 NOSIG
METAR WADD 180700Z 15006KT 110V180 9999 SCT016 29/25 Q1006 NOSIG
METAR WADD 180630Z 15005KT 120V210 9999 BKN016 28/25 Q1006 NOSIG
METAR WADD 180600Z VRB05KT 9999 SCT016 29/25 Q1007 NOSIG
METAR WADD 180530Z 15006KT 110V190 9999 SCT016 29/25 Q1007 NOSIG
METAR WADD 180500Z 26004KT 230V020 9999 SCT016 30/25 Q1007 NOSIG
METAR WADD 180430Z VRB03KT 9999 SCT016 30/26 Q1008 NOSIG
METAR WADD 180400Z 14006KT 120V180 9999 SCT016 29/26 Q1008 NOSIG
METAR WADD 180330Z 16005KT 130V200 9999 FEW015CB BKN015 27/25 Q1009 R ERA NOSIG
METAR WADD 180300Z 19004KT 130V260 8000 -RA FEW015CB BKN015 28/25 Q10 09 TEMPO TL0400 8000 -RA
METAR WADD 180230Z VRB03KT 9999 FEW015CB BKN015 29/26 Q1009 NOSIG
METAR WADD 180200Z VRB03KT 9999 FEW015CB BKN015 28/26 Q1009 NOSIG
METAR WADD 180130Z 31004KT 280V340 9999 FEW015CB BKN015 27/26 Q1010 R ETS NOSIG
METAR WADD 180100Z 30003KT 9999 FEW015CB BKN015 27/26 Q1010 RERA NOSI G
METAR WADD 180030Z 33003KT 8000 -RA FEW015CB BKN015 26/25 Q1010 TEMPO TL0130 8000 -RA
METAR WADD 180000Z 32006KT 8000 -RA FEW015CB SCT015 27/25 Q1010 TEMPO TL0100 8000 -RA
METAR WADD 172330Z 33010KT 280V010 6000 -RA FEW015CB BKN015 27/25 Q1009 TEMPO TL2430 -RA RMK CB IN CLIMB-OUT
METAR WADD 172300Z 33003KT 9999 FEW015CB BKN015 27/26 Q1009 NOSIG RMK CB IN CLIMB-OUT
METAR WADD 172230Z 08003KT 9999 BKN015 26/25 Q1009 NOSIG
METAR WADD 172200Z 35003KT 9999 BKN015 26/25 Q1008 NOSIG
METAR WADD 172130Z VRB02KT 9999 BKN015 26/25 Q1008 NOSIG
METAR WADD 172100Z VRB02KT 9999 BKN015 26/25 Q1008 RERA NOSIG
METAR WADD 172030Z 25009KT 210V310 6000 -RA FEW015CB BKN015 26/25 Q10 08 TEMPO TL2130 -RA
METAR WADD 172000Z 33004KT 5000 -RA FEW015CB BKN015 26/25 Q1008 TEMPO TL2100 -RA
METAR WADD 171930Z 34004KT 9999 SCT016 26/25 Q1008 NOSIG
METAR WADD 171900Z 35003KT 9999 SCT016 26/25 Q1008 NOSIG
METAR WADD 171830Z VRB03KT 9999 SCT016 26/25 Q1008 NOSIG
METAR WADD 171800Z VRB01KT 9999 BKN015 26/25 Q1008 NOSIG
METAR WADD 171730Z VRB01KT 9999 FEW015CB BKN015 26/25 Q1008 RERA NOSI G
METAR WADD 171700Z 18005KT 3000 RA FEW015CB BKN015 27/24 Q1009 TEMPO TL1830 5000 -RA
METAR WADD 171630Z VRB01KT 9999 FEW015CB SCT016 27/25 Q1009 NOSIG
METAR WADD 171600Z 24001KT 9999 SCT017 28/25 Q1009 NOSIG
METAR WADD 171530Z VRB01KT 9999 SCT017 28/25 Q1010 NOSIG
METAR WADD 171500Z VRB01KT 9999 FEW017 27/25 Q1010 NOSIG
METAR WADD 171430Z VRB01KT 9999 FEW017 28/25 Q1010 NOSIG
METAR WADD 171400Z VRB02KT 9999 FEW017 28/25 Q1010 NOSIG
METAR WADD 171330Z VRB02KT 9999 SCT017 28/25 Q1010 NOSIG
METAR WADD 171300Z VRB02KT 9999 SCT017 28/24 Q1010 NOSIG
METAR WADD 171230Z VRB02KT 9999 SCT017 28/25 Q1009 NOSIG
METAR WADD 171200Z VRB02KT 9999 SCT016 29/24 Q1009 NOSIG
METAR WADD 171130Z 20003KT 9999 SCT016 29/25 Q1009 NOSIG
METAR WADD 171100Z 22003KT 9999 SCT016 29/25 Q1008 NOSIG
METAR WADD 171030Z 23004KT 200V270 9999 SCT016 29/25 Q1008 NOSIG
METAR WADD 171000Z 20003KT 9999 SCT016 29/25 Q1008 NOSIG</description><pubDate>Tue, 18 Nov 2025 09:45:29 </pubDate></item></channel></rss>