<rss version="2.0"><channel><title>Aviation Weather METAR Data for WADD</title><link>https://aviationweather.gov/api/data/metar?ids=WADD&amp;hours=24</link><description>Latest METAR data for WADD</description><item><title>2026-01-03 21:43:07Z</title><link>https://aviationweather.gov/api/data/metar?ids=WADD&amp;hours=24</link><description>METAR WADD 032130Z 08003KT 8000 FEW015CB BKN016 26/25 Q1009 NOSIG
METAR WADD 032100Z 35004KT 300V020 7000 FEW015CB BKN016 26/25 Q1009 R ERA NOSIG
METAR WADD 032030Z 31003KT 5000 RA FEW015CB BKN016 26/25 Q1009 TEMPO TL2130 5000 RA
METAR WADD 032000Z VRB02KT 7000 FEW015CB BKN016 26/25 Q1009 RERA NOSI G
METAR WADD 031930Z VRB01KT 5000 -RA FEW015CB BKN016 26/24 Q1009 TEMPO TL2030 5000 -RA RMK CB IN ACPH
METAR WADD 031900Z 27005KT 3000 +RA FEW015CB BKN016 25/24 Q1009 TEMPO TL2000 3000 +RA RMK CB IN ACPH
METAR WADD 031830Z 29012KT 3000 RA FEW015CB BKN016 26/25 Q1009 TEMPO TL1930 3000 RA RMK CB IN ACPH
METAR WADD 031800Z 24006KT 9999 FEW015CB SCT016 28/25 Q1009 NOSIG
METAR WADD 031730Z VRB02KT 9999 FEW015CB SCT016 28/25 Q1010 NOSIG
METAR WADD 031700Z VRB02KT 9999 FEW015CB SCT016 28/25 Q1010 NOSIG
METAR WADD 031630Z 31004KT 270V340 9999 SCT016 28/25 Q1010 NOSIG
METAR WADD 031600Z 30004KT 250V340 9999 SCT016 28/24 Q1011 NOSIG
METAR WADD 031530Z 28008KT 9999 SCT016 27/22 Q1011 NOSIG
METAR WADD 031500Z 32005KT 9999 FEW015CB SCT016 28/25 Q1011 NOSIG RMK CB IN CLIMB-OUT
METAR WADD 031430Z 35005KT 300V040 9999 FEW015CB SCT016 28/25 Q1011 N OSIG RMK CB CLIMB-OUT
METAR WADD 031400Z 02003KT 9999 SCT016 28/25 Q1011 NOSIG
METAR WADD 031330Z VRB01KT 9999 SCT016 28/25 Q1011 NOSIG
METAR WADD 031300Z VRB01KT 9999 SCT016 28/25 Q1010 NOSIG
METAR WADD 031230Z VRB02KT 9999 SCT016 28/25 Q1010 NOSIG
METAR WADD 031200Z 02004KT 330V030 9999 SCT016 28/24 Q1010 NOSIG
METAR WADD 031130Z 03005KT 330V060 9999 FEW015CB SCT016 28/25 Q1010 N OSIG
METAR WADD 031100Z 06004KT 360V140 9999 FEW015CB SCT016 28/25 Q1009 N OSIG
METAR WADD 031030Z 06005KT 9999 BKN016 28/24 Q1008 NOSIG
METAR WADD 031000Z 04004KT 320V070 9999 FEW015CB SCT016 29/24 Q1008 N OSIG
METAR WADD 030930Z VRB03KT 9999 FEW015CB SCT016 30/24 Q1008 NOSIG
METAR WADD 030900Z 23004KT 150V280 9999 FEW015CB SCT016 30/25 Q1008 N OSIG
METAR WADD 030830Z 25006KT 9999 FEW015CB SCT016 30/25 Q1008 NOSIG
METAR WADD 030800Z 26007KT 9999 SCT016 30/25 Q1008 NOSIG
METAR WADD 030730Z 26008KT 9999 SCT016 30/25 Q1008 NOSIG
METAR WADD 030700Z 25007KT 210V290 9999 SCT016 30/26 Q1008 NOSIG
METAR WADD 030630Z VRB04KT 9999 FEW015CB SCT016 30/25 Q1008 NOSIG
METAR WADD 030600Z 26009KT 220V280 9999 FEW015CB SCT016 30/26 Q1008 N OSIG
METAR WADD 030530Z 27010KT 9999 FEW015CB SCT016 30/26 Q1009 NOSIG
METAR WADD 030500Z 26009KT 9999 FEW015CB FEW016 30/26 Q1009 NOSIG
METAR WADD 030430Z 27009KT 9999 FEW015CB FEW016 30/26 Q1009 NOSIG
METAR WADD 030400Z 28008KT 240V320 9999 FEW017 30/26 Q1009 NOSIG
METAR WADD 030330Z 26008KT 220V290 9999 FEW017 30/26 Q1010 NOSIG
METAR WADD 030300Z 27007KT 230V310 9999 FEW017 30/26 Q1010 NOSIG
METAR WADD 030230Z 29007KT 240V330 9999 FEW017 30/26 Q1010 NOSIG
METAR WADD 030200Z 29006KT 240V330 9999 FEW017 30/26 Q1010 NOSIG
METAR WADD 030130Z 28006KT 260V320 9999 FEW017 29/26 Q1010 NOSIG
METAR WADD 030100Z 29005KT 240V330 9999 FEW017 29/25 Q1010 NOSIG
METAR WADD 030030Z 32005KT 9999 FEW017 29/25 Q1010 NOSIG
METAR WADD 030000Z 02003KT 9999 FEW017 28/25 Q1010 NOSIG
METAR WADD 022330Z VRB02KT 9999 FEW017 27/24 Q1010 NOSIG
METAR WADD 022300Z VRB01KT 9999 FEW017 26/24 Q1009 NOSIG
METAR WADD 022230Z 02004KT 9999 FEW017 26/24 Q1009 NOSIG
METAR WADD 022200Z 02003KT 9999 FEW017 26/24 Q1009 NOSIG</description><pubDate>Sat, 03 Jan 2026 21:43:07 </pubDate></item></channel></rss>