<rss version="2.0"><channel><title>Aviation Weather METAR Data for WADD</title><link>https://aviationweather.gov/api/data/metar?ids=WADD&amp;hours=24</link><description>Latest METAR data for WADD</description><item><title>2026-04-24 16:33:27Z</title><link>https://aviationweather.gov/api/data/metar?ids=WADD&amp;hours=24</link><description>METAR WADD 241600Z 09004KT 9999 FEW017 28/26 Q1010 NOSIG
METAR WADD 241530Z 09006KT 9999 FEW017 28/26 Q1010 NOSIG
METAR WADD 241500Z 09006KT 9999 FEW017 28/27 Q1010 NOSIG
METAR WADD 241430Z 06008KT 9999 FEW017 28/27 Q1010 NOSIG
METAR WADD 241400Z 08008KT 9999 FEW017 28/27 Q1010 NOSIG
METAR WADD 241330Z 15009KT 9999 FEW017 29/27 Q1010 NOSIG
METAR WADD 241300Z 14009KT 9999 FEW017 29/27 Q1010 NOSIG
METAR WADD 241230Z 13008KT 9999 FEW017 29/27 Q1009 NOSIG
METAR WADD 241200Z 13009KT 9999 FEW017 29/27 Q1009 NOSIG
METAR WADD 241130Z 14009KT 9999 FEW017 29/27 Q1009 NOSIG
METAR WADD 241100Z 14009KT 9999 FEW017 29/27 Q1008 NOSIG
METAR WADD 241030Z 15011KT 9999 FEW017 29/27 Q1008 NOSIG
METAR WADD 241000Z 15010KT 9999 FEW017 29/27 Q1008 NOSIG
METAR WADD 240930Z 17010KT 9999 FEW017 30/27 Q1007 NOSIG
METAR WADD 240900Z 17011KT 9999 FEW017 30/27 Q1007 NOSIG
METAR WADD 240830Z 17007KT 9999 FEW017 31/26 Q1006 NOSIG
METAR WADD 240800Z 17006KT 9999 FEW017 32/26 Q1006 NOSIG
METAR WADD 240730Z 22007KT 170V240 9999 FEW016CB SCT017 32/27 Q1006 N OSIG
METAR WADD 240700Z 23009KT 9999 FEW017 32/27 Q1006 NOSIG
METAR WADD 240630Z 24008KT 9999 FEW017 32/27 Q1006 NOSIG
METAR WADD 240600Z 22005KT 110V290 9999 FEW017 32/26 Q1007 NOSIG
METAR WADD 240530Z 11008KT 9999 FEW017 33/26 Q1007 NOSIG
METAR WADD 240500Z 11010KT 9999 FEW017 32/26 Q1007 NOSIG
METAR WADD 240430Z 12010KT 9999 FEW017 32/26 Q1008 NOSIG
METAR WADD 240400Z 12009KT 9999 FEW017 32/26 Q1008 NOSIG
METAR WADD 240330Z 11008KT 9999 FEW017 32/27 Q1008 NOSIG
METAR WADD 240300Z 12009KT 9999 FEW017 32/26 Q1009 NOSIG
METAR WADD 240230Z 11006KT 9999 FEW017 33/26 Q1009 NOSIG
METAR WADD 240200Z VRB03KT 9999 FEW017 32/26 Q1009 NOSIG
METAR WADD 240130Z VRB02KT 9999 FEW017 31/26 Q1009 NOSIG
METAR WADD 240100Z 27003KT 9999 FEW017 31/26 Q1009 NOSIG
METAR WADD 240030Z 34003KT 9999 FEW017 29/26 Q1009 NOSIG
METAR WADD 240000Z 36005KT 9999 FEW017 28/25 Q1009 NOSIG
METAR WADD 232330Z 35006KT 320V040 9999 FEW017 27/25 Q1009 NOSIG
METAR WADD 232300Z 34003KT 9999 FEW017 26/25 Q1009 NOSIG
METAR WADD 232230Z 01004KT 9999 FEW017 26/25 Q1008 NOSIG
METAR WADD 232200Z 02003KT 9999 SCT017 26/25 Q1008 NOSIG
METAR WADD 232130Z 35003KT 9999 SCT017 26/25 Q1008 NOSIG
METAR WADD 232100Z 35002KT 9999 SCT017 26/25 Q1008 NOSIG
METAR WADD 232030Z 01004KT 9999 SCT017 26/25 Q1008 NOSIG
METAR WADD 232000Z 01002KT 9999 SCT017 26/25 Q1008 NOSIG
METAR WADD 231930Z 09004KT 9999 FEW017 27/25 Q1008 NOSIG
METAR WADD 231900Z 10005KT 9999 FEW017 27/25 Q1008 NOSIG
METAR WADD 231830Z 10005KT 9999 FEW017 27/26 Q1008 NOSIG
METAR WADD 231800Z 15005KT 9999 FEW017 27/26 Q1009 NOSIG
METAR WADD 231730Z 12003KT 9999 FEW017 27/26 Q1009 NOSIG
METAR WADD 231700Z 09006KT 9999 FEW017 27/26 Q1009 NOSIG</description><pubDate>Fri, 24 Apr 2026 16:33:27 </pubDate></item></channel></rss>