<rss version="2.0"><channel><title>Aviation Weather METAR Data for WADD</title><link>https://aviationweather.gov/api/data/metar?ids=WADD&amp;hours=24</link><description>Latest METAR data for WADD</description><item><title>2025-03-20 01:55:26Z</title><link>https://aviationweather.gov/api/data/metar?ids=WADD&amp;hours=24</link><description>WADD 200130Z 29012KT 9999 FEW017 30/27 Q1012 NOSIG
WADD 200100Z 29012KT 9999 FEW017 29/27 Q1011 NOSIG
WADD 200030Z 27013KT 9999 SCT016 30/26 Q1011 NOSIG
WADD 200000Z 27013KT 9999 SCT017 29/26 Q1011 NOSIG
WADD 192330Z 26010KT 9999 FEW017 28/25 Q1011 NOSIG
WADD 192300Z 27010KT 9999 FEW017 28/26 Q1011 NOSIG
WADD 192230Z 27009KT 9999 FEW017 28/25 Q1010 NOSIG
WADD 192200Z 26010KT 9999 SCT016 28/26 Q1010 NOSIG
WADD 192130Z 26009KT 9999 SCT016 28/26 Q1010 NOSIG
WADD 192100Z 27009KT 9999 SCT016 28/26 Q1009 NOSIG
WADD 192030Z 26012KT 9999 SCT016 28/26 Q1009 NOSIG
WADD 192000Z 26009KT 9999 SCT016 28/26 Q1009 NOSIG
WADD 191930Z 28010KT 9999 SCT016 27/26 Q1009 NOSIG
WADD 191900Z 28010KT 9999 SCT016 27/26 Q1009 NOSIG
WADD 191830Z 29010KT 9999 SCT016 27/26 Q1009 NOSIG
WADD 191800Z 29010KT 9999 SCT018 27/26 Q1009 NOSIG
WADD 191730Z 31007KT 9999 SCT018 26/25 Q1010 NOSIG
WADD 191700Z 31007KT 9999 SCT017 26/25 Q1010 NOSIG
WADD 191630Z 32007KT 260V340 9999 SCT016 26/25 Q1011 NOSIG
WADD 191600Z 32006KT 9999 SCT016 26/25 Q1011 NOSIG
WADD 191530Z 32006KT 8000 BKN015 26/25 Q1011 NOSIG
WADD 191500Z 32005KT 300V010 8000 BKN015 26/25 Q1011 NOSIG
WADD 191430Z 34006KT 300V360 8000 BKN015 26/25 Q1012 RERA NOSIG
WADD 191400Z 34004KT 310V020 6000 -RA BKN014 26/25 Q1012 TEMPO TL1500 6000 -RA
WADD 191330Z 32008KT 290V360 5000 -RA BKN014 26/25 Q1012 TEMPO TL1430 5000 -RA
WADD 191300Z 29009KT 5000 -RA BKN014 26/25 Q1012 TREND TEMPO TL1400 5000 -RA
WADD 191230Z 27012KT 5000 -RA BKN014 26/25 Q1012 TREND TEMPO TL1330 5000 -RA
WADD 191200Z 28014KT 6000 -RA BKN015 26/25 Q1012 TREND TEMPO TL1300 6000 -RA
WADD 191130Z 29017KT 5000 -RA FEW014CB BKN014 25/24 Q1012 TEMPO TL1300 7000 -RA
WADD 191100Z 28010KT 6000 -RA BKN014 26/25 Q1011 TEMPO TL1300 -RA
WADD 191030Z 26007KT 6000 -RA BKN014 26/25 Q1011 TEMPO TL1200 -RA
WADD 191000Z 27013KT 5000 -RA BKN014 25/24 Q1011 TEMPO TL1100 7000 -RA
WADD 190930Z 26013KT 5000 -RA FEW014CB BKN014 26/25 Q1011 TEMPO TL1000 7000 -RA
WADD 190900Z 26012KT 5000 -RA FEW014CB BKN014 25/24 Q1011 TEMPO TL1000 7000 -RA
WADD 190830Z 25012KT 3000 RA FEW014CB BKN014 24/23 Q1011 TEMPO TL0900 5000 RA
WADD 190800Z 28010KT 8000 -RA FEW014CB BKN015 28/25 Q1010 TEMPO TL0900 5000 RA
WADD 190730Z 24004KT 200V290 SCT016 28/25 Q1010 NOSIG
WADD 190700Z 27006KT 230V300 9999 SCT016 28/25 Q1010 NOSIG
WADD 190630Z 28008KT 9999 SCT016 28/25 Q1010 NOSIG
WADD 190600Z 31006KT 290V360 9999 SCT016 27/24 Q1010 NOSIG
WADD 190530Z 33004KT 260V030 9999 BKN016 25/24 Q1011 RERA NOSIG
WADD 190500Z 01006KT 330V040 8000 -RA BKN016 24/24 Q1011 TREND TEMPO TL0600 8000 -RA
WADD 190430Z 02004KT 330V050 7000 -RA BKN015 24/24 Q1012 TEMPO TL0530 7000 -RA
WADD 190400Z 36004KT 320V040 6000 -RA BKN015 24/23 Q1012 TEMPO TL0500 6000 -RA
WADD 190330Z 02005KT 5000 RA FEW014CB BKN015 23/23 Q1013 TEMPO TL0430 5000 RA
WADD 190300Z VRB02KT 5000 RA FEW014CB BKN015 23/22 Q1013 TEMPO TL0400 5000 RA
WADD 190230Z 21007G21KT 130V260 6000 -RA FEW014CB BKN015 24/23 Q1013 TEMPO TL0330 6000 -RA
WADD 190200Z 24009G19KT 160V270 1500 +RA FEW014CB BKN015 25/24 Q1013 TEMPO TL0300 1500 +RA RMK CB IN APCH AND CLIMB-OUT</description><pubDate>Thu, 20 Mar 2025 01:55:26 </pubDate></item></channel></rss>