<rss version="2.0"><channel><title>Aviation Weather METAR Data for WADD</title><link>https://aviationweather.gov/api/data/metar?ids=WADD&amp;hours=24</link><description>Latest METAR data for WADD</description><item><title>2026-06-08 00:18:11Z</title><link>https://aviationweather.gov/api/data/metar?ids=WADD&amp;hours=24</link><description>METAR WADD 080000Z 05004KT 010V120 9999 FEW017 28/22 Q1014 NOSIG
METAR WADD 072330Z 04006KT 9999 SCT017 26/21 Q1014 NOSIG
METAR WADD 072300Z 03005KT 9999 BKN016 25/21 Q1014 NOSIG
METAR WADD 072230Z 03006KT 9999 BKN016 25/21 Q1014 NOSIG
METAR WADD 072200Z 02007KT 9999 SCT017 25/22 Q1014 NOSIG
METAR WADD 072130Z 03003KT 9999 SCT017 24/21 Q1013 NOSIG
METAR WADD 072100Z 03007KT 9999 FEW017 24/22 Q1013 NOSIG
METAR WADD 072030Z 03006KT 9999 FEW017 25/22 Q1013 NOSIG
METAR WADD 072000Z 02005KT 9999 FEW017 25/22 Q1013 NOSIG
METAR WADD 071930Z 03003KT 9999 SCT017 25/22 Q1013 NOSIG
METAR WADD 071900Z 03004KT 9999 SCT017 26/22 Q1013 NOSIG
METAR WADD 071830Z 05005KT 9999 SCT017 26/22 Q1013 NOSIG
METAR WADD 071800Z 07005KT 9999 SCT017 26/22 Q1013 NOSIG
METAR WADD 071730Z 06006KT 9999 SCT017 26/22 Q1014 NOSIG
METAR WADD 071700Z 11007KT 9999 SCT017 27/23 Q1014 NOSIG
METAR WADD 071630Z 11006KT 9999 SCT017 27/23 Q1014 NOSIG
METAR WADD 071600Z 11008KT 9999 SCT017 27/23 Q1014 NOSIG
METAR WADD 071530Z 11007KT 9999 SCT017 27/23 Q1014 NOSIG
METAR WADD 071500Z 12007KT 9999 SCT017 27/23 Q1014 NOSIG
METAR WADD 071430Z 12007KT 9999 FEW017 27/23 Q1014 NOSIG
METAR WADD 071400Z 12008KT 9999 FEW017 27/23 Q1014 NOSIG
METAR WADD 071330Z 12007KT 9999 FEW017 27/23 Q1014 NOSIG
METAR WADD 071300Z 13008KT 9999 FEW017 27/23 Q1014 NOSIG
METAR WADD 071230Z 13009KT 9999 FEW017 27/23 Q1014 NOSIG
METAR WADD 071200Z 13009KT 9999 FEW017 27/24 Q1013 NOSIG
METAR WADD 071130Z 13010KT 9999 FEW017 27/23 Q1013 NOSIG
METAR WADD 071100Z 13009KT 9999 FEW017 27/23 Q1013 NOSIG
METAR WADD 071030Z 13012KT 9999 FEW017 27/23 Q1012 NOSIG
METAR WADD 071000Z 12013KT 9999 FEW017 28/23 Q1012 NOSIG
METAR WADD 070930Z 12015KT 9999 FEW017 28/23 Q1012 NOSIG
METAR WADD 070900Z 12016KT 9999 FEW017 28/23 Q1012 NOSIG
METAR WADD 070830Z 12016KT 9999 FEW017 29/23 Q1012 NOSIG
METAR WADD 070800Z 12016KT 9999 FEW017 29/23 Q1012 NOSIG
METAR WADD 070730Z 13016KT 9999 FEW017 29/23 Q1012 NOSIG
METAR WADD 070700Z 11014KT 9999 FEW017 29/23 Q1012 NOSIG
METAR WADD 070630Z 12014KT 9999 FEW017 29/23 Q1012 NOSIG
METAR WADD 070600Z 11015KT 9999 FEW017 29/22 Q1013 NOSIG
METAR WADD 070530Z 12016KT 9999 FEW017 30/23 Q1013 NOSIG
METAR WADD 070500Z 12013KT 9999 FEW017 30/23 Q1013 NOSIG
METAR WADD 070430Z 12013KT 9999 FEW017 30/22 Q1014 NOSIG
METAR WADD 070400Z 12014KT 9999 FEW017 30/21 Q1014 NOSIG
METAR WADD 070330Z 11011KT 9999 FEW017 30/20 Q1015 NOSIG
METAR WADD 070300Z 12010KT 9999 FEW017 31/21 Q1015 NOSIG
METAR WADD 070230Z 12008KT 070V140 9999 FEW017 31/20 Q1015 NOSIG
METAR WADD 070200Z 11006KT 060V140 9999 FEW017 30/20 Q1015 NOSIG
METAR WADD 070130Z VRB03KT 9999 SCT017 30/22 Q1016 NOSIG
METAR WADD 070100Z VRB02KT 9999 SCT017 29/23 Q1016 NOSIG
METAR WADD 070030Z VRB02KT 9999 FEW017 28/22 Q1015 NOSIG</description><pubDate>Mon, 08 Jun 2026 00:18:11 </pubDate></item></channel></rss>