<rss version="2.0"><channel><title>Aviation Weather METAR Data for WADD</title><link>https://aviationweather.gov/api/data/metar?ids=WADD&amp;hours=24</link><description>Latest METAR data for WADD</description><item><title>2025-01-07 20:24:46Z</title><link>https://aviationweather.gov/api/data/metar?ids=WADD&amp;hours=24</link><description>WADD 072000Z 20005KT 9999 FEW016CB SCT017 27/27 Q1007 NOSIG
WADD 071930Z 19008KT 9999 FEW016CB SCT017 28/27 Q1007 NOSIG
WADD 071900Z 23006KT 9999 FEW016CB SCT017 28/27 Q1007 NOSIG
WADD 071830Z 28007KT 9999 FEW016CB SCT017 27/27 Q1007 NOSIG
WADD 071800Z 32004KT 310V020 9999 FEW016CB SCT017 28/27 Q1008 NOSIG
WADD 071730Z 31004KT 170V340 9999 FEW016CB SCT017 28/27 Q1008 NOSIG
WADD 071700Z 32005KT 280V360 9999 FEW016CB SCT017 28/27 Q1008 NOSIG
WADD 071630Z VRB02KT 9999 FEW016CB SCT017 28/27 Q1008 NOSIG
WADD 071600Z VRB02KT 9999 FEW016CB SCT017 28/28 Q1008 NOSIG
WADD 071530Z 36004KT 9999 FEW016CB SCT017 28/28 Q1008 NOSIG
WADD 071500Z 02002KT 9999 FEW016CB SCT017 28/26 Q1009 RETS NOSIG
WADD 071430Z 02004KT 310V060 9999 TS FEW016CB SCT017 28/26 Q1009 TEMPO TL1530 TS
WADD 071400Z 05004KT 350V070 9999 TS FEW016CB SCT017 29/26 Q1009 TEMPO TL1530 TS
WADD 071330Z VRB01KT 9999 FEW016CB SCT017 28/26 Q1009 NOSIG
WADD 071300Z 16002KT 9999 FEW016CB SCT017 28/26 Q1009 NOSIG
WADD 071230Z 21002KT 9999 FEW016CB SCT017 28/26 Q1008 NOSIG
WADD 071200Z 16002KT 9999 SCT017 29/26 Q1008 NOSIG
WADD 071130Z VRB02KT 9999 SCT017 29/26 Q1007 NOSIG
WADD 071100Z 03003KT 9999 FEW017 29/27 Q1007 NOSIG
WADD 071030Z VRB02KT 9999 FEW017 30/26 Q1006 NOSIG
WADD 071000Z 25005KT 9999 FEW017 30/27 Q1006 NOSIG
WADD 070930Z 25003KT 9999 FEW017 30/28 Q1006 NOSIG
WADD 070900Z 23003KT 9999 FEW017 30/28 Q1006 NOSIG
WADD 070830Z 22002KT 9999 FEW017 29/28 Q1005 NOSIG
WADD 070800Z VRB02KT 9999 FEW017 29/28 Q1006 NOSIG
WADD 070730Z 08003KT 9999 SCT016 28/27 Q1006 RERA NOSIG
WADD 070700Z 09004KT 050V140 8000 -RA FEW015CB BKN015 28/27 Q1006 RETS TEMPO TL0800 -RA
WADD 070630Z 05004KT 340V110 6000 -TSRA FEW014CB BKN014 28/27 Q1007 TEMPO TL0730 -TSRA RMK CB IN CLIMB-OUT
WADD 070600Z 13006KT 6000 -TSRA FEW014CB BKN014 29/28 Q1007 TEMPO TL0700 -TSRA RMK CB IN CLIMB-OUT
WADD 070530Z 13004KT 6000 -TSRA FEW015CB BKN015 29/28 Q1007 TEMPO TL0630 -TSRA RMK CB IN CLIMB-OUT
WADD 070500Z 11005KT 6000 -RA FEW015CB BKN015 28/27 Q1008 TEMPO TL0600 -RA RMK CB IN CLIMB-OUT
WADD 070430Z 12006KT 9999 FEW015CB SCT016 31/27 Q1008 NOSIG
WADD 070400Z 12004KT 070V140 9999 SCT017 31/27 Q1008 NOSIG
WADD 070330Z 14007KT 9999 FEW017 31/27 Q1008 NOSIG
WADD 070300Z 11007KT 9999 FEW017 31/27 Q1009 NOSIG
WADD 070230Z 12006KT 9999 FEW017 30/27 Q1009 NOSIG
WADD 070200Z 10007KT 9999 FEW017 30/26 Q1009 NOSIG
WADD 070130Z 18005KT 120V200 9999 FEW017 30/27 Q1009 NOSIG
WADD 070100Z 18004KT 9999 FEW017 29/27 Q1009 NOSIG
WADD 070030Z 16003KT 9999 FEW017 29/27 Q1009 NOSIG
WADD 070000Z 04003KT 9999 FEW017 28/26 Q1009 NOSIG
WADD 062330Z 08004KT 9999 FEW017 27/26 Q1008 NOSIG
WADD 062300Z 06004KT 9999 FEW017 26/26 Q1008 NOSIG
WADD 062230Z 10003KT 9999 FEW017 26/26 Q1008 NOSIG
WADD 062200Z 01001KT 9999 FEW017 25/25 Q1008 NOSIG
WADD 062130Z 05003KT 8000 SCT017 25/25 Q1007 NOSIG
WADD 062100Z 05002KT 8000 FEW017 25/25 Q1007 NOSIG
WADD 062030Z 07003KT 8000 FEW017 25/25 Q1007 NOSIG</description><pubDate>Tue, 07 Jan 2025 20:24:46 </pubDate></item></channel></rss>