<rss version="2.0"><channel><title>Aviation Weather METAR Data for WADD</title><link>https://aviationweather.gov/api/data/metar?ids=WADD&amp;hours=24</link><description>Latest METAR data for WADD</description><item><title>2025-11-23 20:29:16Z</title><link>https://aviationweather.gov/api/data/metar?ids=WADD&amp;hours=24</link><description>METAR WADD 232000Z 02005KT 8000 -RA BKN016 24/24 Q1008 TEMPO TL2100 -RA
METAR WADD 231930Z 01004KT 330V030 7000 -RA BKN015 24/24 Q1008 TEMPO TL2030 7000 -RA
METAR WADD 231900Z VRB01KT 7000 -RA BKN015 24/23 Q1008 TEMPO TL2000 7000 -RA
METAR WADD 231830Z 32003KT 6000 -RA FEW014CB BKN015 24/24 Q1008 RETS TEMPO TL1930 6000 -RA
METAR WADD 231800Z VRB02KT 5000 TSRA FEW014CB BKN015 25/24 Q1008 TEMP O TL1900 5000 TSRA
METAR WADD 231730Z 24006KT 210V270 5000 TSRA FEW014CB BKN015 25/24 Q1008 TEMPO TL1830 5000 TSRA RMK CB IN APCH AND CLIMB-OUT
METAR WADD 231700Z 23007KT 190V270 5000 TSRA FEW014CB BKN015 25/25 Q1009 TEMPO TL1800 5000 TSRA RMK CB IN APCH AND CLIMB-OUT
METAR WADD 231630Z COR 25013KT 4000 RA FEW014CB BKN015 25/24 Q1009 TE MPO TL1730 4000 RA RMK CB IN APCH AND CLIMB-OUT
METAR WADD 231600Z 26004KT 6000 -RA FEW014CB BKN015 26/26 Q1009 TEMPO TL1700 6000 -RA
METAR WADD 231530Z VRB01KT 6000 -RA FEW014CB BKN015 26/25 Q1009 TEMPO TL1630 6000 -RA
METAR WADD 231500Z 22004KT 130V260 6000 -RA FEW014CB BKN015 26/26 Q10 09 RETS TEMPO TL1600 6000 -RA
METAR WADD 231430Z 24005KT 210V270 7000 -TSRA FEW014CB BKN015 26/25 Q 1009 TEMPO TL1530 7000 -TSRA
METAR WADD 231400Z 26005KT 7000 -TSRA FEW014CB BKN015 26/25 Q1009 TEMPO TL1500 7000 -TSRA
METAR WADD 231330Z 26005KT 9999 TS FEW014CB BKN015 26/25 Q1009 TEMPO TL1430 TS
METAR WADD 231300Z 27008KT 9999 TS FEW014CB BKN015 25/25 Q1008 RERA TEMPO TL1400 TS RMK CB IN CLIMB-OUT
METAR WADD 231230Z 27009KT 6000 -TSRA FEW014CB BKN015 26/26 Q1008 TEMPO TL1330 6000 -TSRA RMK CB IN APCH
METAR WADD 231200Z 24005KT 6000 -TSRA FEW015CB BKN015 26/26 Q1008 TEMPO TL1300 6000 -TSRA RMK CB IN APCH AND CLIMB-OUT
METAR WADD 231130Z 05005KT 4000 TSRA FEW015CB BKN015 25/25 Q1008 TEMP O TL1230 TSRA RMK CB IN APCH AND CLIMB-OUT
METAR WADD 231100Z 03006KT 300V070 4000 TSRA FEW015CB BKN015 26/25 Q1 007 TEMPO TL1200 TSRA RMK CB IN APCH AND CLIMB-OUT
METAR WADD 231030Z 05003KT 1000 +TSRA FEW015CB BKN015 26/25 Q1007 TEMPO TL1130 +TSRA RMK CB IN APCH AND CLIMB-OUT
METAR WADD 231000Z 07005KT 6000 -TSRA FEW015CB BKN015 27/25 Q1007 TEMPO TL1100 -TSRA RMK CB IN CLIMB-OUT
METAR WADD 230930Z 04007KT 8000 -TSRA FEW015CB BKN016 27/25 Q1006 TEMPO TL1030 -TSRA RMK CB IN APCH AND CLIMB-OUT
METAR WADD 230900Z 03004KT 310V120 8000 -TSRA FEW015CB BKN016 28/26 Q1006 TEMPO TL1000 -TSRA RMK CB IN APCH
METAR WADD 230830Z 23005KT 8000 -TSRA FEW015CB SCT016 30/26 Q1006 TEM PO TL0930 -TSRA RMK CB IN APCH
METAR WADD 230800Z 17005KT 120V240 9999 -RA FEW015CB SCT016 30/25 Q1006 RETS TEMPO TL0900 -RA RMK CB IN APCH
METAR WADD 230730Z VRB04KT 9999 -TSRA FEW015CB SCT016 30/26 Q1006 TEM PO TL0830 -TSRA
METAR WADD 230700Z 25008KT 9000 -TSRA FEW015CB SCT016 30/26 Q1006 TEM PO TL0800 -TSRA
METAR WADD 230630Z 25009KT 9999 FEW015CB SCT016 31/26 Q1006 NOSIG
METAR WADD 230600Z 26010KT 220V280 9999 FEW015CB SCT016 31/26 Q1006 N OSIG
METAR WADD 230530Z 25007KT 9999 SCT016 30/26 Q1006 NOSIG
METAR WADD 230500Z 25008KT 9999 SCT016 30/26 Q1007 NOSIG
METAR WADD 230430Z 25008KT 9999 SCT016 30/26 Q1007 NOSIG
METAR WADD 230400Z 25007KT 9999 FEW016 30/25 Q1007 NOSIG
METAR WADD 230330Z 26007KT 9999 FEW016 31/26 Q1008 NOSIG
METAR WADD 230300Z 26007KT 9999 FEW017 30/26 Q1008 NOSIG
METAR WADD 230230Z 24004KT 200V300 9999 FEW017 30/25 Q1008 NOSIG
METAR WADD 230200Z 25005KT 220V290 9999 FEW017 29/25 Q1008 NOSIG
METAR WADD 230130Z 25006KT 220V290 9999 FEW017 30/25 Q1009 NOSIG
METAR WADD 230100Z 29005KT 230V320 9999 FEW017 29/26 Q1009 NOSIG
METAR WADD 230030Z 27004KT 220V330 9999 FEW017 29/26 Q1009 NOSIG
METAR WADD 230000Z 31005KT 9999 FEW017 29/25 Q1009 NOSIG
METAR WADD 222330Z 32004KT 280V360 9999 SCT016 28/25 Q1008 NOSIG
METAR WADD 222300Z 34004KT 9999 SCT016 27/25 Q1008 NOSIG
METAR WADD 222230Z 31005KT 9999 SCT016 27/25 Q1008 NOSIG
METAR WADD 222200Z 33003KT 9999 SCT016 26/24 Q1008 NOSIG
METAR WADD 222130Z 32003KT 9999 SCT016 26/25 Q1007 NOSIG
METAR WADD 222100Z 04002KT 9999 SCT016 26/25 Q1007 NOSIG
METAR WADD 222030Z 32002KT 9999 SCT016 26/25 Q1007 NOSIG</description><pubDate>Sun, 23 Nov 2025 20:29:16 </pubDate></item></channel></rss>