<rss version="2.0"><channel><title>Aviation Weather METAR Data for WADD</title><link>https://aviationweather.gov/api/data/metar?ids=WADD&amp;hours=24</link><description>Latest METAR data for WADD</description><item><title>2025-01-17 10:24:48Z</title><link>https://aviationweather.gov/api/data/metar?ids=WADD&amp;hours=24</link><description>WADD 171000Z 25012KT 9999 SCT016 29/26 Q1004 NOSIG
WADD 170930Z 25012G21KT 210V270 9999 SCT017 30/27 Q1004 NOSIG
WADD 170900Z 25014KT 9999 FEW017 30/26 Q1004 NOSIG
WADD 170830Z 26015KT 9999 FEW017 31/26 Q1004 NOSIG
WADD 170800Z 25015KT 9999 FEW017 31/26 Q1004 NOSIG
WADD 170730Z 25015KT 9999 FEW017 31/26 Q1004 NOSIG
WADD 170700Z 25013KT 9999 FEW017 31/26 Q1004 NOSIG
WADD 170630Z 25010KT 9999 FEW017 31/27 Q1004 NOSIG
WADD 170600Z 26010KT 9999 FEW017 31/27 Q1004 NOSIG
WADD 170530Z 25009KT 9999 FEW017 31/27 Q1005 NOSIG
WADD 170500Z 25009KT 9999 FEW017 30/26 Q1005 NOSIG
WADD 170430Z 25009KT 9999 FEW017 31/27 Q1006 NOSIG
WADD 170400Z 26010KT 9999 SCT017 30/27 Q1006 NOSIG
WADD 170330Z 26008KT 9999 SCT017 30/26 Q1006 NOSIG
WADD 170300Z 25008KT 9999 SCT017 29/26 Q1006 NOSIG
WADD 170230Z 25007KT 220V290 9999 SCT017 30/26 Q1007 NOSIG
WADD 170200Z 26005KT 200V280 9999 FEW017 30/26 Q1007 NOSIG
WADD 170130Z 26005KT 220V310 9999 FEW017 29/25 Q1007 NOSIG
WADD 170100Z VRB02KT 9999 FEW017 29/25 Q1007 NOSIG
WADD 170030Z 02003KT 9999 FEW017 28/24 Q1007 NOSIG
WADD 170000Z 03004KT 340V070 9999 FEW017 28/24 Q1006 NOSIG
WADD 162330Z 36004KT 9999 FEW017 27/24 Q1006 NOSIG
WADD 162300Z 36004KT 320V050 9999 FEW017 26/24 Q1006 NOSIG
WADD 162230Z 35003KT 9999 FEW017 26/24 Q1006 NOSIG
WADD 162200Z 34003KT 9999 FEW017 26/24 Q1006 NOSIG
WADD 162130Z 34004KT 9999 SCT017 26/24 Q1006 NOSIG
WADD 162100Z 33002KT 9999 SCT017 26/24 Q1006 NOSIG
WADD 162030Z VRB02KT 9999 FEW017 26/24 Q1006 NOSIG
WADD 162000Z VRB02KT 9999 FEW017 26/24 Q1006 NOSIG
WADD 161930Z 33004KT 9999 FEW017 27/24 Q1006 NOSIG
WADD 161900Z 31005KT 9999 FEW017 27/25 Q1006 NOSIG
WADD 161830Z 32007KT 9999 FEW 1700FT 27/25 Q1006 NOSIG
WADD 161800Z 32006KT 9999 FEW016 27/25 Q1006 NOSIG
WADD 161730Z 31008KT 9999 SCT016 28/25 Q1006 NOSIG
WADD 161700Z 30007KT 280V340 9999 SCT016 28/25 Q1007 NOSIG
WADD 161630Z 30008KT 9999 FEW016 28/25 Q1007 NOSIG
WADD 161600Z 31005KT 9999 FEW016 28/25 Q1007 NOSIG
WADD 161530Z 32005KT 9999 FEW017 28/25 Q1007 NOSIG
WADD 161500Z 31006KT 9999 FEW017 28/25 Q1007 NOSIG
WADD 161430Z 29008KT 9999 FEW017 28/26 Q1007 NOSIG
WADD 161400Z 29008KT 9999 FEW017 28/26 Q1007 NOSIG
WADD 161330Z 27007KT 9999 FEW017 28/25 Q1007 NOSIG
WADD 161300Z 27009KT 9999 FEW017 29/25 Q1007 NOSIG
WADD 161230Z 27008KT 9999 FEW017 28/25 Q1007 NOSIG
WADD 161200Z 27009KT 9999 FEW017 29/24 Q1007 NOSIG
WADD 161130Z 27009KT 9999 FEW017 29/25 Q1007 NOSIG
WADD 161100Z 29010KT 9999 FEW017 29/25 Q1006 NOSIG
WADD 161030Z 27011KT 9999 FEW017 29/25 Q1006 NOSIG</description><pubDate>Fri, 17 Jan 2025 10:24:48 </pubDate></item></channel></rss>