<rss version="2.0"><channel><title>Aviation Weather METAR Data for WADD</title><link>https://aviationweather.gov/api/data/metar?ids=WADD&amp;hours=24</link><description>Latest METAR data for WADD</description><item><title>2025-05-07 05:26:48Z</title><link>https://aviationweather.gov/api/data/metar?ids=WADD&amp;hours=24</link><description>WADD 070500Z 16011KT 9999 SCT016 29/27 Q1007 NOSIG
WADD 070400Z 11005KT 080V140 9999 SCT016 30/28 Q1008 NOSIG
WADD 070130Z 15008KT 5000 -RA FEW014CB BKN014 27/26 Q1010 TEMPO TL0230 7000 -RA RMK CB IN APCH
WADD 070030Z 09005KT 9999 FEW014CB BKN015 27/27 Q1009 NOSIG
WADD 062330Z 02006KT 8000 -RA FEW014CB BKN015 26/26 Q1009 TEMPO TL0130 -RA
WADD 062200Z 11006KT 040V130 2000 TSRA FEW014CB BKN015 26/26 Q1008 TEMPO TL2230 2000 TSRA RMK CB IN APCH AND CLIMB OUT
WADD 062100Z 05004KT 010V120 6000 TS FEW015CB SCT016 26/26 Q1008 RERA TEMPO TL2130 6000 TS RMK CB IN APCH
WADD 062000Z 01006KT 9999 TS FEW015CB SCT016 26/26 Q1007 NOSIG
WADD 061830Z 02005KT 9999 FEW015CB SCT016 27/27 Q1008 NOSIG
WADD 061730Z 36004KT 9999 FEW015CB SCT016 27/27 Q1009 NOSIG
WADD 061700Z 06003KT 9999 FEW015CB SCT016 27/27 Q1009 NOSIG
WADD 061630Z VRB02KT 8000 FEW015CB SCT016 27/26 Q1009 NOSIG
WADD 061600Z 04007KT 6000 FEW015CB BKN015 27/27 Q1010 RERA NOSIG
WADD 061530Z 11006KT 9999 SCT017 28/28 Q1010 NOSIG
WADD 061430Z 11009KT 9999 SCT017 28/27 Q1010 NOSIG
WADD 060900Z 13012KT 9999 SCT017 29/28 Q1008 NOSIG
WADD 060830Z 14016KT 9999 FEW016CB SCT0117 29/28 Q1007 NOSIG
WADD 060800Z 13015KT 9999 FEW016CB SCT017 29/28 Q1007 NOSIG
WADD 060730Z 13013KT 9999 FEW016CB SCT017 30/28 Q1007 NOSIG
WADD 060630Z 14015KT 9999 FEW016CB SCT017 31/28 Q1008 NOSIG
WADD 060600Z 13016KT 9999 SCT017 31/28 Q1008 NOSIG</description><pubDate>Wed, 07 May 2025 05:26:48 </pubDate></item></channel></rss>