<rss version="2.0"><channel><title>Aviation Weather METAR Data for WADD</title><link>https://aviationweather.gov/api/data/metar?ids=WADD&amp;hours=24</link><description>Latest METAR data for WADD</description><item><title>2025-04-18 14:24:18Z</title><link>https://aviationweather.gov/api/data/metar?ids=WADD&amp;hours=24</link><description>WADD 181400Z 14004KT 9999 TS FEW015CB SCT016 29/27 Q1009 TEMPO TL1530 TS
WADD 181330Z 09002KT 9999 SCT016 28/27 Q1009 NOSIG
WADD 181300Z 05004KT 9999 SCT016 27/26 Q1009 NOSIG
WADD 181230Z 06003KT 9999 SCT016 28/25 Q1009 NOSIG
WADD 181200Z 04004KT 340V070 9999 SCT016 28/26 Q1009 NOSIG
WADD 181130Z 06005KT 030V090 9999 FEW016CB SCT017 28/26 Q1008 NOSIG
WADD 181100Z 22003KT 9999 SCT016 29/26 Q1008 NOSIG
WADD 181030Z 23006KT 9999 SCT016 29/26 Q1008 NOSIG
WADD 181000Z 23005KT 200V260 9999 SCT017 29/26 Q1007 NOSIG
WADD 180930Z 25006KT 9999 SCT017 29/25 Q1007 NOSIG
WADD 180900Z 25007KT 9999 SCT017 29/25 Q1006 NOSIG
WADD 180830Z 25006KT 200V280 9999 SCT017 30/26 Q1006 NOSIG
WADD 180800Z 25007KT 9999 SCT017 30/26 Q1006 NOSIG
WADD 180730Z 24006KT 200V260 9999 SCT017 30/26 Q1006 NOSIG
WADD 180700Z 26006KT 210V290 9999 SCT017 30/26 Q1007 NOSIG
WADD 180630Z 27008KT 240V310 9999 SCT017 30/24 Q1007 RETS NOSIG
WADD 180600Z 31010KT 9999 FEW016CB SCT017 31/25 Q1007 NOSIG
WADD 180530Z 30011KT 9999 FEW016CB SCT017 32/26 Q1008 NOSIG
WADD 180500Z 27011KT 9999 FEW016CB SCT017 31/26 Q1008 NOSIG
WADD 180430Z 28011KT 9999 FEW016CB SCT017 30/26 Q1008 NOSIG
WADD 180400Z 26011KT 9999 SCT017 31/27 Q1008 NOSIG
WADD 180330Z 26009KT 9999 SCT017 30/26 Q1009 NOSIG
WADD 180300Z 26010KT 9999 SCT017 30/26 Q1009 NOSIG
WADD 180230Z 29010KT 9999 SCT017 30/27 Q1009
WADD 180200Z 29010KT 9999 FEW017 30/27 Q1009 NOSIG
WADD 180130Z 29009KT 9999 FEW017 30/27 Q1009 NOSIG
WADD 180100Z 30008KT 9999 FEW017 30/26 Q1009 NOSIG
WADD 180030Z 31007KT 9999 SCT016 29/26 Q1009 NOSIG
WADD 180000Z 32006KT 9999 SCT016 29/26 Q1008 NOSIG
WADD 172330Z 30006KT 9999 SCT016 29/26 Q1008 NOSIG
WADD 172300Z 32005KT 9999 SCT016 28/26 Q1008 NOSIG
WADD 172230Z 32004KT 9999 FEW017 28/26 Q1007 NOSIG
WADD 172200Z 32005KT 9999 FEW017 28/25 Q1007 NOSIG
WADD 172130Z 29005KT 9999 FEW015CB FEW017 28/26 Q1007 NOSIG
WADD 172100Z 33006KT 9999 FEW015CB FEW017 28/26 Q1007 NOSIG
WADD 172030Z 32006KT 9999 FEW017 28/25 Q1007 NOSIG
WADD 172000Z 32006KT 9999 FEW017 28/26 Q1007 NOSIG
WADD 171930Z 32006KT 9999 SCT016 28/26 Q1007 NOSIG
WADD 171900Z 33004KT 9999 FEW015CB SCT016 28/26 Q1007 NOSIG
WADD 171830Z 31004KT 9999 FEW015CB SCT016 28/26 Q1007 NOSIG
WADD 171800Z 30005KT 9999 FEW017 28/26 Q1007 NOSIG
WADD 171730Z 32004KT 9999 FEW017 28/26 Q1007 NOSIG
WADD 171700Z 35004KT 300V020 9999 FEW017 28/25 Q1008 NOSIG
WADD 171630Z 32003KT 9999 FEW017 28/26 Q1008 NOSIG
WADD 171600Z 26004KT 9999 FEW017 28/26 Q1008 NOSIG
WADD 171530Z 27006KT 9999 FEW017 28/26 Q1008 NOSIG
WADD 171500Z 28008KT 9999 FEW017 29/26 Q1008 NOSIG
WADD 171430Z 27007KT 9999 FEW017 29/26 Q1009 NOSIG</description><pubDate>Fri, 18 Apr 2025 14:24:18 </pubDate></item></channel></rss>