<rss version="2.0"><channel><title>Aviation Weather METAR Data for WADD</title><link>https://aviationweather.gov/api/data/metar?ids=WADD&amp;hours=24</link><description>Latest METAR data for WADD</description><item><title>2025-02-23 16:42:25Z</title><link>https://aviationweather.gov/api/data/metar?ids=WADD&amp;hours=24</link><description>WADD 231630Z VRB02KT 9999 FEW017 27/26 Q1012 NOSIG
WADD 231600Z 05004KT 010V080 9999 FEW017 27/26 Q1013 NOSIG
WADD 231530Z 06004KT 9999 FEW017 27/25 Q1013 NOSIG
WADD 231500Z 14002KT 9999 FEW017 28/25 Q1013 NOSIG
WADD 231430Z VRB02KT 9999 FEW017 27/25 Q1013 NOSIG
WADD 231400Z VRB02KT 9999 FEW017 27/24 Q1013 NOSIG
WADD 231330Z 35003KT 9999 FEW017 28/24 Q1012 NOSIG
WADD 231300Z VRB03KT 9999 FEW017 27/24 Q1012 NOSIG
WADD 231230Z 03006KT 280V060 9999 FEW017 28/24 Q1012 NOSIG
WADD 231200Z 04004KT 360V060 9999 FEW017 27/24 Q1011 NOSIG
WADD 231130Z VRB02KT 9999 SCT015 28/25 Q1010 NOSIG
WADD 231100Z 23002KT 9999 SCT015 28/25 Q1010 NOSIG
WADD 231030Z VRB01KT 9999 SCT015 28/25 Q1010 NOSIG
WADD 231000Z VRB02KT 9999 FEW015CB BKN015 28/24 Q1009 NOSIG
WADD 230930Z VRB02KT 9999 FEW015CB BKN015 28/24 Q1009 RERA NOSIG
WADD 230900Z 04005KT 320V090 8000 -RA FEW015CB BKN015 28/25 Q1009 TEMPO TL1000 8000 -RA
WADD 230830Z 33005KT 290V020 9999 FEW015CB BKN015 28/25 Q1009 RETS NOSIG
WADD 230800Z 32007KT 9999 TS FEW014CB BKN014 27/25 Q1010 TEMPO TL0900 TS RMK CB IN APCH AND CLIMB-OUT
WADD 230730Z 31010KT 9999 TS FEW014CB BKN014 26/24 Q1010 RERA TEMPO TL0900 TS RMK CB IN APCH AND CLIMB-OUT
WADD 230700Z 27014KT 6000 TSRA FEW014CB SCT014 25/24 Q1010 TEMPO TL0800 6000 TSRA RMK CB IN APCH AND CLIMB-OUT
WADD 230630Z 31008KT 250V340 7000 TSRA FEW015CB SCT015 29/25 Q1010 TEMPO TL0800 7000 TSRA RMK CB IN APCH AND CLIMB-OUT
WADD 230600Z 06006KT 020V100 9999 TS FEW015CB SCT015 30/26 Q1010 TEMPO TL0730 TS RMK CB IN APCH
WADD 230530Z 25005KT 9999 FEW015CB SCT015 32/27 Q1010 NOSIG
WADD 230500Z VRB03KT 9999 FEW015CB SCT015 31/27 Q1010 NOSIG
WADD 230430Z 12004KT 090V170 9999 FEW015CB SCT015 31/27 Q1011 NOSIG
WADD 230400Z 11006KT 9999 FEW015CB SCT015 31/27 Q1011 NOSIG
WADD 230330Z 12006KT 9999 SCT015 31/27 Q1012 NOSIG
WADD 230300Z 12006KT 9999 SCT015 31/27 Q1012 NOSIG
WADD 230230Z 12005KT 9999 SCT015 30/27 Q1012 NOSIG
WADD 230200Z 11005KT 070V130 9999 FEW017 30/27 Q1012 NOSIG
WADD 230130Z 09005KT 050V110 9999 FEW017 30/27 Q1012 NOSIG
WADD 230100Z 09005KT 060V120 9999 FEW017 29/27 Q1012 NOSIG
WADD 230030Z 08003KT 9999 FEW016 28/27 Q1012 NOSIG
WADD 230000Z 02005KT 9999 FEW016 27/27 Q1012 NOSIG
WADD 222330Z 08003KT 9999 FEW016 27/27 Q1011 NOSIG
WADD 222300Z 09003KT 9999 FEW016 26/26 Q1011 NOSIG
WADD 222230Z 01003KT 9999 FEW016 26/26 Q1011 NOSIG
WADD 222200Z 03004KT 9999 SCT016 26/26 Q1011 NOSIG
WADD 222130Z VRB01KT 9999 SCT016 26/26 Q1010 NOSIG
WADD 222100Z 03004KT 9999 SCT016 26/26 Q1010 NOSIG
WADD 222030Z 04003KT 9999 SCT016 26/26 Q1010 NOSIG
WADD 222000Z 06003KT 9999 SCT016 26/26 Q1010 NOSIG
WADD 221930Z 09003KT 9999 SCT016 26/26 Q1010 NOSIG
WADD 221900Z 11004KT 9999 SCT016 27/26 Q1010 NOSIG
WADD 221830Z 09004KT 9999 SCT016 26/26 Q1010 NOSIG
WADD 221800Z 09004KT 9999 SCT016 26/26 Q1010 NOSIG
WADD 221730Z 06005KT 040V100 9999 SCT016 26/26 Q1010 NOSIG
WADD 221700Z 03004KT 9999 SCT016 26/26 Q1011 NOSIG</description><pubDate>Sun, 23 Feb 2025 16:42:25 </pubDate></item></channel></rss>