<rss version="2.0"><channel><title>Aviation Weather METAR Data for WADD</title><link>https://aviationweather.gov/api/data/metar?ids=WADD&amp;hours=24</link><description>Latest METAR data for WADD</description><item><title>2025-10-18 16:43:55Z</title><link>https://aviationweather.gov/api/data/metar?ids=WADD&amp;hours=24</link><description>METAR WADD 181630Z 12009KT 9999 SCT016 28/27 Q1007 NOSIG
METAR WADD 181600Z 12007KT 9999 SCT016 28/27 Q1007 NOSIG
METAR WADD 181530Z 10005KT 9999 SCT016 28/27 Q1007 NOSIG
METAR WADD 181500Z 08007KT 9999 FEW015CB SCT016 27/26 Q1008 NOSIG RMK CB IN APCH
METAR WADD 181430Z 13007KT 9999 SCT016 28/27 Q1008 NOSIG
METAR WADD 181400Z 13007KT 9999 SCT016 28/27 Q1008 NOSIG
METAR WADD 181330Z 13008KT 9999 SCT017 28/27 Q1008 NOSIG
METAR WADD 181300Z 13009KT 9999 SCT017 29/27 Q1007 NOSIG
 WADD 181230Z 12009KT 9999 SCT016 29/27 Q1007 NOSIG
METAR WADD 181200Z 13008KT 9999 SCT017 29/27 Q1007 NOSIG
 WADD 181130Z 13007KT 9999 SCT016 29/27 Q1006 NOSIG
METAR WADD 181100Z 13008KT 9999 SCT016 29/27 Q1006 NOSIG
 WADD 181030Z 13008KT 9999 SCT016 29/27 Q1006 NOSIG
 WADD 181000Z 13011KT 9999 SCT016 29/27 Q1006 NOSIG
METAR WADD 180930Z 12011KT 9999 FEW016 30/26 Q1005 NOSIG
METAR WADD 180900Z 14014KT 9999 FEW016 30/26 Q1005 NOSIG
 WADD 180830Z 13011KT 9999 SCT016 30/27 Q1005 NOSIG
 WADD 180800Z 13014KT 9999 SCT016 30/26 Q1005 NOSIG
METAR WADD 180730Z 14012KT 9999 SCT016 30/27 Q1005 NOSIG
METAR WADD 180700Z 15014KT 9999 SCT016 30/26 Q1005 NOSIG
METAR WADD 180630Z 14013KT 9999 FEW016 31/27 Q1005 NOSIG
METAR WADD 180600Z 14012KT 9999 FEW017 31/27 Q1006 NOSIG
METAR WADD 180530Z 15012KT 9999 FEW017 31/27 Q1006 NOSIG
METAR WADD 180500Z 14010KT 9999 FEW017 31/26 Q1006 NOSIG
METAR WADD 180430Z 13009KT 090V170 9999 FEW017 31/26 Q1007 NOSIG
METAR WADD 180400Z 11010KT 9999 FEW017 31/27 Q1007 NOSIG
METAR WADD 180330Z 10010KT 9999 FEW017 31/27 Q1008 NOSIG
METAR WADD 180300Z 10009KT 9999 SCT017 30/26 Q1008 NOSIG
METAR WADD 180230Z 11009KT 9999 SCT017 30/27 Q1008 NOSIG
METAR WADD 180200Z 11010KT 9999 SCT017 31/27 Q1008 NOSIG
METAR WADD 180130Z 11009KT 9999 SCT017 30/27 Q1009 NOSIG
 WADD 180100Z 12008KT 9999 SCT017 30/27 Q1009 NOSIG
 WADD 180030Z 10006KT 9999 SCT016 29/27 Q1009 NOSIG
METAR WADD 180000Z 09006KT 9999 SCT016 29/27 Q1009 NOSIG
METAR WADD 172330Z 36005KT 330V030 9999 SCT016 28/26 Q1008 NOSIG
METAR WADD 172300Z 36004KT 9999 SCT016 27/26 Q1008 NOSIG
METAR WADD 172230Z 36004KT 9999 SCT016 26/26 Q1008 NOSIG
METAR WADD 172200Z 36004KT 9999 SCT016 26/26 Q1008 NOSIG
METAR WADD 172130Z 35005KT 9999 BKN016 27/26 Q1008 NOSIG
METAR WADD 172100Z 33005KT 9999 FEW015CB BKN016 27/26 Q1008 RERA NOSIG
METAR WADD 172030Z 07008KT 8000 -RA FEW015CB BKN016 27/26 Q1007 TEMPO TL2130 -RA
METAR WADD 172000Z 07006KT 050V120 5000 RA FEW015CB BKN016 27/26 Q1007 TEMPO TL2100 5000 RA
METAR WADD 171930Z 09008KT 8000 -RA FEW015CB SCT016 28/27 Q1007 TEMPO TL2030 -RA
METAR WADD 171900Z 09003KT 9999 FEW015CB BKN016 27/26 Q1007 NOSIG
METAR WADD 171830Z 20004KT 9999 FEW015CB BKN016 27/27 Q1007 RERA NOSIG
METAR WADD 171800Z VRB07G13KT 7000 -RA FEW015CB BKN015 26/26 Q1007 TEMPO TL1900 -RA
METAR WADD 171730Z 17011KT 130V210 8000 -RA FEW015CB BKN015 26/25 Q1007 TEMPO TL1830 -RA
METAR WADD 171700Z 13009KT 4000 RA FEW015CB BKN016 27/26 Q1007 TEMPO TL1800 8000 -RA</description><pubDate>Sat, 18 Oct 2025 16:43:55 </pubDate></item></channel></rss>