<rss version="2.0"><channel><title>Aviation Weather METAR Data for WADD</title><link>https://aviationweather.gov/api/data/metar?ids=WADD&amp;hours=24</link><description>Latest METAR data for WADD</description><item><title>2025-10-16 16:50:11Z</title><link>https://aviationweather.gov/api/data/metar?ids=WADD&amp;hours=24</link><description>METAR WADD 161630Z 11008KT 9999 SCT016 28/27 Q1008 NOSIG
METAR WADD 161600Z 12009KT 9999 SCT017 28/27 Q1008 NOSIG
METAR WADD 161530Z 13009KT 9999 SCT016 28/27 Q1008 NOSIG
METAR WADD 161500Z 13013KT 9999 SCT016 28/27 Q1008 NOSIG
METAR WADD 161430Z 12012KT 9999 SCT016 29/27 Q1009 NOSIG
METAR WADD 161400Z 12012KT 9999 SCT016 28/27 Q1008 NOSIG
METAR WADD 161330Z 12012KT 9999 FEW017 29/26 Q1008 NOSIG
METAR WADD 161300Z 12011KT 9999 FEW017 29/27 Q1008 NOSIG
METAR WADD 161230Z 12011KT 9999 FEW017 29/26 Q1008 NOSIG
METAR WADD 161200Z 12011KT 9999 FEW017 29/26 Q1007 NOSIG
 WADD 161130Z 12013KT 9999 SCT017 29/26 Q1007 NOSIG
METAR WADD 161100Z 13012KT 9999 SCT017 29/26 Q1007 NOSIG
METAR WADD 161030Z 13014KT 9999 SCT017 29/26 Q1007 NOSIG
METAR WADD 161000Z 13017KT 9999 SCT017 29/26 Q1006 NOSIG
METAR WADD 160930Z 13018KT 9999 SCT017 30/26 Q1006 NOSIG
METAR WADD 160900Z 13016KT 9999 SCT017 30/26 Q1006 NOSIG
METAR WADD 160830Z 13018KT 9999 SCT017 30/26 Q1006 NOSIG
METAR WADD 160800Z 13016KT 9999 SCT017 31/26 Q1006 NOSIG
METAR WADD 160730Z 14017KT 9999 SCT017 31/26 Q1006 NOSIG
METAR WADD 160700Z 13015KT 9999 SCT017 31/26 Q1006 NOSIG
METAR WADD 160630Z 11013KT 9999 SCT017 32/26 Q1006 NOSIG
METAR WADD 160600Z 11013KT 9999 SCT017 31/26 Q1006 NOSIG
METAR WADD 160530Z 12012KT 9999 SCT017 31/26 Q1007 NOSIG
METAR WADD 160500Z 10011KT 9999 SCT017 31/27 Q1007 NOSIG
METAR WADD 160430Z 11012KT 9999 SCT022 SCT031 31/27 Q1007 NOSIG
METAR WADD 160400Z 11014KT 9999 SCT017 31/26 Q1008 NOSIG
METAR WADD 160330Z 14017KT 9999 SCT017 30/26 Q1008 NOSIG
METAR WADD 160300Z 11014KT 9999 SCT017 31/26 Q1008 NOSIG
METAR WADD 160230Z 12015KT 9999 SCT017 31/26 Q1009 NOSIG
METAR WADD 160200Z 11015KT 9999 SCT017 30/26 Q1009 NOSIG
METAR WADD 160130Z 12015KT 9999 SCT017 30/26 Q1009 NOSIG
METAR WADD 160100Z 12013KT 9999 SCT017 30/26 Q1009 NOSIG
 WADD 160030Z 12013KT 9999 SCT017 30/26 Q1009 NOSIG
 WADD 160000Z 11012KT 9999 SCT017 29/26 Q1009 NOSIG
METAR WADD 152330Z 13009KT 9999 BKN016 29/26 Q1009 NOSIG
 WADD 152300Z 13007KT 9999 BKN015 28/26 Q1008 NOSIG
METAR WADD 152230Z 13009KT 9999 BKN015 28/26 Q1008 NOSIG
METAR WADD 152200Z 12009KT 9999 BKN015 28/26 Q1008 NOSIG
METAR WADD 152130Z 13007KT 9999 SCT016 28/26 Q1007 NOSIG
METAR WADD 152100Z 13008KT 9999 SCT016 28/26 Q1007 NOSIG
METAR WADD 152030Z 13007KT 9999 SCT016 28/26 Q1007 NOSIG
METAR WADD 152000Z 14008KT 9999 SCT016 28/26 Q1007 NOSIG
METAR WADD 151930Z 13007KT 9999 SCT016 28/26 Q1007 NOSIG
METAR WADD 151900Z 14007KT 9999 SCT016 28/26 Q1007 NOSIG
METAR WADD 151830Z 13008KT 9999 FEW017 28/26 Q1007 NOSIG
METAR WADD 151800Z 14008KT 9999 FEW017 28/26 Q1007 NOSIG
METAR WADD 151730Z 14007KT 9999 FEW017 28/26 Q1007 NOSIG
METAR WADD 151700Z 14008KT 9999 FEW017 28/27 Q1008 NOSIG</description><pubDate>Thu, 16 Oct 2025 16:50:11 </pubDate></item></channel></rss>