<rss version="2.0"><channel><title>Aviation Weather METAR Data for WADD</title><link>https://aviationweather.gov/api/data/metar?ids=WADD&amp;hours=24</link><description>Latest METAR data for WADD</description><item><title>2026-04-02 17:26:51Z</title><link>https://aviationweather.gov/api/data/metar?ids=WADD&amp;hours=24</link><description>METAR WADD 021700Z 14003KT 9999 SCT017 28/26 Q1011 NOSIG
METAR WADD 021630Z 14005KT 9999 FEW017 28/26 Q1011 NOSIG
METAR WADD 021600Z 10004KT 060V130 9999 FEW017 28/26 Q1011 NOSIG
METAR WADD 021530Z 12005KT 9999 FEW017 28/26 Q1011 NOSIG
METAR WADD 021500Z 11005KT 9999 FEW017 28/26 Q1012 NOSIG
METAR WADD 021430Z 12007KT 9999 FEW017 28/26 Q1012 NOSIG
METAR WADD 021400Z 11008KT 9999 FEW017 28/26 Q1012 NOSIG
METAR WADD 021330Z 10008KT 9999 FEW017 28/26 Q1012 NOSIG
METAR WADD 021300Z 10007KT 9999 SCT017 28/26 Q1011 NOSIG
METAR WADD 021230Z 10009KT 9999 SCT017 28/26 Q1011 NOSIG
METAR WADD 021200Z 11011KT 9999 SCT017 29/26 Q1010 NOSIG
METAR WADD 021130Z 12012KT 9999 SCT017 29/26 Q1010 NOSIG
METAR WADD 021100Z 12012KT 9999 SCT017 29/26 Q1009 NOSIG
METAR WADD 021030Z COR 12010KT 9999 SCT017 29/26 Q1009 NOSIG
METAR WADD 021000Z 12013KT 9999 SCT017 29/26 Q1008 NOSIG
METAR WADD 020930Z 12016KT 9999 SCT017 29/26 Q1008 NOSIG
METAR WADD 020900Z 12013KT 9999 SCT017 30/26 Q1008 NOSIG
METAR WADD 020830Z 12014KT 9999 SCT017 30/26 Q1008 NOSIG
METAR WADD 020800Z 12014KT 9999 SCT017 31/26 Q1008 NOSIG
METAR WADD 020730Z 13014KT 9999 FEW017 31/26 Q1008 NOSIG
METAR WADD 020700Z 13015KT 9999 FEW017 31/26 Q1008 NOSIG
METAR WADD 020630Z 13013KT 9999 FEW016CB SCT017 31/26 Q1009 NOSIG
METAR WADD 020600Z 13016KT 9999 SCT017 31/26 Q1009 NOSIG
METAR WADD 020530Z 13016KT 9999 FEW017 31/26 Q1009 NOSIG
METAR WADD 020500Z 13015KT 9999 FEW017 32/26 Q1009 NOSIG
METAR WADD 020430Z 13014KT 9999 FEW017 32/25 Q1010 NOSIG
METAR WADD 020400Z 11013KT 9999 FEW017 32/25 Q1011 NOSIG
METAR WADD 020330Z 11012KT 9999 FEW017 32/26 Q1011 NOSIG
METAR WADD 020300Z 11010KT 9999 FEW017 32/25 Q1011 NOSIG
METAR WADD 020230Z 12010KT 9999 FEW017 32/25 Q1012 NOSIG
METAR WADD 020200Z 11008KT 9999 FEW017 31/26 Q1011 NOSIG
METAR WADD 020130Z 12009KT 9999 FEW017 31/26 Q1012 NOSIG
METAR WADD 020100Z 11007KT 9999 FEW016CB FEW017 31/26 Q1011 NOSIG
METAR WADD 020030Z 10006KT 070V130 9999 FEW017 31/26 Q1011 NOSIG
METAR WADD 020000Z 08005KT 050V110 9999 FEW017 29/26 Q1011 NOSIG
METAR WADD 012330Z 06006KT 020V090 9999 FEW017 28/26 Q1011 NOSIG
METAR WADD 012300Z 04005KT 9999 FEW017 27/25 Q1011 NOSIG
METAR WADD 012230Z 09004KT 9999 SCT017 27/25 Q1010 NOSIG
METAR WADD 012130Z 10006KT 9999 SCT017 27/26 Q1010 NOSIG
METAR WADD 012100Z 10005KT 9999 SCT017 27/26 Q1010 NOSIG
METAR WADD 012030Z 10005KT 9999 SCT017 27/26 Q1009 NOSIG
METAR WADD 012000Z 10006KT 9999 SCT017 28/26 Q1010 NOSIG
METAR WADD 011930Z 09007KT 9999 SCT017 27/26 Q1010 NOSIG
METAR WADD 011900Z 10007KT 9999 SCT017 28/26 Q1010 NOSIG
METAR WADD 011830Z 10007KT 9999 SCT017 28/26 Q1010 NOSIG
METAR WADD 011800Z 10006KT 9999 SCT017 28/26 Q1010 NOSIG
METAR WADD 011730Z 09007KT 9999 SCT017 27/25 Q1011 NOSIG</description><pubDate>Thu, 02 Apr 2026 17:26:51 </pubDate></item></channel></rss>