<rss version="2.0"><channel><title>Aviation Weather METAR Data for WADD</title><link>https://aviationweather.gov/api/data/metar?ids=WADD&amp;hours=24</link><description>Latest METAR data for WADD</description><item><title>2025-10-25 01:57:56Z</title><link>https://aviationweather.gov/api/data/metar?ids=WADD&amp;hours=24</link><description>METAR WADD 250130Z 29005KT 9999 SCT016 29/26 Q1010 NOSIG
METAR WADD 250100Z 28003KT 9999 SCT016 29/26 Q1010 NOSIG
METAR WADD 250030Z 29004KT 260V320 9999 FEW017 28/25 Q1011 NOSIG
METAR WADD 250000Z 30003KT 9999 FEW017 28/25 Q1010 NOSIG
METAR WADD 242330Z VRB02KT 9999 SCT016 28/25 Q1010 NOSIG
 WADD 242300Z 36003KT 9999 SCT016 27/25 Q1009 NOSIG
METAR WADD 242230Z 36005KT 9999 FEW017 26/24 Q1009 NOSIG
METAR WADD 242200Z 01004KT 9999 FEW016 26/24 Q1009 NOSIG
METAR WADD 242130Z 02005KT 9999 SCT016 26/25 Q1008 NOSIG
METAR WADD 242100Z 35005KT 9999 SCT016 26/25 Q1008 NOSIG
METAR WADD 242030Z 13002KT 9999 SCT016 27/26 Q1008 NOSIG
METAR WADD 242000Z 11002KT 9999 SCT016 27/26 Q1008 NOSIG
METAR WADD 241930Z 13004KT 9999 SCT016 28/26 Q1008 NOSIG
METAR WADD 241900Z 13003KT 9999 SCT016 28/26 Q1008 NOSIG
METAR WADD 241830Z 14003KT 9999 SCT016 28/26 Q1009 NOSIG
METAR WADD 241800Z 15003KT 9999 FEW016 28/26 Q1009 NOSIG
METAR WADD 241730Z 14004KT 9999 FEW016 28/27 Q1009 NOSIG
METAR WADD 241700Z 14004KT 9999 FEW016 28/27 Q1009 NOSIG
METAR WADD 241630Z 12005KT 9999 FEW016 28/26 Q1009 NOSIG
METAR WADD 241600Z 13005KT 9999 FEW016 28/27 Q1010 NOSIG
METAR WADD 241530Z 12005KT 9999 FEW016 28/26 Q1010 NOSIG
METAR WADD 241500Z 14005KT 9999 FEW016 28/26 Q1010 NOSIG
METAR WADD 241430Z 14004KT 9999 FEW016 29/26 Q1010 NOSIG
METAR WADD 241400Z 14004KT 9999 FEW016 29/26 Q1010 NOSIG
METAR WADD 241330Z 12007KT 9999 FEW016 29/26 Q1009 NOSIG
METAR WADD 241300Z 12007KT 9999 FEW016 29/26 Q1009 NOSIG
METAR WADD 241230Z 11007KT 9999 SCT016 29/26 Q1009 NOSIG
METAR WADD 241200Z 13007KT 9999 SCT016 29/26 Q1009 NOSIG
METAR WADD 241130Z 13008KT 9999 BKN015 29/26 Q1009 NOSIG
METAR WADD 241100Z 12010KT 9999 BKN015 29/26 Q1008 NOSIG
 WADD 241030Z 13011KT 9999 BKN015 29/26 Q1008 NOSIG
 WADD 241000Z 13011KT 9999 BKN015 29/26 Q1007 NOSIG
 WADD 240930Z 14012KT 9999 BKN015 30/26 Q1007 NOSIG
 WADD 240900Z 13013KT 9999 BKN015 30/26 Q1007 NOSIG
 WADD 240830Z 13013KT 9999 BKN015 30/26 Q1007 NOSIG
METAR WADD 240800Z 13014KT 9999 BKN015 31/26 Q1007 NOSIG
METAR WADD 240730Z 15014KT 9999 SCT016 31/26 Q1006 NOSIG
METAR WADD 240700Z 14012KT 9999 SCT016 31/26 Q1007 NOSIG
METAR WADD 240530Z 12013KT 9999 FEW017 32/25 Q1007 NOSIG
METAR WADD 240500Z 11011KT 9999 FEW017 32/26 Q1008 NOSIG
METAR WADD 240430Z 11011KT 9999 FEW017 31/26 Q1008 NOSIG
METAR WADD 240400Z 11011KT 9999 FEW017 31/26 Q1009 NOSIG
METAR WADD 240330Z 11010KT 9999 FEW017 31/26 Q1009 NOSIG
METAR WADD 240300Z 10009KT 9999 FEW017 31/26 Q1009 NOSIG
METAR WADD 240230Z 12009KT 9999 FEW017 30/26 Q1009 NOSIG
METAR WADD 240200Z 11009KT 070V140 9999 FEW017 30/26 Q1009 NOSIG</description><pubDate>Sat, 25 Oct 2025 01:57:56 </pubDate></item></channel></rss>