<rss version="2.0"><channel><title>Aviation Weather METAR Data for WADD</title><link>https://aviationweather.gov/api/data/metar?ids=WADD&amp;hours=24</link><description>Latest METAR data for WADD</description><item><title>2025-01-15 20:23:58Z</title><link>https://aviationweather.gov/api/data/metar?ids=WADD&amp;hours=24</link><description>WADD 152000Z VRB02KT 9999 SCT016 26/26 Q1007 NOSIG
WADD 151930Z 05004KT 9999 SCT016 26/25 Q1006 NOSIG
WADD 151900Z 09003KT 9999 SCT016 26/25 Q1007 RERA NOSIG
WADD 151830Z 19003KT 8000 -RA FEW014CB BKN015 26/25 Q1007 RETS TEMPO TL1930 8000 -RA
WADD 151800Z 25005KT 190V010 4000 RA FEW014CB BKN015 26/25 Q1007 TEMPO TL1900 6000 -RA
WADD 151730Z 04003KT 9999 FEW015CB SCT016 27/26 Q1007 NOSIG
WADD 151700Z VRB02KT 9999 FEW015CB SCT016 27/26 Q1007 NOSIG
WADD 151630Z VRB02KT 9999 FEW015CB SCT016 27/26 Q1008 RERA NOSIG
WADD 151600Z VRB01KT 8000 -TSRA FEW014CB BKN015 27/26 Q1008 TEMPO TL1700 8000 -TSRA
WADD 151530Z VRB05G12KT 7000 -RA FEW014CB BKN015 27/26 Q1008 TEMPO TL1630 7000 -RA
WADD 151500Z 26004KT 200V300 5000 RA FEW014CB BKN015 28/26 Q1009 TEMPO TL1600 5000 RA
WADD 151430Z 29006KT 240V330 8000 -RA FEW015CB BKN016 28/26 Q1009 TEMPO TL1530 8000 -RA
WADD 151400Z 31003KT 9999 SCT016 28/26 Q1009 NOSIG
WADD 151330Z 29005KT 250V330 9999 FEW015CB SCT016 29/26 Q1008 NOSIG
WADD 151300Z 27006KT 9999 FEW015CB SCT016 28/26 Q1008 NOSIG
WADD 151230Z 26006KT 9999 FEW017 28/25 Q1008 NOSIG
WADD 151200Z 27006KT 9999 FEW017 28/26 Q1007 NOSIG
WADD 151130Z VRB02KT 9999 SCT016 29/26 Q1007 NOSIG
WADD 151100Z 23003KT 9999 SCT016 29/26 Q1006 NOSIG
WADD 151030Z 23003KT 9999 FEW016 29/26 Q1006 NOSIG
WADD 151000Z 25004KT 9999 SCT016 29/26 Q1006 NOSIG
WADD 150930Z 25004KT 210V270 9999 BKN016 29/26 Q1006 NOSIG
WADD 150900Z 24005KT 9999 BKN015 29/27 Q1005 NOSIG
WADD 150830Z 21004KT 9999 BKN016 29/26 Q1005 NOSIG
WADD 150800Z 28004KT 9999 BKN016 29/26 Q1006 NOSIG
WADD 150730Z 28005KT 9999 BKN016 29/26 Q1006 NOSIG
WADD 150700Z 27007KT 9999 FEW016CB SCT016 29/26 Q1006 NOSIG
WADD 150630Z 26009KT 9999 FEW016 SCT016 Q1007 NOSIG
WADD 150600Z 26011KT 9999 FEW016CB SCT016 30/26 Q1007 NOSIG
WADD 150530Z 26010KT 9999 FEW017 30/26 Q1007 NOSIG
WADD 150500Z 26009KT 9999 FEW017 30/27 Q1007 NOSIG
WADD 150430Z 25009KT 9999 FEW017 30/26 Q1008 NOSIG
WADD 150400Z 25009KT 9999 FEW017 30/26 Q1009 NOSIG
WADD 150330Z 27010KT 9999 FEW017 30/26 Q1009 NOSIG
WADD 150300Z 27010KT 9999 FEW017 29/26 Q1009 NOSIG
WADD 150230Z 27010KT 9999 FEW017 29/26 Q1009 NOSIG
WADD 150200Z 29010KT 9999 FEW017 30/26 Q1010 NOSIG
WADD 150130Z 29008KT 9999 FEW017 29/26 Q1010 NOSIG
WADD 150100Z 31006KT 9999 FEW017 29/26 Q1010 NOSIG
WADD 150030Z 27008KT 9999 FEW017 28/26 Q1010 NOSIG
WADD 150000Z 27007KT 9999 SCT016 28/25 Q1010 NOSIG
WADD 142330Z 28008KT 9999 FEW017 28/26 Q1009 NOSIG
WADD 142300Z 29007KT 280V340 9999 BKN015 27/26 Q1009 NOSIG
WADD 142230Z 28008KT 9999 BKN015 27/25 Q1009 NOSIG
WADD 142200Z 28008KT 9999 SCT016 27/25 Q1008 NOSIG
WADD 142130Z 28009KT 9999 BKN015 27/26 Q1008 NOSIG
WADD 142100Z 28011KT 9999 SCT016 27/25 Q1008 NOSIG
WADD 142030Z 27012KT 9999 SCT016 27/25 Q1008 NOSIG</description><pubDate>Wed, 15 Jan 2025 20:23:58 </pubDate></item></channel></rss>