<rss version="2.0"><channel><title>Aviation Weather METAR Data for WADD</title><link>https://aviationweather.gov/api/data/metar?ids=WADD&amp;hours=24</link><description>Latest METAR data for WADD</description><item><title>2025-02-18 16:46:56Z</title><link>https://aviationweather.gov/api/data/metar?ids=WADD&amp;hours=24</link><description>WADD 181630Z 03004KT 350V060 9999 BKN016 27/27 Q1010 NOSIG
WADD 181600Z 04003KT 9999 BKN016 27/27 Q1010 NOSIG
WADD 181530Z 02003KT 9999 BKN016 27/27 Q1011 NOSIG
WADD 181500Z 04003KT 9999 BKN016 27/27 Q1011 NOSIG
WADD 181430Z 05003KT 9999 BKN016 27/26 Q1011 NOSIG
WADD 181400Z 29006KT 270V030 9999 BKN016 28/27 Q1011 NOSIG
WADD 181330Z 08001KT 9999 FEW016CB SCT016 28/27 Q1011 NOSIG
WADD 181300Z VRB02KT 9999 TS FEW016CB BKN016 28/27 Q1010 TEMPO TL1400 TS
WADD 181230Z 36003KT 9999 TS FEW016CB BKN016 28/27 Q1010 NOSIG
WADD 181200Z 09003KT 9999 FEW015CB BKN016 28/27 Q1010 TEMPO TL1300 TS RMK CB IN APCH
WADD 181130Z 12005KT 9999 FEW015CB SCT016 28/27 Q1010 NOSIG RMK CB IN APCH
WADD 181100Z 17005KT 8000 VCSH BKN016 29/27 Q1009 NOSIG
WADD 181030Z 14004KT 100V170 9999 SCT016 29/27 Q1009 NOSIG
WADD 181000Z VRB02KT 9999 FEW017 29/27 Q1008 NOSIG
WADD 180930Z 14003KT 9999 FEW017 29/27 Q1008 NOSIG
WADD 180900Z VRB01KT 9999 FEW016 28/26 Q1008 NOSIG
WADD 180830Z VRB02KT 9999 SCT016 28/27 Q1008 RERA NOSIG
WADD 180800Z 20006KT 6000 -RA FEW015CB BKN016 27/26 Q1008 TEMPO TL0900 -RA
WADD 180730Z VRB06KT 9000 0500W -RA FEW014CB BKN015 27/27 Q1008 RETS TEMPO TL0830 RA
WADD 180700Z 14005KT 9999 TS FEW015CB SCT016 30/27 Q1008 NOSIG
WADD 180630Z 11007KT 9999 TS FEW015CB SCT016 31/27 Q1008 NOSIG
WADD 180600Z 12005KT 090V160 9999 TS FEW015CB SCT016 31/27 Q1009 NOSIG
WADD 180530Z 13005KT 070V160 9999 SCT016 31/28 Q1009 NOSIG
WADD 180500Z 15006KT 130V210 9999 SCT016 31/28 Q1009 NOSIG
WADD 180430Z 18003KT 9999 SCT016 31/27 Q1010 NOSIG
WADD 180400Z 14003KT 9999 SCT016 30/27 Q1010 NOSIG
WADD 180330Z 11004KT 070V140 9999 SCT016 30/27 Q1011 NOSIG
WADD 180300Z 15003KT 9999 SCT016 29/27 Q1011 NOSIG
WADD 180230Z 18005KT 9999 SCT016 29/27 Q1011 NOSIG
WADD 180200Z 13005KT 100V170 9999 FEW015CB BKN016 29/26 Q1012 NOSIG
WADD 180130Z 12004KT 050V160 9999 FEW015CB SCT016 29/26 Q1012 NOSIG
WADD 180100Z VRB02KT 9999 FEW015CB SCT016 28/26 Q1012 RETS NOSIG
WADD 180030Z 25004KT 9999 TS FEW015CB SCT016 27/25 Q1011 TEMPO TL0130 TS
WADD 180000Z 28007KT 8000 -TSRA FEW015CB BKN016 27/25 Q1011 TEMPO TL0100 -TSRA
WADD 172330Z 02005KT 330V060 9999 FEW015CB SCT016 27/25 Q1011 NOSIG
WADD 172300Z 01005KT 320V040 9999 SCT016 26/25 Q1010 NOSIG
WADD 172230Z 28004KT 9999 BKN016 27/25 Q1010 NOSIG
WADD 172200Z 27006KT 9999 SCT016 27/25 Q1010 NOSIG
WADD 172130Z 27006KT 9999 FEW017 27/25 Q1010 NOSIG
WADD 172100Z 27004KT 9999 FEW017 27/25 Q1009 NOSIG
WADD 172030Z 28004KT 9999 FEW017 26/25 Q1009 NOSIG
WADD 172000Z 28002KT 9999 FEW017 27/25 Q1009 NOSIG
WADD 171930Z 32003KT 9999 FEW017 27/25 Q1010 NOSIG
WADD 171900Z 03003KT 9999 SCT016 27/26 Q1010 NOSIG
WADD 171830Z 26002KT 9999 BKN016 27/25 Q1010 NOSIG
WADD 171800Z VRB02KT 9999 BKN016 26/25 Q1010 NOSIG
WADD 171730Z VRB02KT 9999 FEW017 27/25 Q1010 NOSIG
WADD 171700Z 25003KT 9999 SCT016 27/25 Q1011 NOSIG</description><pubDate>Tue, 18 Feb 2025 16:46:56 </pubDate></item></channel></rss>