<rss version="2.0"><channel><title>Aviation Weather METAR Data for WADD</title><link>https://aviationweather.gov/api/data/metar?ids=WADD&amp;hours=24</link><description>Latest METAR data for WADD</description><item><title>2025-09-09 03:05:51Z</title><link>https://aviationweather.gov/api/data/metar?ids=WADD&amp;hours=24</link><description>METAR WADD 090230Z 15014KT 9999 BKN016 27/25 Q1013 NOSIG
METAR WADD 090200Z 15016KT 9999 BKN016 26/25 Q1013 NOSIG
METAR WADD 090130Z 14012KT 9999 BKN016 26/25 Q1013 NOSIG
METAR WADD 090100Z 15013KT 9999 BKN015 26/25 Q1013 NOSIG
METAR WADD 090030Z 16011KT 8000 BKN015 25/25 Q1013 RERA NOSIG
METAR WADD 090000Z 16014KT 6000 -RA FEW014CB BKN015 25/25 Q1013 TEMPO TL0130 6000 -RA
METAR WADD 082330Z 14011KT 6000 -RA FEW014CB BKN015 26/25 Q1013 TEMPO TL2430 6000 -RA
METAR WADD 082300Z 15009KT 9999 FEW014CB BKN015 25/25 Q1012 RERA NOSIG
METAR WADD 082230Z 16009KT 9999 BKN015 26/24 Q1012 NOSIG
METAR WADD 082200Z 14010KT 9999 BKN015 26/25 Q1012 NOSIG
METAR WADD 082130Z 15007KT 9999 BKN015 26/25 Q1012 NOSIG
METAR WADD 082100Z 15009KT 9999 BKN015 RERA 25/25 Q1012 NOSIG
METAR WADD 082030Z 14011KT 6000 -RA FEW014CB BKN015 25/25 Q1012 TEMPO TL2130 6000 -RA
METAR WADD 082000Z 15012KT 9999 FEW014CB BKN015 25/25 Q1012 RERA NOSIG
METAR WADD 081930Z 14012KT 6000 -RA FEW014CB BKN015 25/25 Q1012 TEMPO TL2030 6000 -RA
METAR WADD 081900Z 14011KT 5000 RA FEW014CB BKN015 25/24 Q1012 TEMPO TL2000 5000 RA
METAR WADD 081830Z 13017KT 7000 -RA FEW014CB BKN015 26/24 Q1012 TEMPO TL1930 7000 -RA
METAR WADD 081800Z 15014KT 9999 FEW015CB BKN016 26/24 Q1012 NOSIG
 WADD 081730Z 14014KT 9999 SCT016 26/24 Q1012 NOSIG
METAR WADD 081700Z 14016KT 9999 SCT016 26/24 Q1013 NOSIG
METAR WADD 081630Z 14015KT 9999 SCT016 27/24 Q1013 NOSIG
METAR WADD 081600Z 15014KT 9999 SCT016 27/24 Q1013 NOSIG
METAR WADD 081530Z 15015KT 9999 SCT016 27/24 Q1013 NOSIG
METAR WADD 081500Z 15016KT 9999 SCT016 27/24 Q1013 NOSIG
METAR WADD 081430Z 15014KT 9999 SCT016 27/24 Q1013 NOSIG
METAR WADD 081400Z 15014KT 9999 SCT016 27/24 Q1013 NOSIG
METAR WADD 081330Z 15014KT 9999 SCT016 27/24 Q1013 NOSIG
METAR WADD 081300Z 15016KT 9999 SCT016 27/24 Q1013 NOSIG
METAR WADD 081230Z 15016KT 9999 BKN016 27/24 Q1013 NOSIG
METAR WADD 081200Z 15015KT 9999 BKN015 27/24 Q1012 NOSIG
METAR WADD 081130Z 15017KT 9999 BKN015 27/24 Q1012 NOSIG
METAR WADD 081100Z 15016KT 9999 BKN015 27/24 Q1011 NOSIG
METAR WADD 081030Z 14015KT 9999 BKN015 27/24 Q1011 NOSIG
METAR WADD 081000Z 14016KT 9999 FEW015CB BKN015 27/24 Q1011 NOSIG
METAR WADD 080930Z 15018KT 9999 FEW015CB BKN015 27/24 Q1011 NOSIG RMK CB IN CLIMB-OUT
METAR WADD 080900Z 15017G24KT 9999 FEW015CB BKN015 27/24 Q1011 NOSIG
METAR WADD 080830Z 15018KT 9999 FEW015CB BKN015 27/24 Q1010 NOSIG
 WADD 080800Z 15018KT 9999 FEW015CB BKN015 28/24 Q1011 NOSIG
METAR WADD 080730Z 15015KT 9999 BKN015 28/24 Q1011 NOSIG
METAR WADD 080700Z 14014KT 9999 SCT016 29/24 Q1011 NOSIG
METAR WADD 080630Z 14015KT 9999 SCT016 29/24 Q1011 NOSIG
METAR WADD 080500Z 14011KT 9999 SCT015 28/24 Q1012 NOSIG
METAR WADD 080430Z 13013KT 9999 SCT015 28/24 Q1012 NOSIG
METAR WADD 080400Z 13011KT 9999 SCT016 28/24 Q1013 NOSIG
METAR WADD 080330Z 13012KT 9999 BKN015 28/23 Q1013 NOSIG</description><pubDate>Tue, 09 Sep 2025 03:05:51 </pubDate></item></channel></rss>