<rss version="2.0"><channel><title>Aviation Weather METAR Data for WADD</title><link>https://aviationweather.gov/api/data/metar?ids=WADD&amp;hours=24</link><description>Latest METAR data for WADD</description><item><title>2025-07-07 15:45:16Z</title><link>https://aviationweather.gov/api/data/metar?ids=WADD&amp;hours=24</link><description>WADD 071530Z 13008KT 9999 SCT016 26/24 Q1014 NOSIG
WADD 071500Z 13008KT 9999 SCT016 27/24 Q1014 NOSIG
WADD 071430Z 13010KT 9999 SCT016 27/24 Q1014 NOSIG
WADD 071400Z 13008KT 9999 SCT016 26/24 Q1014 NOSIG
WADD 071330Z 13009KT 9999 SCT016 26/24 Q1014 NOSIG
WADD 071300Z 13009KT 9999 SCT016 27/24 Q1014 NOSIG
WADD 071230Z 13010KT 9999 SCT016 27/24 Q1013 NOSIG
WADD 071200Z 13011KT 9999 SCT016 27/24 Q1013 NOSIG
WADD 071130Z 13010KT 9999 SCT016 27/24 Q1013 NOSIG
WADD 071100Z 13010KT 9999 SCT016 27/24 Q1012 NOSIG
WADD 071030Z 13011KT 9999 SCT016 27/25 Q1012 NOSIG
WADD 071000Z 13013KT 9999 SCT016 27/24 Q1011 NOSIG
WADD 070930Z 13013KT 9999 SCT017 28/25 Q1011 NOSIG
WADD 070900Z 13015KT 9999 SCT017 28/24 Q1011 NOSIG
WADD 070830Z 13015KT 9999 SCT017 28/24 Q1010 NOSIG
WADD 070800Z 13016KT 9999 SCT016 29/24 Q1010 NOSIG
WADD 070730Z 11014KT 9999 SCT017 29/24 Q1010 NOSIG
WADD 070700Z 12014KT 9999 SCT017 29/25 Q1010 NOSIG
WADD 070630Z 11014KT 9999 SCT016 29/25 Q1011 NOSIG
WADD 070600Z 11012KT 9999 SCT017 29/25 Q1011 NOSIG
WADD 070530Z 12014KT 9999 FEW017 29/25 Q1011 NOSIG
WADD 070500Z 11015KT 9999 FEW017 29/25 Q1012 NOSIG
WADD 070430Z 11014KT 9999 FEW017 29/26 Q1012 NOSIG
WADD 070400Z 11012KT 9999 SCT017 29/26 Q1012 NOSIG
WADD 070330Z 10013KT 9999 FEW017 29/26 Q1012 NOSIG
WADD 070300Z 11013KT 9999 FEW017 29/26 Q1013 NOSIG
WADD 070230Z 11010KT 9999 FEW017 28/26 Q1013 NOSIG
WADD 070200Z 11013KT 9999 FEW017 28/26 Q1013 NOSIG
WADD 070130Z 11014KT 9999 FEW017 28/26 Q1013 NOSIG
WADD 070100Z 12014KT 9999 FEW017 27/26 Q1012 NOSIG
WADD 070030Z 11009KT 9999 BKN016 27/26 Q1012 NOSIG
WADD 070000Z 09006KT 9999 BKN016 26/26 Q1012 NOSIG
WADD 062330Z 07008KT 9999 BKN014 25/25 Q1012 NOSIG
WADD 062300Z 06009KT 9999 BKN014 25/25 Q1011 NOSIG
WADD 062230Z 10006KT 9999 SCT016 25/25 Q1011 NOSIG
WADD 062200Z 09007KT 9999 SCT016 24/24 Q1011 NOSIG
WADD 062130Z 09010KT 9999 BKN016 25/25 Q1012 NOSIG
WADD 062100Z 09006KT 9999 FEW015CB BKN016 24/24 Q1011 NOSIG
WADD 062030Z 06005KT 9999 FEW015CB BKN016 24/24 Q1012 NOSIG
WADD 062000Z 01003KT 9999 FEW015CB BKN016 23/23 Q1012 NOSIG
WADD 061930Z 34002KT 9999 FEW015CB BKN016 23/23 Q1012 NOSIG
WADD 061900Z 17002KT 9999 FEW015CB BKN016 24/24 Q1012 NOSIG
WADD 061830Z 13004KT 9999 FEW015CB BKN016 24/24 Q1012 NOSIG
WADD 061800Z 13004KT 9999 FEW015CB BKN016 24/24 Q1012 NOSIG
WADD 061730Z 12006KT 9999 FEW015CB BKN016 24/24 Q1013 RETS NOSIG
WADD 061700Z 15010KT 9999 TS FEW015CB BKN016 24/24 Q1013 TEMPO TL1800 TS
WADD 061630Z 14005KT 9999 TS FEW015CB BKN016 24/24 Q1013 TEMPO TL1730 TS
WADD 061600Z 13002KT 9999 TS FEW015CB BKN016 24/24 Q1013 TEMPO TL1700 TS</description><pubDate>Mon, 07 Jul 2025 15:45:16 </pubDate></item></channel></rss>