<rss version="2.0"><channel><title>Aviation Weather METAR Data for WADD</title><link>https://aviationweather.gov/api/data/metar?ids=WADD&amp;hours=24</link><description>Latest METAR data for WADD</description><item><title>2026-05-19 19:27:16Z</title><link>https://aviationweather.gov/api/data/metar?ids=WADD&amp;hours=24</link><description>METAR WADD 191900Z 35001KT 9999 FEW017 26/25 Q1009 NOSIG
METAR WADD 191830Z VRB01KT 9999 FEW017 26/25 Q1009 NOSIG
METAR WADD 191800Z 17002KT 9999 FEW017 27/25 Q1009 NOSIG
METAR WADD 191730Z 16003KT 9999 FEW017 27/25 Q1009 NOSIG
METAR WADD 191700Z 14004KT 9999 FEW017 27/25 Q1009 NOSIG
METAR WADD 191630Z 14004KT 9999 FEW017 27/25 Q1010 NOSIG
METAR WADD 191600Z 15003KT 9999 FEW017 27/25 Q1010 NOSIG
METAR WADD 191530Z 13003KT 9999 FEW017 27/25 Q1010 NOSIG
METAR WADD 191500Z 11003KT 9999 FEW017 27/25 Q1010 NOSIG
METAR WADD 191430Z 11003KT 9999 FEW017 27/25 Q1010 NOSIG
METAR WADD 191400Z 07004KT 030V120 9999 FEW017 27/25 Q1010 NOSIG
METAR WADD 191330Z 10003KT 9999 SCT017 27/25 Q1010 NOSIG
METAR WADD 191300Z 10005KT 9999 SCT017 27/25 Q1009 NOSIG
METAR WADD 191230Z 10005KT 9999 SCT017 27/25 Q1009 NOSIG
METAR WADD 191200Z 10004KT 9999 SCT017 27/25 Q1009 NOSIG
METAR WADD 191130Z 11004KT 9999 SCT017 27/25 Q1008 NOSIG
METAR WADD 191100Z 10003KT 9999 SCT017 27/25 Q1008 NOSIG
METAR WADD 191030Z 10003KT 9999 SCT017 28/25 Q1008 NOSIG
METAR WADD 191000Z 11006KT 9999 SCT017 28/25 Q1008 NOSIG
METAR WADD 190930Z 10005KT 9999 SCT017 29/25 Q1008 NOSIG
METAR WADD 190900Z 12005KT 9999 FEW017 30/24 Q1007 NOSIG
METAR WADD 190830Z 15005KT 9999 FEW017 30/24 Q1007 NOSIG
METAR WADD 190800Z 16007KT 9999 FEW017 30/24 Q1007 NOSIG
METAR WADD 190730Z 21003KT 9999 FEW017 30/24 Q1007 NOSIG
METAR WADD 190700Z 26006KT 9999 FEW017 30/26 Q1007 NOSIG
METAR WADD 190630Z 23007KT 9999 FEW017 29/26 Q1008 NOSIG
METAR WADD 190600Z 24005KT 9999 FEW017 30/26 Q1008 NOSIG
METAR WADD 190530Z 25005KT 9999 FEW017 30/25 Q1008 NOSIG
METAR WADD 190500Z 23004KT BKN024 BKN038 30/26 Q1009 NOSIG
METAR WADD 190430Z 22004KT 9999 FEW016 30/25 Q1009 NOSIG
METAR WADD 190400Z VRB02KT BKN021 BKN065 31/26 Q1010 NOSIG
METAR WADD 190330Z 17003KT 9999 SCT016 30/26 Q1010 NOSIG
METAR WADD 190300Z 03003KT 7000 FEW016CB FEW016 29/26 Q1011 NOSIG RMK CB IN CLIMB-OUT
METAR WADD 190230Z 03003KT 9999 FEW016CB FEW016 29/26 Q1011 NOSIG RMK CB IN CLIMB-OUT
METAR WADD 190200Z 04005KT 9999 FEW016CB SCT016 27/25 Q1011 NOSIG RMK CB IN CLIMB-OUT
METAR WADD 190130Z 05004KT 020V090 7000 BR FEW016CB BKN016 27/25 Q1011 NOSIG RMK CB IN CLIMB-OUT
SPECI WADD 190105Z 10003KT 7000 BR FEW016CB BKN016 27/25 Q1011 TEMPO FM0130 7000 -RA
METAR WADD 190100Z 10003KT 9999 FEW016CB BKN016 27/25 Q1011 RERA TEMPO FM0130 7000 -RA
METAR WADD 190030Z COR VRB02KT 9999 -RA FEW016CB BKN016 26/25 Q1011 TEMPO FM0100 7000 -RA
METAR WADD 190000Z 10004KT 9999 FEW016CB BKN016 26/25 Q1010 NOSIG
METAR WADD 182330Z 36003KT 9999 FEW016CB BKN016 26/25 Q1010 NOSIG
METAR WADD 182300Z 03002KT 9999 FEW016CB BKN016 25/25 Q1010 NOSIG
METAR WADD 182230Z COR 07002KT 9999 FEW016CB BKN016 25/24 Q1009 RERA NOSIG
METAR WADD 182200Z 06002KT 7000 -RA FEW016CB BKN016 25/24 Q1009 TEMPO TL2300 7000 -RA
METAR WADD 182130Z 35003KT 7000 -RA FEW016CB BKN016 25/25 Q1009 TEMPO TL2230 7000 -RA CB TO S
METAR WADD 182100Z 01002KT 7000 -RA BKN016 25/25 Q1009 TEMPO TL2200 7000 -RA
METAR WADD 182030Z 01004KT 7000 -RA BKN016 25/25 Q1008 TEMPO TL2130 7000 -RA
METAR WADD 182000Z 05004KT 7000 -RA BKN016 26/25 Q1008 TEMPO TL2100 7000 -RA
METAR WADD 181930Z 06004KT 7000 -RA BKN016 26/25 Q1008 TEMPO TL2030 7000 -RA</description><pubDate>Tue, 19 May 2026 19:27:16 </pubDate></item></channel></rss>