<rss version="2.0"><channel><title>Aviation Weather METAR Data for WADD</title><link>https://aviationweather.gov/api/data/metar?ids=WADD&amp;hours=24</link><description>Latest METAR data for WADD</description><item><title>2026-02-18 23:38:31Z</title><link>https://aviationweather.gov/api/data/metar?ids=WADD&amp;hours=24</link><description>METAR WADD 182330Z 27004KT 230V310 9999 SCT016 26/23 Q1009 NOSIG
METAR WADD 182300Z 30007KT 9999 SCT016 26/23 Q1009 NOSIG
METAR WADD 182230Z 33004KT 9999 SCT016 25/23 Q1009 NOSIG
METAR WADD 182200Z 32003KT 9999 SCT016 25/23 Q1009 NOSIG
METAR WADD 182130Z 35004KT 300V020 9999 BKN015 25/23 Q1009 NOSIG
METAR WADD 182100Z 35003KT 9999 BKN015 25/23 Q1009 RERA NOSIG
METAR WADD 182030Z 36005KT 7000 -RA BKN014 24/24 Q1008 TEMPO TL2200 -RA
METAR WADD 182000Z 33004KT 310V010 6000 -RA BKN014 25/24 Q1008 NOSIG
METAR WADD 181930Z 34005KT 6000 -RA BKN014 25/24 Q1008 NOSIG
METAR WADD 181900Z 25005KT 6000 -RA FEW014CB BKN014 25/25 Q1009 NOSIG
METAR WADD 181830Z 28009KT 4000 RA FEW014CB BKN014 25/24 Q1009 RETS TEMPO TL2000 6000 -RA
METAR WADD 181800Z 26010KT 6000 -TSRA FEW014CB BKN014 25/24 Q1009 NOS IG
METAR WADD 181730Z 26013KT 5000 -TSRA FEW014CB BKN014 25/24 Q1009 TEMPO TL1830 -TSRA RMK CB IN APCH
METAR WADD 181700Z 25010KT 4000 -TSRA FEW014CB BKN014 25/25 Q1009 TEM PO TL1830 6000 -TSRA RMK CB IN APCH
METAR WADD 181630Z 27018KT 2500 TSRA FEW014CB BKN014 24/24 Q1010 TEMPO TL1730 4000 TSRA RMK CB IN APCH AND CLIMB-OUT
METAR WADD 181600Z 26017KT 1700 TSRA FEW014CB BKN014 25/25 Q1010 TEMPO TL1730 4000 TSRA RMK CB IN APCH AND CLIMB-OUT
METAR WADD 181530Z 25009KT 1800 TSRA FEW014CB BKN014 25/25 Q1010 TEMP O TL1630 4000 TSRA RMK CB IN APCH AND CLIMB-OUT
METAR WADD 181500Z 25011KT 6000 -TSRA FEW014CB BKN014 27/26 Q1010 TEMPO TL1630 -TSRA RMK CB IN APCH AND CLIMB-OUT
METAR WADD 181430Z 16008KT 6000 -TSRA FEW013CB BKN014 27/26 Q1009 TEMPO TL1530 -TSRA RMK CB IN APCH AND CLIMB-OUT
METAR WADD 181400Z 13008G18KT 100V210 2000 TSRA FEW010CB BKN011 26/25 Q1009 TEMPO TL1530 5000 -TSRA RMK CB IN APCH AND CLIMB-OUT
METAR WADD 181330Z 05019KT 040V120 1600 +TSRA FEW013CB BKN014 28/26 Q 1008 TEMPO TL1400 4000 TSRA RMK CB IN APCH AND CLIMB-OUT
METAR WADD 181300Z 07005KT 340V090 7000 3000E -TSRA FEW015CB BKN015 26/24 Q1008 TEMPO TL1400 6000 -TSRA RMK CB IN APCH
METAR WADD 181230Z VRB02KT 9999 FEW015CB BKN015 29/26 Q1008 NOSIG RMK CB IN APCH
METAR WADD 181200Z 17003KT 9999 BKN015 29/26 Q1007 NOSIG
METAR WADD 181130Z VRB02KT 9999 SCT016 29/25 Q1007 NOSIG
METAR WADD 181100Z 25004KT 9999 SCT016 29/25 Q1007 NOSIG
METAR WADD 181030Z 24004KT 200V270 9999 SCT016 30/24 Q1006 NOSIG
METAR WADD 181000Z 24005KT 210V280 9999 FEW016 30/24 Q1006 NOSIG
METAR WADD 180900Z 26007KT 9999 FEW016 31/25 Q1005 NOSIG
METAR WADD 180830Z 25007KT 9999 FEW016 31/24 Q1005 NOSIG
METAR WADD 180800Z 26009KT 9999 FEW016 32/25 Q1005 NOSIG
METAR WADD 180730Z COR 26009KT 9999 FEW016 32/25 Q1006 NOSIG
METAR WADD 180700Z 25009KT 9999 FEW016 32/25 Q1006 NOSIG
METAR WADD 180630Z 25009KT 9999 FEW016 31/25 Q1006 NOSIG
METAR WADD 180600Z 26009KT 9999 FEW016 31/25 Q1006 NOSIG
METAR WADD 180530Z 25008KT 9999 SCT016 31/25 Q1007 NOSIG
METAR WADD 180500Z 24008KT 9999 SCT016 31/26 Q1007 NOSIG
METAR WADD 180430Z 25008KT 9999 SCT016 31/26 Q1007 NOSIG
METAR WADD 180400Z 24009KT 9999 SCT016 31/25 Q1007 NOSIG
METAR WADD 180330Z 25009KT 9999 SCT016 31/26 Q1007 NOSIG
METAR WADD 180300Z 24011KT 9999 FEW016 30/26 Q1008 NOSIG
METAR WADD 180230Z 25011KT 9999 FEW016 30/26 Q1008 NOSIG
METAR WADD 180200Z 25009KT 9999 FEW016 30/27 Q1008 NOSIG
METAR WADD 180130Z 25005KT 220V280 9999 FEW016 29/26 Q1008 NOSIG
METAR WADD 180100Z 29005KT 250V320 9999 FEW016 29/26 Q1008 NOSIG
METAR WADD 180030Z 29003KT 9999 FEW016 29/25 Q1008 NOSIG
METAR WADD 180000Z 03003KT 9999 FEW017 28/26 Q1007 NOSIG</description><pubDate>Wed, 18 Feb 2026 23:38:31 </pubDate></item></channel></rss>