<rss version="2.0"><channel><title>Aviation Weather METAR Data for WADD</title><link>https://aviationweather.gov/api/data/metar?ids=WADD&amp;hours=24</link><description>Latest METAR data for WADD</description><item><title>2025-05-13 14:48:37Z</title><link>https://aviationweather.gov/api/data/metar?ids=WADD&amp;hours=24</link><description>WADD 131430Z 11009KT 9999 SCT016 28/26 Q1010 NOSIG
WADD 131400Z 11011KT 9999 SCT016 Q1010 NOSIG
WADD 131330Z 11008KT 9999 SCT017 28/26 Q1010 NOSIG
WADD 131300Z 10009KT 9999 SCT017 27/26 Q1010 NOSIG
WADD 131230Z 12009KT 9999 SCT016 27/26 Q1010 NOSIG
WADD 131200Z 12009KT 9999 SCT016 27/26 Q1010 NOSIG
WADD 131130Z 13008KT 9999 SCT016 27/26 Q1009 NOSIG
WADD 131100Z 12006KT 9999 SCT016 27/26 Q1009 NOSIG
WADD 131000Z 11012KT 9999 SCT016 27/26 Q1008 NOSIG
WADD 130930Z 12011KT 9999 SCT016 28/26 Q1008 NOSIG
WADD 130900Z 12008KT 9999 FEW015CB BKN015 28/27 Q1008 RERA NOSIG
WADD 130830Z 09010KT 5000 -RA FEW014CB BKN014 28/26 Q1008 TEMPO TL0930 5000 -RA
WADD 130800Z 11011KT 9999 FEW015CB BKN015 29/26 Q1007 NOSIG
WADD 130730Z 11012KT 9999 SCT016 29/26 Q1007 NOSIG
WADD 130700Z 11014KT 9999 SCT016 SCT190 29/26 Q1007 NOSIG
WADD 130630Z 11014KT 9999 SCT016 31/26 Q1007 NOSIG
WADD 130600Z 12013KT 9999 SCT017 31/27 Q1008 NOSIG
WADD 130530Z 14015KT 9999 FEW017 30/27 Q1008 NOSIG
WADD 130500Z 12015KT 9999 FEW017 30/27 Q1008 NOSIG
WADD 130430Z 12013KT 9999 SCT017 30/27 Q1008 NOSIG
WADD 130400Z 11012KT 9999 SCT017 30/26 Q1009 NOSIG
WADD 130330Z 11011KT 9999 SCT017 30/26 Q1009 NOSIG
WADD 130300Z 11011KT 9999 SCT017 30/26 Q1010 NOSIG
WADD 130230Z 10010KT 9999 FEW017 30/27 Q1010 NOSIG
WADD 130200Z 09010KT 9999 SCT017 30/26 Q1010 NOSIG
WADD 130130Z 11011KT 9999 FEW017 29/26 Q1010 NOSIG
WADD 130100Z 11012KT 9999 SCT017 29/26 Q1010 NOSIG
WADD 130030Z 10011KT 9999 SCT017 29/26 Q1010 NOSIG
WADD 130000Z 09011KT 9999 SCT016 28/26 Q1010 NOSIG
WADD 122330Z 10009KT 9999 BKN016 27/26 Q1010 NOSIG
WADD 122230Z 05006KT 9999 BKN016 26/26 Q1009 NOSIG
WADD 122200Z 06006KT 9999 BKN016 26/26 Q1008 NOSIG
WADD 122130Z 08007KT 9999 FEW016 26/26 Q1008 NOSIG
WADD 122100Z 08007KT 9999 FEW016 26/25 Q1008 NOSIG
WADD 122030Z 08005KT 9999 SCT016 26/25 Q1008 NOSIG
WADD 121930Z 09009KT 9999 SCT016 27/26 Q1008 NOSIG
WADD 121900Z 10009KT 9999 FEW016CB SCT016 27/25 Q1008 NOSIG
WADD 121830Z 10008KT 9999 FEW016CB SCT016 27/26 Q1009 NOSIG
WADD 121800Z 11006KT 9999 FEW016CB SCT016 27/26 Q1009 NOSIG
WADD 121730Z 10006KT 9999 FEW016CB FEW016 27/26 Q1009 NOSIG
WADD 121700Z 11006KT 9999 FEW016CB FEW016 27/26 Q1009 NOSIG
WADD 121630Z 09006KT 9999 SCT016 27/26 Q1009 NOSIG
WADD 121600Z 09005KT 9999 SCT016 27/26 Q1009 NOSIG
WADD 121530Z 10005KT 9999 SCT016 27/26 Q1010 NOSIG
WADD 121500Z 10008KT 9999 FEW016CB SCT016 27/26 Q1009 NOSIG</description><pubDate>Tue, 13 May 2025 14:48:37 </pubDate></item></channel></rss>