<rss version="2.0"><channel><title>Aviation Weather METAR Data for WADD</title><link>https://aviationweather.gov/api/data/metar?ids=WADD&amp;hours=24</link><description>Latest METAR data for WADD</description><item><title>2025-08-19 12:53:04Z</title><link>https://aviationweather.gov/api/data/metar?ids=WADD&amp;hours=24</link><description>WADD 191230Z 12012KT 9999 SCT016 27/25 Q1012 NOSIG
WADD 191200Z 13014KT 9999 SCT016 27/25 Q1011 NOSIG
WADD 191130Z 13012KT 9999 SCT016 27/26 Q1011 NOSIG
WADD 191100Z 13012KT 9999 SCT016 27/25 Q1011 NOSIG
WADD 191030Z 13012KT 9999 FEW014CB BKN015 27/26 Q1011 RERA NOSIG
WADD 191000Z 13015KT 9999 BKN016 28/25 Q1010 NOSIG
WADD 190930Z 13016KT 9999 BKN016 28/25 Q1010 NOSIG
WADD 190900Z 13014KT 9999 SCT016 28/25 Q1010 NOSIG
WADD 190830Z 14015KT 9999 SCT016 29/26 Q1009 NOSIG
WADD 190800Z 14016KT 9999 SCT016 29/25 Q1010 NOSIG
WADD 190730Z 14015KT 9999 FEW017 29/25 Q1010 NOSIG
WADD 190700Z 12014KT 9999 FEW017 29/25 Q1010 NOSIG
WADD 190630Z 12015KT 9999 SCT016 29/26 Q1010 NOSIG
WADD 190600Z 12013KT 9999 BKN016 29/25 Q1010 NOSIG
WADD 190530Z 12013KT 9999 SCT016 29/25 Q1011 NOSIG
WADD 190500Z 13016KT 9999 SCT016 29/25 Q1011 NOSIG
WADD 190430Z 12015KT 9999 SCT016 29/26 Q1012 NOSIG
WADD 190400Z 11014KT 9999 SCT016 29/25 Q1012 NOSIG
WADD 190330Z 11013KT 9999 SCT016 29/26 Q1013 NOSIG
WADD 190300Z 10014KT 9999 FEW015CB SCT016 29/25 Q1013 NOSIG
WADD 190230Z 11013KT 9999 FEW015CB SCT016 28/25 Q1013 NOSIG
WADD 190200Z 11012KT 9999 FEW015CB SCT016 28/25 Q1013 NOSIG
WADD 190130Z 10012KT 9999 FEW015CB BKN016 28/25 Q1013 NOSIG
WADD 190100Z 09010KT 9999 FEW015CB BKN016 27/25 Q1013 NOSIG
WADD 190030Z 09007KT 9999 FEW015CB BKN016 27/26 Q1013 NOSIG
WADD 190000Z 08009KT 9999 FEW015CB BKN016 27/25 Q1013 NOSIG
WADD 182330Z 11009KT 9999 BKN015 27/25 Q1013 NOSIG
WADD 182300Z 12006KT 9999 BKN015 27/25 Q1012 NOSIG
WADD 182230Z 14007KT 9999 BKN015 26/26 Q1012 NOSIG
WADD 182200Z 13007KT 9999 BKN015 26/25 Q1012 NOSIG
WADD 182130Z 12007KT 9999 SCT016 26/26 Q1011 NOSIG
WADD 182100Z 13007KT 9999 SCT016 26/25 Q1011 NOSIG
WADD 182030Z 12008KT 9999 SCT016 26/25 Q1011 NOSIG
WADD 182000Z 12008KT 9999 SCT016 26/25 Q1011 NOSIG
WADD 181930Z 11010KT 9999 SCT016 26/25 Q1011 NOSIG
WADD 181900Z 12008KT 9999 SCT016 26/25 Q1011 NOSIG
WADD 181830Z 12008KT 9999 SCT016 26/25 Q1011 NOSIG
WADD 181800Z 13007KT 9999 SCT016 26/25 Q1011 NOSIG
WADD 181730Z 14006KT 9999 SCT016 26/25 Q1012 NOSIG
WADD 181700Z 14007KT 9999 SCT016 26/25 Q1012 NOSIG
WADD 181630Z 15006KT 9999 SCT016 26/25 Q1012 NOSIG
WADD 181600Z 15006KT 9999 SCT016 26/25 Q1012 NOSIG
WADD 181530Z 14005KT 9999 SCT016 26/25 Q1013 NOSIG
WADD 181500Z 13004KT 9999 SCT016 26/25 Q1013 NOSIG
WADD 181430Z 12003KT 9999 SCT016 26/24 Q1013 NOSIG
WADD 181400Z 06004KT 9999 SCT016 26/24 Q1013 NOSIG
WADD 181330Z 11005KT 9999 SCT016 26/24 Q1013 NOSIG
WADD 181300Z 09008KT 9999 SCT016 26/24 Q1013 NOSIG</description><pubDate>Tue, 19 Aug 2025 12:53:04 </pubDate></item></channel></rss>