<rss version="2.0"><channel><title>Aviation Weather METAR Data for WADD</title><link>https://aviationweather.gov/api/data/metar?ids=WADD&amp;hours=24</link><description>Latest METAR data for WADD</description><item><title>2025-03-12 10:44:28Z</title><link>https://aviationweather.gov/api/data/metar?ids=WADD&amp;hours=24</link><description>WADD 121030Z 23004KT 9999 FEW017 30/24 Q1007 NOSIG
WADD 121000Z 24006KT 200V270 9999 FEW017 31/24 Q1006 NOSIG
WADD 120930Z 26008KT 9999 FEW016 31/24 Q1006 NOSIG
WADD 120900Z 26007KT 9999 FEW016 31/25 Q1005 NOSIG
WADD 120830Z 26009KT 9999 FEW016 31/26 Q1005 NOSIG
WADD 120800Z 26011KT 9999 FEW016 32/26 Q1005 NOSIG
WADD 120730Z 26010KT 9999 FEW015 32/25 Q1005 NOSIG
WADD 120700Z 25008KT 9999 FEW015 32/25 Q1005 NOSIG
WADD 120630Z 25009KT 9999 FEW016 32/27 Q1006 NOSIG
WADD 120600Z 25007KT 200V280 9999 FEW016 32/27 Q1006 NOSIG
WADD 120530Z 25006KT 200V290 9999 FEW015CB SCT015 32/27 Q1006 NOSIG
WADD 120500Z VRB05KT 9999 SCT015 32/27 Q1007 NOSIG
WADD 120430Z VRB04KT 9999 SCT015 32/26 Q1008 NOSIG
WADD 120400Z 24007KT 9999 FEW017 31/28 Q1009 NOSIG
WADD 120330Z 25005KT 9999 FEW017 31/28 Q1009 NOSIG
WADD 120300Z 24004KT 9999 FEW017 31/28 Q1009 NOSIG
WADD 120230Z 26005KT 210V280 9999 FEW017 31/28 Q1010 NOSIG
WADD 120200Z 30005KT 270V330 9999 FEW017 30/28 Q1010 NOSIG
WADD 120130Z 32005KT 9999 FEW017 30/28 Q1010 NOSIG
WADD 120100Z 01005KT 330V040 9999 FEW017 29/27 Q1010 NOSIG
WADD 120030Z 35004KT 330V050 FEW017 29/27 Q1009 NOSIG
WADD 120000Z 02004KT 9999 FEW017 28/26 Q1009 NOSIG
WADD 112330Z 04004KT 9999 FEW017 27/25 Q1009 NOSIG
WADD 112300Z 03004KT 9999 FEW017 26/26 Q1008 NOSIG
WADD 112230Z 02004KT 9999 FEW017 26/25 Q1008 NOSIG
WADD 112200Z 01003KT 9999 FEW017 26/26 Q1008 NOSIG
WADD 112130Z 07003KT 9999 FEW017 26/26 Q1008 NOSIG
WADD 112100Z 02003KT 9999 FEW017 27/26 Q1007 NOSIG
WADD 112030Z 01005KT 9999 FEW017 27/26 Q1007 NOSIG
WADD 112000Z 01005KT 9999 FEW017 27/27 Q1007 NOSIG
WADD 111930Z 32005KT 9999 FEW017 27/27 Q1007 NOSIG
WADD 111900Z 34006KT 9999 FEW017 27/27 Q1007 NOSIG
WADD 111830Z 36005KT 9999 FEW017 27/27 Q1007 NOSIG
WADD 111800Z 32007KT 9999 FEW017 28/28 Q1008 NOSIG
WADD 111730Z 34005KT 320V050 9999 FEW017 28/28 Q1008 NOSIG
WADD 111700Z 34007KT 330V030 9999 FEW017 28/28 Q1008 NOSIG
WADD 111630Z 32007KT 310V050 9999 FEW017 28/28 Q1009 NOSIG
WADD 111600Z 33007KT 9999 FEW017 28/27 Q1009 NOSIG
WADD 111530Z 33006KT 260V360 9999 FEW017 28/27 Q1009 NOSIG
WADD 111500Z 03003KT 9999 FEW017 28/27 Q1009 NOSIG
WADD 111430Z 07004KT 9999 FEW017 28/27 Q1009 NOSIG
WADD 111400Z 05004KT 360V070 9999 FEW017 29/27 Q1009 NOSIG
WADD 111330Z 04004KT 9999 FEW017 29/27 Q1009 NOSIG
WADD 111300Z 03003KT 9999 FEW017 29/27 Q1009 NOSIG
WADD 111230Z 02003KT 9999 FEW017 29/27 Q1009 NOSIG
WADD 111200Z VRB02KT 9999 FEW017 29/27 Q1008 NOSIG
WADD 111130Z 09003KT 9999 FEW017 29/27 Q1008 NOSIG
WADD 111100Z 11005KT 9999 FEW017 30/27 Q1008 NOSIG</description><pubDate>Wed, 12 Mar 2025 10:44:28 </pubDate></item></channel></rss>