<rss version="2.0"><channel><title>Aviation Weather METAR Data for WADD</title><link>https://aviationweather.gov/api/data/metar?ids=WADD&amp;hours=24</link><description>Latest METAR data for WADD</description><item><title>2026-03-26 19:21:05Z</title><link>https://aviationweather.gov/api/data/metar?ids=WADD&amp;hours=24</link><description>METAR WADD 261900Z 03002KT 9999 SCT016 26/26 Q1008 NOSIG
METAR WADD 261830Z 15001KT 9999 SCT016 26/26 Q1008 NOSIG
METAR WADD 261800Z VRB01KT 9999 SCT016 26/26 Q1008 NOSIG
METAR WADD 261730Z 07004KT 020V100 9999 SCT016 26/26 Q1008 NOSIG
METAR WADD 261700Z VRB01KT 9999 SCT016 26/26 Q1009 NOSIG
METAR WADD 261630Z VRB02KT 9999 SCT016 26/26 Q1009 NOSIG
METAR WADD 261600Z 14003KT 8000 BKN016 26/26 Q1010 NOSIG
METAR WADD 261530Z VRB02KT 6000 FEW015CB BKN016 26/26 Q1010 RETSRA NO SIG
METAR WADD 261500Z 22004KT 180V250 4000 -TSRA FEW014CB BKN015 26/26 Q 1011 TEMPO TL1500 4000 -TSRA RMK CB IN CLIMB-OUT
METAR WADD 261430Z 24007KT 4000 -TSRA FEW014CB BKN015 26/26 Q1010 TEM PO TL1500 4000 -TSRA RMK CB IN CLIMB-OUT
METAR WADD 261400Z 25007KT 230V300 3000 TSRA FEW014CB BKN015 27/26 Q1010 TEMPO TL1500 3000 RA RMK CB IN APCH AND CLIMB-OUT
SPECI WADD 261346Z 30006KT 280V340 3000 TSRA FEW014CB BKN015 27/25 Q1010 TEMPO TL1500 3000 RA RMK CB IN APCH AND CLIMB-OUT
SPECI WADD 261344Z 30006KT 280V340 3000 RA FEW014CB BKN015 27/25 Q1010 NOSIG RMK CB IN APCH AND CLIMB-OUT
METAR WADD 261330Z 32007KT 6000 FEW015CB SCT016 28/24 Q1010 NOSIG RMK CB IN CLIMB-OUT
METAR WADD 261300Z 33011KT 8000 FEW016CB SCT017 28/24 Q1009 NOSIG RMK CB IN APCH
METAR WADD 261230Z 17005KT 9999 FEW016CB SCT017 29/25 Q1009 NOSIG
METAR WADD 261200Z 13006KT 9999 SCT017 29/25 Q1008 NOSIG
METAR WADD 261130Z 15005KT 110V180 9999 SCT017 29/25 Q1008 NOSIG
METAR WADD 261100Z 16008KT 9999 SCT017 30/25 Q1008 NOSIG
METAR WADD 261030Z 15009KT 9999 FEW016CB SCT017 30/25 Q1007 NOSIG
METAR WADD 261000Z 15010KT 9999 FEW016CB SCT017 30/25 Q1007 NOSIG
METAR WADD 260930Z 15012KT 9999 FEW016CB SCT017 30/26 Q1006 NOSIG
METAR WADD 260900Z 16010KT 9999 FEW016CB SCT017 31/26 Q1006 NOSIG
METAR WADD 260830Z 16013KT 9999 SCT017 31/26 Q1006 NOSIG
METAR WADD 260800Z 14012KT 9999 SCT017 31/26 Q1005 NOSIG
METAR WADD 260730Z 16011KT 9999 SCT017 32/26 Q1005 NOSIG
METAR WADD 260700Z 10009KT 9999 FEW017 32/26 Q1005 NOSIG
METAR WADD 260630Z COR 12008KT 070V250 9999 FEW017 34/25 Q1006 NOSIG
METAR WADD 260600Z 24005KT 9999 FEW017 34/24 Q1006 NOSIG
METAR WADD 260530Z 11009KT 9999 FEW017 33/27 Q1006 NOSIG
METAR WADD 260500Z 21005KT 130V290 9999 FEW017 34/24 Q1006 NOSIG
METAR WADD 260430Z 12006KT 070V160 9999 FEW017 32/26 Q1007 NOSIG
METAR WADD 260400Z 09005KT 050V120 9999 FEW017 32/27 Q1007 NOSIG
METAR WADD 260330Z 09006KT 9999 FEW017 31/27 Q1008 NOSIG
METAR WADD 260300Z 12006KT 080V160 9999 FEW017 31/27 Q1008 NOSIG
METAR WADD 260230Z 11005KT 9999 FEW017 31/26 Q1009 NOSIG
METAR WADD 260200Z 10004KT 060V130 9999 FEW017 32/27 Q1009 NOSIG
METAR WADD 260130Z 08004KT 060V140 9999 FEW017 31/27 Q1009 NOSIG
METAR WADD 260100Z 12004KT 080V170 9999 FEW017 30/27 Q1009 NOSIG
METAR WADD 260030Z 13004KT 9999 FEW017 29/27 Q1009 NOSIG
METAR WADD 260000Z 09003KT 9999 FEW017 28/27 Q1008 NOSIG
METAR WADD 252330Z 03003KT 9999 FEW017 27/27 Q1007 NOSIG
METAR WADD 252300Z VRB02KT 9999 FEW017 26/26 Q1007 NOSIG
METAR WADD 252230Z 01005KT 9999 FEW017 26/26 Q1007 NOSIG
METAR WADD 252200Z 35004KT 9999 FEW017 26/26 Q1007 NOSIG
METAR WADD 252130Z 30003KT 9999 FEW017 27/27 Q1007 NOSIG
METAR WADD 252100Z 31007KT 9999 FEW017 27/27 Q1007 NOSIG
METAR WADD 252030Z 26004KT 9999 FEW017 25/25 Q1007 NOSIG
METAR WADD 252000Z 27002KT 9999 SCT016 25/25 Q1007 NOSIG
METAR WADD 251930Z 22005KT 9000 FEW014CB BKN015 25/25 Q1007 RERA NOSI G</description><pubDate>Thu, 26 Mar 2026 19:21:05 </pubDate></item></channel></rss>