<rss version="2.0"><channel><title>Aviation Weather METAR Data for WADD</title><link>https://aviationweather.gov/api/data/metar?ids=WADD&amp;hours=24</link><description>Latest METAR data for WADD</description><item><title>2025-11-06 23:24:11Z</title><link>https://aviationweather.gov/api/data/metar?ids=WADD&amp;hours=24</link><description>METAR WADD 062300Z 33007KT 9999 SCT016 27/25 Q1009 NOSIG
METAR WADD 062230Z 31006KT 9999 SCT016 27/25 Q1009 NOSIG
METAR WADD 062200Z 30006KT 9999 SCT016 26/24 Q1009 NOSIG
METAR WADD 062130Z 28005KT 9999 SCT016 26/24 Q1008 NOSIG
METAR WADD 062100Z 29007KT 9999 SCT016 27/24 Q1008 NOSIG
METAR WADD 062030Z 29008KT 9999 SCT016 27/24 Q1008 NOSIG
METAR WADD 062000Z 28009KT 9999 SCT016 27/24 Q1008 NOSIG
METAR WADD 061930Z 29008KT 9999 SCT016 27/24 Q1008 NOSIG
METAR WADD 061900Z 30008KT 9999 SCT016 27/24 Q1008 NOSIG
METAR WADD 061830Z 29010KT 9999 SCT016 27/24 Q1008 NOSIG
METAR WADD 061800Z 29009KT 9999 SCT016 27/25 Q1008 NOSIG
METAR WADD 061730Z 28010KT 9999 SCT016 27/25 Q1008 NOSIG
METAR WADD 061700Z 30010KT 9999 SCT016 27/25 Q1009 NOSIG
METAR WADD 061630Z 31011KT 9999 SCT016 27/25 Q1009 NOSIG
METAR WADD 061600Z 28010KT 9999 SCT016 27/25 Q1009 NOSIG
METAR WADD 061530Z 27010KT 9999 SCT016 27/25 Q1009 NOSIG
METAR WADD 061500Z 28012KT 9999 SCT016 28/25 Q1010 NOSIG
METAR WADD 061430Z 28011KT 9999 SCT016 27/25 Q1009 NOSIG
METAR WADD 061400Z 28011KT 9999 SCT016 27/25 Q1009 NOSIG
METAR WADD 061330Z 28012KT 9999 BKN016 27/25 Q1009 NOSIG
METAR WADD 061300Z 28010KT 9999 BKN016 27/25 Q1009 NOSIG
METAR WADD 061230Z 28009KT 9999 BKN016 27/25 Q1009 RERA NOSIG
METAR WADD 061200Z 27008KT 8000 -RA BKN016 27/25 Q1009 TEMPO TL1300 -RA
METAR WADD 061130Z 29011KT 9999 SCT016 28/25 Q1008 NOSIG
METAR WADD 061100Z 29011KT 9999 SCT016 28/24 Q1008 NOSIG
METAR WADD 061030Z 28010KT 9999 SCT016 27/24 Q1008 NOSIG
METAR WADD 061000Z 27011KT 9999 SCT016 27/24 Q1007 NOSIG
METAR WADD 060930Z 27013KT 9999 SCT016 28/24 Q1007 NOSIG
METAR WADD 060900Z 27014KT 9999 SCT016 28/24 Q1007 NOSIG
METAR WADD 060830Z 26014KT 9999 SCT016 29/25 Q1007 NOSIG
METAR WADD 060800Z 27015KT 9999 SCT016 29/24 Q1007 NOSIG
METAR WADD 060730Z 28015KT 9999 BKN016 29/24 Q1007 NOSIG
METAR WADD 060700Z 29014KT 9999 BKN016 29/24 Q1007 NOSIG
METAR WADD 060630Z 28016KT 9999 SCT016 29/25 Q1007 NOSIG
METAR WADD 060600Z 28016KT 9999 SCT016 29/25 Q1007 NOSIG
METAR WADD 060530Z 28018KT 9999 SCT015 29/25 Q1008 NOSIG
METAR WADD 060500Z 29015KT 9999 SCT016 29/25 Q1009 NOSIG
METAR WADD 060430Z 29011KT 9999 SCT016 28/26 Q1009 NOSIG
METAR WADD 060400Z 30013KT 9999 SCT016 27/26 Q1009 RERA NOSIG
METAR WADD 060330Z 30007KT 8000 -RA FEW015CB BKN016 27/25 Q1010 TEMPO TL0400 8000 -RA RMK CB IN APCH
METAR WADD 060300Z 29011KT 8000 -RA FEW015CB BKN016 27/25 Q1010 TEMPO TL0300 8000 -RA
METAR WADD 060230Z 31010KT 9999 FEW015CB BKN016 27/25 Q1011 NOSIG
METAR WADD 060200Z 30011KT 9999 FEW015CB BKN016 27/25 Q1011 NOSIG
METAR WADD 060100Z 28014KT 7000 -RA FEW014CB BKN015 26/25 Q1011 BECMG TL0200 7000 -RA
METAR WADD 060030Z 29013KT 6000 -RA FEW014CB BKN015 27/25 Q1011 BECMG TL0130 6000 -RA
METAR WADD 060000Z 28015KT 6000 -RA FEW014CB BKN015 26/25 Q1010 TEMPO TL0100 6000 -RA RMK CB IN APCH
METAR WADD 052330Z 28015KT 7000 -RA FEW014CB BKN015 26/25 Q1010 TEMPO TL0030 7000 -RA RMK CB IN APCH</description><pubDate>Thu, 06 Nov 2025 23:24:11 </pubDate></item></channel></rss>