<rss version="2.0"><channel><title>Aviation Weather METAR Data for WADD</title><link>https://aviationweather.gov/api/data/metar?ids=WADD&amp;hours=24</link><description>Latest METAR data for WADD</description><item><title>2025-09-27 04:43:17Z</title><link>https://aviationweather.gov/api/data/metar?ids=WADD&amp;hours=24</link><description>METAR WADD 270430Z 13013KT 9999 SCT017 30/26 Q1011 NOSIG
METAR WADD 270400Z 12013KT 9999 SCT016 30/26 Q1011 NOSIG
METAR WADD 270330Z 12013KT 9999 SCT016 30/26 Q1012 NOSIG
METAR WADD 270300Z 12012KT 9999 SCT016 30/26 Q1012 NOSIG
METAR WADD 270230Z 10010KT 9999 SCT016 30/26 Q1012 NOSIG
METAR WADD 270200Z 11011KT 9999 SCT016 30/26 Q1013 NOSIG
METAR WADD 270130Z 11011KT 9999 SCT016 29/26 Q1013 NOSIG
METAR WADD 270100Z 11009KT 070V130 9999 SCT016 29/26 Q1013 NOSIG
METAR WADD 270030Z 11007KT 9999 SCT016 29/26 Q1013 NOSIG
METAR WADD 270000Z 10007KT 9999 SCT016 28/26 Q1013 NOSIG
METAR WADD 262330Z 09006KT 9999 SCT016 27/25 Q1012 NOSIG
METAR WADD 262300Z 07005KT 9999 SCT016 26/25 Q1012 NOSIG
METAR WADD 262230Z 07005KT 9999 SCT016 26/25 Q1012 NOSIG
METAR WADD 262200Z 08006KT 9999 SCT016 26/25 Q1011 NOSIG
 WADD 262130Z 08006KT 9999 SCT016 26/25 Q1011 NOSIG
METAR WADD 262100Z 08005KT 9999 BKN015 26/25 Q1011 NOSIG
METAR WADD 262030Z 07005KT 9999 BKN015 26/25 Q1011
 WADD 262000Z 07005KT 9999 BKN015 26/25 Q1011 NOSIG
METAR WADD 261930Z 08006KT 9999 BKN015 26/25 Q1011 NOSIG
METAR WADD 261900Z 08006KT 9999 BKN015 26/25 Q1011 NOSIG
METAR WADD 261830Z 12005KT 9999 BKN015 27/25 Q1011 NOSIG
METAR WADD 261800Z 11005KT 9999 BKN015 27/25 Q1011 NOSIG
 WADD 261730Z 10005KT 9999 SCT016 27/25 Q1011 NOSIG
METAR WADD 261700Z 08007KT 9999 SCT016 26/25 Q1012 NOSIG
METAR WADD 261630Z 08007KT 9999 SCT016 26/25 Q1012 NOSIG
METAR WADD 261600Z 10007KT 9999 SCT016 27/26 Q1012 NOSIG
METAR WADD 261530Z 10006KT 9999 SCT016 27/26 Q1012 NOSIG
METAR WADD 261500Z 09006KT 9999 FEW016 26/25 Q1012 NOSIG
METAR WADD 261430Z 10007KT 9999 FEW016 27/26 Q1012 NOSIG
METAR WADD 261400Z 10006KT 9999 FEW016 27/26 Q1012 NOSIG
METAR WADD 261330Z 09006KT 9999 FEW017 27/26 Q1012 NOSIG
METAR WADD 261300Z 12010KT 9999 FEW017 27/26 Q1012 NOSIG
METAR WADD 261230Z 11010KT 9999 FEW017 27/26 Q1011 NOSIG
METAR WADD 261200Z 11010KT 9999 SCT017 27/26 Q1011 NOSIG
METAR WADD 261130Z 12010KT 9999 FEW017 27/25 Q1011 NOSIG
METAR WADD 261100Z 12009KT 9999 FEW017 27/25 Q1010 NOSIG
METAR WADD 261030Z 12011KT 9999 FEW017 28/25 Q1010 NOSIG
METAR WADD 261000Z 13013KT 9999 FEW017 28/25 Q1010 NOSIG
METAR WADD 260930Z 14014KT 9999 FEW017 28/25 Q1010 NOSIG
METAR WADD 260900Z 14014KT 9999 FEW017 29/25 Q1009 NOSIG
METAR WADD 260830Z 13015KT 9999 FEW017 29/25 Q1009 NOSIG
METAR WADD 260800Z 14013KT 9999 FEW017 29/25 Q1009 NOSIG
METAR WADD 260730Z 15014KT 9999 FEW017 30/25 Q1009 NOSIG
METAR WADD 260700Z 15014KT 9999 FEW017 30/25 Q1010 NOSIG
METAR WADD 260630Z 16014KT 9999 FEW017 30/25 Q1010 NOSIG
METAR WADD 260600Z 15013KT 9999 FEW017 30/25 Q1010 NOSIG
METAR WADD 260530Z 14014KT 9999 FEW017 30/25 Q1010 NOSIG
METAR WADD 260500Z 13015KT 9999 FEW017 30/25 Q1011 NOSIG</description><pubDate>Sat, 27 Sep 2025 04:43:17 </pubDate></item></channel></rss>