<rss version="2.0"><channel><title>Aviation Weather METAR Data for WADD</title><link>https://aviationweather.gov/api/data/metar?ids=WADD&amp;hours=24</link><description>Latest METAR data for WADD</description><item><title>2026-04-14 22:54:34Z</title><link>https://aviationweather.gov/api/data/metar?ids=WADD&amp;hours=24</link><description>METAR WADD 142230Z VRB01KT 9999 FEW017 26/24 Q1010 NOSIG
METAR WADD 142200Z 03003KT 9999 FEW017 26/24 Q1010 NOSIG
METAR WADD 142130Z 14004KT 9999 SCT016 27/24 Q1010 NOSIG
METAR WADD 142100Z 19003KT 9999 FEW015CB SCT016 26/24 Q1010 NOSIG
METAR WADD 142030Z VRB02KT 6000 FEW015CB SCT016 27/24 Q1010 NOSIG RMK CB IN APCH
METAR WADD 142000Z 31003KT 6000 FEW015CB SCT016 26/24 Q1009 NOSIG RMK CB IN CLIMB-OUT
METAR WADD 141930Z VRB02KT 6000 FEW015CB SCT016 27/24 Q1009 RERA NOSIG RMK CB IN APCH AND CLIMB-OUT
METAR WADD 141900Z 09005KT 060V130 4000 -RA FEW016CB SCT016 27/24 Q1009 TEMPO TL2000 4000 RA RMK CB IN APCH AND CLIMB-OUT
SPECI WADD 141851Z 07006KT 3000 RA FEW015CB SCT016 27/24 Q1010 TEMPO TL2000 3000 RA RMK CB IN APCH AND CLIMB-OUT
METAR WADD 141830Z 07006KT 8000 FEW016CB SCT017 27/24 Q1010 NOSIG RMK CB IN CLIMB-OUT
METAR WADD 141800Z 07010KT 8000 FEW016CB SCT017 27/24 Q1010 NOSIG RMK CB IN CLIMB-OUT
METAR WADD 141730Z 12010KT 8000 FEW016CB SCT017 29/26 Q1010 NOSIG RMK CB IN CLIMB-OUT
METAR WADD 141700Z 11008KT 9999 FEW017 28/25 Q1011 NOSIG
METAR WADD 141630Z 12010KT 9999 FEW017 29/25 Q1011 NOSIG
METAR WADD 141600Z 12010KT 9999 FEW017 29/25 Q1011 NOSIG
METAR WADD 141530Z 12011KT 9999 FEW017 29/25 Q1011 NOSIG
METAR WADD 141500Z 13011KT 9999 FEW017 29/25 Q1011 NOSIG
METAR WADD 141430Z 13011KT 9999 FEW017 29/25 Q1011 NOSIG
METAR WADD 141400Z 13011KT 9999 FEW017 29/26 Q1011 NOSIG
METAR WADD 141330Z 12010KT 9999 FEW017 29/25 Q1011 NOSIG
METAR WADD 141300Z 12013KT 9999 FEW017 29/25 Q1011 NOSIG
METAR WADD 141230Z 12013KT 9999 FEW017 29/25 Q1010 NOSIG
METAR WADD 141200Z 12014KT 9999 FEW017 29/25 Q1010 NOSIG
METAR WADD 141130Z 12012KT 9999 FEW017 29/25 Q1010 NOSIG
METAR WADD 140500Z 12020KT 9999 FEW017 31/24 Q1009 NOSIG
METAR WADD 140430Z 13017KT 9999 FEW017 31/24 Q1010 NOSIG
METAR WADD 140400Z 12017KT 9999 FEW017 31/24 Q1010 NOSIG
METAR WADD 140330Z 12014KT 9999 FEW017 31/24 Q1011 NOSIG
METAR WADD 140300Z 11013KT 9999 FEW017 31/23 Q1011 NOSIG
METAR WADD 140230Z 12010KT 9999 FEW017 31/24 Q1011 NOSIG
METAR WADD 140200Z 11009KT 9999 FEW017 31/24 Q1012 NOSIG
METAR WADD 140130Z 12009KT 9999 FEW017 31/24 Q1012 NOSIG
METAR WADD 140100Z 12008KT 9999 FEW017 31/25 Q1012 NOSIG
METAR WADD 140030Z 11007KT 9999 FEW017 30/25 Q1012 NOSIG
METAR WADD 140000Z 10005KT 9999 FEW017 29/25 Q1012 NOSIG
METAR WADD 132330Z 01005KT 340V050 9999 FEW017 28/25 Q1011 NOSIG
METAR WADD 132300Z 01004KT 9999 FEW017 27/25 Q1011 NOSIG</description><pubDate>Tue, 14 Apr 2026 22:54:34 </pubDate></item></channel></rss>