<rss version="2.0"><channel><title>Aviation Weather METAR Data for WADD</title><link>https://aviationweather.gov/api/data/metar?ids=WADD&amp;hours=24</link><description>Latest METAR data for WADD</description><item><title>2025-01-09 09:40:37Z</title><link>https://aviationweather.gov/api/data/metar?ids=WADD&amp;hours=24</link><description>WADD 090930Z 24004KT 190V270 9999 SCT016 29/26 Q1008 NOSIG
WADD 090901Z 26006KT 9999 BKN017 28/27 Q1007 NOSIG
WADD 090830Z 25008KT 220V290 9999 SCT016 29/27 Q1007 NOSIG
WADD 090800Z 26009KT 9999 SCT016 30/27 Q1007 NOSIG
WADD 090730Z 26010KT 9999 FEW015CB SCT015 29/26 Q1007 NOSIG RMK CB IN APCH
WADD 090700Z 25009KT 220V280 9999 FEW015CB FEW016 30/27 Q1007 NOSIG RMK CB IN APCH
WADD 090630Z 27010KT 9999 FEW015CB FEW016 29/27 Q1007 NOSIG
WADD 090600Z 25008KT 210V280 9999 FEW017 30/27 Q1007 NOSIG
WADD 090530Z 25007KT 210V280 9999 FEW017 30/27 Q1008 NOSIG
WADD 090500Z 25007KT 220V280 9999 FEW017 29/26 Q1008 NOSIG
WADD 090430Z 27009KT 230V310 9999 FEW017 30/26 Q1009 NOSIG
WADD 090400Z 26008KT 9999 FEW017 30/27 Q1009 NOSIG
WADD 090330Z 27009KT 230V300 9999 FEW017 29/26 Q1010 NOSIG
WADD 090300Z 27009KT 240V310 9999 FEW017 30/26 Q1010 NOSIG
WADD 090230Z 29009KT 9999 FEW017 30/26 Q1010 NOSIG
WADD 090200Z 29007KT 250V330 9999 FEW017 29/26 Q1010 NOSIG
WADD 090130Z 29008KT 250V310 9999 FEW017 29/26 Q1010 NOSIG
WADD 090100Z 30007KT 9999 FEW017 29/25 Q1010 NOSIG
WADD 090030Z 32006KT 9999 FEW017 28/25 Q1010 NOSIG
WADD 090000Z 32005KT 9999 FEW017 27/25 Q1010 NOSIG
WADD 082330Z 32003KT 9999 FEW017 27/25 Q1010 NOSIG
WADD 082300Z 32005KT 9999 FEW017 26/24 Q1009 NOSIG
WADD 082230Z 29003KT 9999 SCT016 25/24 Q1009 NOSIG
WADD 082200Z 33003KT 9999 SCT016 25/24 Q1009 NOSIG
WADD 082130Z 34009KT 9999 SCT016 25/25 Q1008 NOSIG
WADD 082100Z 33011KT 9999 SCT016 26/26 Q1008 NOSIG
WADD 082030Z 30013KT 9000 SCT016 26/26 Q1008 RERA NOSIG
WADD 082000Z 27011KT 6000 -RA FEW014CB BKN014 26/26 Q1008 RETS TEMPO TL2100 -RA
WADD 081930Z 26012KT 5000 -TSRA FEW014CB BKN014 25/25 Q1009 TEMPO TL2100 -TSRA RMK CB IN APCH AND CLIMB-OUT
WADD 081900Z 24013KT 2000 TSRA FEW014CB BKN014 26/26 Q1009 TEMPO TL2000 7000 -TSRA RMK CB IN APCH AND CLIMB-OUT
WADD 081830Z 31004G17KT 230V340 9999 FEW015CB SCT016 28/27 Q1009 NOSIG
WADD 081800Z 32004KT 9999 FEW015CB SCT016 28/27 Q1009 NOSIG
WADD 081730Z 34003KT 9999 SCT016 28/27 Q1009 NOSIG
WADD 081700Z 36003KT 9999 SCT016 28/27 Q1009 NOSIG
WADD 081630Z VRB02KT 9999 SCT016 28/27 Q1009 NOSIG
WADD 081600Z 01004KT 340V070 9999 SCT016 28/27 Q1009 NOSIG
WADD 081530Z 03003KT 9999 SCT016 28/27 Q1009 NOSIG
WADD 081500Z 02004KT 360V090 9999 SCT016 28/27 Q1009 NOSIG
WADD 081430Z 02003KT 9999 SCT016 28/28 Q1010 NOSIG
WADD 081400Z 02003KT 9999 SCT016 28/27 Q1010 NOSIG
WADD 081330Z 01003KT 9999 SCT016 28/27 Q1009 NOSIG
WADD 081300Z 02004KT 350V060 9999 SCT016 28/27 Q1009 NOSIG
WADD 081230Z 01004KT 310V100 9999 SCT016 28/27 Q1009 NOSIG
WADD 081200Z VRB02KT 9999 SCT016 28/27 Q1009 NOSIG
WADD 081130Z 03003KT 9999 SCT016 28/27 Q1008 NOSIG
WADD 081100Z VRB02KT 9999 SCT016 28/27 Q1008 NOSIG
WADD 081030Z 19002KT 9999 SCT016 29/27 Q1008 NOSIG
WADD 081000Z VRB03KT 9999 SCT016 29/27 Q1007 NOSIG</description><pubDate>Thu, 09 Jan 2025 09:40:37 </pubDate></item></channel></rss>