<rss version="2.0"><channel><title>Aviation Weather METAR Data for WADD</title><link>https://aviationweather.gov/api/data/metar?ids=WADD&amp;hours=24</link><description>Latest METAR data for WADD</description><item><title>2025-01-23 20:40:08Z</title><link>https://aviationweather.gov/api/data/metar?ids=WADD&amp;hours=24</link><description>WADD 232030Z VRB01KT 9999 BKN015 26/26 Q1007 NOSIG
WADD 232000Z VRB01KT 9999 BKN015 26/26 Q1007 NOSIG
WADD 231930Z VRB02KT 9999 BKN015 26/26 Q1007 NOSIG
WADD 231900Z 25003KT 9999 BKN015 26/26 Q1007 RERA NOSIG
WADD 231830Z VRB02KT 6000 -RA SCT016 26/25 Q1007 TEMPO TL2000 6000 -RA
WADD 231800Z VRB02KT 9999 SCT016 26/25 Q1007 NOSIG
WADD 231730Z 01003KT 9999 SCT016 26/25 Q1008 NOSIG
WADD 231700Z 29005KT 250V330 9999 SCT016 27/26 Q1008 NOSIG
WADD 231630Z 26005KT 9999 SCT016 27/25 Q1008 NOSIG
WADD 231600Z VRB01KT 9999 SCT016 26/26 Q1008 NOSIG
WADD 231530Z 24002KT 9999 SCT016 27/26 Q1009 NOSIG
WADD 231500Z 22003KT 9999 SCT016 27/25 Q1009 NOSIG
WADD 231430Z 25003KT 9999 SCT016 27/26 Q1009 NOSIG
WADD 231400Z 24003KT 9999 SCT016 27/26 Q1009 NOSIG
WADD 231330Z 24003KT 9999 SCT016 27/26 Q1009 NOSIG
WADD 231300Z 25004KT 9999 SCT016 27/26 Q1009 NOSIG
WADD 231230Z 25005KT 9999 SCT016 27/26 Q1009 RERA NOSIG
WADD 231200Z 25006KT 8000 -RA FEW015CB BKN015 27/26 Q1008 TEMPO TL1330 8000 -RA
WADD 231130Z 24004KT 200V270 5000 -RA BKN015 27/26 Q1008 TEMPO TL1230 -RA
WADD 231100Z 23006KT 9999 FEW014CB BKN015 27/26 Q1008 RERA NOSIG
WADD 231030Z 24007KT 200V270 3000 RA FEW013CB BKN014 27/26 Q1007 TEMPO TL1200 5000 -RA
WADD 231000Z 26012KT 9999 FEW014CB BKN015 28/25 Q1007 NOSIG
WADD 230930Z 25012KT 9999 FEW014CB BKN015 28/26 Q1007 NOSIG
WADD 230900Z 26013KT 9999 FEW015CB BKN015 28/26 Q1006 NOSIG
WADD 230830Z 26017KT 9999 BKN016 28/26 Q1006 NOSIG
WADD 230800Z 25014KT 9999 SCT016 29/25 Q1006 NOSIG
WADD 230730Z 25012KT 9999 FEW015CB BKN016 29/26 Q1007 NOSIG
WADD 230700Z 26013KT 9999 FEW015CB BKN016 30/26 Q1007 NOSIG
WADD 230630Z 26012KT 9999 FEW015CB BKN016 30/26 Q1007 NOSIG
WADD 230600Z 26012KT 9999 FEW015CB BKN016 29/26 Q1008 NOSIG
WADD 230530Z 27011KT 9999 FEW015CB BKN016 29/26 Q1008 RERA NOSIG
WADD 230500Z 27008KT 8000 -RA FEW015CB BKN016 28/26 Q1008 TEMPO TL0600 -RA
WADD 230430Z 30009KT 9999 FEW016CB SCT017 29/26 Q1008 NOSIG
WADD 230400Z 27010KT 9999 FEW016CB SCT017 29/26 Q1009 NOSIG
WADD 230330Z 28011KT 9999 SCT017 29/26 Q1009 NOSIG
WADD 230300Z 28009KT 240V310 9999 SCT017 29/26 Q1010 NOSIG
WADD 230230Z 29008KT 9999 FEW017 29/26 Q1010 NOSIG
WADD 230200Z 30009KT 9999 FEW017 28/25 Q1010 NOSIG
WADD 230130Z 29008KT 9999 FEW017 28/25 Q1010 NOSIG
WADD 230100Z 30007KT 9999 FEW017 28/25 Q1010 NOSIG
WADD 230030Z 30007KT 9999 SCT016 27/25 Q1009 NOSIG
WADD 230000Z 31007KT 9999 SCT016 27/24 Q1009 NOSIG
WADD 222330Z 32006KT 9999 SCT016 26/25 Q1009 NOSIG
WADD 222300Z 33005KT 9999 SCT015 26/24 Q1008 NOSIG
WADD 222230Z 32007KT 9999 BKN015 25/24 Q1008 NOSIG
WADD 222200Z 32007KT 9999 BKN015 25/24 Q1008 NOSIG
WADD 222130Z 32008KT 9999 BKN015 25/24 Q1008 NOSIG
WADD 222100Z 32009KT 9999 BKN015 25/24 Q1007 RERA NOSIG</description><pubDate>Thu, 23 Jan 2025 20:40:08 </pubDate></item></channel></rss>