<rss version="2.0"><channel><title>Aviation Weather METAR Data for WADD</title><link>https://aviationweather.gov/api/data/metar?ids=WADD&amp;hours=24</link><description>Latest METAR data for WADD</description><item><title>2025-07-10 13:40:45Z</title><link>https://aviationweather.gov/api/data/metar?ids=WADD&amp;hours=24</link><description>WADD 101330Z 13010KT 9999 SCT016 26/22 Q1011 NOSIG
WADD 101300Z 13009KT 9999 SCT016 26/22 Q1011 NOSIG
WADD 101230Z 13010KT 9999 FEW017 26/22 Q1010 NOSIG
WADD 101200Z 13009KT 9999 FEW017 26/22 Q1010 NOSIG
WADD 101130Z 13008KT 9999 FEW017 26/22 Q1010 NOSIG
WADD 101100Z 13009KT 9999 FEW017 26/22 Q1010 NOSIG
WADD 101030Z 13011KT 9999 FEW017 26/22 Q1009 NOSIG
WADD 101000Z 13013KT 9999 FEW017 26/22 Q1009 NOSIG
WADD 100900Z 13013KT 9999 FEW017 27/22 Q1009 NOSIG
WADD 100830Z 15014KT 9999 FEW017 27/22 Q1009 NOSIG
WADD 100800Z 14012KT 9999 SCT017 27/22 Q1009 NOSIG
WADD 100730Z 15013KT 9999 SCT017 28/22 Q1009 NOSIG
WADD 100700Z 14012KT 9999 SCT017 28/22 Q1009 NOSIG
WADD 100630Z 15012KT 9999 SCT017 28/22 Q1009 NOSIG
WADD 100600Z 14012KT 9999 SCT017 28/22 Q1010 NOSIG
WADD 100530Z 15014KT 9999 SCT017 28/22 Q1010 NOSIG
WADD 100500Z 15014KT 9999 SCT017 27/22 Q1010 NOSIG
WADD 100430Z 14014KT 9999 SCT017 28/22 Q1010 NOSIG
WADD 100400Z 14013KT 9999 SCT017 27/22 Q1011 NOSIG
WADD 100330Z 13014KT 9999 BKN017 27/22 Q1011 NOSIG
WADD 100300Z 16015KT 9999 BKN017 27/22 Q1011 NOSIG
WADD 100230Z 15013KT 9999 BKN017 27/22 Q1012 NOSIG
WADD 100200Z 15012KT 9999 SCT017 27/22 Q1012 NOSIG
WADD 100130Z 15013KT 9999 SCT017 27/23 Q1012 NOSIG
WADD 100100Z 14014KT 9999 FEW017 27/22 Q1012 NOSIG
WADD 100030Z 14014KT 9999 FEW017 27/22 Q1012 NOSIG
WADD 100000Z 14009KT 9999 SCT016 26/22 Q1011 NOSIG
WADD 092330Z 14009KT 9999 SCT016 26/22 Q1011 NOSIG
WADD 092300Z 15007KT 9999 SCT016 25/22 Q1011 NOSIG
WADD 092230Z 14008KT 9999 SCT016 25/22 Q1011 NOSIG
WADD 092200Z 14009KT 9999 FEW017 26/23 Q1010 NOSIG
WADD 092130Z 13009KT 9999 FEW017 25/22 Q1010 NOSIG
WADD 092100Z 14010KT 9999 FEW017 26/22 Q1010 NOSIG
WADD 092030Z 14011KT 9999 FEW 1700FT 26/22 Q1010 NOSIG
WADD 092000Z 14009KT 9999 FEW017 26/22 Q1010 NOSIG
WADD 091930Z 14008KT 9999 FEW017 26/22 Q1010 NOSIG
WADD 091900Z 15008KT 9999 FEW017 26/23 Q1010 NOSIG
WADD 091830Z 14007KT 9999 FEW017 26/23 Q1011 NOSIG
WADD 091800Z 15005KT 9999 FEW017 26/23 Q1011 NOSIG
WADD 091730Z 14007KT 9999 FEW017 26/22 Q1011 NOSIG
WADD 091700Z 14007KT 9999 FEW017 26/23 Q1011 NOSIG
WADD 091630Z 13007KT 9999 FEW017 26/22 Q1011 NOSIG
WADD 091600Z 14007KT 9999 FEW017 26/23 Q1012 NOSIG
WADD 091530Z 14007KT 9999 FEW017 26/23 Q1012 NOSIG
WADD 091500Z 14007KT 9999 FEW017 26/22 Q1012 NOSIG
WADD 091430Z 14009KT 9999 FEW017 26/23 Q1012 NOSIG
WADD 091400Z 14008KT 9999 FEW017 26/23 Q1012 NOSIG</description><pubDate>Thu, 10 Jul 2025 13:40:45 </pubDate></item></channel></rss>