<rss version="2.0"><channel><title>Aviation Weather METAR Data for WADD</title><link>https://aviationweather.gov/api/data/metar?ids=WADD&amp;hours=24</link><description>Latest METAR data for WADD</description><item><title>2025-09-20 14:21:45Z</title><link>https://aviationweather.gov/api/data/metar?ids=WADD&amp;hours=24</link><description>METAR WADD 201400Z 12010KT 9999 FEW017 27/24 Q1013 NOSIG
METAR WADD 201330Z 12012KT 9999 FEW017 27/24 Q1013 NOSIG
METAR WADD 201300Z 13015KT 9999 FEW017 27/24 Q1012 NOSIG
METAR WADD 201230Z 13015KT 9999 FEW017 27/25 Q1012 NOSIG
METAR WADD 201200Z 12013KT 9999 FEW016 27/25 Q1012 NOSIG
METAR WADD 201130Z 13016KT 9999 FEW016 27/24 Q1011 NOSIG
METAR WADD 201100Z 12015KT 9999 FEW016 27/25 Q1011 NOSIG
METAR WADD 201030Z 13016KT 9999 SCT016 27/24 Q1011 NOSIG
METAR WADD 201000Z 13016KT 9999 SCT016 28/25 Q1010 NOSIG
METAR WADD 200930Z 12017KT 9999 BKN016 28/25 Q1010 NOSIG
 WADD 200900Z 13018KT 9999 BKN017 28/25 Q1010 NOSIG
 WADD 200830Z 12017KT 9999 BKN016 28/25 Q1010 NOSIG
METAR WADD 200800Z 13017KT 9999 SCT016 28/25 Q1009 NOSIG
METAR WADD 200730Z 13017KT 9999 BKN016 28/25 Q1010 NOSIG
METAR WADD 200700Z 12015KT 9999 SCT015 29/25 Q1010 NOSIG
METAR WADD 200630Z 13017KT 9999 SCT016 29/25 Q1010 NOSIG
METAR WADD 200600Z 13017KT 9999 SCT016 29/25 Q1010 NOSIG
METAR WADD 200530Z 12016KT 9999 SCT016 29/25 Q1011 NOSIG
METAR WADD 200500Z 13015KT 9999 SCT016 29/25 Q1011 NOSIG
METAR WADD 200430Z 13016KT 9999 SCT016 30/25 Q1011 NOSIG
METAR WADD 200400Z 13018KT 9999 SCT016 29/25 Q1012 NOSIG
METAR WADD 200330Z 12015KT 9999 SCT016 29/25 Q1012 NOSIG
METAR WADD 200100Z 12013KT 9999 BKN016 28/25 Q1013 NOSIG
METAR WADD 200030Z 13011KT 9999 BKN016 28/25 Q1013 NOSIG
METAR WADD 200000Z 13011KT 9999 BKN016 27/25 Q1013 NOSIG
METAR WADD 192330Z 13011KT 9999 BKN016 27/25 Q1012 NOSIG
METAR WADD 192300Z 13011KT 9999 BKN017 27/25 Q1012 NOSIG
METAR WADD 192230Z 14013KT 9999 SCT017 27/25 Q1011 NOSIG
METAR WADD 192200Z 13012KT 9999 BKN017 27/25 Q1011 NOSIG
METAR WADD 192130Z 13012KT 9999 BKN017 27/25 Q1011 NOSIG
METAR WADD 192100Z 13012KT 9999 BKN017 27/25 Q1011 NOSIG
METAR WADD 192030Z 13011KT 9999 BKN017 27/25 Q1011 NOSIG
METAR WADD 192000Z 14013KT 9999 BKN017 27/25 Q1011 NOSIG
METAR WADD 191930Z 14013KT 9999 BKN017 27/25 Q1011 NOSIG
METAR WADD 191900Z 13012KT 9999 BKN017 27/25 Q1011 NOSIG
METAR WADD 191830Z 13013KT 9999 BKN017 27/25 Q1011 NOSIG
METAR WADD 191800Z 13010KT 9999 BKN017 27/25 Q1011 NOSIG
 WADD 191730Z 13010KT 9999 BKN017 27/25 Q1011 NOSIG
METAR WADD 191700Z 13010KT 9999 BKN017 27/25 Q1012 NOSIG
METAR WADD 191630Z 13009KT 9999 SCT017 27/25 Q1012 NOSIG
 WADD 191600Z 13010KT 9999 SCT017 27/25 Q1012 NOSIG
 WADD 191530Z 13010KT 9999 SCT017 27/25 Q1013 NOSIG
METAR WADD 191500Z 13010KT 9999 SCT017 27/25 Q1013 NOSIG
METAR WADD 191430Z 13010KT 9999 FEW017 27/25 Q1013 NOSIG</description><pubDate>Sat, 20 Sep 2025 14:21:45 </pubDate></item></channel></rss>