<rss version="2.0"><channel><title>Aviation Weather METAR Data for WADD</title><link>https://aviationweather.gov/api/data/metar?ids=WADD&amp;hours=24</link><description>Latest METAR data for WADD</description><item><title>2026-05-23 00:13:09Z</title><link>https://aviationweather.gov/api/data/metar?ids=WADD&amp;hours=24</link><description>METAR WADD 230000Z 34005KT 9999 FEW017 27/26 Q1012 NOSIG
METAR WADD 222330Z 33004KT 300V360 9999 FEW017 27/26 Q1012 NOSIG
METAR WADD 222300Z VRB02KT 9999 FEW017 27/26 Q1012 NOSIG
METAR WADD 222230Z 21002KT 9999 SCT016 26/26 Q1012 NOSIG
METAR WADD 222200Z 30002KT 9999 SCT016 26/25 Q1011 NOSIG
METAR WADD 222130Z VRB01KT 9999 SCT016 27/26 Q1012 NOSIG
METAR WADD 222100Z 21002KT 9999 SCT016 27/26 Q1011 NOSIG
METAR WADD 222030Z 22003KT 9999 SCT016 27/26 Q1011 NOSIG
METAR WADD 222000Z 22004KT 9999 SCT016 27/27 Q1011 NOSIG
METAR WADD 221930Z VRB01KT 9999 SCT016 27/26 Q1011 NOSIG
METAR WADD 221900Z 21003KT 9999 SCT016 27/26 Q1011 NOSIG
METAR WADD 221830Z 20001KT 9999 SCT016 27/26 Q1011 NOSIG
METAR WADD 221800Z VRB02KT 9999 SCT016 27/26 Q1011 NOSIG
METAR WADD 221730Z VRB01KT 9999 SCT016 27/26 Q1011 NOSIG
METAR WADD 221700Z 21002KT 9999 SCT016 27/26 Q1012 NOSIG
METAR WADD 221630Z VRB02KT 9999 SCT016 27/26 Q1012 NOSIG
METAR WADD 221600Z 18003KT 9999 SCT016 27/26 Q1012 NOSIG
METAR WADD 221530Z 12003KT 9999 SCT016 27/26 Q1012 NOSIG
METAR WADD 221500Z 13002KT 9999 SCT016 27/26 Q1013 NOSIG
METAR WADD 221430Z 16004KT 9999 SCT017 28/26 Q1013 NOSIG
METAR WADD 221400Z 14006KT 9999 FEW016CB SCT017 28/26 Q1012 NOSIG
METAR WADD 221330Z 15007KT 9999 FEW016CB SCT017 28/26 Q1012 NOSIG
METAR WADD 221300Z 15005KT 9999 SCT017 28/26 Q1012 NOSIG
METAR WADD 221230Z 16007KT 9999 FEW017 28/26 Q1012 NOSIG
METAR WADD 221200Z 15007KT 9999 FEW017 28/26 Q1012 NOSIG
METAR WADD 221130Z 14008KT 9999 FEW017 28/26 Q1011 NOSIG
METAR WADD 221100Z 14007KT 9999 SCT017 28/26 Q1011 NOSIG
METAR WADD 221030Z 14008KT 9999 SCT017 28/26 Q1010 NOSIG
METAR WADD 221000Z 14009KT 9999 SCT017 29/26 Q1010 NOSIG
METAR WADD 220930Z 15011KT 9999 SCT017 29/26 Q1010 NOSIG
METAR WADD 220900Z 15014KT 9999 SCT017 29/26 Q1009 NOSIG
METAR WADD 220830Z 15012KT 9999 FEW017 30/26 Q1009 NOSIG
METAR WADD 220800Z 16010KT 9999 FEW017 30/26 Q1009 NOSIG
METAR WADD 220730Z 14008KT 100V170 9999 FEW017 31/26 Q1009 NOSIG
METAR WADD 220700Z 10009KT 9999 FEW017 32/26 Q1009 NOSIG
METAR WADD 220630Z 10010KT 9999 FEW017 31/26 Q1009 NOSIG
METAR WADD 220600Z 10011KT 9999 FEW017 31/26 Q1009 NOSIG
METAR WADD 220530Z 10011KT 9999 SCT017 31/26 Q1010 NOSIG
METAR WADD 220500Z 10009KT 9999 SCT017 32/26 Q1010 NOSIG
METAR WADD 220430Z 09010KT 9999 SCT017 32/27 Q1010 NOSIG
METAR WADD 220400Z 18006KT 110V230 9999 SCT016 32/27 Q1011 NOSIG
METAR WADD 220330Z 11010KT 9999 FEW015CB SCT016 32/26 Q1011 NOSIG
METAR WADD 220300Z VRB03KT 9999 FEW015CB SCT016 33/27 Q1012 NOSIG RMK CB IN APCH
METAR WADD 220230Z 12009KT 090V160 9999 FEW015CB SCT017 32/27 Q1012 NOSIG
METAR WADD 220200Z 11008KT 9999 FEW015CB SCT017 31/26 Q1012 NOSIG
METAR WADD 220130Z 11008KT 9999 FEW017 31/26 Q1012 NOSIG
METAR WADD 220030Z 10004KT 9999 FEW017 30/27 Q1012 NOSIG</description><pubDate>Sat, 23 May 2026 00:13:09 </pubDate></item></channel></rss>