<rss version="2.0"><channel><title>Aviation Weather METAR Data for WADD</title><link>https://aviationweather.gov/api/data/metar?ids=WADD&amp;hours=24</link><description>Latest METAR data for WADD</description><item><title>2025-08-27 04:30:21Z</title><link>https://aviationweather.gov/api/data/metar?ids=WADD&amp;hours=24</link><description>WADD 270400Z 14019KT 9999 SCT017 28/24 Q1012 NOSIG
WADD 270330Z 14018G26KT 9999 FEW016 28/24 Q1013 NOSIG
WADD 270300Z 14018KT 9999 SCT016 28/24 Q1013 NOSIG
WADD 270230Z 15019KT 9999 SCT016 27/24 Q1013 NOSIG
WADD 270200Z 15017KT 9999 FEW015CB BKN016 27/25 Q1013 NOSIG
WADD 270130Z 14017KT 9999 FEW015CB BKN016 27/24 Q1013 NOSIG
WADD 270100Z 14009KT 9999 FEW015CB BKN016 26/25 Q1013 NOSIG
WADD 270030Z 13010KT 9999 FEW015CB BKN016 26/24 Q1013 NOSIG
WADD 270000Z 09003KT 9999 FEW015CB BKN016 25/24 Q1013 RERA NOSIG
WADD 262330Z VRB02KT 7000 -RA FEW015CB BKN015 25/23 Q1012 TEMPO TL0030 7000 -RA
WADD 262300Z 08004KT 9999 FEW015CB BKN015 25/23 Q1012 RERA NOSIG
WADD 262230Z 05007KT 7000 -RA FEW015CB BKN015 25/22 Q1012 TEMPO TL2330 7000 -RA
WADD 262200Z 05006KT 9999 FEW015CB SCT016 25/22 Q1012 NOSIG
WADD 262130Z 05007KT 9999 FEW017 25/22 Q1012 NOSIG
WADD 262100Z 05007KT 9999 FEW017 25/22 Q1012 NOSIG
WADD 262030Z 05007KT 9999 FEW017 25/23 Q1012 NOSIG
WADD 262000Z 09007KT 9999 FEW017 26/23 Q1012 NOSIG
WADD 261930Z 09008KT 9999 FEW017 25/23 Q1012 NOSIG
WADD 261900Z 09007KT 9999 FEW017 25/23 Q1012 NOSIG
WADD 261830Z 11007KT 9999 FEW017 26/23 Q1012 NOSIG
WADD 261800Z 11007KT 9999 FEW017 26/23 Q1012 NOSIG
WADD 261730Z 12008KT 9999 FEW017 26/24 Q1012 NOSIG
WADD 261700Z 12009KT 9999 FEW017 26/23 Q1012 NOSIG
WADD 261630Z 12010KT 9999 FEW017 26/23 Q1013 NOSIG
WADD 261600Z 12009KT 9999 FEW017 26/24 Q1013 NOSIG
WADD 261530Z 12011KT 9999 SCT016 26/24 Q1013 NOSIG
WADD 261500Z 12009KT 9999 FEW017 26/24 Q1013 NOSIG
WADD 261430Z 12011KT 9999 FEW017 26/23 Q1013 NOSIG
WADD 261400Z 12011KT 9999 FEW017 26/23 Q1013 NOSIG
WADD 261330Z 13011KT 9999 SCT016 27/23 Q1013 NOSIG
WADD 261300Z 13011KT 9999 SCT016 27/23 Q1013 NOSIG
WADD 261230Z 13012KT 9999 SCT016 27/23 Q1013 NOSIG
WADD 261200Z 12010KT 9999 SCT016 27/23 Q1012 NOSIG
WADD 261130Z 13012KT 9999 FEW017 27/23 Q1012 NOSIG
WADD 261100Z 13011KT 9999 FEW017 27/23 Q1012 NOSIG
WADD 261030Z 13011KT 9999 FEW017 27/22 Q1012 NOSIG
WADD 261000Z 13014KT 9999 FEW017 27/22 Q1011 NOSIG
WADD 260930Z 14015KT 9999 SCT017 28/22 Q1011 NOSIG
WADD 260900Z 15015KT 9999 SCT017 28/22 Q1011 NOSIG
WADD 260830Z 14016KT 9999 FEW017 28/22 Q1011 NOSIG
WADD 260800Z 15014KT 9999 FEW017 28/24 Q1011 NOSIG
WADD 260730Z 15013KT 9999 FEW017 29/23 Q1011 NOSIG
WADD 260700Z 14013KT 9999 FEW017 29/24 Q1011 NOSIG
WADD 260630Z 14014KT 9999 FEW017 29/23 Q1011 NOSIG
WADD 260600Z 14014KT 9999 SCT016 29/23 Q1012 NOSIG
WADD 260530Z 15014KT 9999 SCT016 29/23 Q1012 NOSIG
WADD 260500Z 15012KT 9999 SCT016 28/23 Q1013 NOSIG</description><pubDate>Wed, 27 Aug 2025 04:30:21 </pubDate></item></channel></rss>