<rss version="2.0"><channel><title>Aviation Weather METAR Data for WADD</title><link>https://aviationweather.gov/api/data/metar?ids=WADD&amp;hours=24</link><description>Latest METAR data for WADD</description><item><title>2025-03-23 19:18:56Z</title><link>https://aviationweather.gov/api/data/metar?ids=WADD&amp;hours=24</link><description>WADD 231900Z 31005KT 9999 SCT016 28/25 Q1006 NOSIG
WADD 231830Z 33004KT 9999 SCT016 27/25 Q1006 NOSIG
WADD 231800Z 33006KT 9999 SCT016 28/25 Q1007 NOSIG
WADD 231730Z 30009KT 9999 SCT016 28/26 Q1007 NOSIG
WADD 231700Z 30010KT 9999 SCT016 29/26 Q1007 NOSIG
WADD 231630Z 29012KT 9999 SCT016 29/26 Q1007 NOSIG
WADD 231600Z 28014KT 9999 SCT016 29/26 Q1007 NOSIG
WADD 231530Z 28014KT 9999 FEW017 29/26 Q1008 NOSIG
WADD 231500Z 27012KT 9999 FEW017 28/25 Q1008 NOSIG
WADD 231430Z 27013KT 9999 FEW017 29/25 Q1007 NOSIG
WADD 231400Z 27014KT 9999 FEW017 29/25 Q1008 NOSIG
WADD 231330Z 27011KT 9999 FEW017 29/25 Q1008 NOSIG
WADD 231300Z 27010KT 9999 FEW017 29/25 Q1008 NOSIG
WADD 231230Z 27009KT 9999 FEW017 28/25 Q1007 NOSIG
WADD 231200Z 28010KT 9999 SCT017 29/25 Q1007 NOSIG
WADD 231130Z 27011KT 9999 SCT017 29/25 Q1008 NOSIG
WADD 231100Z 28010KT 9999 SCT017 29/25 Q1008 NOSIG
WADD 231030Z 27011KT 9999 SCT017 28/25 Q1007 NOSIG
WADD 231000Z 27013KT 9999 SCT017 29/26 Q1007 NOSIG
WADD 230930Z 26015KT 9999 SCT017 29/25 Q1006 NOSIG
WADD 230900Z 26014KT 9999 SCT017 30/25 Q1006 NOSIG
WADD 230830Z 26013KT 9999 SCT017 30/24 Q1006 NOSIG
WADD 230800Z 28014KT 9999 SCT017 30/25 Q1006 NOSIG
WADD 230730Z 28019KT 9999 SCT017 31/25 Q1006 NOSIG
WADD 230700Z 27016KT 9999 SCT017 30/26 Q1006 NOSIG
WADD 230630Z 27019KT 9999 SCT017 30/25 Q1006 NOSIG
WADD 230600Z 27016KT 9999 SCT015 31/26 Q1007 NOSIG
WADD 230530Z 26018KT 9999 SCT016 30/26 Q1007 NOSIG
WADD 230500Z 26019KT 9999 FEW015CB SCT016 30/25 Q1008 NOSIG
WADD 230430Z 28013KT 9999 FEW015CB SCT016 31/25 Q1008 NOSIG
WADD 230400Z 29014KT 9999 SCT016 30/24 Q1008 NOSIG
WADD 230330Z 29014KT 9999 SCT016 30/25 Q1009 NOSIG
WADD 230300Z 29014KT 9999 SCT016 30/25 Q1009 NOSIG
WADD 230230Z 29014KT 9999 SCT016 29/25 Q1009 NOSIG
WADD 230200Z 29013KT 9999 SCT016 29/25 Q1009 NOSIG
WADD 230130Z 29011KT 9999 SCT016 29/26 Q1009 NOSIG
WADD 230100Z 30007KT 8000 -RA BKN016 27/25 Q1009 TEMPO TL0200 -RA
WADD 230030Z 30012KT 8000 -RA FEW014CB SCT014 25/23 Q1009 TEMPO TL0130 -RA
WADD 230000Z 28026KT 5000 -RA FEW014CB BKN014 25/24 Q1010 TEMPO TL0100 -RA
WADD 222330Z 29015KT 2000 RA FEW014CB BKN014 28/24 Q1008 TEMPO TL2430 RA
WADD 222300Z 30013KT 9999 BKN016 28/24 Q1008 NOSIG
WADD 222230Z 29014KT 9999 SCT016 28/24 Q1008 NOSIG
WADD 222200Z 29014KT 9999 SCT016 28/24 Q1008 NOSIG
WADD 222130Z 28016KT 9999 FEW017 27/24 Q1008 NOSIG
WADD 222100Z 29013KT 9999 FEW017 27/24 Q1007 NOSIG
WADD 222030Z 30011KT 9999 FEW017 27/24 Q1007 NOSIG
WADD 222000Z 30011KT 9999 FEW017 27/24 Q1007 NOSIG
WADD 221930Z 29016KT 9999 SCT017 27/24 Q1007 NOSIG</description><pubDate>Sun, 23 Mar 2025 19:18:56 </pubDate></item></channel></rss>