<rss version="2.0"><channel><title>Aviation Weather METAR Data for WADD</title><link>https://aviationweather.gov/api/data/metar?ids=WADD&amp;hours=24</link><description>Latest METAR data for WADD</description><item><title>2025-01-26 18:42:57Z</title><link>https://aviationweather.gov/api/data/metar?ids=WADD&amp;hours=24</link><description>WADD 261830Z 29008KT 9999 FEW017 27/25 Q1004 NOSIG
WADD 261800Z 31006KT 9999 FEW017 26/26 Q1005 NOSIG
WADD 261730Z 32007KT 9999 SCT017 27/26 Q1005 NOSIG
WADD 261700Z 31006KT 9999 FEW015CB SCT016 26/26 Q1006 RERA NOSIG
WADD 261630Z 30005KT 8000 -RA FEW014CB BKN015 26/26 Q1006 TEMPO TL1730 -RA
WADD 261600Z 29017KT 2000 +RA FEW014CB BKN015 27/26 Q1007 TEMPO TL1700 2000 +RA
WADD 261530Z 32006KT 9999 FEW016CB SCT016 27/26 Q1007 NOSIG
WADD 261500Z 33005KT 9999 FEW016CB SCT017 27/25 Q1007 NOSIG
WADD 261430Z 36007KT 290V040 9999 FEW015CB SCT016 27/25 Q1007 NOSIG
WADD 261400Z 26006KT 9999 FEW015CB SCT016 27/26 Q1007 NOSIG
WADD 261330Z 25007KT 9999 FEW015CB SCT016 27/25 Q1007 NOSIG
WADD 261300Z 25007KT 9999 FEW015CB SCT016 28/26 Q1006 NOSIG
WADD 261230Z 29009KT 9999 FEW015CB SCT016 28/25 Q1006 NOSIG
WADD 261200Z 26007KT 9999 SCT016 29/26 Q1006 NOSIG
WADD 261130Z 24007KT 200V270 9999 SCT016 29/26 Q1006 NOSIG
WADD 261100Z 26008KT 9999 SCT016 29/26 Q1006 NOSIG
WADD 261030Z 25007KT 9999 SCT016 29/26 Q1005 NOSIG
WADD 261000Z 25008KT 9999 SCT016 29/26 Q1005 NOSIG
WADD 260930Z 25007KT 9999 SCT016 29/26 Q1004 NOSIG
WADD 260900Z 26010KT 9999 SCT016 29/27 Q1004 NOSIG
WADD 260830Z 26010KT 9999 SCT016 29/27 Q1004 NOSIG
WADD 260800Z 25010KT 9999 SCT016 30/27 Q1004 NOSIG
WADD 260730Z 25009KT 9999 SCT016 30/27 Q1004 NOSIG
WADD 260700Z 26011KT 9999 SCT016 30/27 Q1004 NOSIG
WADD 260630Z 26011KT 9999 SCT016 30/27 Q1005 NOSIG
WADD 260600Z 26011KT 9999 SCT017 30/27 Q1005 NOSIG
WADD 260530Z 26009KT 9999 SCT015 30/27 Q1006 NOSIG
WADD 260500Z 26008KT 9999 SCT015 31/28 Q1006 NOSIG
WADD 260430Z 26008KT 9999 FEW015 30/27 Q1007 NOSIG
WADD 260400Z 26009KT 9999 FEW016 31/27 Q1007 NOSIG
WADD 260330Z 29010KT 9999 FEW016 30/27 Q1007 NOSIG
WADD 260300Z 29011KT 9999 FEW015CB FEW016 30/27 Q1008 NOSIG
WADD 260230Z 30010KT 9999 FEW015CB SCT015 30/27 Q1008 NOSIG
WADD 260200Z 29009KT 9999 FEW015CB SCT015 30/27 Q1008 NOSIG
WADD 260130Z 30008KT 260V320 9999 SCT015 29/27 Q1008 NOSIG
WADD 260100Z 30007KT 9999 SCT015 29/27 Q1008 NOSIG
WADD 260030Z 30007KT 9999 FEW016 29/26 Q1008 NOSIG
WADD 260000Z 31006KT 9999 FEW016 28/26 Q1008 NOSIG
WADD 252330Z 33004KT 290V010 9999 FEW017 28/26 Q1008 NOSIG
WADD 252300Z 33004KT 300V360 9999 SCT017 27/26 Q1007 NOSIG
WADD 252230Z 34003KT 9999 SCT017 27/26 Q1007 NOSIG
WADD 252200Z 34002KT 9999 SCT017 27/26 Q1007 NOSIG
WADD 252130Z VRB02KT 9999 SCT017 27/26 Q1007 NOSIG
WADD 252100Z 30005KT 9999 SCT017 28/26 Q1007 NOSIG
WADD 252030Z 29005KT 9999 SCT017 28/26 Q1007 NOSIG
WADD 252000Z 30006KT 9999 SCT017 28/26 Q1007 NOSIG
WADD 251930Z 29008KT 9999 SCT017 27/25 Q1007 NOSIG
WADD 251900Z 29007KT 9999 SCT017 27/26 Q1007 NOSIG</description><pubDate>Sun, 26 Jan 2025 18:42:57 </pubDate></item></channel></rss>