<rss version="2.0"><channel><title>Aviation Weather METAR Data for WADD</title><link>https://aviationweather.gov/api/data/metar?ids=WADD&amp;hours=24</link><description>Latest METAR data for WADD</description><item><title>2025-07-24 23:28:21Z</title><link>https://aviationweather.gov/api/data/metar?ids=WADD&amp;hours=24</link><description>WADD 242300Z 13005KT 9999 FEW015CB BKN016 26/25 Q1011 NOSIG
WADD 242230Z 14007KT 9999 FEW015CB BKN016 26/25 Q1011 NOSIG
WADD 242200Z 13007KT 9999 FEW015CB BKN016 26/25 Q1010 NOSIG
WADD 242130Z 14009KT 9999 FEW015CB BKN016 26/25 Q1010 NOSIG
WADD 242100Z 14010KT 9999 FEW015CB BKN016 25/25 Q1010 NOSIG
WADD 242030Z 14011KT 9999 BKN016 26/25 Q1010 NOSIG
WADD 242000Z 15005KT 9999 BKN016 26/25 Q1010 NOSIG
WADD 241930Z 14006KT 9999 SCT016 26/25 Q1010 NOSIG
WADD 241900Z 14005KT 9999 SCT016 26/25 Q1010 NOSIG
WADD 241830Z 14004KT 9999 SCT016 26/25 Q1010 NOSIG
WADD 241800Z 15005KT 9999 SCT016 26/25 Q1010 NOSIG
WADD 241730Z 14006KT 9999 SCT016 26/25 Q1010 NOSIG
WADD 241700Z 14008KT 9999 SCT016 26/25 Q1011 NOSIG
WADD 241630Z 15006KT 9999 SCT016 26/26 Q1011 NOSIG
WADD 241600Z 16006KT 9999 SCT016 26/26 Q1011 NOSIG
WADD 241530Z 13007KT 9999 SCT016 26/25 Q1011 NOSIG
WADD 241500Z 15008KT 9999 SCT016 27/25 Q1011 NOSIG
WADD 241430Z 14006KT 9999 SCT016 27/25 Q1011 NOSIG
WADD 241400Z 13006KT 9999 SCT016 27/25 Q1011 NOSIG
WADD 241330Z 13007KT 9999 BKN016 27/26 Q1011 NOSIG
WADD 241300Z 12006KT 9999 SCT016 27/25 Q1011 NOSIG
WADD 241230Z 14007KT 9999 SCT016 27/25 Q1010 NOSIG
WADD 241200Z 13008KT 9999 SCT016 27/25 Q1010 NOSIG
WADD 241130Z 13008KT 9999 SCT016 27/25 Q1010 NOSIG
WADD 241100Z 14009KT 9999 SCT016 27/25 Q1009 NOSIG
WADD 241030Z 14010KT 9999 SCT016 28/25 Q1009 NOSIG
WADD 241000Z 13009KT 9999 FEW017 28/25 Q1009 NOSIG
WADD 240930Z 13011KT 9999 FEW017 28/25 Q1008 NOSIG
WADD 240900Z 15011KT 9999 FEW017 28/25 Q1008 NOSIG
WADD 240830Z 14011KT 9999 FEW017 28/25 Q1008 NOSIG
WADD 240800Z 14010KT 9999 FEW017 29/25 Q1008 NOSIG
WADD 240730Z 14010KT 9999 FEW017 29/25 Q1008 NOSIG
WADD 240700Z 13010KT 9999 FEW017 29/25 Q1008 NOSIG
WADD 240630Z 11009KT 080V150 9999 FEW017 30/25 Q1008 NOSIG
WADD 240600Z 13008KT 090V160 9999 FEW017 30/25 Q1008 NOSIG
WADD 240530Z 10010KT 9999 FEW017 30/25 Q1009 NOSIG
WADD 240500Z 10009KT 9999 FEW017 30/25 Q1009 NOSIG
WADD 240430Z 11010KT 9999 FEW017 30/25 Q1010 NOSIG
WADD 240400Z 11009KT 9999 FEW017 29/25 Q1010 NOSIG
WADD 240330Z 11008KT 9999 FEW017 29/25 Q1011 NOSIG
WADD 240300Z 12008KT 9999 FEW017 28/25 Q1011 NOSIG
WADD 240230Z 12008KT 080V140 9999 FEW017 28/25 Q1011 NOSIG
WADD 240200Z 10009KT 060V130 9999 FEW016 28/25 Q1011 NOSIG
WADD 240130Z 11009KT 9999 FEW016 28/25 Q1011 NOSIG
WADD 240100Z 10010KT 9999 FEW016 28/25 Q1011 NOSIG
WADD 240030Z 10007KT 9999 FEW016 28/25 Q1011 NOSIG
WADD 240000Z VRB02KT 9999 SCT016 26/25 Q1011 NOSIG
WADD 232330Z 13002KT 9999 SCT017 26/25 Q1011 NOSIG</description><pubDate>Thu, 24 Jul 2025 23:28:21 </pubDate></item></channel></rss>