<rss version="2.0"><channel><title>Aviation Weather METAR Data for WADD</title><link>https://aviationweather.gov/api/data/metar?ids=WADD&amp;hours=24</link><description>Latest METAR data for WADD</description><item><title>2025-12-16 08:40:42Z</title><link>https://aviationweather.gov/api/data/metar?ids=WADD&amp;hours=24</link><description>METAR WADD 160830Z 27014KT 9999 FEW017 31/23 Q1005 NOSIG
METAR WADD 160800Z 29015KT 9999 FEW017 32/24 Q1005 NOSIG
METAR WADD 160730Z 29016KT 9999 FEW017 31/24 Q1005 NOSIG
METAR WADD 160700Z 28016KT 9999 FEW017 32/24 Q1005 NOSIG
METAR WADD 160630Z 28016KT 9999 FEW017 32/25 Q1005 NOSIG
METAR WADD 160600Z 29015KT 9999 FEW017 31/25 Q1006 NOSIG
METAR WADD 160530Z 25008KT 210V300 9999 FEW017 31/24 Q1009 NOSIG
METAR WADD 160500Z 30016KT 9999 FEW017 31/24 Q1006 NOSIG
METAR WADD 160430Z 29014KT 9999 FEW017 SCT034 31/25 Q1007 NOSIG
METAR WADD 160400Z 28021KT 9999 FEW017 31/24 Q1007 NOSIG
METAR WADD 160330Z 29017KT 9999 FEW017 31/25 Q1008 NOSIG
METAR WADD 160300Z 29016KT 9999 FEW0173 30/24 Q1008 NOSIG
METAR WADD 160230Z 29014KT 9999 FEW017 31/24 Q1008 NOSIG
METAR WADD 160200Z 30014KT 9999 FEW017 31/24 Q1008 NOSIG
METAR WADD 160130Z 30011KT 9999 FEW017 30/24 Q1008 NOSIG
METAR WADD 160100Z 31012KT 9999 FEW016 29/24 Q1008 NOSIG
METAR WADD 160030Z 30012KT 9999 SCT016 29/24 Q1008 NOSIG
METAR WADD 160000Z 29014KT 9999 SCT016 29/24 Q1007 NOSIG
METAR WADD 152330Z 27014KT 9999 FEW014CB SCT015 28/25 Q1007 NOSIG
METAR WADD 152300Z 26013KT 9999 FEW014CB BKN015 27/24 Q1007 RERA NOSI G
METAR WADD 152230Z 29010KT 9999 FEW014CB SCT015 28/24 Q1006 NOSIG
METAR WADD 152200Z 31008KT 9999 SCT016 27/23 Q1006 NOSIG
METAR WADD 152130Z 32008KT 9999 SCT016 27/23 Q1006 NOSIG
METAR WADD 152100Z 31009KT 9999 SCT016 28/24 Q1006 NOSIG
METAR WADD 152030Z 28014KT 9999 SCT016 28/24 Q1006 NOSIG
METAR WADD 152000Z 28012KT 9999 SCT016 27/24 Q1005 NOSIG
METAR WADD 151930Z 29009KT 9999 SCT016 27/24 Q1005 NOSIG
METAR WADD 151900Z 29009KT 9999 SCT016 27/25 Q1006 NOSIG
METAR WADD 151830Z 35004KT 9999 SCT016 26/24 Q1006 NOSIG
METAR WADD 151800Z 30007KT 9999 SCT016 27/25 Q1006 NOSIG
METAR WADD 151730Z 30007KT 9999 SCT016 27/24 Q1007 NOSIG
METAR WADD 151700Z 30009KT 9999 SCT016 27/24 Q1007 NOSIG
METAR WADD 151630Z 30008KT 9999 SCT016 27/24 Q1008 NOSIG
METAR WADD 151600Z 32006KT 280V350 9999 SCT016 27/24 Q1008 NOSIG
METAR WADD 151530Z 32007KT 9999 SCT016 27/24 Q1008 NOSIG
METAR WADD 151500Z 33006KT 280V010 9999 SCT016 26/24 Q1008 NOSIG
METAR WADD 151430Z 34006KT 9999 SCT016 25/23 Q1008 NOSIG
METAR WADD 151400Z 36004KT 310V030 9999 BKN015 25/23 Q1008 NOSIG
METAR WADD 151330Z 23003KT 9999 SCT016 29/23 Q1011 NOSIG
METAR WADD 151300Z 31006KT 9000 -RA BKN015 26/24 Q1008 TEMPO TL1400 9000 -RA
METAR WADD 151230Z 31008KT 9000 -RA FEW014CB BKN014 26/24 Q1008 TEMPO TL1330 9000 -RA
METAR WADD 151200Z 32008KT 290V350 6000 -RA FEW014CB BKN014 25/24 Q10 08 TEMPO TL1300 6000 -RA
METAR WADD 151130Z 33007KT 5000 RA FEW014CB BKN014 25/23 Q1008 RETS TEMPO TL1230 5000 RA
METAR WADD 151100Z 34009KT 5000 TSRA FEW014CB BKN014 25/23 Q1008 TEMP O TL1200 5000 TSRA RMK CB IN APCH AND CLIMB-OUT
METAR WADD 151030Z 34012KT 6000 -TSRA FEW013CB BKN014 25/23 Q1007 TEM PO TL1130 6000 -TSRA RMK CB IN APCH AND CLIMB-OUT
METAR WADD 151000Z 33011KT 300V360 6000 -TSRA FEW013CB BKN014 25/24 Q 1007 TEMPO TL1100 6000 -TSRA RMK CB IN APCH
METAR WADD 150930Z 33007G19KT 6000 -RA FEW014CB BKN015 26/24 Q1007 TEMPO TL1030 6000 -RA RMK CB IN APCH
METAR WADD 150900Z 29015KT 5000 -RA FEW014CB BKN015 27/24 Q1006 TEMPO TL1000 5000 -RA RMK CB IN CLIMB-OUT</description><pubDate>Tue, 16 Dec 2025 08:40:42 </pubDate></item></channel></rss>