<rss version="2.0"><channel><title>Aviation Weather METAR Data for WADD</title><link>https://aviationweather.gov/api/data/metar?ids=WADD&amp;hours=24</link><description>Latest METAR data for WADD</description><item><title>2026-03-11 15:24:33Z</title><link>https://aviationweather.gov/api/data/metar?ids=WADD&amp;hours=24</link><description>METAR WADD 111500Z 27013KT 9999 SCT017 27/26 Q1009 NOSIG
METAR WADD 111430Z 27013KT 9999 FEW017 27/26 Q1009 NOSIG
METAR WADD 111400Z 28015KT 9999 FEW017 27/25 Q1009 NOSIG
METAR WADD 111330Z 28014KT 9999 FEW017 27/25 Q1009 NOSIG
METAR WADD 111300Z 27014KT 9999 FEW017 27/25 Q1009 NOSIG
METAR WADD 111230Z 27015KT 9999 FEW017 27/25 Q1009 NOSIG
METAR WADD 111200Z 27015KT 9999 FEW017 27/25 Q1009 NOSIG
METAR WADD 111130Z 27017KT 9999 FEW015CB SCT015 27/25 Q1008 NOSIG CB IN APCH
METAR WADD 111100Z 27015KT 9999 FEW014CB SCT014 27/26 Q1008 NOSIG CB IN APCH AND CLIMB-OUT
SPECI WADD 111055Z 26013KT 9999 FEW014CB SCT014 27/26 Q1008 RERA NOSIG CB IN CLIMB-OUT
SPECI WADD 111031Z 26013KT 5000 -RA FEW014CB SCT014 29/25 Q1007 NOSIG CB IN CLIMB-OUT
METAR WADD 111030Z 26013KT 8000 FEW014CB SCT014 29/25 Q1007 NOSIG CB IN CLIMB-OUT
METAR WADD 111000Z 27015KT 9999 FEW015CB SCT015 29/25 Q1007 NOSIG
METAR WADD 110930Z 26013G20KT 9999 SCT015 30/26 Q1007 NOSIG
METAR WADD 110900Z 26014KT 9999 FEW016 30/26 Q1007 NOSIG
METAR WADD 110830Z 26015KT 9999 FEW016 31/25 Q1007 NOSIG
METAR WADD 110800Z 26016KT 9999 FEW015 31/25 Q1007 NOSIG
METAR WADD 110730Z 26015KT 9999 FEW015CB SCT015 31/26 Q1007 NOSIG
METAR WADD 110700Z 26017KT 9999 FEW015CB SCT015 31/26 Q1007 NOSIG CB IN APCH
METAR WADD 110630Z 26013KT 9999 FEW015CB SCT016 31/27 Q1007 NOSIG
METAR WADD 110600Z 26014KT 9999 SCT016 31/26 Q1008 NOSIG
METAR WADD 110530Z 26012KT 9999 SCT015 30/25 Q1008 NOSIG
METAR WADD 110500Z 30011KT 8000 FEW014CB SCT015 29/25 Q1009 NOSIG RMK CB IN CLIMB-OUT
METAR WADD 110430Z 29014KT 8000 FEW014CB SCT015 29/24 Q1009 NOSIG RMK CB IN APCH AND CLIMB-OUT
METAR WADD 110400Z 31012KT 6000 VCSH FEW014CB BKN015 30/26 Q1009 TEMP O FM0405 3000 RA RMK CB IN CLIMB-OUT
METAR WADD 110330Z 30012KT 9999 SCT015 29/26 Q1010 NOSIG
METAR WADD 110300Z 26012KT 9999 SCT015 29/26 Q1010 NOSIG
METAR WADD 110230Z 26010G20KT 8000 FEW015CB SCT015 27/25 Q1010 NOSIG
METAR WADD 110200Z 26013KT 8000 FEW015CB BKN015 27/25 Q1010 NOSIG
METAR WADD 110130Z 25009KT 6000 FEW015CB BKN015 26/25 Q1010 RERA NOSI G RMK CB IN APCH
SPECI WADD 110110Z 25012KT 5000 -RA FEW013CB BKN014 26/25 Q1009 TEMPO TL0200 5000 -RA RMK CB IN APCH AND CLIMB-OUT
METAR WADD 110100Z 24016G27KT 3000 RA FEW013CB BKN014 26/25 Q1010 TEMPO TL0200 3000 RA RMK CB IN APCH AND CLIMB-OUT
SPECI WADD 110056Z 24018G27KT 1000 +RA FEW013CB BKN014 28/25 Q1010 TEMPO TL0200 2000 RA RMK CB IN APCH AND CLIMB-OUT
SPECI WADD 110048Z 24027KT 2000 +RA FEW013CB BKN014 28/26 Q1009 TEMPO TL0200 2000 RA RMK CB IN APCH AND CLIMB-OUT
METAR WADD 110030Z 26013KT 6000 FEW015CB SCT016 28/26 Q1009 NOSIG RMK CB IN APCH
METAR WADD 110000Z 27014KT 9999 FEW015CB SCT016 28/26 Q1009 NOSIG RMK CB IN APCH
METAR WADD 102330Z 28015KT 9999 FEW015CB SCT016 28/26 Q1008 NOSIG RMK CB IN APCH
METAR WADD 102300Z 27015KT 9999 FEW015CB BKN016 28/26 Q1008 NOSIG RMK CB IN APCH
METAR WADD 102230Z 27015KT 9999 FEW015CB BKN016 28/26 Q1008 NOSIG
METAR WADD 102200Z 27013KT 9999 FEW015CB BKN016 28/26 Q1008 NOSIG
METAR WADD 102130Z 27015KT 9999 BKN016 28/25 Q1008 NOSIG
METAR WADD 102100Z 27015KT 9999 FEW015CB BKN016 28/25 Q1008 NOSIG
METAR WADD 102030Z 27014KT 9999 FEW015CB BKN016 28/26 Q1008 NOSIG
METAR WADD 102000Z 27016KT 9999 FEW015CB BKN016 27/25 Q1008 NOSIG RMK CB IN APCH
METAR WADD 101930Z 27014KT 9999 FEW015CB BKN016 28/26 Q1008 NOSIG
METAR WADD 101900Z 27015KT 9999 FEW015CB BKN016 28/26 Q1008 NOSIG
METAR WADD 101830Z 27015KT 9999 FEW015CB BKN016 28/25 Q1008 NOSIG
METAR WADD 101800Z 27014KT 9999 FEW015CB BKN016 28/26 Q1009 NOSIG
METAR WADD 101730Z 27014KT 9999 FEW015CB BKN016 28/26 Q1009 NOSIG
METAR WADD 101700Z 27016KT 9999 FEW015CB BKN016 28/25 Q1009 NOSIG
METAR WADD 101630Z 27016KT 9999 FEW015CB BKN016 28/26 Q1009 NOSIG
METAR WADD 101600Z 27014KT 9999 FEW015CB BKN016 28/26 Q1010 NOSIG RMK CB IN APCH
METAR WADD 101530Z 27014KT 9999 FEW015CB BKN016 28/26 Q1010 NOSIG</description><pubDate>Wed, 11 Mar 2026 15:24:33 </pubDate></item></channel></rss>