<rss version="2.0"><channel><title>Aviation Weather METAR Data for WADD</title><link>https://aviationweather.gov/api/data/metar?ids=WADD&amp;hours=24</link><description>Latest METAR data for WADD</description><item><title>2025-04-29 04:45:03Z</title><link>https://aviationweather.gov/api/data/metar?ids=WADD&amp;hours=24</link><description>WADD 290430Z 12007KT 050V130 9999 FEW017 30/25 Q1009 NOSIG
WADD 290300Z 12005KT 9999 FEW015CB SCT016 28/23 Q1011 NOSIG
WADD 290200Z 14018KT 4000 RA FEW014CB BKN015 26/24 Q1011 TEMPO TL0300 4000 RA
WADD 290130Z VRB02KT 9999 FEW015CB SCT016 29/24 Q1011 NOSIG
WADD 290000Z VRB02G18KT 8000 -RA FEW015CB SCT016 26/23 Q1011 TEMPO TL0100 -RA
WADD 282330Z 01006KT 340V070 9999 SCT016 26/24 Q1010 NOSIG
WADD 282300Z 01004KT 9999 SCT016 25/24 Q1010 NOSIG
WADD 282230Z 02004KT 9999 SCT016 24/24 Q1010 NOSIG
WADD 282200Z VRB01KT 9999 BKN016 26/24 Q1009 NOSIG
WADD 282130Z VRB01KT 9999 FEW015CB BKN016 25/24 Q1009 RERA NOSIG
WADD 282100Z VRB06KT 5000 RA FEW015CB BKN016 26/25 Q1009 TEMPO TL2200 5000 RA
WADD 282030Z 01004KT 9999 FEW016 25/24 Q1009 NOSIG
WADD 282000Z 02005KT 9999 SCT016 25/24 Q1009 NOSIG
WADD 281930Z 02004KT 9999 FEW016 25/24 Q1009 NOSIG
WADD 281900Z 03004KT 9999 SCT016 25/24 Q1009 NOSIG
WADD 281830Z 04004KT 9999 SCT016 26/24 Q1009 NOSIG
WADD 281800Z 04005KT 9999 SCT016 26/24 Q1009 NOSIG
WADD 281730Z 04004KT 010V080 9999 SCT016 26/24 Q1009 NOSIG
WADD 281630Z 10006KT 9999 FEW016 27/24 Q1010 NOSIG
WADD 281600Z 12007KT 9999 SCT016 28/25 Q1010 NOSIG
WADD 281500Z 13007KT 9999 SCT016 28/25 Q1010 NOSIG
WADD 281430Z 13006KT 9999 SCT016 28/25 Q1010 NOSIG
WADD 281400Z 10005KT 9999 SCT016 27/25 Q1010
WADD 281330Z 12008KT 9999 SCT016 28/25 Q1010 NOSIG
WADD 281300Z 12009KT 9999 SCT016 28/25 Q1010 NOSIG
WADD 281230Z 12009KT 9999 SCT017 28/25 Q1009 NOSIG
WADD 281200Z 13009KT 9999 SCT017 28/25 Q1009 NOSIG
WADD 281130Z 12009KT 9999 SCT017 28/25 Q1009 NOSIG
WADD 281100Z 12008KT 9999 SCT017 28/25 Q1009 NOSIG
WADD 281030Z 12009KT 9999 FEW017 29/25 Q1008 NOSIG
WADD 281000Z 13011KT 9999 FEW017 29/26 Q1008 NOSIG
WADD 280930Z 13009KT 9999 FEW017 29/26 Q1008 NOSIG
WADD 280900Z 13011KT 9999 FEW017 30/26 Q1008 NOSIG
WADD 280830Z 14010KT 9999 FEW017 30/26 Q1008 NOSIG
WADD 280800Z 15011KT 9999 FEW017 30/26 Q1008 NOSIG
WADD 280730Z 15011KT 9999 FEW017 30/26 Q1008 NOSIG
WADD 280700Z 14010KT 9999 FEW017 30/26 Q1008 NOSIG
WADD 280630Z 13006KT 9999 FEW016 31/24 Q1008 NOSIG
WADD 280600Z 14006KT 100V170 9999 SCT016 30/24 Q1008 NOSIG
WADD 280530Z 24005KT 190V320 9999 SCT016 30/25 Q1009 NOSIG
WADD 280500Z 26007KT 9999 SCT016 29/24 Q1009 NOSIG</description><pubDate>Tue, 29 Apr 2025 04:45:03 </pubDate></item></channel></rss>