<rss version="2.0"><channel><title>Aviation Weather METAR Data for WADD</title><link>https://aviationweather.gov/api/data/metar?ids=WADD&amp;hours=24</link><description>Latest METAR data for WADD</description><item><title>2025-11-26 09:47:46Z</title><link>https://aviationweather.gov/api/data/metar?ids=WADD&amp;hours=24</link><description>METAR WADD 260930Z 01005KT 310V050 8000 -TSRA FEW014CB BKN015 26/25 Q1006 TEMPO TL1030 -TSRA
METAR WADD 260900Z VRB05KT 7000 -TSRA FEW014CB BKN015 26/25 Q1006 TEMPO TL1030 -TSRA
METAR WADD 260830Z 07007KT 350V090 6000 -TSRA FEW014CB BKN015 26/24 Q1006 TEMPO TL0930 -TSRA RMK CB IN APCH AND CLIMB-OUT
METAR WADD 260800Z 34007KT 290V030 8000 -TSRA FEW014CB BKN015 27/24 Q 1005 TEMPO TL0930 -TSRA RMK CB IN CLIMB-OUT
METAR WADD 260730Z 26012KT 9999 TS FEW015CB BKN015 29/26 Q1005 TEMPO TL0830 TS
METAR WADD 260700Z 25009KT 9999 TS FEW015CB SCT016 30/26 Q1005 TEMPO TL0830 TS
METAR WADD 260630Z 25011KT 9999 TS FEW015CB SCT016 30/26 Q1005 TEMPO TL0730 TS
METAR WADD 260600Z 25011KT 9999 FEW016CB SCT016 31/27 Q1005 NOSIG
METAR WADD 260530Z 26011KT 9999 SCT017 31/27 Q1006 NOSIG
METAR WADD 260500Z 25010KT 9999 SCT017 31/27 Q1006 NOSIG
METAR WADD 260430Z 26011KT 9999 SCT017 31/27 Q1006 NOSIG
METAR WADD 260400Z 25010KT 9999 SCT017 31/26 Q1007 NOSIG
METAR WADD 260330Z 26009KT 9999 SCT017 31/26 Q1007 NOSIG
METAR WADD 260300Z 26010KT 9999 BKN017 30/26 Q1007 NOSIG
METAR WADD 260230Z 25009KT 9999 SCT017 30/26 Q1007 NOSIG
METAR WADD 260200Z 27009KT 9999 SCT017 30/26 Q1007 NOSIG
METAR WADD 260130Z 26008KT 9999 SCT017 30/26 Q1007 NOSIG
METAR WADD 260100Z 29007KT 250V320 9999 SCT017 30/25 Q1007 NOSIG
METAR WADD 260030Z 28006KT 260V340 9999 FEW017 30/25 Q1007 NOSIG
METAR WADD 260000Z 32006KT 9999 FEW017 29/25 Q1007 NOSIG
METAR WADD 252330Z 33006KT 300V010 9999 FEW017 28/24 Q1007 NOSIG
METAR WADD 252300Z 33005KT 9999 FEW017 27/24 Q1007 NOSIG
METAR WADD 252230Z 35004KT 320V030 9999 SCT017 26/23 Q1006 NOSIG
METAR WADD 252200Z 35003KT 9999 SCT017 26/23 Q1006 NOSIG
METAR WADD 252130Z 01005KT 9999 FEW017 26/23 Q1006 NOSIG
METAR WADD 252100Z 35004KT 9999 FEW017 27/24 Q1006 NOSIG
METAR WADD 252030Z 33004KT 9999 FEW017 27/24 Q1006 NOSIG
METAR WADD 252000Z 34005KT 9999 FEW017 27/24 Q1006 NOSIG
METAR WADD 251930Z 28009KT 9999 FEW017 28/23 Q1006 NOSIG
METAR WADD 251900Z 28009KT 9999 FEW017 27/24 Q1006 NOSIG
METAR WADD 251830Z 28009KT 9999 FEW017 28/24 Q1006 NOSIG
METAR WADD 251800Z 28010KT 9999 FEW017 28/24 Q1006 NOSIG
METAR WADD 251730Z 28010KT 9999 FEW017 28/24 Q1006 NOSIG
METAR WADD 251700Z 29011KT 9999 FEW017 28/24 Q1006 NOSIG
METAR WADD 251630Z 28009KT 9999 FEW017 28/24 Q1007 NOSIG
METAR WADD 251600Z 27011KT 9999 FEW017 28/24 Q1007 NOSIG
METAR WADD 251530Z 26009KT 9999 FEW017 28/24 Q1007 NOSIG
METAR WADD 251500Z 26009KT 9999 FEW017 28/24 Q1007 NOSIG
METAR WADD 251430Z 25008KT 9999 FEW017 28/24 Q1007 NOSIG
METAR WADD 251400Z 25007KT 9999 FEW017 28/24 Q1007 NOSIG
METAR WADD 251330Z 25006KT 9999 FEW017 28/24 Q1007 NOSIG
METAR WADD 251300Z 26007KT 9999 FEW017 28/24 Q1007 NOSIG
METAR WADD 251230Z 26008KT 9999 FEW017 28/24 Q1007 NOSIG
METAR WADD 251200Z 26007KT 9999 FEW017 28/23 Q1006 NOSIG
METAR WADD 251130Z 26009KT 9999 FEW017 28/24 Q1006 NOSIG
METAR WADD 251100Z 26009KT 9999 FEW017 29/24 Q1006 NOSIG
METAR WADD 251030Z 25009KT 9999 FEW017 29/24 Q1006 NOSIG
METAR WADD 251000Z 26009KT 9999 FEW017 29/24 Q1005 NOSIG</description><pubDate>Wed, 26 Nov 2025 09:47:46 </pubDate></item></channel></rss>