<rss version="2.0"><channel><title>Aviation Weather METAR Data for WADD</title><link>https://aviationweather.gov/api/data/metar?ids=WADD&amp;hours=24</link><description>Latest METAR data for WADD</description><item><title>2025-05-25 08:31:05Z</title><link>https://aviationweather.gov/api/data/metar?ids=WADD&amp;hours=24</link><description>WADD 250800Z 08011KT 9999 FEW017 31/26 Q1006 NOSIG
WADD 250730Z 08008KT 9999 FEW016 32/27 Q1006 NOSIG
WADD 250700Z 08010KT 9999 SCT016 32/27 Q1006 NOSIG
WADD 250630Z 07011KT 9999 FEW015CB SCT016 32/27 Q1006 NOSIG
WADD 250600Z 10010KT 9999 FEW015CB SCT016 30/27 Q1007 NOSIG
WADD 250530Z 10013KT 9999 FEW015CB SCT016 30/27 Q1007 NOSIG
WADD 250500Z 10009KT 9999 SCT016 31/27 Q1007 NOSIG
WADD 250430Z 11010KT 9999 SCT016 31/27 Q1008 NOSIG
WADD 250400Z 13010KT 9999 FEW017 30/27 Q1008 NOSIG
WADD 250330Z 10010KT 9999 FEW017 31/27 Q1008 NOSIG
WADD 250300Z 10010KT 9999 FEW017 30/27 Q1008 NOSIG
WADD 250230Z 09009KT 9999 FEW017 29/27 Q1009 NOSIG
WADD 250200Z 10010KT 9999 FEW017 29/26 Q1009 NOSIG
WADD 250130Z 10010KT 9999 FEW017 29/27 Q1009 NOSIG
WADD 250100Z 10007KT 9999 SCT016 28/28 Q1009 NOSIG
WADD 250030Z VRB02KT 9999 SCT016 27/27 Q1009 NOSIG
WADD 250000Z 07005KT 9999 SCT016 27/27 Q1009 NOSIG
WADD 242330Z 06006KT 9999 SCT016 26/26 Q1008 NOSIG
WADD 242300Z 09005KT 9999 BKN015 26/26 Q1008 RERA NOSIG
WADD 242230Z 06005KT 8000 -RA BKN015 26/26 Q1008 TEMPO TL2330 8000 -RA
WADD 242200Z 02004KT 8000 -RA BKN015 26/26 Q1008 TEMPO TL2300 8000 -RA
WADD 242130Z 08003KT 8000 -RA BKN015 26/25 Q1008 TEMPO TL2230 8000 -RA
WADD 242100Z VRB02KT 8000 -RA BKN015 26/25 Q1008 TEMPO TL2200 8000 -RA
WADD 242030Z VRB02KT 9999 BKN015 26/25 Q1007 RETS NOSIG
WADD 242000Z 26005KT 9999 TS FEW015CB BKN015 26/26 Q1007 TEMPO TL2100 TS
WADD 241930Z 30007KT 5000 TSRA FEW015CB BKN015 27/26 Q1007 TEMPO TL2030 5000 TSRA RMK CB IN APCH AND CLIMB-OUT
WADD 241900Z 32005KT 8000 -RA SCT016 27/26 Q1008 TEMPO TL2000 8000 -RA
WADD 241830Z 32005KT 9999 FEW016 27/26 Q1008 NOSIG
WADD 241800Z VRB02KT 9999 BR FEW016 27/26 Q1008 NOSIG
WADD 241730Z VRB01KT 9999 FEW016 27/26 Q1008 NOSIG
WADD 241700Z VRB02KT 9999 FEW016 27/27 Q1008 NOSIG
WADD 241630Z 24002KT 9999 FEW016 27/27 Q1008 NOSIG
WADD 241600Z VRB02KT 9999 SCT016 28/27 Q1008 NOSIG
WADD 241530Z 22002KT 9999 FEW016 28/26 Q1008 NOSIG
WADD 241500Z VRB01KT 9999 FEW016 28/26 Q1008 NOSIG
WADD 241430Z 31004KT 9999 FEW016 28/26 Q1008 NOSIG
WADD 241400Z 32005KT 9999 FEW016 28/26 Q1008 NOSIG
WADD 241330Z 31006KT 270V330 9999 SCT016 28/26 Q1008 NOSIG
WADD 241300Z 32006KT 290V020 9999 SCT016 28/27 Q1008 NOSIG
WADD 241230Z 32007KT 9999 SCT016 28/27 Q1007 NOSIG
WADD 241200Z 32006KT 280V360 9999 SCT016 28/27 Q1007 NOSIG
WADD 241130Z VRB05KT 9999 FEW017 28/27 Q1007 NOSIG
WADD 241100Z 13004KT 9999 FEW017 28/27 Q1006 NOSIG
WADD 241030Z 15007KT 9999 FEW017 29/27 Q1006 NOSIG
WADD 241000Z 18007KT 9999 FEW017 29/27 Q1006 NOSIG
WADD 240930Z 24008KT 9999 FEW017 29/27 Q1006 NOSIG
WADD 240900Z 20005KT 9999 FEW017 30/27 Q1006 NOSIG</description><pubDate>Sun, 25 May 2025 08:31:05 </pubDate></item></channel></rss>