<rss version="2.0"><channel><title>Aviation Weather METAR Data for WADD</title><link>https://aviationweather.gov/api/data/metar?ids=WADD&amp;hours=24</link><description>Latest METAR data for WADD</description><item><title>2026-03-13 08:02:36Z</title><link>https://aviationweather.gov/api/data/metar?ids=WADD&amp;hours=24</link><description>METAR WADD 130730Z 26015KT 9999 SCT016 31/26 Q1006 NOSIG
METAR WADD 130700Z 26014KT 9999 SCT016 31/26 Q1006 NOSIG
METAR WADD 130630Z 26014KT 9999 SCT016 31/27 Q1006 NOSIG
METAR WADD 130600Z 26016KT 9999 SCT016 31/26 Q1006 NOSIG
METAR WADD 130530Z 26014KT 9999 FEW016 31/27 Q1006 NOSIG
METAR WADD 130500Z 26012KT 9999 FEW016 31/26 Q1007 NOSIG
METAR WADD 130430Z 29013KT 9999 FEW016 30/27 Q1007 NOSIG
METAR WADD 130400Z 28014KT 9999 SCT016 31/27 Q1008 NOSIG
METAR WADD 130330Z 28013KT 9999 SCT016 28/26 Q1008 NOSIG
METAR WADD 130300Z 30012KT 9999 FEW015CB SCT016 27/26 Q1009 NOSIG
METAR WADD 130230Z 30011KT 9999 FEW013CB BKN014 27/26 Q1009 RERA NOSI G
SPECI WADD 130212Z 28015KT 1500 RA FEW013CB BKN014 28/26 Q1009 TEMPO TL0300 1500 RA RMK CB IN APCH AND CLIMB-OUT
SPECI WADD 130204Z 27007KT 0600 +RA FEW013CB BKN014 29/26 Q1009 TEMPO TL0300 0600 +RA CB IN CLIMB-OUT AND APCH
METAR WADD 130200Z 28013KT 7000 -RA FEW015CB SCT016 30/26 Q1009 TEMPO TL0300 7000 -RA CB IN CLIMB-OUT AND APCH
METAR WADD 130130Z 27016KT 9999 SCT016 30/26 Q1009 NOSIG
METAR WADD 130100Z 27016KT 9999 SCT016 29/26 Q1009 NOSIG
METAR WADD 130030Z 29011KT 9999 SCT016 29/26 Q1009 NOSIG
METAR WADD 130000Z 29012KT 9999 SCT016 29/26 Q1009 NOSIG
METAR WADD 122330Z 28012KT 9999 SCT016 28/26 Q1008 RERA NOSIG
METAR WADD 122300Z 29013KT 8000 -RA FEW015CB SCT016 28/26 Q1008 TEMPO TL2330 6000 -RA RMK CB IN CLIMB-OUT
METAR WADD 122230Z 29010KT 9999 FEW017 27/26 Q1008 NOSIG
METAR WADD 122200Z 28012KT 9999 FEW017 27/26 Q1007 NOSIG
METAR WADD 122130Z 28013KT 9999 FEW017 27/26 Q1007 NOSIG
METAR WADD 122100Z 28012KT 9999 FEW017 27/26 Q1007 NOSIG
METAR WADD 122030Z 28014KT 9999 FEW017 27/25 Q1007 NOSIG
METAR WADD 122000Z 27014KT 9999 FEW017 27/25 Q1007 NOSIG
METAR WADD 121930Z 28015KT 9999 FEW017 28/26 Q1007 NOSIG
METAR WADD 121900Z 27014KT 9999 FEW017 27/26 Q1007 NOSIG
METAR WADD 121830Z 27012KT 9999 FEW017 27/25 Q1007 NOSIG
METAR WADD 121800Z 28015KT 9999 FEW017 28/26 Q1007 NOSIG
METAR WADD 121730Z 28013KT 9999 FEW017 28/26 Q1008 NOSIG
METAR WADD 121700Z 27012KT 9999 FEW017 28/26 Q1008 NOSIG
METAR WADD 121630Z 27012KT 9999 FEW017 28/26 Q1008 NOSIG
METAR WADD 121600Z 27012KT 9999 FEW017 28/26 Q1008 NOSIG
METAR WADD 121530Z 26013KT 9999 FEW017 28/25 Q1008 NOSIG
METAR WADD 121500Z 26013KT 9999 FEW017 28/26 Q1008 NOSIG
METAR WADD 121430Z 27013KT 9999 FEW017 28/26 Q1009 NOSIG
METAR WADD 121400Z 26013KT 9999 FEW017 28/25 Q1008 NOSIG
METAR WADD 121330Z 26012KT 9999 FEW017 28/25 Q1008 NOSIG
METAR WADD 121300Z 27013KT 9999 FEW017 28/25 Q1008 NOSIG
METAR WADD 121230Z 27014KT 9999 FEW017 28/25 Q1008 NOSIG
METAR WADD 121200Z 27015KT 9999 FEW017 28/25 Q1008 NOSIG
METAR WADD 121130Z 27014KT 9999 FEW017 28/25 Q1007 NOSIG
METAR WADD 121100Z 27013KT 9999 FEW017 28/25 Q1007 NOSIG
METAR WADD 121030Z 27015KT 9999 FEW017 29/25 Q1007 NOSIG
METAR WADD 121000Z 26015KT 9999 FEW017 29/25 Q1007 NOSIG
METAR WADD 120930Z 27016KT 9999 FEW017 30/25 Q1006 NOSIG
METAR WADD 120900Z 27016KT 9999 FEW017 30/25 Q1006 NOSIG
METAR WADD 120830Z 26016KT 9999 FEW017 31/25 Q1006 NOSIG</description><pubDate>Fri, 13 Mar 2026 08:02:36 </pubDate></item></channel></rss>