<rss version="2.0"><channel><title>Aviation Weather METAR Data for WADD</title><link>https://aviationweather.gov/api/data/metar?ids=WADD&amp;hours=24</link><description>Latest METAR data for WADD</description><item><title>2025-07-25 21:27:07Z</title><link>https://aviationweather.gov/api/data/metar?ids=WADD&amp;hours=24</link><description>WADD 252100Z 14007KT 9999 SCT016 26/25 Q1011 NOSIG
WADD 252030Z 13008KT 9999 SCT016 26/25 Q1011 NOSIG
WADD 252000Z 13007KT 9999 SCT016 26/25 Q1011 NOSIG
WADD 251930Z 14009KT 9999 SCT016 26/25 Q1011 NOSIG
WADD 251900Z 13010KT 9999 SCT016 26/25 Q1011 NOSIG
WADD 251830Z 14010KT 9999 SCT016 26/25 Q1011 NOSIG
WADD 251800Z 13010KT 9999 SCT016 26/25 Q1011 NOSIG
WADD 251730Z 13008KT 9999 SCT016 26/25 Q1011 NOSIG
WADD 251700Z 14009KT 9999 SCT016 27/25 Q1011 NOSIG
WADD 251630Z 13009KT 9999 SCT016 27/25 Q1012 NOSIG
WADD 251600Z 14011KT 9999 SCT016 27/25 Q1012 NOSIG
WADD 251530Z 14010KT 9999 SCT016 27/25 Q1012 NOSIG
WADD 251500Z 13009KT 9999 SCT016 27/25 Q1012 NOSIG
WADD 251430Z 14011KT 9999 SCT016 27/25 Q1012 NOSIG
WADD 251400Z 14012KT 9999 SCT016 27/25 Q1012 NOSIG
WADD 251330Z 14013KT 9999 SCT016 27/25 Q1011 NOSIG
WADD 251300Z 14014KT 9999 SCT016 27/25 Q1011 NOSIG
WADD 251230Z 14013KT 9999 SCT016 27/25 Q1011 NOSIG
WADD 251200Z 14013KT 9999 SCT016 27/25 Q1011 NOSIG
WADD 251130Z 14011KT 9999 SCT016 27/25 Q1010 NOSIG
WADD 251100Z 14011KT 9999 SCT016 27/25 Q1010 NOSIG
WADD 251030Z 14013KT 9999 FEW017 27/25 Q1010 NOSIG
WADD 251000Z 14014KT 9999 FEW017 27/25 Q1009 NOSIG
WADD 250930Z 14017KT 9999 FEW017 27/25 Q1009 NOSIG
WADD 250900Z 13015KT 9999 FEW017 27/25 Q1009 NOSIG
WADD 250830Z 14016KT 9999 FEW017 28/25 Q1009 NOSIG
WADD 250800Z 14015KT 9999 FEW017 28/25 Q1009 NOSIG
WADD 250730Z 14017KT 9999 FEW017 28/25 Q1009 NOSIG
WADD 250700Z 14013KT 9999 FEW017 28/25 Q1009 NOSIG
WADD 250630Z 13015KT 9999 SCT016 28/25 Q1009 NOSIG
WADD 250600Z 14016KT 9999 SCT016 28/25 Q1009 NOSIG
WADD 250530Z 13014KT 9999 SCT017 28/25 Q1010 NOSIG
WADD 250500Z 15017KT 9999 SCT017 28/25 Q1010 NOSIG
WADD 250430Z 14015KT 9999 SCT017 28/25 Q1011 NOSIG
WADD 250400Z 14015KT 9999 SCT017 28/25 Q1011 NOSIG
WADD 250330Z 14012KT 9999 SCT017 28/25 Q1011 NOSIG
WADD 250300Z 14013KT 9999 SCT017 28/26 Q1012 NOSIG
WADD 250230Z 14010KT 9999 SCT017 27/26 Q1012 NOSIG
WADD 250200Z 15011KT 8000 FEW015CB BKN015 26/26 Q1012 NOSIG
WADD 250130Z 15009KT 8000 FEW014CB BKN015 26/26 Q1012 RERA NOSIG
WADD 250100Z 15009KT 100V200 3000 RA FEW014CB BKN015 26/25 Q1012 TEMPO TL0200 3000 RA RMK CB IN CLIMB-OUT
WADD 250030Z 14008KT 9999 FEW015CB BKN016 26/26 Q1012 NOSIG
WADD 250000Z 15007KT 9999 FEW015CB BKN016 26/26 Q1011 NOSIG
WADD 242330Z 15006KT 9999 FEW015CB BKN016 26/26 Q1011 NOSIG
WADD 242300Z 13005KT 9999 FEW015CB BKN016 26/25 Q1011 NOSIG
WADD 242230Z 14007KT 9999 FEW015CB BKN016 26/25 Q1011 NOSIG
WADD 242200Z 13007KT 9999 FEW015CB BKN016 26/25 Q1010 NOSIG
WADD 242130Z 14009KT 9999 FEW015CB BKN016 26/25 Q1010 NOSIG</description><pubDate>Fri, 25 Jul 2025 21:27:07 </pubDate></item></channel></rss>