<rss version="2.0"><channel><title>Aviation Weather METAR Data for WADD</title><link>https://aviationweather.gov/api/data/metar?ids=WADD&amp;hours=24</link><description>Latest METAR data for WADD</description><item><title>2025-11-09 07:23:57Z</title><link>https://aviationweather.gov/api/data/metar?ids=WADD&amp;hours=24</link><description>METAR WADD 090700Z 27011KT 9999 FEW015CB BKN016 27/25 Q1008 RERA NOSIG RMK CB IN APCH
METAR WADD 090630Z 25008KT 7000 -RA FEW014CB BKN014 27/25 Q1009 TEMPO TL0730 -RA RMK CB IN APCH
METAR WADD 090600Z 25004KT 210V300 6000 -RA FEW014CB BKN014 27/26 Q10 09 TEMPO TL0730 -RA
METAR WADD 090530Z 27007KT 5000 -RA FEW013CB BKN014 27/26 Q1009 TEMPO TL0630 -RA
METAR WADD 090500Z 27005KT 7000 -RA FEW014CB BKN015 27/26 Q1009 TEMPO TL0600 -RA
METAR WADD 090430Z VRB01KT 7000 -RA FEW014CB BKN015 26/25 Q1010 TEMPO TL0530 -RA
METAR WADD 090400Z VRB02KT 7000 -RA FEW013CB BKN014 26/25 Q1010 TEMPO TL0500 7000 -RA RMK CB IN APCH
METAR WADD 090330Z 25005KT 2000 +RA FEW013CB BKN014 26/25 Q1011 RETS TEMPO TL0430 2000 RA RMK CB IN APCH AND CLIMB-OUT
METAR WADD 090300Z 26004KT 220V280 7000 -TSRA FEW013CB BKN014 26/25 Q1011 TEMPO TL0400 -TSRA RMK CB IN APCH AND CLIMB-OUT
METAR WADD 090230Z 22007KT 180V250 5000 -RA FEW013CB BKN014 26/25 Q1011 TEMPO TL0330 -RA RMK CB IN APCH
METAR WADD 090200Z 23005KT 200V270 7000 -RA FEW014CB BKN015 27/25 Q10 11 TEMPO TL0300 -RA RMK CB IN APCH AND CLIMB-OUT
METAR WADD 090130Z 27012KT 9999 FEW014CB BKN015 28/26 Q1011 NOSIG
METAR WADD 090100Z 29011KT 9999 FEW014CB BKN015 28/26 Q1011 NOSIG
METAR WADD 090030Z 28011KT 9999 FEW014CB BKN015 27/26 Q1011 NOSIG RMK CB IN CLIMB-OUT
METAR WADD 090000Z 27008KT 9999 FEW014CB BKN015 27/25 Q1011 RERA NOSIG RMK CB IN CLIMB-OUT
METAR WADD 082330Z 28012KT 7000 -RA FEW014CB BKN015 26/25 Q1010 TEMPO TL0100 -RA RMK CB IN CLIMB-OUT
METAR WADD 082300Z 31005KT 9999 FEW005 BKN013 OVC070 27/26 Q1010 NOSI G
METAR WADD 082230Z 31006KT 9999 FEW015CB BKN015 27/26 Q1009 NOSIG
METAR WADD 082200Z 31008KT 9999 FEW015CB BKN015 26/26 Q1009 NOSIG
METAR WADD 082130Z 30008KT 9999 FEW015CB BKN015 26/26 Q1009 NOSIG
METAR WADD 082100Z 29009KT 9999 FEW015CB BKN015 26/26 Q1009 NOSIG
METAR WADD 082030Z 27009KT 9999 FEW015CB BKN015 26/26 Q1008 NOSIG
METAR WADD 082000Z 28009KT 9999 FEW015CB BKN015 26/26 Q1008 RERA NOSI G
METAR WADD 081930Z 29013KT 8000 -RA FEW015CB BKN015 26/25 Q1008 RETS TEMPO TL2030 8000 -RA
METAR WADD 081900Z 28009KT 7000 -TSRA FEW014CB BKN014 25/25 Q1009 TEM PO TL2000 7000 -TSRA RMK CB IN APCH AND CLIMB-OUT
METAR WADD 081830Z 31008KT 7000 -TSRA FEW014CB BKN014 25/24 Q1009 TEMPO TL2000 7000 -TSRA RMK CB IN APCH AND CLIMB-OUT
METAR WADD 081800Z 28020KT 7000 -TSRA FEW014CB BKN014 25/25 Q1009 TEMPO TL2000 7000 -TSRA RMK CB IN APCH AND CLIMB-OUT
METAR WADD 081730Z 29005KT 240V320 9999 TS FEW015CB BKN015 27/26 Q1009 TEMPO TL1900 TS
METAR WADD 081700Z 23003KT 9999 FEW015CB BKN015 27/26 Q1009 NOSIG
METAR WADD 081630Z 23005KT 210V280 9999 FEW015CB BKN015 27/26 Q1009 R ETS NOSIG
METAR WADD 081600Z 23008KT 9999 TS FEW015CB BKN015 27/26 Q1009 RERA TEMPO TL1630 TS
METAR WADD 081530Z 22006KT 8000 -TSRA FEW015CB BKN015 27/26 Q1010 TEM PO TL1630 8000 -TSRA RMK CB IN APCH AND CLIMB-OUT
METAR WADD 081500Z 20008KT 8000 -TSRA FEW015CB BKN015 27/26 Q1010 TEMPO TL1630 8000 -TSRA RMK CB IN APCH AND CLIMB-OUT
METAR WADD 081430Z 27004KT 240V310 8000 -TSRA FEW015CB BKN015 26/25 Q 1010 TEMPO TL1530 8000 -TSRA RMK CB IN APCH AND CLIMB-OUT
METAR WADD 081400Z 30009KT 8000 -TSRA FEW015CB BKN015 26/25 Q1010 TEMPO TL1500 8000 -TSRA RMK CB IN APCH AND CLIMB-OUT
METAR WADD 081330Z 35010KT 9999 TS FEW015CB BKN015 27/26 Q1010 TEMPO TL1400 TS RMK CB IN APCH AND CLIMB-OUT
METAR WADD 081300Z VRB02KT 9999 TS FEW015CB BKN015 28/26 Q1010 TEMPO TL1400 TS RMK CB IN APCH AND CLIMB-OUT
METAR WADD 081230Z VRB02KT 9999 TS FEW015CB BKN015 29/26 Q1010 TEMPO TL1330 TS
METAR WADD 081200Z 12003KT 9999 TS FEW015CB SCT015 29/26 Q1009 TEMPO TL1330 TS
METAR WADD 081130Z 17004KT 9999 SCT016 29/26 Q1009 NOSIG
METAR WADD 081100Z 18005KT 9999 SCT016 29/26 Q1008 NOSIG
METAR WADD 081030Z 18005KT 9999 SCT016 29/26 Q1008 NOSIG
METAR WADD 081000Z 16004KT 9999 SCT016 30/26 Q1008 NOSIG
METAR WADD 080930Z 15004KT 110V200 9999 SCT016 30/26 Q1007 NOSIG
METAR WADD 080900Z 18003KT 9999 SCT016 30/25 Q1007 NOSIG
METAR WADD 080830Z 19005KT 130V250 9999 SCT016 31/25 Q1007 NOSIG
METAR WADD 080800Z 20008KT 9999 BKN016 29/25 Q1007 RETS NOSIG
METAR WADD 080730Z 16005KT 100V210 9999 TS FEW015CB BKN016 29/25 Q1007 RERA TEMPO TL0830 TS</description><pubDate>Sun, 09 Nov 2025 07:23:57 </pubDate></item></channel></rss>