<rss version="2.0"><channel><title>Aviation Weather METAR Data for WADD</title><link>https://aviationweather.gov/api/data/metar?ids=WADD&amp;hours=24</link><description>Latest METAR data for WADD</description><item><title>2026-02-12 10:56:45Z</title><link>https://aviationweather.gov/api/data/metar?ids=WADD&amp;hours=24</link><description>METAR WADD 121030Z 27011KT 8000 -RA FEW015CB BKN015 26/25 Q1008 TEMPO TL1130 8000 -RA RMK CB IN APCH
METAR WADD 121000Z 25008KT 9999 FEW015CB BKN015 28/25 Q1007 NOSIG RMK CB IN CLIMB OUT AND APCH
METAR WADD 120930Z 26009KT 9999 FEW015CB BKN015 28/25 Q1007 NOSIG
METAR WADD 120900Z 26011KT 9999 FEW015CB SCT016 28/25 Q1006 NOSIG
METAR WADD 120830Z COR 26011KT 9999 FEW015CB SCT016 29/25 Q1006 NOSIG
METAR WADD 120800Z 26010KT 9999 SCT016 29/25 Q1007 NOSIG
METAR WADD 120730Z 26012KT 9999 SCT016 29/25 Q1007 NOSIG
METAR WADD 120700Z 26012KT 9999 SCT016 30/25 Q1007 NOSIG
METAR WADD 120630Z 27013KT 9999 SCT016 30/25 Q1007 NOSIG
METAR WADD 120600Z 26010KT 9999 SCT016 30/26 Q1007 NOSIG
METAR WADD 120530Z 25011KT 9999 SCT016 30/25 Q1008 NOSIG
METAR WADD 120500Z 26010KT 9999 SCT016 30/25 Q1008 NOSIG
METAR WADD 120430Z 26011KT 9999 SCT016 30/25 Q1008 NOSIG
METAR WADD 120400Z 28011KT 9999 FEW016 30/26 Q1009 NOSIG
METAR WADD 120330Z 28011KT 9999 FEW016 30/26 Q1009 NOSIG
METAR WADD 120300Z 28008KT 9999 FEW016 29/26 Q1010 NOSIG
METAR WADD 120230Z 26006KT 210V280 9999 FEW016 29/25 Q1010 NOSIG
METAR WADD 120200Z 25007KT 9999 FEW016CB SCT016 26/25 Q1010 RERA NOSI G
METAR WADD 120130Z 26015KT 5000 -RA FEW014CB BKN014 26/25 Q1011 TEMPO TL0230 5000 -RA RMK CB IN APCH
METAR WADD 120100Z 31009KT 9999 FEW016CB SCT016 29/25 Q1010 NOSIG
METAR WADD 120030Z 32008KT 9999 FEW016CB SCT016 28/25 Q1010 NOSIG
METAR WADD 120000Z 32008KT 9999 FEW016CB BKN016 27/25 Q1010 NOSIG
METAR WADD 112330Z 31006KT 270V340 9999 BKN016 27/25 Q1009 NOSIG
METAR WADD 112300Z 28007KT 9999 SCT016 27/24 Q1009 NOSIG
METAR WADD 112230Z 27007KT 9999 SCT016 26/24 Q1009 NOSIG
METAR WADD 112200Z 26007KT 9999 SCT016 27/25 Q1009 NOSIG
METAR WADD 112130Z 28008KT 9999 SCT016 OVC110 27/25 Q1009 NOSIG
METAR WADD 112100Z 29007KT 9999 SCT016 27/25 Q1008 NOSIG
METAR WADD 112030Z 28009KT 9999 SCT016 27/25 Q1008 NOSIG
METAR WADD 112000Z 31005KT 9999 SCT016 27/25 Q1008 NOSIG
METAR WADD 111930Z 30004KT 9999 SCT016 26/25 Q1009 NOSIG
METAR WADD 111900Z 31006KT 9999 SCT016 26/25 Q1009 NOSIG
METAR WADD 111830Z 32005KT 290V350 9999 SCT016 26/25 Q1010 NOSIG
METAR WADD 111800Z 31004KT 9999 SCT016 26/25 Q1009 NOSIG
METAR WADD 111730Z 31005KT 9999 SCT016 26/25 Q1009 NOSIG
METAR WADD 111700Z 32005KT 290V350 8000 SCT016 26/25 Q1010 NOSIG
METAR WADD 111630Z 32005KT 9999 SCT015 26/24 Q1010 NOSIG
METAR WADD 111600Z 33004KT 280V010 8000 SCT015 26/24 Q1010 NOSIG
METAR WADD 111530Z 35005KT 300V020 8000 BKN015 25/24 Q1011 NOSIG
METAR WADD 111500Z 32004KT 260V360 8000 BKN015 26/24 Q1011 NOSIG
METAR WADD 111430Z 33005KT 280V020 8000 FEW015CB SCT016 26/24 Q1011 NOSIG RMK CB IN APCH
METAR WADD 111400Z 32007KT 8000 FEW015CB SCT016 25/24 Q1011 RETS NOSIG RMK CB IN APCH
METAR WADD 111330Z 29008KT 260V330 6000 TS FEW014CB BKN015 26/25 Q1011 RERA TEMPO TL1400 TS RMK CB IN APCH
METAR WADD 111300Z 27018KT 2000 RA FEW012CB BKN013 25/24 Q1011 TEMPO TL1330 2000 RA RMK CB IN APCH AND CLIMB-OUT
METAR WADD 111230Z VRB02KT 8000 FEW014CB SCT015 27/25 Q1010 TEMPO FM1240 3000 RA RMK CB IN CLIMB-OUT
METAR WADD 111200Z 22003KT 9999 SCT017 27/25 Q1010 NOSIG
METAR WADD 111130Z VRB01KT 9999 SCT017 27/25 Q1010 NOSIG
METAR WADD 111100Z 23003KT 9999 SCT016 27/25 Q1010 NOSIG</description><pubDate>Thu, 12 Feb 2026 10:56:45 </pubDate></item></channel></rss>