<rss version="2.0"><channel><title>Aviation Weather METAR Data for WADD</title><link>https://aviationweather.gov/api/data/metar?ids=WADD&amp;hours=24</link><description>Latest METAR data for WADD</description><item><title>2025-04-03 18:49:22Z</title><link>https://aviationweather.gov/api/data/metar?ids=WADD&amp;hours=24</link><description>WADD 031830Z 03004KT 9999 FEW017 26/26 Q1010 NOSIG
WADD 031800Z 08004KT 9999 FEW017 26/26 Q1010 NOSIG
WADD 031730Z 11004KT 9999 FEW017 27/26 Q1010 NOSIG
WADD 031700Z 11003KT 9999 FEW017 27/26 Q1010 NOSIG
WADD 031630Z 09004KT 9999 FEW017 27/26 Q1011 NOSIG
WADD 031600Z 07003KT 9999 FEW017 27/26 Q1011 NOSIG
WADD 031530Z 09003KT 9999 FEW017 27/26 Q1011 NOSIG
WADD 031500Z 05004KT 020V090 9999 FEW017 27/26 Q1011 NOSIG
WADD 031430Z 09004KT 9999 SCT016 27/26 Q1011 NOSIG
WADD 031400Z 07004KT 040V110 9999 SCT016 27/26 Q1011 NOSIG
WADD 031330Z 12004KT 9999 SCT016 28/26 Q1011 NOSIG
WADD 031300Z 14004KT 9999 FEW015CB SCT016 28/26 Q1011 NOSIG
WADD 031230Z 14008KT 9999 FEW015CB SCT016 28/26 Q1011 NOSIG
WADD 031200Z 15005KT 9999 FEW015CB SCT016 29/26 Q1011 NOSIG
WADD 031130Z 14006KT 9999 FEW017 29/26 Q1010 NOSIG
WADD 031100Z 14007KT 9999 FEW017 29/26 Q1010 NOSIG
WADD 031030Z 14007KT 9999 FEW017 29/26 Q1010 NOSIG
WADD 031000Z 14009KT 9999 SCT016 29/27 Q1009 NOSIG
WADD 030930Z 15010KT 9999 FEW017 30/26 Q1009 NOSIG
WADD 030900Z 16010KT 9999 FEW017 30/27 Q1009 NOSIG
WADD 030830Z 16010KT 9999 SCT016 30/26 Q1009 NOSIG
WADD 030800Z 16008KT 9999 SCT016 31/26 Q1009 NOSIG
WADD 030730Z 16008KT 9999 SCT016 31/26 Q1009 NOSIG
WADD 030700Z 15009KT 9999 SCT016 31/26 Q1009 NOSIG
WADD 030630Z 16009KT 9999 SCT016 31/25 Q1009 NOSIG
WADD 030600Z 16009KT 9999 SCT016 31/26 Q1009 NOSIG
WADD 030530Z 17010KT 9999 SCT016 31/27 Q1010 NOSIG
WADD 030500Z 16008KT 9999 SCT016 31/27 Q1010 NOSIG
WADD 030430Z 17003KT 9999 SCT016 30/27 Q1010 NOSIG
WADD 030400Z 23006KT 9999 SCT016 30/27 Q1010 NOSIG
WADD 030330Z 25006KT 9999 SCT016 30/27 Q1011 NOSIG
WADD 030300Z 25006KT 9999 SCT016 30/27 Q1011 NOSIG
WADD 030230Z 26005KT 230V300 9999 SCT016 29/27 Q1011 NOSIG
WADD 030200Z VRB02KT 9999 SCT016 29/27 Q1012 NOSIG
WADD 030130Z VRB01KT 9999 FEW017 29/27 Q1012 NOSIG
WADD 030100Z VRB02KT 9999 FEW017 29/26 Q1012 NOSIG
WADD 030030Z VRB01KT 9999 FEW017 28/26 Q1012 NOSIG
WADD 030000Z 11003KT 9999 FEW017 27/26 Q1011 NOSIG
WADD 022330Z 03004KT 9999 FEW017 26/25 Q1011 NOSIG
WADD 022300Z 03004KT 9999 FEW017 25/25 Q1011 NOSIG
WADD 022230Z 06003KT 9999 FEW017 24/24 Q1011 NOSIG
WADD 022200Z 08002KT 9999 FEW017 25/24 Q1010 NOSIG
WADD 022130Z VRB01KT 9999 FEW017 25/24 Q1010 NOSIG
WADD 022100Z VRB02KT 9999 FEW017 25/25 Q1010 NOSIG
WADD 022030Z VRB02KT 9999 FEW017 26/24 Q1010 NOSIG
WADD 022000Z VRB01KT 9999 FEW017 25/24 Q1010 NOSIG
WADD 021930Z VRB01KT 9999 FEW017 26/24 Q1010 NOSIG
WADD 021900Z VRB01KT 9999 FEW017 26/24 Q1010 NOSIG</description><pubDate>Thu, 03 Apr 2025 18:49:22 </pubDate></item></channel></rss>