<rss version="2.0"><channel><title>Aviation Weather METAR Data for WADD</title><link>https://aviationweather.gov/api/data/metar?ids=WADD&amp;hours=24</link><description>Latest METAR data for WADD</description><item><title>2026-04-28 19:09:11Z</title><link>https://aviationweather.gov/api/data/metar?ids=WADD&amp;hours=24</link><description>METAR WADD 281900Z 12006KT 9999 SCT016 28/26 Q1008 NOSIG
METAR WADD 281830Z 12008KT 9999 SCT016 28/26 Q1008 NOSIG
METAR WADD 281800Z 11005KT 9999 SCT016 28/26 Q1009 NOSIG
METAR WADD 281730Z 11006KT 9999 SCT016 28/26 Q1009 NOSIG
METAR WADD 281700Z 12008KT 9999 FEW017 28/26 Q1009 NOSIG
METAR WADD 281630Z 12007KT 9999 FEW017 28/26 Q1009 NOSIG
METAR WADD 281600Z 12007KT 9999 FEW017 28/26 Q1009 NOSIG
METAR WADD 281530Z 13008KT 9999 FEW017 29/27 Q1010 NOSIG
METAR WADD 281500Z 13008KT 9999 FEW017 29/27 Q1010 NOSIG
METAR WADD 281430Z 13009KT 9999 FEW017 29/27 Q1010 NOSIG
METAR WADD 281400Z 13010KT 9999 FEW017 29/27 Q1010 NOSIG
METAR WADD 281330Z 13009KT 9999 FEW017 29/27 Q1010 NOSIG
METAR WADD 281300Z 11011KT 9999 FEW017 29/27 Q1009 NOSIG
METAR WADD 281230Z 12011KT 9999 FEW017 29/27 Q1009 NOSIG
METAR WADD 281200Z 13011KT 9999 FEW017 29/27 Q1009 NOSIG
METAR WADD 281130Z 12011KT 9999 FEW017 29/27 Q1008 NOSIG
METAR WADD 281100Z 12011KT 9999 FEW017 29/27 Q1008 NOSIG
METAR WADD 281030Z 12010KT 9999 FEW017 29/27 Q1008 NOSIG
METAR WADD 280930Z 12013KT 9999 FEW017 30/27 Q1007 NOSIG
METAR WADD 280900Z 12012KT 9999 FEW017 31/26 Q1006 NOSIG
METAR WADD 280830Z 11011KT 9999 FEW017 31/26 Q1006 NOSIG
METAR WADD 280800Z 12009KT 9999 FEW017 31/26 Q1006 NOSIG
METAR WADD 280730Z 12010KT 9999 FEW017 31/26 Q1006 NOSIG
METAR WADD 280700Z 10009KT 9999 FEW017 32/26 Q1006 NOSIG
METAR WADD 280630Z 12009KT 9999 FEW017 31/26 Q1007 NOSIG
METAR WADD 280600Z 11010KT 9999 FEW017 32/26 Q1007 NOSIG
METAR WADD 280530Z 13008KT 9999 FEW017 32/27 Q1007 NOSIG
METAR WADD 280500Z 11010KT 9999 FEW017 32/26 Q1008 NOSIG
METAR WADD 280430Z 12011KT 9999 FEW016 31/26 Q1009 NOSIG
METAR WADD 280400Z 29004KT 220V320 9999 FEW015 32/26 Q1009 NOSIG
METAR WADD 280330Z 34008KT 300V080 9999 FEW015 32/26 Q1009 NOSIG
METAR WADD 280300Z 11007KT 9999 FEW016 31/26 Q1010 NOSIG
METAR WADD 280230Z 10004KT 040V140 9999 FEW016 31/26 Q1010 NOSIG
METAR WADD 280200Z 09006KT 9999 SCT015 29/26 Q1010 NOSIG
METAR WADD 280130Z 11005KT 9999 FEW016 28/26 Q1010 NOSIG
METAR WADD 280100Z 06005KT 030V100 9999 FEW016 27/26 Q1009 NOSIG
METAR WADD 280030Z 36003KT 9000 BKN016 26/26 Q1008 RERA NOSIG
METAR WADD 280000Z 11003KT 8000 -RA BKN015 26/25 Q1009 TEMPO TL0100 - RA
METAR WADD 272330Z 11004KT 8000 -RA FEW015CB BKN015 25/25 Q1009 TEMPO TL2430 -RA
METAR WADD 272300Z 05004KT 8000 -RA FEW015CB BKN015 25/24 Q1009 TEMPO TL2400 -RA
METAR WADD 272230Z 05006KT 7000 -RA FEW015CB BKN015 25/24 Q1009 TEMPO TL2330 -RA
METAR WADD 272200Z 05006KT 8000 -RA FEW015CB BKN015 26/25 Q1009 TEMPO TL2300 -RA
METAR WADD 272130Z 05006KT 8000 -RA FEW015CB BKN015 26/25 Q1008 TEMPO TL2230 -RA
METAR WADD 272100Z 06007KT 8000 -RA FEW015CB BKN015 26/26 Q1009 TEMPO TL2200 -RA
METAR WADD 272030Z 08007KT 9999 SCT016 26/25 Q1008 NOSIG
METAR WADD 272000Z 07005KT 9999 SCT016 26/25 Q1008 NOSIG
METAR WADD 271930Z 08004KT 9999 BKN016 26/25 Q1008 NOSIG</description><pubDate>Tue, 28 Apr 2026 19:09:11 </pubDate></item></channel></rss>