<rss version="2.0"><channel><title>Aviation Weather METAR Data for WADD</title><link>https://aviationweather.gov/api/data/metar?ids=WADD</link><description>Latest METAR data for WADD</description><item><title>2024-12-31 06:32:04Z</title><link>https://aviationweather.gov/api/data/metar?ids=WADD</link><description>WADD 310600Z 26004KT 230V290 9999 SCT016 30/26 Q1007 NOSIG</description><pubDate>Tue, 31 Dec 2024 06:32:04 </pubDate></item></channel></rss>