<rss version="2.0"><channel><title>Aviation Weather METAR Data for WADD</title><link>https://aviationweather.gov/api/data/metar?ids=WADD&amp;hours=24</link><description>Latest METAR data for WADD</description><item><title>2025-12-14 13:32:59Z</title><link>https://aviationweather.gov/api/data/metar?ids=WADD&amp;hours=24</link><description>METAR WADD 141300Z 33006KT 290V360 9999 SCT016 26/25 Q1008 NOSIG
METAR WADD 141230Z 33006KT 9999 SCT016 26/24 Q1008 NOSIG
METAR WADD 141200Z 35004KT 300V030 9999 BKN016 26/24 Q1007 NOSIG
METAR WADD 141130Z 35005KT 310V020 9999 FEW014CB BKN015 26/24 Q1007 N OSIG
METAR WADD 141100Z VRB01KT 9999 FEW014CB BKN015 25/24 Q1007 RERA NOSI G
METAR WADD 141030Z 04003KT 9999 FEW014CB BKN015 26/25 Q1007 NOSIG
METAR WADD 141000Z VRB02KT 9999 FEW014CB SCT015 26/25 Q1006 NOSIG
METAR WADD 140930Z 06004KT 020V100 9999 BKN015 26/25 Q1006 RETS NOSIG
METAR WADD 140900Z 06006KT 9999 TS FEW014CB BKN015 25/25 Q1006 TEMPO TL1000 TS
METAR WADD 140830Z VRB02KT 9000 -TSRA FEW014CB BKN015 25/24 Q1006 TEM PO TL0930 9000 -TSRA RMK CB IN APCH
METAR WADD 140730Z 22017KT 1000 TSRA FEW014CB BKN015 27/26 Q1006 TEMPO TL0830 1000 TSRA RMK CB IN APCH
METAR WADD 140630Z 07006KT 040V100 9999 FEW014CB BKN015 28/26 Q1006 N OSIG
METAR WADD 140530Z 11004KT 9999 SCT015 27/25 Q1006 NOSIG
METAR WADD 140430Z VRB02KT 9999 FEW014CB BKN015 26/26 Q1007 RERA NOSI G
METAR WADD 140400Z 06004KT 030V090 9999 FEW014CB BKN015 26/26 Q1008 R ERA NOSIG
METAR WADD 140330Z VRB02KT 8000 -RA FEW014CB BKN015 25/25 Q1008 NOSIG TEMPO TL0430 8000 -RA
METAR WADD 140300Z COR 34004KT 280V060 5000 RA FEW014CB BKN014 25/25 Q1008 RETS TEMPO TL0400 5000 RA
METAR WADD 140230Z 33007KT 290V010 3000 TSRA FEW013CB BKN013 25/25 Q1008 TEMPO TL0330 3000 TSRA RMK CB IN APCH AND CLIMB-OUT
METAR WADD 140130Z 25009KT 1000 +TSRA FEW013CB BKN013 25/24 Q1008 TEMPO TL0230 1000 +TSRA RMK CB IN APCH AND CLIMB-OUT
METAR WADD 140030Z 01004KT 320V040 9999 TS FEW014CB BKN015 26/25 Q100 8 TEMPO TL0130 TS
METAR WADD 140000Z 01006KT 330V030 8000 TS FEW013CB BKN014 26/25 Q1008 TEMPO TL0100 TS RMK CB IN APCH
METAR WADD 132330Z 29012KT 280V360 9999 TS FEW013CB BKN014 28/26 Q100 7 TEMPO TL2430 TS
METAR WADD 132300Z 28007KT 9999 TS FEW014CB BKN015 27/27 Q1007 TEMPO TL2400 TS
METAR WADD 132230Z 29007KT 9999 TS FEW014CB BKN015 27/26 Q1006 TEMPO TL2330 TS
METAR WADD 132200Z 28009KT 9999 FEW014CB BKN015 26/26 Q1006 RERA NOSI G
METAR WADD 132130Z 26010KT 180V320 7000 -RA FEW014CB BKN015 26/26 Q10 06 TEMPO TL2300 -RA
METAR WADD 132100Z 08003KT 9999 FEW014CB BKN015 26/26 Q1005 RETS NOSI G
METAR WADD 132030Z 05004KT 9999 TS FEW014CB BKN015 26/26 Q1005 TEMPO TL2130 TS
METAR WADD 132000Z 03003KT 9999 TS FEW014CB BKN015 26/26 Q1005 TEMPO TL2100 TS
METAR WADD 131930Z VRB03KT 9999 TS FEW014CB BKN015 26/26 Q1005 RERA TEMPO TL2030 TS
METAR WADD 131900Z 36006KT 8000 -RA FEW014CB BKN015 26/26 Q1005 TEMPO TL2000 -RA
METAR WADD 131830Z 36005KT 8000 -RA FEW014CB BKN015 OVC047 26/26 Q100 6 TEMPO TL1930 -RA
METAR WADD 131800Z 34007KT 8000 -RA FEW014CB BKN015 26/26 Q1006 TEMPO TL1900 -RA
METAR WADD 131730Z 35009KT 330V030 9999 FEW014CB BKN015 26/26 Q1006 RETSRA NOSIG RMK CB IN CLIMB-OUT
METAR WADD 131700Z 31010KT 290V050 6000 -TSRA FEW014CB BKN015 26/26 Q1006 TEMPO TL1830 -TSRA RMK CB IN APCH AND CLIMB-OUT
METAR WADD 131630Z 02009KT 330V060 6000 -TSRA FEW014CB BKN015 27/26 Q 1007 TEMPO TL1800 -TSRA RMK CB IN APCH AND CLIMB-OUT
METAR WADD 131600Z 06015KT 6000 -TSRA FEW014CB BKN015 26/24 Q1007 TEMPO TL1730 -TSRA RMK CB IN APCH AND CLIMB-OUT
METAR WADD 131530Z VRB05KT 9999 TS FEW015CB SCT016 28/24 Q1008 TEMPO TL1630 TS RMK CB IN APCH
METAR WADD 131500Z 22005KT 160V250 9999 TS FEW015CB SCT016 29/25 Q1007 TEMPO TL1600 TS RMK CB IN APCH
METAR WADD 131430Z 22005KT 170V250 9999 FEW015CB SCT016 29/25 Q1007 N OSIG
METAR WADD 131400Z 25008KT 9999 FEW015CB SCT016 29/25 Q1007 NOSIG</description><pubDate>Sun, 14 Dec 2025 13:32:59 </pubDate></item></channel></rss>