<rss version="2.0"><channel><title>Aviation Weather METAR Data for WADD</title><link>https://aviationweather.gov/api/data/metar?ids=WADD&amp;hours=24</link><description>Latest METAR data for WADD</description><item><title>2026-04-06 03:33:36Z</title><link>https://aviationweather.gov/api/data/metar?ids=WADD&amp;hours=24</link><description>METAR WADD 060300Z 12009KT 9999 FEW017 32/26 Q1011 NOSIG
METAR WADD 060230Z 10011KT 9999 FEW017 31/26 Q1011 NOSIG
METAR WADD 060200Z 12008KT 9999 FEW017 32/26 Q1011 NOSIG
METAR WADD 060130Z 14006KT 100V160 9999 FEW017 32/26 Q1011 NOSIG
METAR WADD 060100Z 13004KT 090V160 9999 FEW017 32/26 Q1011 NOSIG
METAR WADD 060030Z 11004KT 070V130 9999 FEW017 31/26 Q1011 NOSIG
METAR WADD 060000Z 07006KT 9999 FEW017 29/26 Q1010 NOSIG
METAR WADD 052330Z VRB02KT 9999 FEW017 28/26 Q1010 NOSIG
METAR WADD 052300Z 16006KT 9999 FEW016 27/26 Q1010 NOSIG
METAR WADD 052230Z 14005KT 9999 SCT016 27/25 Q1010 NOSIG
METAR WADD 052200Z VRB02KT 9999 SCT016 26/25 Q1009 NOSIG
METAR WADD 052130Z 36002KT 9999 SCT016 26/25 Q1009 NOSIG
METAR WADD 052100Z 01004KT 9999 SCT016 26/25 Q1009 NOSIG
METAR WADD 052030Z 01002KT 9999 SCT016 26/25 Q1009 NOSIG
METAR WADD 052000Z VRB02KT 9999 SCT016 26/25 Q1009 NOSIG
METAR WADD 051930Z 08004KT 9999 SCT016 27/25 Q1009 NOSIG
METAR WADD 051900Z 11002KT 9999 SCT016 27/25 Q1009 NOSIG
METAR WADD 051830Z 09003KT 9999 SCT016 27/25 Q1009 NOSIG
METAR WADD 051800Z 04004KT 9999 SCT016 27/25 Q1009 NOSIG
METAR WADD 051730Z 03004KT 9999 SCT016 27/24 Q1010 NOSIG
METAR WADD 051700Z 02006KT 9999 SCT016 28/25 Q1010 NOSIG
METAR WADD 051630Z 04005KT 9999 SCT016 27/25 Q1010 NOSIG
METAR WADD 051600Z 10004KT 9999 SCT016 27/25 Q1010 NOSIG
METAR WADD 051530Z 08007KT 9999 SCT016 27/25 Q1011 NOSIG
METAR WADD 051500Z 09007KT 9999 FEW015CB SCT016 28/25 Q1011 NOSIG
METAR WADD 051300Z 11007KT 9999 FEW015CB SCT016 28/27 Q1010 NOSIG
METAR WADD 051230Z 10006KT 9999 FEW015CB SCT016 28/26 Q1010 NOSIG
METAR WADD 051200Z 11007KT 9999 FEW015CB SCT016 28/26 Q1009 NOSIG
METAR WADD 051130Z 12008KT 9999 FEW016CB FEW016 28/26 Q1009 RETS NOSI G
METAR WADD 051100Z 12006KT 9999 TS FEW016CB SCT016 29/26 Q1009 TEMPO TL1130 TS
METAR WADD 051030Z 13010KT 9999 TS FEW016CB SCT016 29/26 Q1008 TEMPO TL1130 TS
SPECI WADD 051018Z 13006KT 9999 TS FEW016CB SCT016 29/26 Q1008 TEMPO TL1118 TS
METAR WADD 051000Z 13010KT 9999 SCT016 29/26 Q1008 NOSIG
METAR WADD 050930Z 13010KT 9999 SCT016 29/26 Q1008 NOSIG
METAR WADD 050900Z 13007KT 9999 SCT016 29/26 Q1008 NOSIG
METAR WADD 050830Z 13008KT 9999 SCT016 29/26 Q1007 NOSIG
METAR WADD 050800Z 14010KT 9999 SCT016 30/26 Q1008 NOSIG
METAR WADD 050730Z 13009KT 9999 FEW016CB SCT016 30/26 Q1008 NOSIG
METAR WADD 050700Z 13011KT 9999 FEW016CB SCT016 30/26 Q1008 NOSIG
METAR WADD 050630Z 12012KT 9999 FEW016CB SCT016 30/26 Q1008 NOSIG
METAR WADD 050600Z 13016KT 9999 FEW016CB SCT017 31/25 Q1008 NOSIG
METAR WADD 050530Z 14015KT 9999 SCT017 31/26 Q1008 NOSIG
METAR WADD 050500Z 12013KT 9999 FEW017 32/26 Q1008 NOSIG
METAR WADD 050430Z 12012KT 9999 SCT017 32/26 Q1009 NOSIG
METAR WADD 050400Z 12011KT 9999 SCT016 31/26 Q1009 NOSIG</description><pubDate>Mon, 06 Apr 2026 03:33:36 </pubDate></item></channel></rss>