<rss version="2.0"><channel><title>Aviation Weather METAR Data for WADD</title><link>https://aviationweather.gov/api/data/metar?ids=WADD&amp;hours=24</link><description>Latest METAR data for WADD</description><item><title>2025-01-27 03:41:53Z</title><link>https://aviationweather.gov/api/data/metar?ids=WADD&amp;hours=24</link><description>WADD 270330Z 30011KT 8000 -RA BKN017 27/26 Q1007 TEMPO TL0430 -RA
WADD 270300Z 30011KT 8000 -RA SCT016 26/25 Q1007 TEMPO TL0400 -RA
WADD 270230Z 28013KT 7000 -TSRA FEW016CB SCT016 25/24 Q1007 TEMPO TL0330 -TSRA
WADD 270200Z 29014KT 6000 -TSRA FEW015CB BKN016 25/25 Q1007 TEMPO TL0300 -TSRA RMK CB IN APCH
WADD 270130Z 27012KT 5000 RA FEW015CB BKN015 25/24 Q1008 TEMPO TL0230 -RA RMK CB IN APCH
WADD 270100Z 26017KT 200V270 0500 +RA FEW014CB BKN014 27/26 Q1007 TEMPO TL0200 1000+RA RMK CB IN CLIMB-OUT
WADD 270030Z 24004KT 8000 -RA FEW016CB BKN016 27/26 Q1007 TEMPO TL0130 -RA
WADD 270000Z 19003KT 9999 FEW016CB BKN016 26/24 Q1007 RERA NOSIG
WADD 262330Z 23006KT 9999 FEW016CB BKN016 27/25 Q1007 NOSIG
WADD 262300Z 31003KT 9999 SCT016 27/25 Q1006 NOSIG
WADD 262230Z 36003KT 9999 SCT016 26/25 Q1006 NOSIG
WADD 262200Z 34004KT 9999 SCT016 26/25 Q1006 NOSIG
WADD 262130Z VRB01KT 9999 SCT016 26/25 Q1005 NOSIG
WADD 262100Z VRB01KT 9999 FEW017 26/25 Q1005 NOSIG
WADD 262030Z VRB02KT 9999 FEW017 26/25 Q1005 NOSIG
WADD 262000Z 28005KT 230V300 9999 FEW017 26/25 Q1005 NOSIG
WADD 261930Z 28006KT 9999 FEW017 27/25 Q1005 NOSIG
WADD 261900Z 29008KT 9999 FEW017 27/25 Q1004 NOSIG
WADD 261830Z 29008KT 9999 FEW017 27/25 Q1004 NOSIG
WADD 261800Z 31006KT 9999 FEW017 26/26 Q1005 NOSIG
WADD 261730Z 32007KT 9999 SCT017 27/26 Q1005 NOSIG
WADD 261700Z 31006KT 9999 FEW015CB SCT016 26/26 Q1006 RERA NOSIG
WADD 261630Z 30005KT 8000 -RA FEW014CB BKN015 26/26 Q1006 TEMPO TL1730 -RA
WADD 261600Z 29017KT 2000 +RA FEW014CB BKN015 27/26 Q1007 TEMPO TL1700 2000 +RA
WADD 261530Z 32006KT 9999 FEW016CB SCT016 27/26 Q1007 NOSIG
WADD 261500Z 33005KT 9999 FEW016CB SCT017 27/25 Q1007 NOSIG
WADD 261430Z 36007KT 290V040 9999 FEW015CB SCT016 27/25 Q1007 NOSIG
WADD 261400Z 26006KT 9999 FEW015CB SCT016 27/26 Q1007 NOSIG
WADD 261330Z 25007KT 9999 FEW015CB SCT016 27/25 Q1007 NOSIG
WADD 261300Z 25007KT 9999 FEW015CB SCT016 28/26 Q1006 NOSIG
WADD 261230Z 29009KT 9999 FEW015CB SCT016 28/25 Q1006 NOSIG
WADD 261200Z 26007KT 9999 SCT016 29/26 Q1006 NOSIG
WADD 261130Z 24007KT 200V270 9999 SCT016 29/26 Q1006 NOSIG
WADD 261100Z 26008KT 9999 SCT016 29/26 Q1006 NOSIG
WADD 261030Z 25007KT 9999 SCT016 29/26 Q1005 NOSIG
WADD 261000Z 25008KT 9999 SCT016 29/26 Q1005 NOSIG
WADD 260930Z 25007KT 9999 SCT016 29/26 Q1004 NOSIG
WADD 260900Z 26010KT 9999 SCT016 29/27 Q1004 NOSIG
WADD 260830Z 26010KT 9999 SCT016 29/27 Q1004 NOSIG
WADD 260800Z 25010KT 9999 SCT016 30/27 Q1004 NOSIG
WADD 260730Z 25009KT 9999 SCT016 30/27 Q1004 NOSIG
WADD 260700Z 26011KT 9999 SCT016 30/27 Q1004 NOSIG
WADD 260630Z 26011KT 9999 SCT016 30/27 Q1005 NOSIG
WADD 260600Z 26011KT 9999 SCT017 30/27 Q1005 NOSIG
WADD 260530Z 26009KT 9999 SCT015 30/27 Q1006 NOSIG
WADD 260500Z 26008KT 9999 SCT015 31/28 Q1006 NOSIG
WADD 260430Z 26008KT 9999 FEW015 30/27 Q1007 NOSIG
WADD 260400Z 26009KT 9999 FEW016 31/27 Q1007 NOSIG</description><pubDate>Mon, 27 Jan 2025 03:41:53 </pubDate></item></channel></rss>