<rss version="2.0"><channel><title>Aviation Weather METAR Data for WADD</title><link>https://aviationweather.gov/api/data/metar?ids=WADD&amp;hours=24</link><description>Latest METAR data for WADD</description><item><title>2026-02-03 23:36:23Z</title><link>https://aviationweather.gov/api/data/metar?ids=WADD&amp;hours=24</link><description>METAR WADD 032330Z 24007KT 9999 SCT015 28/24 Q1010 NOSIG
METAR WADD 032300Z 25007KT 9999 SCT015 28/24 Q1010 NOSIG
METAR WADD 032230Z 26009KT 9999 SCT015 28/24 Q1010 NOSIG
METAR WADD 032200Z 26009KT 9999 SCT016 28/24 Q1010 NOSIG
METAR WADD 032130Z 26009KT 9999 SCT016 28/24 Q1009 NOSIG
METAR WADD 032100Z 25009KT 9999 SCT016 28/24 Q1009 NOSIG
METAR WADD 032030Z 27010KT 9999 FEW017 28/24 Q1009 NOSIG
METAR WADD 032000Z 28010KT 9999 FEW017 27/24 Q1009 NOSIG
METAR WADD 031930Z 27010KT 9999 FEW017 27/24 Q1009 NOSIG
METAR WADD 031900Z 27010KT 9999 FEW017 27/24 Q1009 NOSIG
METAR WADD 031830Z 26008KT 9999 FEW017 27/24 Q1009 NOSIG
METAR WADD 031800Z COR 26007KT 9999 FEW017 27/24 Q1009 NOSIG
METAR WADD 031730Z 26008KT 9999 FEW017 28/24 Q1010 NOSIG
METAR WADD 031700Z 25007KT 9999 FEW017 28/24 Q1010 NOSIG
METAR WADD 031630Z 24005KT 9999 FEW017 28/24 Q1010 NOSIG
METAR WADD 031600Z 23005KT 9999 FEW017 28/24 Q1011 NOSIG
METAR WADD 031530Z 25007KT 9999 FEW017 28/24 Q1011 NOSIG
METAR WADD 031500Z 24004KT 9999 FEW017 28/24 Q1011 NOSIG
METAR WADD 031430Z 24007KT 9999 FEW017 28/24 Q1012 NOSIG
METAR WADD 031400Z 23005KT 180V260 9999 FEW017 28/24 Q1011 NOSIG
METAR WADD 031330Z 23006KT 9999 SCT016 28/24 Q1011 NOSIG
METAR WADD 031300Z 23007KT 9999 SCT016 28/24 Q1011 NOSIG
METAR WADD 031230Z 23007KT 9999 FEW017 28/24 Q1011 NOSIG
METAR WADD 031200Z 23006KT 9999 FEW015CB SCT016 28/24 Q1011 NOSIG
METAR WADD 031130Z 24008KT 160V270 9999 FEW015CB BKN016 28/25 Q1010 N OSIG
METAR WADD 031100Z 25009KT 9999 FEW015CB BKN016 29/25 Q1010 NOSIG
METAR WADD 031030Z 25010KT 210V270 9999 BKN016 29/25 Q1009 NOSIG
METAR WADD 031000Z 25010KT 9999 SCT016 29/25 Q1009 NOSIG
METAR WADD 030930Z 26010KT 9999 SCT016 30/25 Q1009 NOSIG
METAR WADD 030900Z 26012KT 9999 SCT016 30/25 Q1009 NOSIG
METAR WADD 030830Z 26010KT 9999 BKN016 30/25 Q1009 NOSIG
METAR WADD 030800Z 26012KT 9999 SCT016 30/25 Q1008 NOSIG
METAR WADD 030730Z 26012KT 9999 FEW015CB SCT016 30/25 Q1009 NOSIG
METAR WADD 030700Z 25013KT 9999 FEW015CB SCT016 31/25 Q1009 NOSIG
METAR WADD 030630Z 26016KT 9999 FEW015CB BKN016 30/26 Q1009 NOSIG
METAR WADD 030600Z 26013KT 9999 FEW015CB BKN016 31/26 Q1009 NOSIG
METAR WADD 030530Z 26013KT 9999 FEW015CB SCT015 30/26 Q1010 NOSIG
METAR WADD 030500Z 26009KT 9999 FEW015CB FEW016 30/26 Q1009 NOSIG
METAR WADD 030430Z 26011KT 9999 FEW015CB BKN015 29/25 Q1010 NOSIG
METAR WADD 030400Z 29009KT 9999 FEW015CB BKN015 28/25 Q1010 NOSIG
METAR WADD 030330Z 23005KT 200V270 9999 FEW015CB BKN015 27/25 Q1011 R ERA NOSIG
SPECI WADD 030306Z 26013KT 8000 -RA FEW015CB BKN015 29/25 Q1011
METAR WADD 030300Z 26013KT 9999 FEW015CB BKN015 29/25 Q1011 NOSIG
METAR WADD 030230Z 28013KT 9999 FEW015CB BKN015 30/26 Q1011 RERA NOSI G
SPECI WADD 030204Z 28014KT 8000 FEW015CB BKN015 30/25 Q1011 NOSIG
METAR WADD 030200Z 28014KT 9999 FEW015CB BKN015 30/25 Q1011 NOSIG
METAR WADD 030130Z 28013KT 9999 FEW015CB BKN015 29/25 Q1011 NOSIG
METAR WADD 030100Z 26010KT 9999 FEW015CB BKN015 27/25 Q1012 NOSIG
METAR WADD 030030Z 24009KT 200V270 9999 FEW015CB BKN015 27/24 Q1012 N OSIG
METAR WADD 030000Z 28010KT 9999 SCT016 28/25 Q1012 NOSIG</description><pubDate>Tue, 03 Feb 2026 23:36:23 </pubDate></item></channel></rss>