<rss version="2.0"><channel><title>Aviation Weather METAR Data for WADD</title><link>https://aviationweather.gov/api/data/metar?ids=WADD&amp;hours=24</link><description>Latest METAR data for WADD</description><item><title>2026-01-21 19:07:05Z</title><link>https://aviationweather.gov/api/data/metar?ids=WADD&amp;hours=24</link><description>METAR WADD 211900Z 27021KT 9999 FEW015CB BKN015 27/24 Q1005 NOSIG
METAR WADD 211830Z 27019KT 9999 FEW014CB BKN014 27/24 Q1005 NOSIG RMK CB IN APCH AND CLIMB-OUT
METAR WADD 211800Z 28021G28KT 9999 FEW014CB BKN014 27/25 Q1005 RERA NOSIG RMK CB IN APCH AND CLIMB-OUT
METAR WADD 211730Z 29021G27KT 8000 -RA FEW014CB BKN014 27/25 Q1005 TEMPO TL1900 8000 -RA
METAR WADD 211700Z 29027KT 8000 -RA FEW014CB BKN014 27/24 Q1005 TEMPO TL1900 8000 -RA RMK CB IN APCH AND CLIMB-OUT
METAR WADD 211630Z 28020KT 9999 FEW014CB BKN014 27/24 Q1006 RETS NOSI G
METAR WADD 211600Z 29017KT 9999 TS FEW014CB BKN014 26/25 Q1007 RERA TEMPO TL1630 TS
METAR WADD 211530Z 30017KT 4000 TSRA FEW014CB BKN014 25/24 Q1007 TEMP O TL1630 4000 TSRA RMK CB IN APCH AND CLIMB-OUT
METAR WADD 211500Z 28026KT 4000 TSRA FEW014CB BKN014 25/24 Q1007 TEMP O TL1630 4000 TSRA RMK CB IN APCH AND CLIMB-OUT
METAR WADD 211430Z 29020G30KT 5000 TSRA FEW014CB BKN014 25/24 Q1007 TEMPO TL1530 5000 RA RMK CB IN APCH AND CLIMB-OUT
METAR WADD 211400Z 28018KT 5000 TSRA FEW014CB BKN014 24/24 Q1007 TEMP O TL1530 5000 RA RMK CB IN APCH AND CLIMB-OUT
METAR WADD 211330Z 29017KT 5000 RA FEW015CB SCT016 26/24 Q1006 TEMPO TL1500 5000 RA
METAR WADD 211300Z 26015KT 9999 FEW015CB SCT016 28/24 Q1006 NOSIG
METAR WADD 211230Z 26016KT 9999 FEW015CB SCT016 27/24 Q1006 NOSIG
METAR WADD 211200Z 26018G28KT 9999 FEW015CB SCT016 27/25 Q1006 NOSIG
METAR WADD 211130Z 26012KT 9999 FEW015CB SCT016 27/25 Q1005 NOSIG RMK CB IN APCH
METAR WADD 211100Z 27012KT 9999 FEW015CB SCT016 28/26 Q1005 NOSIG
METAR WADD 211030Z 26010KT 9999 FEW015CB SCT016 28/26 Q1005 NOSIG
METAR WADD 211000Z 26011KT 9999 FEW017 27/25 Q1005 NOSIG
METAR WADD 210930Z 24009KT 210V270 9999 SCT017 26/24 Q1005 NOSIG
METAR WADD 210900Z 24009KT 9999 FEW015CB SCT016 25/24 Q1004 RERA NOSIG RMK CB IN APCH
SPECI WADD 210844Z 24010KT 7000 -RA FEW015CB BKN016 25/24 Q1004 NOSIG RMK CB IN APCH
METAR WADD 210830Z 23017G28KT 1500 +RA FEW013CB BKN014 25/24 Q1005 TE MPO TL0930 1500 +RA RMK CB IN APCH AND CLIMB-OUT
METAR WADD 210800Z 25011KT 7000 -RA FEW014CB BKN015 27/25 Q1005 TEMPO FM0810 TL0900 3000 RA
METAR WADD 210730Z 26008KT 9999 FEW015CB SCT016 28/26 Q1004 NOSIG
METAR WADD 210700Z 26008KT 9999 FEW015CB SCT016 27/26 Q1004 RERA NOSI G
METAR WADD 210630Z 28014KT 7000 -RA FEW014CB BKN015 26/25 Q1005 NOSIG RMK CB IN APCH
METAR WADD 210600Z 29013KT 0800 +RA FEW013CB BKN014 29/24 Q1005 TEMPO TL0700 3000 RA RMK CB IN APCH AND CLIMB-OUT
METAR WADD 210530Z 28014KT 9999 SCT017 29/24 Q1005 NOSIG
METAR WADD 210500Z 28014KT 9999 SCT017 29/25 Q1006 NOSIG
METAR WADD 210430Z 29014KT 9999 SCT017 29/24 Q1006 NOSIG
METAR WADD 210400Z 29014KT 9999 SCT017 29/24 Q1006 NOSIG
METAR WADD 210330Z 28015KT 9999 FEW017 29/24 Q1007 NOSIG
METAR WADD 210300Z 29017KT 9999 FEW017 29/24 Q1007 NOSIG
METAR WADD 210230Z 29013KT 9999 FEW017 28/24 Q1007 NOSIG
METAR WADD 210200Z 30011KT 9999 SCT016 27/23 Q1007 NOSIG
METAR WADD 210130Z 29012KT 9999 SCT016 26/23 Q1007 NOSIG
METAR WADD 210100Z 30015KT 9999 SCT015 25/23 Q1007 NOSIG
METAR WADD 210030Z 31017G27KT 9999 BKN014 24/22 Q1007 NOSIG
METAR WADD 210000Z 30016KT 9999 BKN012 FEW013CB 24/22 Q1007 RERA NOSI G
METAR WADD 202330Z 29020KT 6000 -RA BKN012 FEW013CB 24/23 Q1007 TEMPO TL2430 6000 -RA
METAR WADD 202300Z 30013KT 4000 -RA FEW013CB BKN014 24/23 Q1007 TEMPO TL2330 4000 -RA RMK CB IN APCH AND CLIMB-OUT
METAR WADD 202230Z 31010KT 5000 -RA FEW014CB BKN015 24/23 Q1007 TEMPO TL2330 5000 -RA RMK CB IN APCH AND CLIMB-OUT
METAR WADD 202200Z 33008KT 5000 -RA FEW014CB BKN015 23/23 Q1007 TEMPO TL2300 5000 -RA RMK CB IN APCH AND CLIMB-OUT
METAR WADD 202130Z 34007KT 5000 -RA FEW014CB BKN015 23/23 Q1007 TEMPO TL2200 5000 -RA RMK CB IN APCH AND CLIMB-OUT
METAR WADD 202100Z 33006KT 5000 -RA FEW014CB BKN015 23/23 Q1007 TEMPO TL2200 5000 -RA RMK CB IN APCH AND CLIMB-OUT
METAR WADD 202030Z 32006KT 4000 RA FEW013CB BKN015 23/23 Q1007 TEMPO TL2100 4000 RA RMK CB IN APCH AND CLIMB-OUT
METAR WADD 202000Z VRB01KT 3000 RA FEW013CB BKN015 23/23 Q1007 TEMPO TL2100 3000 RA RMK CB IN APCH AND CLIMB-OUT
METAR WADD 201930Z VRB03KT 2000 RA FEW012CB BKN014 23/22 Q1007 TEMPO TL2030 2000 RA RMK CB IN APCH AND CLIMB-OUT</description><pubDate>Wed, 21 Jan 2026 19:07:05 </pubDate></item></channel></rss>