<rss version="2.0"><channel><title>Aviation Weather METAR Data for WADD</title><link>https://aviationweather.gov/api/data/metar?ids=WADD&amp;hours=24</link><description>Latest METAR data for WADD</description><item><title>2025-04-27 16:29:16Z</title><link>https://aviationweather.gov/api/data/metar?ids=WADD&amp;hours=24</link><description>WADD 271600Z 04005G16KT 350V070 5000 1500W RA FEW014CB BKN015 27/24 Q1011 TEMPO TL1700 3000 RA RMK CB IN APCH
WADD 271530Z 01007KT 9999 FEW017 26/24 Q1010 NOSIG
WADD 271500Z 01006KT 9999 FEW017 26/24 Q1010 NOSIG
WADD 271430Z 06003KT 9999 FEW017 27/24 Q1010 NOSIG
WADD 271400Z 15003KT 9999 FEW017 27/25 Q1010 NOSIG
WADD 271330Z 12003KT 9999 FEW017 27/24 Q1010 NOSIG
WADD 271300Z 11003KT 9999 FEW017 27/23 Q1010 NOSIG
WADD 271230Z 11004KT 9999 FEW017 27/23 Q1010 NOSIG
WADD 271200Z 12004KT 9999 FEW017 26/23 Q1010 NOSIG
WADD 271130Z 13005KT 9999 FEW017 28/24 Q1009 NOSIG
WADD 271100Z 14006KT 9999 FEW017 28/24 Q1009 NOSIG
WADD 271030Z 15008KT 9999 FEW017 29/24 Q1008 NOSIG
WADD 271000Z 15008KT 9999 FEW017 29/24 Q1008 NOSIG
WADD 270930Z 16008KT 9999 FEW017 29/24 Q1008 NOSIG
WADD 270900Z 17008KT 9999 FEW017 30/24 Q1008 NOSIG
WADD 270830Z 18007KT 9999 FEW017 30/24 Q1007 NOSIG
WADD 270800Z 17009KT 9999 FEW017 30/24 Q1007 NOSIG
WADD 270730Z 17009KT 9999 FEW017 31/25 Q1007 NOSIG
WADD 270700Z 17008KT 9999 FEW016 31/25 Q1008 NOSIG
WADD 270630Z 18009KT 9999 FEW016 31/25 Q1008 NOSIG
WADD 270600Z 17008KT 9999 SCT016 31/26 Q1008 NOSIG
WADD 270530Z 20003KT 9999 FEW017 31/25 Q1009 NOSIG
WADD 270500Z 22004KT 9999 FEW017 31/27 Q1009 NOSIG
WADD 270430Z 11007KT 070V140 9999 FEW017 31/26 Q1010 NOSIG
WADD 270330Z VRB02KT 9999 FEW017 30/25 Q1011 NOSIG
WADD 270230Z 16006KT 9999 FEW017 30/26 Q1011 NOSIG
WADD 270100Z VRB02KT 9999 FEW017 29/27 Q1012 NOSIG
WADD 270000Z 36004KT 9999 FEW017 27/26 Q1011 NOSIG
WADD 262330Z 36004KT 320V040 9999 FEW016 27/25 Q1011 NOSIG
WADD 262300Z 06003KT 9999 FEW016 25/25 Q1011 NOSIG
WADD 262230Z VRB01KT 9999 FEW016 25/25 Q1011 NOSIG
WADD 262200Z 09002KT 9999 FEW016 24/24 Q1010 NOSIG
WADD 262130Z VRB01KT 9999 FEW016 26/25 Q1010 NOSIG
WADD 262100Z 05003KT 9999 FEW016 25/25 Q1010 NOSIG
WADD 262030Z 03003KT 9999 SCT016 25/25 Q1010 NOSIG
WADD 262000Z 05007KT 9999 SCT015 25/25 Q1010 NOSIG
WADD 261930Z 07005KT 030V110 9999 FEW015CB BKN015 25/25 Q1010 NOSIG
WADD 261830Z 13012G21KT 080V160 3000 RA FEW014CB BKN015 26/26 Q1010 TEMPO TL1930 5000 RA RMK CB IN APCH
WADD 261800Z 02006KT 9999 FEW014CB BKN015 26/25 Q1010 NOSIG
WADD 261730Z 02005KT 9999 FEW017 27/25 Q1011 NOSIG
WADD 261700Z 06003KT 9999 FEW017 27/25 Q1011 NOSIG
WADD 261630Z 12004KT 9999 FEW017 28/25 Q1011 NOSIG</description><pubDate>Sun, 27 Apr 2025 16:29:16 </pubDate></item></channel></rss>