<rss version="2.0"><channel><title>Aviation Weather METAR Data for WADD</title><link>https://aviationweather.gov/api/data/metar?ids=WADD&amp;hours=24</link><description>Latest METAR data for WADD</description><item><title>2025-03-14 18:47:12Z</title><link>https://aviationweather.gov/api/data/metar?ids=WADD&amp;hours=24</link><description>WADD 141830Z 05004KT 9999 FEW015CB SCT016 28/27 Q1008 NOSIG
WADD 141800Z 02004KT 360V070 9999 FEW015CB SCT016 28/27 Q1008 NOSIG
WADD 141730Z 01004KT 9999 FEW015CB SCT016 28/27 Q1009 NOSIG
WADD 141700Z 27004KT 9999 SCT016 28/27 Q1009 NOSIG
WADD 141630Z 26004KT 9999 SCT016 29/27 Q1009 NOSIG
WADD 141600Z 30005KT 9999 SCT016 28/26 Q1010 NOSIG
WADD 141530Z 29004KT 9999 FEW017 28/26 Q1010 NOSIG
WADD 141500Z VRB02KT 9999 SCT016 29/26 Q1010 NOSIG
WADD 141430Z VRB02KT 9999 SCT016 29/26 Q1010 NOSIG
WADD 141400Z 36003KT 9999 SCT016 29/26 Q1010 NOSIG
WADD 141330Z 32003KT 9999 BKN016 29/26 Q1009 NOSIG
WADD 141300Z 33003KT 9999 SCT016 29/26 Q1009 NOSIG
WADD 141230Z 34004KT 320V030 9999 FEW017 29/26 Q1009 NOSIG
WADD 141200Z 32003KT 9999 FEW017 29/26 Q1009 NOSIG
WADD 141130Z VRB01KT 9999 SCT016 29/26 Q1009 NOSIG
WADD 141100Z VRB02KT 9999 SCT016 29/26 Q1009 NOSIG
WADD 141030Z 08003KT 9999 SCT016 28/25 Q1009 NOSIG
WADD 141000Z 10004KT 9999 SCT016 29/26 Q1008 NOSIG
WADD 140930Z 05004KT 350V100 9999 BKN016 29/25 Q1008 NOSIG
WADD 140900Z 04007KT 9999 BKN016 29/25 Q1008 RETS NOSIG
WADD 140830Z 09007KT 9999 TS FEW015CB BKN016 29/27 Q1008 TEMPO TL0930 TS
WADD 140800Z 12008KT 9999 FEW015CB BKN016 30/26 Q1007 NOSIG
WADD 140730Z VRB07G15KT 9999 FEW015CB BKN016 31/26 Q1007 NOSIG
WADD 140700Z VRB03KT 9999 SCT016 31/26 Q1007 NOSIG
WADD 140630Z 24006KT 210V270 9999 SCT017 32/26 Q1007 NOSIG
WADD 140600Z 25008KT 9999 SCT017 32/26 Q1007 NOSIG
WADD 140530Z 26008KT 9999 SCT017 32/27 Q1008 NOSIG
WADD 140500Z 26009KT 9999 STC017 32/26 Q1008 NOSIG
WADD 140430Z 21006KT 9999 FEW017 32/28 Q1008 NOSIG
WADD 140400Z 19004KT 9999 FEW017 31/28 Q1009 NOSIG
WADD 140330Z 13006KT 9999 SCT017 31/28 Q1009 NOSIG
WADD 140300Z 12006KT 9999 SCT017 30/28 Q1010 NOSIG
WADD 140230Z 09008KT 9999 SCT017 30/28 Q1010 NOSIG
WADD 140200Z 12008KT 9999 SCT017 30/28 Q1010 NOSIG
WADD 140130Z 10006KT 9999 FEW017TCU FEW017 30/28 Q1010 NOSIG
WADD 140100Z 11006KT 9999 FEW017 30/28 Q1010 NOSIG
WADD 140030Z 09007KT 9999 FEW017 29/28 Q1010 NOSIG
WADD 140000Z 13005KT 9999 FEW017 29/27 Q1010 NOSIG
WADD 132330Z 09003KT 9999 FEW016 28/27 Q1009 NOSIG
WADD 132300Z 08002KT 9999 SCT015 27/25 Q1009 NOSIG
WADD 132230Z VRB01KT 9999 SCT015 27/25 Q1008 NOSIG
WADD 132200Z 05002KT 9999 SCT016 27/25 Q1008 NOSIG
WADD 132130Z 03002KT 9999 SCT016 27/25 Q1008 NOSIG
WADD 132100Z 06003KT 9999 SCT016 27/25 Q1008 NOSIG
WADD 132000Z 05003KT 9999 SCT016 27/26 Q1008 NOSIG NOSIG
WADD 131930Z 06003KT 9999 SCT016 27/26 Q1007 NOSIG
WADD 131900Z VRB02KT 9999 SCT016 27/26 Q1008 NOSIG</description><pubDate>Fri, 14 Mar 2025 18:47:12 </pubDate></item></channel></rss>