<rss version="2.0"><channel><title>Aviation Weather METAR Data for WADD</title><link>https://aviationweather.gov/api/data/metar?ids=WADD&amp;hours=24</link><description>Latest METAR data for WADD</description><item><title>2025-12-11 04:40:04Z</title><link>https://aviationweather.gov/api/data/metar?ids=WADD&amp;hours=24</link><description>METAR WADD 110430Z 25009KT 9999 FEW015CB BKN015 30/26 Q1007 NOSIG
METAR WADD 110400Z 25007KT 9999 FEW015CB BKN015 29/25 Q1008 NOSIG RMK CB IN APCH AND CLIMB-OUT
METAR WADD 110330Z VRB03KT 9999 FEW015CB BKN015 28/26 Q1008 NOSIG RMK CB IN APCH AND CLIMB-OUT
METAR WADD 110300Z 05003KT 9999 FEW015CB BKN015 27/25 Q1008 RERA NOSI G RMK CB IN APCH AND CLIMB-OUT
METAR WADD 110230Z 32010KT 5000 RA FEW014CB BKN014 27/25 Q1009 TEMPO TL0330 5000 RA CB IN APCH AND CLIMB-OUT
METAR WADD 110200Z 36006KT 8000 -RA FEW015CB BKN015 27/25 Q1009 TEMPO TL0300 -RA
METAR WADD 110130Z 33010KT 8000 -RA FEW015CB BKN015 27/25 Q1009 TEMPO TL0200 -RA
METAR WADD 110100Z 33007KT 8000 -RA FEW015CB BKN015 28/26 Q1009 TEMPO TL0200 -RA
METAR WADD 110030Z 03003KT 8000 -RA FEW015CB BKN015 27/26 Q1009 FEW01 5CB BKN015
METAR WADD 110000Z VRB02KT 8000 -RA FEW015CB BKN015 27/25 Q1009 TEMPO TL0200 -RA
METAR WADD 102330Z 33004KT 8000 -RA FEW015CB BKN015 27/25 Q1009 TEMPO TL2400 -RA
METAR WADD 102300Z 36005KT 330V030 8000 -RA FEW015CB BKN015 27/25 Q1009 TEMPO TL2400 -RA
METAR WADD 102230Z 35006KT 8000 -RA FEW015CB BKN015 27/25 Q1008 RETS TEMPO TL2330 -RA
METAR WADD 102200Z 02004KT 350V050 8000 -TSRA FEW015CB BKN015 27/25 Q1008 TEMPO TL2300 -TSRA
METAR WADD 102130Z 05003KT 8000 -RA FEW015CB BKN015 27/25 Q1008 TEMPO TL2230 -RA
METAR WADD 102100Z VRB02KT 9999 FEW016CB SCT016 28/25 Q1008 NOSIG
METAR WADD 102030Z 23003KT 9999 FEW016CB SCT016 28/25 Q1007 NOSIG
METAR WADD 102000Z 25005KT 9999 FEW016CB SCT016 28/25 Q1007 NOSIG
METAR WADD 101930Z 24005KT 9999 SCT016 28/25 Q1007 NOSIG
METAR WADD 101900Z 35003KT 9999 FEW017 26/24 Q1008 NOSIG
METAR WADD 101830Z 24004KT 9999 SCT016 28/25 Q1007 NOSIG
METAR WADD 101800Z 23004KT 9999 SCT016 28/25 Q1007 NOSIG
METAR WADD 101730Z 23004KT 9999 SCT017 28/25 Q1007 NOSIG
METAR WADD 101700Z 23004KT 9999 SCT017 28/25 Q1007 NOSIG
METAR WADD 101630Z 22005KT 170V250 9999 SCT017 28/25 Q1008 NOSIG
METAR WADD 101600Z 23005KT 9999 SCT017 29/25 Q1008 NOSIG
METAR WADD 101530Z 23004KT 190V250 9999 SCT017 29/25 Q1008 NOSIG
METAR WADD 101500Z 24003KT 9999 FEW017 28/25 Q1009 NOSIG
METAR WADD 101430Z 22003KT 9999 FEW017 29/25 Q1009 NOSIG
METAR WADD 101400Z 24003KT 9999 FEW017 28/25 Q1009 NOSIG
METAR WADD 101330Z 23003KT 9999 FEW017 29/25 Q1009 NOSIG
METAR WADD 101300Z 23003KT 9999 FEW017 29/25 Q1009 NOSIG
METAR WADD 101230Z 22003KT 9999 FEW017 29/25 Q1009 NOSIG
METAR WADD 101200Z 22004KT 180V250 9999 FEW017 29/25 Q1008 NOSIG
METAR WADD 101130Z 24005KT 9999 FEW017 29/26 Q1008 NOSIG
METAR WADD 101030Z 22005KT 9999 FEW017 29/24 Q1007 NOSIG
METAR WADD 101000Z 24006KT 9999 FEW016 29/25 Q1007 NOSIG
METAR WADD 100930Z 24007KT 9999 SCT017 30/26 Q1007 NOSIG
METAR WADD 100900Z 24007KT 9999 SCT016 30/26 Q1007 NOSIG
METAR WADD 100830Z 24007KT 9999 SCT017 31/25 Q1006 NOSIG
METAR WADD 100800Z 24008KT 9999 SCT017 31/26 Q1006 NOSIG
METAR WADD 100730Z 25009KT 9999 FEW017 32/26 Q1006 NOSIG
METAR WADD 100700Z 25010KT 9999 SCT017 31/27 Q1007 NOSIG
METAR WADD 100630Z 26011KT 9999 FEW017 31/26 Q1007 NOSIG
METAR WADD 100600Z 26012KT 9999 FEW017 31/26 Q1007 NOSIG
METAR WADD 100530Z 26011KT 9999 FEW016 31/26 Q1008 NOSIG
METAR WADD 100500Z 26011KT 9999 SCT016 31/26 Q1008 NOSIG</description><pubDate>Thu, 11 Dec 2025 04:40:04 </pubDate></item></channel></rss>