<rss version="2.0"><channel><title>Aviation Weather METAR Data for WADD</title><link>https://aviationweather.gov/api/data/metar?ids=WADD&amp;hours=24</link><description>Latest METAR data for WADD</description><item><title>2025-12-11 17:34:58Z</title><link>https://aviationweather.gov/api/data/metar?ids=WADD&amp;hours=24</link><description>METAR WADD 111700Z 31008KT 9999 FEW016 27/24 Q1007 NOSIG
METAR WADD 111630Z 32009KT 9999 FEW016 27/24 Q1008 NOSIG
METAR WADD 111600Z 32008KT 9999 FEW016 27/25 Q1008 NOSIG
METAR WADD 111530Z 31007KT 9999 SCT016 27/25 Q1008 NOSIG
METAR WADD 111500Z 33005KT 300V360 9999 SCT016 27/25 Q1008 NOSIG
METAR WADD 111430Z 33005KT 9999 SCT016 27/24 Q1009 NOSIG
METAR WADD 111400Z 34005KT 290V030 9999 SCT016 27/25 Q1009 NOSIG
METAR WADD 111330Z 33005KT 280V360 9999 SCT016 27/25 Q1009 RERA NOSIG
METAR WADD 111300Z 34005KT 300V360 8000 -RA BKN016 26/25 Q1009 8000 T EMPO TL1400 -RA
METAR WADD 111230Z 33006KT 290V010 8000 -RA BKN016 26/25 Q1008 TEMPO TL1330 -RA
METAR WADD 111200Z 34007KT 300V360 7000 -RA FEW015CB BKN015 26/25 Q10 08 NOSIG
METAR WADD 111130Z 34005KT 310V020 8000 -RA FEW014CB BKN015 26/25 Q1008 TEMPO TL1230 -RA
METAR WADD 111100Z 30003KT 7000 -RA FEW014CB BKN015 26/25 Q1008 T EMPO TL1200 -RA
METAR WADD 111030Z 34004KT 260V020 6000 -RA FEW014CB BKN014 26/25 Q1008 TEMPO TL1130 -RA
METAR WADD 111000Z 29008KT 250V350 6000 -RA FEW014CB BKN014 27/24 Q10 07 TEMPO TL1100 -RA
METAR WADD 110930Z 26008KT 7000 -RA FEW014CB BKN015 29/24 Q1007 RETS TEMPO TL1030 -RA
METAR WADD 110900Z 25008KT 9999 TS FEW014CB BKN015 29/24 Q1007 TEMPO TL1000 TS
METAR WADD 110830Z 24005KT 210V270 9999 TS FEW014CB BKN015 29/24 Q1006 TEMPO TL0930 TS
METAR WADD 110800Z 24005KT 190V360 9999 FEW015CB BKN016 29/25 Q1006 R ETS NOSIG
METAR WADD 110730Z 25009KT 9999 TS FEW015CB SCT016 30/24 Q1006 TEMPO TL0830 TS
METAR WADD 110700Z 24006G16KT 200V270 9999 FEW015CB SCT016 30/25 Q100 6 NOSIG
METAR WADD 110630Z 24012KT 9999 FEW015CB SCT016 31/25 Q1006 NOSIG
METAR WADD 110600Z 24010KT 9999 FEW015CB SCT016 31/25 Q1006 NOSIG
METAR WADD 110530Z 25010KT 9999 SCT016 31/25 Q1007 NOSIG
METAR WADD 110500Z 25010KT 9999 FEW015CB BKN015 31/25 Q1007 NOSIG
METAR WADD 110430Z 25009KT 9999 FEW015CB BKN015 30/26 Q1007 NOSIG
METAR WADD 110400Z 25007KT 9999 FEW015CB BKN015 29/25 Q1008 NOSIG RMK CB IN APCH AND CLIMB-OUT
METAR WADD 110330Z VRB03KT 9999 FEW015CB BKN015 28/26 Q1008 NOSIG RMK CB IN APCH AND CLIMB-OUT
METAR WADD 110300Z 05003KT 9999 FEW015CB BKN015 27/25 Q1008 RERA NOSI G RMK CB IN APCH AND CLIMB-OUT
METAR WADD 110230Z 32010KT 5000 RA FEW014CB BKN014 27/25 Q1009 TEMPO TL0330 5000 RA CB IN APCH AND CLIMB-OUT
METAR WADD 110200Z 36006KT 8000 -RA FEW015CB BKN015 27/25 Q1009 TEMPO TL0300 -RA
METAR WADD 110130Z 33010KT 8000 -RA FEW015CB BKN015 27/25 Q1009 TEMPO TL0200 -RA
METAR WADD 110100Z 33007KT 8000 -RA FEW015CB BKN015 28/26 Q1009 TEMPO TL0200 -RA
METAR WADD 110030Z 03003KT 8000 -RA FEW015CB BKN015 27/26 Q1009 FEW01 5CB BKN015
METAR WADD 110000Z VRB02KT 8000 -RA FEW015CB BKN015 27/25 Q1009 TEMPO TL0200 -RA
METAR WADD 102330Z 33004KT 8000 -RA FEW015CB BKN015 27/25 Q1009 TEMPO TL2400 -RA
METAR WADD 102300Z 36005KT 330V030 8000 -RA FEW015CB BKN015 27/25 Q1009 TEMPO TL2400 -RA
METAR WADD 102230Z 35006KT 8000 -RA FEW015CB BKN015 27/25 Q1008 RETS TEMPO TL2330 -RA
METAR WADD 102200Z 02004KT 350V050 8000 -TSRA FEW015CB BKN015 27/25 Q1008 TEMPO TL2300 -TSRA
METAR WADD 102130Z 05003KT 8000 -RA FEW015CB BKN015 27/25 Q1008 TEMPO TL2230 -RA
METAR WADD 102100Z VRB02KT 9999 FEW016CB SCT016 28/25 Q1008 NOSIG
METAR WADD 102030Z 23003KT 9999 FEW016CB SCT016 28/25 Q1007 NOSIG
METAR WADD 102000Z 25005KT 9999 FEW016CB SCT016 28/25 Q1007 NOSIG
METAR WADD 101930Z 24005KT 9999 SCT016 28/25 Q1007 NOSIG
METAR WADD 101900Z 35003KT 9999 FEW017 26/24 Q1008 NOSIG
METAR WADD 101830Z 24004KT 9999 SCT016 28/25 Q1007 NOSIG
METAR WADD 101800Z 23004KT 9999 SCT016 28/25 Q1007 NOSIG</description><pubDate>Thu, 11 Dec 2025 17:34:58 </pubDate></item></channel></rss>