<rss version="2.0"><channel><title>Aviation Weather METAR Data for WADD</title><link>https://aviationweather.gov/api/data/metar?ids=WADD&amp;hours=24</link><description>Latest METAR data for WADD</description><item><title>2025-03-10 18:32:06Z</title><link>https://aviationweather.gov/api/data/metar?ids=WADD&amp;hours=24</link><description>WADD 101800Z 26008KT 9999 SCT016 28/26 Q1009 NOSIG
WADD 101730Z 25006KT 9999 SCT017 28/26 Q1009 NOSIG
WADD 101700Z 25004KT 9999 FEW017 28/26 Q1010 NOSIG
WADD 101630Z 26004KT 9999 FEW017 28/26 Q1010 NOSIG
WADD 101600Z 25004KT 210V280 9999 FEW017 28/26 Q1011 NOSIG
WADD 101530Z 24003KT 9999 FEW017 28/26 Q1011 NOSIG
WADD 101500Z 25003KT 9999 FEW017 28/25 Q1011 NOSIG
WADD 101430Z VRB03KT 9999 FEW017 28/25 Q1011 NOSIG
WADD 101400Z 21003KT 9999 FEW017 29/26 Q1011 NOSIG
WADD 101330Z VRB02KT 9999 FEW017 29/26 Q1011 NOSIG
WADD 101300Z 27004KT 9999 FEW017 28/25 Q1011 NOSIG
WADD 101230Z 27007KT 9999 FEW017 28/25 Q1011 NOSIG
WADD 101200Z 27007KT 9999 FEW017 28/25 Q1010 NOSIG
WADD 101130Z 26003KT 9999 FEW017 28/25 Q1010 NOSIG
WADD 101100Z 24002KT 9999 FEW017 29/25 Q1009 NOSIG
WADD 101030Z VRB02KT 9999 FEW017 29/25 Q1009 NOSIG
WADD 101000Z 30005KT 280V340 9999 FEW017 29/25 Q1008 NOSIG
WADD 100930Z VRB02KT 9999 FEW017 30/25 Q1008 NOSIG
WADD 100900Z 02003KT 9999 SCT017 29/26 Q1008 NOSIG
WADD 100830Z 02003KT 300V060 9999 SCT017 29/25 Q1008 RERA NOSIG
WADD 100800Z 01009KT 8000 -RA FEW016CB BKN017 30/26 Q1008 TEMPO TL0900 -RA
WADD 100730Z VRB06G16KT 9999 FEW016CB SCT017 32/25 Q1008 NOSIG
WADD 100700Z 24003KT 200V280 9999 FEW016CB SCT017 32/24 Q1008 NOSIG
WADD 100630Z VRB03KT 9999 FEW017 32/25 Q1008 NOSIG
WADD 100600Z 25006KT 220V280 9999 FEW017 32/26 Q1009 NOSIG
WADD 100530Z 23004KT 160V280 9999 FEW017 32/25 Q1009 NOSIG
WADD 100500Z 26006KT 9999 FEW017 32/25 Q1009 NOSIG
WADD 100430Z VRB04KT 9999 FEW017 32/25 Q1010 NOSIG
WADD 100400Z 10006KT 060V150 9999 FEW017 31/26 Q1010 NOSIG
WADD 100330Z 24005KT 9999 FEW017 31/28 Q1011 NOSIG
WADD 100300Z 27005KT 220V300 9999 FEW017 30/27 Q1011 NOSIG
WADD 100230Z 18003KT 9999 FEW017 30/27 Q1011 NOSIG
WADD 100200Z 23003KT 9999 FEW018 29/27 Q1012 NOSIG
WADD 100130Z VRB03KT 9999 FEW017 29/27 Q1011 NOSIG
WADD 100100Z 11004KT 060V150 9999 FEW017 29/27 Q1011 NOSIG
WADD 100030Z VRB02KT 9999 FEW017 28/26 Q1011 NOSIG
WADD 100000Z 11003KT 9999 FEW017 28/26 Q1011 NOSIG
WADD 092330Z 09002KT 9999 FEW017 27/26 Q1010 NOSIG
WADD 092300Z 04003KT 9999 FEW017 26/25 Q1010 NOSIG
WADD 092230Z 07004KT 9999 FEW017 25/24 Q1010 NOSIG
WADD 092200Z 07003KT 9999 FEW017 26/25 Q1009 NOSIG
WADD 092130Z 03003KT 9999 FEW017 26/25 Q1009 NOSIG
WADD 092100Z 05003KT 9999 FEW017 26/25 Q1009 NOSIG
WADD 092030Z 01002KT 9999 FEW017 27/26 Q1009 NOSIG
WADD 092000Z 36002KT 9999 FEW017 27/26 Q1009 NOSIG
WADD 091930Z VRB01KT 9999 FEW017 27/26 Q1009 NOSIG
WADD 091900Z 03003KT 9999 FEW017 27/26 Q1009 NOSIG</description><pubDate>Mon, 10 Mar 2025 18:32:06 </pubDate></item></channel></rss>