<rss version="2.0"><channel><title>Aviation Weather METAR Data for WADD</title><link>https://aviationweather.gov/api/data/metar?ids=WADD&amp;hours=24</link><description>Latest METAR data for WADD</description><item><title>2025-04-07 08:33:54Z</title><link>https://aviationweather.gov/api/data/metar?ids=WADD&amp;hours=24</link><description>WADD 070530Z 10009KT 080V140 9999 SCT017 31/27 Q1010 NOSIG
WADD 070500Z 10010KT 9999 SCT017 31/27 Q1010 NOSIG
WADD 070430Z 12010KT 080V140 9999 FEW017 31/27 Q1011 NOSIG
WADD 070400Z 11010KT 080V140 9999 FEW017 31/27 Q1011 NOSIG
WADD 070330Z 12010KT 9999 FEW017 30/26 Q1011 NOSIG
WADD 070300Z 12010KT 9999 FEW017 31/27 Q1012 NOSIG
WADD 070230Z 11009KT 9999 FEW017 30/26 Q1012 NOSIG
WADD 070200Z 12008KT 9999 FEW017 30/26 Q1012 NOSIG
WADD 070130Z 19003KT 9999 FEW017 29/26 Q1012 NOSIG
WADD 070100Z 23003KT 9999 FEW017 29/26 Q1012 NOSIG
WADD 070030Z VRB01KT 9999 FEW017 28/26 Q1012 NOSIG
WADD 070000Z VRB01KT 9999 FEW017 28/25 Q1012 NOSIG
WADD 062330Z VRB01KT 9999 FEW017 27/25 Q1012 NOSIG
WADD 062300Z 09003KT 9999 FEW017 25/24 Q1012 NOSIG
WADD 062230Z 04005KT 9999 FEW017 25/24 Q1011 NOSIG
WADD 062200Z VRB02KT 9999 FEW017 25/24 Q1011 NOSIG
WADD 062130Z 05004KT 9999 FEW017 25/25 Q1011 NOSIG
WADD 062100Z 03004KT 9999 FEW017 26/25 Q1011 NOSIG
WADD 062030Z 04005KT 9999 FEW017 26/25 Q1011 NOSIG
WADD 062000Z 03005KT 9999 FEW017 26/25 Q1011 NOSIG
WADD 061930Z 07004KT 9999 FEW017 26/25 Q1011 NOSIG
WADD 061900Z 05005KT 9999 FEW017 26/25 Q1010 NOSIG
WADD 061830Z 05006KT 9999 FEW017 26/25 Q1011 NOSIG
WADD 061800Z 06007KT 9999 FEW017 27/26 Q1011 NOSIG
WADD 061730Z 03005KT 350V100 9999 FEW017 27/26 Q1011 NOSIG
WADD 061700Z 02005KT 9999 FEW017 27/26 Q1011 NOSIG
WADD 061630Z 03005KT 9999 FEW017 27/26 Q1011 NOSIG
WADD 061600Z 07006KT 9999 FEW017 27/25 Q1011 NOSIG
WADD 061530Z 09007KT 9999 FEW017 27/25 Q1012 NOSIG
WADD 061500Z 09006KT 9999 FEW017 27/26 Q1012 NOSIG
WADD 061430Z 12006KT 9999 FEW017 29/26 Q1011 NOSIG
WADD 061400Z 12006KT 9999 FEW017 28/26 Q1011 NOSIG
WADD 061330Z 12007KT 9999 FEW017 29/26 Q1011 NOSIG
WADD 061300Z 12005KT 9999 FEW017 29/26 Q1011 NOSIG
WADD 061230Z 12006KT 9999 FEW017 29/26 Q1010 NOSIG
WADD 061200Z 12004KT 9999 FEW017 29/26 Q1010 NOSIG
WADD 061130Z 12005KT 9999 FEW017 29/26 Q1010 NOSIG
WADD 061100Z 13004KT 9999 FEW017 29/26 Q1010 NOSIG
WADD 061030Z 13007KT 9999 FEW017 29/26 Q1009 NOSIG
WADD 061000Z 15007KT 9999 FEW017 29/27 Q1009 NOSIG
WADD 060930Z 17007KT 9999 FEW017 30/26 Q1009 NOSIG
WADD 060900Z 16008KT 9999 FEW017 30/26 Q1009 NOSIG</description><pubDate>Mon, 07 Apr 2025 08:33:54 </pubDate></item></channel></rss>