<rss version="2.0"><channel><title>Aviation Weather METAR Data for WADD</title><link>https://aviationweather.gov/api/data/metar?ids=WADD&amp;hours=24</link><description>Latest METAR data for WADD</description><item><title>2025-09-21 23:40:16Z</title><link>https://aviationweather.gov/api/data/metar?ids=WADD&amp;hours=24</link><description>WADD 212330Z VRB01KT 9999 FEW017 26/24 Q1014 NOSIG
 WADD 212300Z VRB01KT 9999 FEW017 25/25 Q1013 NOSIG
METAR WADD 212230Z 18003KT 9999 FEW017 25/24 Q1013 NOSIG
 WADD 212200Z 18003KT 9999 FEW017 26/24 Q1013 NOSIG
 WADD 212130Z VRB02KT 9999 FEW017 25/24 Q1012 NOSIG
 WADD 212100Z VRB01KT 9999 FEW017 25/24 Q1012 NOSIG
 WADD 212030Z VRB01KT 9999 FEW017 25/24 Q1012 NOSIG
 WADD 212000Z VRB02KT 9999 FEW017 25/24 Q1012 NOSIG
METAR WADD 211930Z 19003KT 9999 FEW017 26/24 Q1012 NOSIG
METAR WADD 211900Z 18004KT 9999 FEW017 26/24 Q1012 NOSIG
 WADD 211830Z 19004KT 9999 FEW017 26/24 Q1012 NOSIG
METAR WADD 211800Z 19004KT 9999 FEW017 26/24 Q1012 NOSIG
METAR WADD 211730Z 19004KT 9999 FEW017 26/25 Q1012 NOSIG
METAR WADD 211700Z 21004KT 9999 FEW017 26/25 Q1012 NOSIG
METAR WADD 211630Z 19004KT 9999 FEW017 26/25 Q1012 NOSIG
METAR WADD 211600Z 19004KT 9999 FEW017 26/25 Q1013 NOSIG
METAR WADD 211530Z 19004KT 9999 FEW017 26/25 Q1013 NOSIG
METAR WADD 211500Z 16004KT 9999 FEW017 26/25 Q1013 NOSIG
METAR WADD 211430Z 16003KT 9999 FEW017 26/25 Q1013 NOSIG
METAR WADD 211400Z 15004KT 9999 FEW017 26/25 Q1013 NOSIG
METAR WADD 211330Z 16004KT 9999 FEW017 26/25 Q1013 NOSIG
METAR WADD 211300Z 16004KT 9999 FEW017 27/25 Q1012 NOSIG
METAR WADD 211230Z 14005KT 9999 FEW017 27/25 Q1012 NOSIG
METAR WADD 211200Z 13006KT 9999 FEW017 27/25 Q1012 NOSIG
METAR WADD 211130Z 15007KT 9999 FEW017 27/24 Q1011 NOSIG
METAR WADD 211100Z 15008KT 9999 FEW017 27/25 Q1011 NOSIG
METAR WADD 211030Z 15010KT 9999 FEW017 27/25 Q1011 NOSIG
METAR WADD 210930Z 13010KT 9999 FEW017 28/24 Q1010 NOSIG
METAR WADD 210900Z 14012KT 9999 FEW017 29/24 Q1010 NOSIG
METAR WADD 210830Z 13013KT 9999 FEW017 29/24 Q1010 NOSIG
METAR WADD 210800Z 13011KT 9999 FEW017 29/25 Q1010 NOSIG
METAR WADD 210730Z 12012KT 9999 FEW017 29/25 Q1010 NOSIG
METAR WADD 210700Z 13013KT 9999 FEW017 29/24 Q1010 NOSIG
METAR WADD 210630Z 13012KT 9999 FEW018 29/24 Q1010 NOSIG
METAR WADD 210600Z 13012KT 9999 FEW018 30/24 Q1010 NOSIG
METAR WADD 210530Z 11013KT 9999 FEW018 30/25 Q1011 NOSIG
METAR WADD 210500Z 12012KT 9999 FEW018 30/25 Q1011 NOSIG
METAR WADD 210430Z 11013KT 9999 FEW017 30/25 Q1012 NOSIG
METAR WADD 210400Z 11012KT 9999 FEW017 30/25 Q1012 NOSIG
METAR WADD 210330Z 11012KT 9999 FEW017 29/24 Q1012 NOSIG
METAR WADD 210300Z 12011KT 9999 FEW016 29/25 Q1013 NOSIG
METAR WADD 210230Z 09012KT 9999 FEW016 29/24 Q1013 NOSIG
METAR WADD 210200Z 11010KT 9999 FEW016 29/25 Q1013 NOSIG
METAR WADD 210130Z 10010KT 9999 FEW016 29/25 Q1013 NOSIG
METAR WADD 210100Z 13010KT 9999 FEW016 28/24 Q1013 NOSIG
METAR WADD 210030Z 13009KT 9999 SCT016 27/25 Q1013 NOSIG
METAR WADD 210000Z 13009KT 9999 BKN016 27/24 Q1013 NOSIG</description><pubDate>Sun, 21 Sep 2025 23:40:16 </pubDate></item></channel></rss>