<rss version="2.0"><channel><title>Aviation Weather METAR Data for WADD</title><link>https://aviationweather.gov/api/data/metar?ids=WADD&amp;hours=24</link><description>Latest METAR data for WADD</description><item><title>2025-05-18 14:42:23Z</title><link>https://aviationweather.gov/api/data/metar?ids=WADD&amp;hours=24</link><description>WADD 181430Z 11011KT 9999 SCT017 28/25 Q1011 NOSIG
WADD 181400Z 12010KT 9999 SCT017 28/26 Q1010 NOSIG
WADD 181330Z 11010KT 9999 SCT017 28/26 Q1010 NOSIG
WADD 181300Z 12011KT 9999 SCT017 28/26 Q1010 NOSIG
WADD 181230Z 12012KT 9999 FEW017 28/25 Q1010 NOSIG
WADD 181200Z 12011KT 9999 FEW017 28/26 Q1010 NOSIG
WADD 181130Z 12010KT 9999 FEW017 28/25 Q1010 NOSIG
WADD 181100Z 10010KT 9999 FEW017 28/25 Q1009 NOSIG
WADD 181030Z 11011KT 9999 FEW017 28/25 Q1009 NOSIG
WADD 181000Z 11012KT 9999 FEW017 28/25 Q1009 NOSIG
WADD 180930Z 12014KT 9999 FEW017 28/25 Q1008 NOSIG
WADD 180900Z 12017KT 9999 FEW017 29/25 Q1008 NOSIG
WADD 180830Z 11017KT 9999 FEW017 29/25 Q1008 NOSIG
WADD 180800Z 12017KT 9999 FEW017 29/26 Q1008 NOSIG
WADD 180730Z 11018KT 9999 FEW017 30/25 Q1008 NOSIG
WADD 180700Z 11019KT 9999 FEW017 30/25 Q1008 NOSIG
WADD 180630Z 11019KT 9999 FEW017 30/25 Q1008 NOSIG
WADD 180600Z 11019KT 9999 SCT017 30/25 Q1008 NOSIG
WADD 180530Z 11017KT 9999 FEW017 30/25 Q1009 NOSIG
WADD 180500Z 12018KT 9999 SCT017 30/26 Q1009 NOSIG
WADD 180430Z 12016KT 9999 SCT017 30/26 Q1010 NOSIG
WADD 180400Z 12016KT 9999 SCT017 29/26 Q1010 NOSIG
WADD 180330Z 13016KT 9999 SCT017 30/26 Q1011 NOSIG
WADD 180300Z 12018KT 9999 SCT016 29/26 Q1011 NOSIG
WADD 180230Z 12017KT 9999 SCT017 29/26 Q1011 NOSIG
WADD 180200Z 12017KT 9999 BKN016 29/25 Q1011 NOSIG
WADD 180130Z 12018KT 9999 SCT016 29/26 Q1011 NOSIG
WADD 180100Z 12017KT 9999 SCT016 29/26 Q1011 NOSIG
WADD 180030Z 11014KT 9999 SCT016 28/26 Q1011 NOSIG
WADD 180000Z 12013KT 9999 SCT016 28/26 Q1011 NOSIG
WADD 172330Z 13015KT 9999 SCT016 28/25 Q1010 NOSIG
WADD 172300Z 12010KT 9999 SCT016 28/26 Q1010 NOSIG
WADD 172230Z 11012KT 9999 BKN016 28/25 Q1010 NOSIG
WADD 172200Z 11012KT 9999 FEW015CB SCT016 28/25 Q1010 NOSIG
WADD 172130Z 11011KT 9999 FEW015CB SCT016 28/26 Q1009 NOSIG
WADD 172100Z 12015KT 9999 FEW015CB SCT016 28/25 Q1009 NOSIG
WADD 172030Z 12016KT 9999 FEW015CB SCT016 28/26 Q1009 NOSIG
WADD 172000Z 12015KT 9999 SCT016 28/26 Q1009 NOSIG
WADD 171930Z 12011KT 9999 SCT016 28/26 Q1009 NOSIG
WADD 171900Z 11012KT 9999 FEW017 28/25 Q1009 NOSIG
WADD 171830Z 11013KT 9999 FEW017 28/25 Q1009 NOSIG
WADD 171800Z 11014KT 9999 FEW017 28/25 Q1009 NOSIG
WADD 171730Z 11012KT 9999 FEW017 28/25 Q1010 NOSIG
WADD 171700Z 12015KT 9999 FEW016 28/25 Q1010 NOSIG
WADD 171630Z 11012KT 9999 SCT016 28/25 Q1010 NOSIG
WADD 171600Z 11014KT 9999 FEW015CB SCT016 28/25 Q1010 NOSIG
WADD 171530Z 12016KT 9999 FEW015CB SCT016 28/25 Q1010 NOSIG
WADD 171500Z 12011KT 9999 SCT016 28/25 Q1010 NOSIG</description><pubDate>Sun, 18 May 2025 14:42:23 </pubDate></item></channel></rss>