<rss version="2.0"><channel><title>Aviation Weather METAR Data for WADD</title><link>https://aviationweather.gov/api/data/metar?ids=WADD&amp;hours=24</link><description>Latest METAR data for WADD</description><item><title>2025-11-12 04:32:39Z</title><link>https://aviationweather.gov/api/data/metar?ids=WADD&amp;hours=24</link><description>METAR WADD 120400Z 26007KT 9999 FEW017 31/26 Q1009 NOSIG
METAR WADD 120330Z 26006KT 200V300 9999 FEW017 30/26 Q1009 NOSIG
METAR WADD 120300Z 26007KT 220V290 9999 FEW017 30/26 Q1010 NOSIG
METAR WADD 120230Z 27004KT 240V320 9999 FEW017 30/26 Q1010 NOSIG
METAR WADD 120200Z 24005KT 210V280 9999 FEW013 OVC020 29/25 Q1011 NOS IG
METAR WADD 120130Z VRB02KT 9999 FEW017 30/26 Q1011 NOSIG
METAR WADD 120100Z VRB03KT 9999 FEW017 29/26 Q1011 NOSIG
METAR WADD 120030Z VRB03KT 9999 FEW017 29/25 Q1010 NOSIG
METAR WADD 120000Z VRB01KT 9999 FEW017 28/25 Q1010 NOSIG
METAR WADD 112330Z 35003KT 9999 FEW017 28/25 Q1010 NOSIG
METAR WADD 112300Z 03004KT 9999 FEW017 26/25 Q1010 NOSIG
METAR WADD 112230Z 02004KT 9999 FEW017 25/24 Q1010 NOSIG
METAR WADD 112200Z VRB02KT 9999 FEW017 25/24 Q1009 NOSIG
METAR WADD 112130Z VRB01KT 9999 FEW017 26/24 Q1009 NOSIG
METAR WADD 112100Z VRB02KT 9999 FEW017 26/24 Q1009 NOSIG
METAR WADD 112030Z VRB02KT 9999 FEW017 26/25 Q1009 NOSIG
METAR WADD 112000Z 34003KT 9999 FEW017 26/25 Q1008 NOSIG
METAR WADD 111930Z 33002KT 9999 FEW017 25/25 Q1009 NOSIG
METAR WADD 111900Z VRB02KT 9999 FEW017 25/25 Q1008 NOSIG
METAR WADD 111830Z VRB01KT 9999 FEW017 26/25 Q1008 NOSIG
METAR WADD 111800Z 32001KT 9999 FEW017 25/24 Q1008 NOSIG
METAR WADD 111730Z VRB01KT 9999 FEW017 26/24 Q1009 NOSIG
METAR WADD 111700Z 14002KT 9999 FEW017 26/24 Q1009 NOSIG
METAR WADD 111630Z VRB01KT 9999 FEW017 26/25 Q1009 NOSIG
METAR WADD 111600Z VRB02KT 9999 FEW017 26/25 Q1010 NOSIG
METAR WADD 111530Z 13002KT 9999 FEW017 27/25 Q1010 NOSIG
METAR WADD 111500Z VRB02KT 9999 SCT016 27/25 Q1010 NOSIG
METAR WADD 111430Z 15002KT 9999 SCT016 27/25 Q1011 NOSIG
METAR WADD 111400Z 11002KT 9999 SCT016 27/25 Q1010 NOSIG
METAR WADD 111330Z VRB01KT 9999 SCT016 27/25 Q1010 NOSIG
METAR WADD 111300Z VRB01KT 9999 SCT016 27/25 Q1010 NOSIG
METAR WADD 111230Z VRB02KT 9999 SCT016 27/25 Q1010 NOSIG
METAR WADD 111200Z 27005KT 9999 SCT016 27/24 Q1010 NOSIG
METAR WADD 111130Z 27004KT 9999 SCT016 26/24 Q1010 NOSIG
METAR WADD 111100Z 27006KT 9999 SCT016 27/24 Q1010 NOSIG
METAR WADD 111030Z 31008KT 9999 SCT016 27/24 Q1009 NOSIG
METAR WADD 111000Z 32009KT 9999 SCT016 27/25 Q1009 NOSIG
METAR WADD 110930Z 32006KT 9999 SCT016 27/25 Q1008 NOSIG
METAR WADD 110900Z 31005KT 280V350 9999 SCT016 27/24 Q1008 RERA NOSIG
METAR WADD 110830Z 32005KT 8000 -RA SCT016 27/25 Q1008 TEMPO TL0930 -RA
METAR WADD 110800Z 33004KT 270V040 6000 -RA FEW015CB BKN016 26/25 Q10 08 TEMPO TL0900 6000 -RA
METAR WADD 110730Z 01005KT 310V040 6000 -RA FEW015CB BKN016 27/24 Q1008 TEMPO TL0830 6000 -RA
METAR WADD 110700Z 03010KT 6000 -RA FEW015CB BKN016 27/24 Q1008 TEMPO TL0800 6000 -RA
METAR WADD 110630Z 32007KT 290V020 6000 -RA FEW015CB BKN016 28/24 Q1008 TEMPO TL0730 6000 -RA RMK CB IN CLIMB-OUT
METAR WADD 110600Z 12005KT 080V160 9999 FEW015CB BKN016 30/25 Q1008 NOSIG RMK CB IN CLIMB-OUT
METAR WADD 110530Z 11005KT 080V140 9999 FEW016CB SCT017 30/25 Q1008 N OSIG
METAR WADD 110500Z 11006KT 080V150 9999 FEW016CB SCT017 31/25 Q1008 N OSIG</description><pubDate>Wed, 12 Nov 2025 04:32:39 </pubDate></item></channel></rss>