<rss version="2.0"><channel><title>Aviation Weather METAR Data for WADD</title><link>https://aviationweather.gov/api/data/metar?ids=WADD</link><description>Latest METAR data for WADD</description><item><title>2024-12-30 19:39:18Z</title><link>https://aviationweather.gov/api/data/metar?ids=WADD</link><description>WADD 301900Z VRB01KT 9999 SCT016 27/25 Q1008 NOSIG</description><pubDate>Mon, 30 Dec 2024 19:39:18 </pubDate></item></channel></rss>