<rss version="2.0"><channel><title>Aviation Weather METAR Data for WADD</title><link>https://aviationweather.gov/api/data/metar?ids=WADD&amp;hours=24</link><description>Latest METAR data for WADD</description><item><title>2025-08-12 02:10:16Z</title><link>https://aviationweather.gov/api/data/metar?ids=WADD&amp;hours=24</link><description>WADD 120200Z 12016KT 9999 SCT017 28/24 Q1012 NOSIG
WADD 120130Z 12014KT 9999 SCT016 28/24 Q1012 NOSIG
WADD 120100Z 11012KT 9999 SCT017 28/24 Q1012 NOSIG
WADD 120030Z 12012KT 9999 SCT017 27/24 Q1012 NOSIG
WADD 120000Z 13011KT 9999 FEW017 27/24 Q1011 NOSIG
WADD 112330Z 12007KT 9999 FEW017 26/24 Q1011 NOSIG
WADD 112300Z 12007KT 9999 FEW017 26/24 Q1011 NOSIG
WADD 112230Z 13009KT 9999 FEW017 26/24 Q1011 NOSIG
WADD 112200Z 12008KT 9999 FEW017 26/24 Q1011 NOSIG
WADD 112130Z 12007KT 9999 FEW017 26/24 Q1011 NOSIG
WADD 112100Z 12008KT 9999 FEW017 26/24 Q1010 NOSIG
WADD 112030Z 12009KT 9999 FEW017 26/24 Q1011 NOSIG
WADD 112000Z 12010KT 9999 FEW017 26/24 Q1011 NOSIG
WADD 111930Z 12010KT 9999 FEW017 26/24 Q1011 NOSIG
WADD 111900Z 13011KT 9999 FEW017 26/24 Q1011 NOSIG
WADD 111830Z 12010KT 9999 SCT017 26/24 Q1011 NOSIG
WADD 111800Z 12010KT 9999 FEW017 26/24 Q1011 NOSIG
WADD 111730Z 13010KT 9999 FEW017 26/24 Q1011 NOSIG
WADD 111700Z 13010KT 9999 FEW017 26/24 Q1011 NOSIG
WADD 111630Z 13010KT 9999 FEW017 26/24 Q1011 NOSIG
WADD 111600Z 13010KT 9999 FEW017 26/24 Q1012 NOSIG
WADD 111530Z 13011KT 9999 FEW017 26/24 Q1012 NOSIG
WADD 111500Z 12012KT 9999 SCT017 27/24 Q1012 NOSIG
WADD 111430Z 12013KT 9999 SCT017 27/25 Q1012 NOSIG
WADD 111400Z 12011KT 9999 SCT017 27/25 Q1011 NOSIG
WADD 111330Z 12009KT 9999 FEW017 27/25 Q1012 NOSIG
WADD 111300Z 12009KT 9999 FEW017 27/25 Q1011 NOSIG
WADD 111230Z 12008KT 9999 FEW017 27/25 Q1011 NOSIG
WADD 111200Z 12010KT 9999 FEW017 27/25 Q1011 NOSIG
WADD 111130Z 13011KT 9999 SCT016 27/25 Q1010 NOSIG
WADD 111100Z 13008KT 9999 FEW017 27/25 Q1010 NOSIG
WADD 111030Z 14012KT 9999 FEW017 27/25 Q1010 NOSIG
WADD 111000Z 14013KT 9999 FEW017 27/25 Q1009 NOSIG
WADD 110930Z 14015KT 9999 FEW017 28/24 Q1009 NOSIG
WADD 110900Z 15016KT 9999 FEW017 28/25 Q1009 NOSIG
WADD 110830Z 14017KT 9999 FEW017 28/25 Q1009 NOSIG
WADD 110800Z 14015KT 9999 FEW017 28/24 Q1009 NOSIG
WADD 110730Z 13014KT 9999 FEW017 29/24 Q1009 NOSIG
WADD 110700Z 13014KT 9999 FEW017 29/24 Q1009 NOSIG
WADD 110630Z 11012KT 9999 FEW017 30/24 Q1009 NOSIG
WADD 110600Z 14013KT 9999 FEW017 29/24 Q1010 NOSIG
WADD 110530Z 13013KT 9999 FEW017 29/24 Q1010 NOSIG
WADD 110500Z 12011KT 9999 FEW017 29/25 Q1010 NOSIG
WADD 110430Z 11012KT 9999 FEW017 29/25 Q1011 NOSIG
WADD 110400Z 09010KT 9999 FEW017 30/25 Q1011 NOSIG
WADD 110330Z 11010KT 9999 FEW017 29/25 Q1011 NOSIG
WADD 110300Z 12012KT 9999 SCT016 28/25 Q1012 NOSIG
WADD 110230Z 13012KT 9999 SCT016 27/25 Q1012 NOSIG</description><pubDate>Tue, 12 Aug 2025 02:10:16 </pubDate></item></channel></rss>