<rss version="2.0"><channel><title>Aviation Weather METAR Data for WADD</title><link>https://aviationweather.gov/api/data/metar?ids=WADD&amp;hours=24</link><description>Latest METAR data for WADD</description><item><title>2026-03-07 19:45:39Z</title><link>https://aviationweather.gov/api/data/metar?ids=WADD&amp;hours=24</link><description>METAR WADD 071930Z 26011KT 9999 FEW016CB BKN016 28/25 Q1007 NOSIG RMK CB IN CLIMB-OUT
METAR WADD 071900Z 28012KT 9999 FEW016CB BKN016 28/25 Q1007 NOSIG
METAR WADD 071830Z 28012KT 9999 FEW016CB BKN016 28/25 Q1007 NOSIG
METAR WADD 071800Z 28012KT 9999 FEW016CB BKN016 28/25 Q1008 NOSIG RMK CB IN APCH
METAR WADD 071730Z 29011KT 9999 FEW016CB BKN016 28/25 Q1008 NOSIG
METAR WADD 071700Z 28013KT 9999 BKN016 28/25 Q1008 NOSIG
METAR WADD 071630Z 30007KT 9999 BKN016 28/25 Q1009 NOSIG
METAR WADD 071600Z 32008KT 9999 BKN016 28/25 Q1009 NOSIG
METAR WADD 071530Z 28016KT 9999 FEW016CB BKN016 29/26 Q1009 NOSIG RMK CB IN APCH
METAR WADD 071500Z 27016KT 9999 FEW016CB BKN016 29/26 Q1009 NOSIG
METAR WADD 071430Z 27014KT 9999 FEW016CB SCT016 29/26 Q1009 NOSIG
METAR WADD 071400Z 26012KT 9999 SCT016 29/26 Q1009 NOSIG
METAR WADD 071330Z 26011KT 9999 SCT016 29/26 Q1009 NOSIG
METAR WADD 071300Z 26012KT 9999 SCT016 29/26 Q1008 NOSIG
METAR WADD 071230Z 26010KT 9999 SCT016 29/26 Q1008 NOSIG
METAR WADD 071200Z 26011KT 9999 SCT016 29/26 Q1008 NOSIG
METAR WADD 071130Z 25010KT 9999 FEW016 29/26 Q1007 NOSIG
METAR WADD 071100Z 26012KT 9999 FEW016 29/26 Q1007 NOSIG
METAR WADD 071030Z 26012KT 9999 FEW017 29/25 Q1006 NOSIG
METAR WADD 071000Z 25009KT 210V270 9999 FEW017 30/25 Q1006 NOSIG
METAR WADD 070930Z 25010KT 9999 FEW017 31/25 Q1005 NOSIG
METAR WADD 070900Z 25011KT 9999 FEW017 31/25 Q1005 NOSIG
METAR WADD 070830Z 25011KT 9999 FEW017 32/25 Q1005 NOSIG
METAR WADD 070800Z 26011KT 9999 FEW017 31/25 Q1005 NOSIG
METAR WADD 070730Z 26011KT 9999 FEW017 32/25 Q1005 NOSIG
METAR WADD 070700Z 26008KT 210V280 9999 FEW017 31/24 Q1005 NOSIG
METAR WADD 070630Z 26008KT 210V290 9999 FEW017 33/24 Q1005 NOSIG
METAR WADD 070600Z 26009KT 230V290 9999 FEW017 33/23 Q1005 NOSIG
METAR WADD 070530Z 27009KT 240V300 9999 FEW017 32/24 Q1005 NOSIG
METAR WADD 070500Z 28012KT 9999 FEW017 32/24 Q1005 NOSIG
METAR WADD 070430Z 28014KT 9999 FEW017 31/24 Q1006 NOSIG
METAR WADD 070400Z 29012KT 9999 FEW017 32/24 Q1006 NOSIG
METAR WADD 070330Z 29011KT 250V320 9999 FEW017 32/24 Q1006 NOSIG
METAR WADD 070300Z 29011KT 9999 FEW017 32/24 Q1006 NOSIG
METAR WADD 070230Z 30009KT 9999 FEW017 31/24 Q1007 NOSIG
METAR WADD 070200Z 30009KT 9999 FEW017 31/25 Q1007 NOSIG
METAR WADD 070130Z 28012KT 9999 FEW017 31/24 Q1007 NOSIG
METAR WADD 070100Z 28012KT 9999 FEW017 31/24 Q1007 NOSIG
METAR WADD 070030Z 27011KT 9999 FEW017 30/24 Q1007 NOSIG
METAR WADD 070000Z 29009KT 9999 FEW017 30/25 Q1007 NOSIG
METAR WADD 062330Z 29008KT 9999 FEW017 28/24 Q1006 NOSIG
METAR WADD 062300Z 28010KT 9999 FEW017 28/24 Q1006 NOSIG
METAR WADD 062230Z 29010KT 9999 FEW017 27/24 Q1005 NOSIG
METAR WADD 062200Z 28012KT 9999 FEW017 27/24 Q1005 NOSIG
METAR WADD 062130Z 28013KT 9999 FEW017 28/24 Q1005 NOSIG
METAR WADD 062100Z 28013KT 9999 FEW017 28/24 Q1005 NOSIG
METAR WADD 062030Z 29013KT 9999 FEW017 28/25 Q1005 NOSIG
METAR WADD 062000Z 29012KT 9999 FEW017 28/25 Q1005 NOSIG</description><pubDate>Sat, 07 Mar 2026 19:45:39 </pubDate></item></channel></rss>