<rss version="2.0"><channel><title>Aviation Weather METAR Data for WADD</title><link>https://aviationweather.gov/api/data/metar?ids=WADD&amp;hours=24</link><description>Latest METAR data for WADD</description><item><title>2025-09-24 05:42:25Z</title><link>https://aviationweather.gov/api/data/metar?ids=WADD&amp;hours=24</link><description>METAR WADD 240530Z 12008KT 9999 FEW016 30/24 Q1009 NOSIG
METAR WADD 240500Z 11008KT 9999 FEW016 30/24 Q1009 NOSIG
METAR WADD 240430Z 10008KT 9999 FEW016 30/24 Q1010 NOSIG
METAR WADD 240400Z 11005KT 070V150 9999 FEW016 30/24 Q1010 NOSIG
METAR WADD 240330Z 09004KT 040V140 9999 FEW016 30/24 Q1010 NOSIG
METAR WADD 240300Z VRB03KT 9999 FEW016 29/24 Q1011 NOSIG
METAR WADD 240230Z 25007KT 9999 FEW016 28/24 Q1011 NOSIG
METAR WADD 240200Z VRB03KT 9999 FEW016 29/23 Q1012 NOSIG
METAR WADD 240130Z 29003KT 9999 SCT016 29/24 Q1012 NOSIG
METAR WADD 240100Z 29004KT 9999 SCT016 28/25 Q1012 NOSIG
METAR WADD 240030Z 25004KT 210V300 9999 SCT016 27/25 Q1012 NOSIG
METAR WADD 240000Z VRB01KT 9999 FEW017 27/25 Q1011 NOSIG
METAR WADD 232330Z 01004KT 9999 FEW017 26/24 Q1011 NOSIG
METAR WADD 232300Z 07001KT 9999 FEW017 25/24 Q1011 NOSIG
METAR WADD 232230Z 10002KT 9999 FEW017 25/24 Q1011 NOSIG
METAR WADD 232200Z 08002KT 9999 FEW017 25/24 Q1010 NOSIG
METAR WADD 232130Z VRB01KT 9999 FEW017 25/24 Q1010 NOSIG
METAR WADD 232100Z VRB01KT 9999 FEW017 25/24 Q1010 NOSIG
METAR WADD 232030Z 35003KT 9999 FEW017 25/24 Q1010 NOSIG
METAR WADD 232000Z 02002KT 9999 SCT017 25/24 Q1010 NOSIG
METAR WADD 231930Z VRB01KT 9999 SCT017 25/23 Q1010 NOSIG
METAR WADD 231900Z 00000KT 9999 SCT017 25/23 Q1010 NOSIG
METAR WADD 231830Z VRB01KT 9999 SCT017 25/23 Q1010 NOSIG
METAR WADD 231800Z 24001KT 9999 SCT017 26/23 Q1010 NOSIG
METAR WADD 231730Z VRB01KT 9999 SCT017 27/23 Q1011 NOSIG
METAR WADD 231700Z VRB01KT 9999 SCT017 27/24 Q1011 NOSIG
METAR WADD 231630Z 12002KT 9999 SCT017 27/24 Q1011 NOSIG
METAR WADD 231600Z VRB02KT 9999 SCT017 27/24 Q1011 NOSIG
METAR WADD 231530Z VRB02KT 9999 SCT017 26/24 Q1011 NOSIG
METAR WADD 231500Z VRB01KT 9999 SCT017 26/24 Q1011 NOSIG
METAR WADD 231430Z VRB01KT 9999 SCT017 26/24 Q1011 NOSIG
METAR WADD 231400Z VRB02KT 9999 SCT017 27/24 Q1012 NOSIG
METAR WADD 231330Z VRB02KT 9999 SCT017 27/24 Q1011 NOSIG
METAR WADD 231300Z 13002KT 9999 SCT017 27/24 Q1011 NOSIG
METAR WADD 231230Z VRB02KT 9999 FEW017 27/24 Q1011 NOSIG
METAR WADD 231200Z 24002KT 9999 FEW017 27/24 Q1011 NOSIG
METAR WADD 231130Z 23004KT 210V270 9999 FEW017 27/24 Q1010 NOSIG
METAR WADD 231100Z 23004KT 9999 FEW017 27/24 Q1010 NOSIG
METAR WADD 231030Z 23004KT 200V260 9999 FEW017 27/23 Q1009 NOSIG
METAR WADD 231000Z 20004KT 140V280 9999 FEW017 28/23 Q1009 NOSIG
METAR WADD 230930Z VRB05KT 9999 FEW017 29/23 Q1008 NOSIG
METAR WADD 230900Z 26008KT 9999 FEW017 28/24 Q1008 NOSIG
METAR WADD 230830Z 26007KT 9999 FEW018 29/24 Q1008 NOSIG
METAR WADD 230800Z 26010KT 9999 FEW018 29/24 Q1008 NOSIG
 WADD 230730Z 25010KT 9999 FEW017 29/24 Q1008 NOSIG
METAR WADD 230700Z 25011KT 9999 FEW017 29/24 Q1008 NOSIG
 WADD 230630Z 26012KT 9999 FEW016 29/24 Q1009 NOSIG
 WADD 230600Z 26012KT 9999 FEW016 29/24 Q1009 NOSIG</description><pubDate>Wed, 24 Sep 2025 05:42:25 </pubDate></item></channel></rss>