<rss version="2.0"><channel><title>Aviation Weather METAR Data for WADD</title><link>https://aviationweather.gov/api/data/metar?ids=WADD&amp;hours=24</link><description>Latest METAR data for WADD</description><item><title>2025-10-13 07:26:44Z</title><link>https://aviationweather.gov/api/data/metar?ids=WADD&amp;hours=24</link><description>METAR WADD 130700Z 14013KT 9999 FEW016 31/26 Q1008 NOSIG
METAR WADD 130630Z 14014KT 9999 FEW016 31/26 Q1008 NOSIG
 WADD 130600Z 14015KT 9999 FEW016 31/26 Q1008 NOSIG
METAR WADD 130530Z 12011KT 100V170 9999 FEW016 32/26 Q1009 NOSIG
METAR WADD 130500Z 13012KT 9999 FEW016 32/27 Q1009 NOSIG
METAR WADD 130430Z 10011KT 9999 SCT016 32/26 Q1010 NOSIG
METAR WADD 130400Z 11012KT 9999 SCT016 32/27 Q1010 NOSIG
METAR WADD 130330Z 10012KT 9999 SCT016 32/27 Q1011 NOSIG
METAR WADD 130300Z 11012KT 9999 SCT016 31/27 Q1011 NOSIG
METAR WADD 130230Z 11012KT 9999 SCT016 31/27 Q1011 NOSIG
METAR WADD 130200Z 10013KT 9999 SCT016 31/27 Q1011 NOSIG
METAR WADD 130130Z 11011KT 9999 SCT016 30/27 Q1012 NOSIG
METAR WADD 130100Z 11011KT 9999 SCT016 30/27 Q1012 NOSIG
METAR WADD 130030Z 10010KT 9999 SCT016 30/27 Q1012 NOSIG
METAR WADD 130000Z 09011KT 9999 BKN015 29/27 Q1011 NOSIG
METAR WADD 122330Z 10006KT 9999 BKN015 28/27 Q1011 NOSIG
METAR WADD 122300Z 12006KT 070V140 9999 BKN016 28/27 Q1011 NOSIG
METAR WADD 122230Z 12008KT 9999 SCT017 28/27 Q1011 NOSIG
METAR WADD 122200Z 12007KT 9999 FEW017 27/27 Q1010 NOSIG
METAR WADD 122130Z 13007KT 9999 FEW017 27/27 Q1010 NOSIG
METAR WADD 122100Z 13006KT 9999 017 28/27 Q1010 NOSIG
METAR WADD 122030Z 13007KT 9999 FEW017 28/27 Q1010 NOSIG
METAR WADD 122000Z 13007KT 9999 FEW017 28/27 Q1009 NOSIG
METAR WADD 121930Z 12008KT 9999 FEW017 28/27 Q1009 NOSIG
METAR WADD 121900Z 15005KT 9999 FEW017 28/27 Q1009 NOSIG
METAR WADD 121830Z 16005KT 9999 FEW017 28/27 Q1009 NOSIG
METAR WADD 121800Z 15005KT 9999 FEW017 28/27 Q1010 NOSIG
METAR WADD 121730Z 14005KT 9999 FEW017 28/27 Q1010 NOSIG
METAR WADD 121700Z 14007KT 9999 FEW017 28/27 Q1010 NOSIG
METAR WADD 121630Z 14007KT 9999 FEW017 28/27 Q1010 NOSIG
METAR WADD 121600Z 13007KT 9999 FEW017 28/27 Q1011 NOSIG
METAR WADD 121530Z 13007KT 9999 FEW017 28/27 Q1011 NOSIG
METAR WADD 121500Z 13006KT 9999 FEW017 28/27 Q1011 NOSIG
METAR WADD 121430Z 13006KT 9999 FEW017 28/27 Q1011 NOSIG
METAR WADD 121400Z 12006KT 9999 FEW017 28/27 Q1011 NOSIG
METAR WADD 121330Z 12007KT 9999 FEW017 28/27 Q1011 NOSIG
METAR WADD 121300Z 12008KT 9999 FEW017 28/27 Q1011 NOSIG
METAR WADD 121230Z 12008KT 9999 FEW016 28/27 Q1011 NOSIG
METAR WADD 121200Z 12008KT 9999 FEW016 29/27 Q1011 NOSIG
METAR WADD 121130Z 12009KT 9999 FEW016 29/27 Q1010 NOSIG
 WADD 121100Z 13011KT 9999 FEW016 29/27 Q1010 NOSIG
METAR WADD 121030Z 13013KT 9999 FEW016 29/26 Q1010 NOSIG
METAR WADD 121000Z 13016KT 9999 FEW016 29/27 Q1009 NOSIG
METAR WADD 120930Z 14016KT 9999 FEW017 30/27 Q1009 NOSIG
METAR WADD 120900Z 14016KT 9999 FEW017 30/27 Q1009 NOSIG
METAR WADD 120830Z 14016KT 9999 FEW017 31/26 Q1008 NOSIG
METAR WADD 120800Z 13016KT 9999 FEW017 31/26 Q1008 NOSIG
METAR WADD 120730Z 14018KT 9999 FEW017 31/26 Q1008 NOSIG</description><pubDate>Mon, 13 Oct 2025 07:26:44 </pubDate></item></channel></rss>