<rss version="2.0"><channel><title>Aviation Weather METAR Data for WADD</title><link>https://aviationweather.gov/api/data/metar?ids=WADD&amp;hours=24</link><description>Latest METAR data for WADD</description><item><title>2026-02-07 09:39:33Z</title><link>https://aviationweather.gov/api/data/metar?ids=WADD&amp;hours=24</link><description>METAR WADD 070930Z 25011KT 9999 FEW017 30/25 Q1006 NOSIG
METAR WADD 070900Z 25012G22KT 9999 FEW017 30/25 Q1006 NOSIG
METAR WADD 070830Z 25012KT 9999 FEW017 30/25 Q1006 NOSIG
METAR WADD 070800Z 25012G22KT 9999 FEW017 30/25 Q1006 NOSIG
METAR WADD 070730Z 26013KT 9999 FEW017 30/25 Q1006 NOSIG
METAR WADD 070700Z 26013KT 9999 FEW017 31/25 Q1006 NOSIG
METAR WADD 070630Z 25010KT 9999 FEW017 31/25 Q1007 NOSIG
METAR WADD 070600Z 26011KT 9999 FEW017 31/25 Q1007 NOSIG
METAR WADD 070530Z 27011KT 9999 FEW017 31/25 Q1007 NOSIG
METAR WADD 070500Z 26013KT 9999 FEW017 31/25 Q1008 NOSIG
METAR WADD 070430Z 28013KT 9999 FEW017 32/24 Q1008 NOSIG
METAR WADD 070400Z 29013KT 9999 FEW017 32/24 Q1008 NOSIG
METAR WADD 070330Z 28013KT 9999 FEW017 31/24 Q1009 NOSIG
METAR WADD 070300Z 28012KT 9999 FEW017 31/25 Q1009 NOSIG
METAR WADD 070230Z 28012KT 9999 FEW017 31/25 Q1009 NOSIG
METAR WADD 070200Z 28011KT 9999 FEW017 31/25 Q1009 NOSIG
METAR WADD 070130Z 28011KT 9999 FEW017 31/25 Q1009 NOSIG
METAR WADD 070100Z 29009KT 9999 FEW017 30/25 Q1009 NOSIG
METAR WADD 070030Z 28010KT 9999 FEW017 30/25 Q1009 NOSIG
METAR WADD 070000Z 29010KT 9999 FEW017 29/25 Q1009 NOSIG
METAR WADD 062330Z 32005KT 9999 SCT016 28/24 Q1009 NOSIG
METAR WADD 062300Z 30005KT 9999 SCT016 28/25 Q1008 NOSIG
METAR WADD 062230Z 28010KT 9999 SCT016 28/24 Q1008 NOSIG
METAR WADD 062200Z 28014KT 9999 FEW015CB BKN016 28/24 Q1008 NOSIG
METAR WADD 062130Z 28013KT 9999 FEW015CB SCT016 28/25 Q1007 NOSIG
METAR WADD 062100Z 28014KT 9999 SCT016 28/24 Q1007 NOSIG
METAR WADD 062030Z 28014KT 9999 SCT016 28/24 Q1007 NOSIG
METAR WADD 062000Z 28015KT 9999 SCT016 28/24 Q1007 NOSIG
METAR WADD 061930Z 27016KT 9999 SCT016 28/24 Q1007 NOSIG
METAR WADD 061900Z 27013KT 9999 SCT016 28/24 Q1007 NOSIG
METAR WADD 061830Z 27015KT 9999 SCT016 28/24 Q1007 NOSIG
METAR WADD 061800Z 28012KT 9999 FEW015CB SCT016 28/24 Q1007 NOSIG
METAR WADD 061730Z 28013KT 9999 FEW015CB SCT016 28/25 Q1008 NOSIG
METAR WADD 061700Z 28013KT 9999 FEW015CB SCT016 28/24 Q1008 NOSIG
METAR WADD 061630Z 28011KT 9999 FEW015CB SCT016 28/24 Q1008 NOSIG
METAR WADD 061600Z 28012KT 9999 FEW016 28/25 Q1009 NOSIG
METAR WADD 061500Z 29013KT 9999 FEW016 28/25 Q1009 NOSIG
METAR WADD 061430Z 28014KT 9999 FEW016 28/25 Q1009 NOSIG
METAR WADD 061400Z 29014KT 9999 FEW016 29/25 Q1009 NOSIG
METAR WADD 061330Z 27016KT 9999 FEW015CB SCT016 28/24 Q1009 NOSIG
METAR WADD 061300Z 28014KT 9999 FEW015CB SCT016 29/25 Q1009 NOSIG
METAR WADD 061230Z 27013KT 9999 SCT016 28/25 Q1008 NOSIG
METAR WADD 061200Z 27014KT 9999 FEW015CB SCT016 28/25 Q1008 NOSIG
METAR WADD 061130Z 26010KT 9999 FEW015CB BKN016 29/25 Q1008 NOSIG
METAR WADD 061100Z 26012KT 9999 FEW015CB BKN016 29/25 Q1007 NOSIG
METAR WADD 061030Z 26010KT 9999 BKN016 29/25 Q1007 NOSIG
METAR WADD 061000Z 26011KT 9999 BKN016 29/25 Q1007 NOSIG</description><pubDate>Sat, 07 Feb 2026 09:39:33 </pubDate></item></channel></rss>