<rss version="2.0"><channel><title>Aviation Weather METAR Data for WADD</title><link>https://aviationweather.gov/api/data/metar?ids=WADD&amp;hours=24</link><description>Latest METAR data for WADD</description><item><title>2025-08-02 05:51:48Z</title><link>https://aviationweather.gov/api/data/metar?ids=WADD&amp;hours=24</link><description>WADD 020530Z 12012KT 9999 FEW017 29/24 Q1010 NOSIG
WADD 020500Z 10013KT 9999 FEW017 30/24 Q1010 NOSIG
WADD 020430Z 10012KT 9999 FEW016 30/24 Q1011 NOSIG
WADD 020400Z 12014KT 9999 SCT016 29/25 Q1011 NOSIG
WADD 020330Z 11015KT 9999 SCT015 29/25 Q1011 NOSIG
WADD 020300Z 12013KT 9999 SCT014 29/25 Q1012 NOSIG
WADD 020230Z 11011KT 9999 SCT016 29/25 Q1012 NOSIG
WADD 020200Z 10008KT 070V130 9999 SCT015 29/25 Q1012 NOSIG
WADD 020130Z 33005KT 280V020 9999 SCT015 26/25 Q1012
WADD 020100Z 34004KT 310V050 9999 SCT015 27/25 Q1012 NOSIG
WADD 020030Z 36004KT 9999 SCT015 26/25 Q1012 NOSIG
WADD 020000Z 35004KT 9999 SCT016 25/25 Q1012 NOSIG
WADD 012330Z 34004KT 310V030 9999 SCT016 25/25 Q1012 NOSIG
WADD 012300Z 34004KT 9999 SCT016 25/25 Q1012 NOSIG
WADD 012230Z 32004KT 9999 SCT016 25/25 Q1011 NOSIG
WADD 012200Z 31004KT 9999 SCT017 25/25 Q1011 NOSIG
WADD 012130Z 33004KT 9999 SCT016 25/25 Q1011 NOSIG
WADD 012100Z 32007KT 9999 SCT016 25/25 Q1011 NOSIG
WADD 012030Z 34006KT 9999 SCT016 25/25 Q1011 NOSIG
WADD 012000Z 33005KT 9999 SCT016 25/25 Q1011 NOSIG
WADD 011930Z 34004KT 9999 SCT017 25/25 Q1011 NOSIG
WADD 011900Z 36003KT 9999 SCT017 25/24 Q1011 NOSIG
WADD 011830Z VRB02KT 9999 SCT017 26/24 Q1011 NOSIG
WADD 011800Z 23002KT 9999 SCT017 26/24 Q1011 NOSIG
WADD 011730Z 16004KT 9999 SCT017 26/24 Q1011 NOSIG
WADD 011700Z 15004KT 9999 SCT017 26/24 Q1011 NOSIG
WADD 011630Z 13007KT 9999 FEW017 26/24 Q1011 NOSIG
WADD 011600Z 13008KT 9999 FEW017 26/24 Q1011 NOSIG
WADD 011530Z 13009KT 9999 FEW017 26/24 Q1011 NOSIG
WADD 011500Z 12010KT 9999 FEW017 26/24 Q1011 NOSIG
WADD 011430Z 12011KT 9999 FEW017 26/24 Q1011 NOSIG
WADD 011400Z 12011KT 9999 FEW017 26/24 Q1012 NOSIG
WADD 011330Z 11009KT 9999 FEW017 26/24 Q1012 NOSIG
WADD 011300Z 11009KT 9999 FEW017 26/24 Q1011 NOSIG
WADD 011230Z 12011KT 9999 FEW017 26/24 Q1011 NOSIG
WADD 011200Z 10012KT 9999 FEW017 26/24 Q1011 NOSIG
WADD 011130Z 11013KT 9999 SCT016 27/24 Q1011 NOSIG
WADD 011100Z 12014KT 9999 SCT016 27/24 Q1010 NOSIG
WADD 011030Z 11011KT 9999 SCT016 27/24 Q1010 NOSIG
WADD 011000Z 11013KT 9999 SCT016 27/24 Q1010 NOSIG
WADD 010930Z 12013KT 9999 SCT016 27/24 Q1009 NOSIG
WADD 010900Z 12015KT 9999 SCT016 28/25 Q1009 NOSIG
WADD 010830Z 12018KT 9999 SCT016 28/25 Q1009 NOSIG
WADD 010800Z 12015KT 9999 SCT016 28/25 Q1009 NOSIG
WADD 010730Z 11019KT 9999 SCT016 28/24 Q1009 NOSIG
WADD 010700Z 12017KT 9999 BKN016 28/25 Q1009 NOSIG
WADD 010630Z 11016KT 9999 BKN016 28/25 Q1009 NOSIG
WADD 010600Z 12019KT 9999 SCT016 29/24 Q1010 NOSIG</description><pubDate>Sat, 02 Aug 2025 05:51:48 </pubDate></item></channel></rss>