<rss version="2.0"><channel><title>Aviation Weather METAR Data for WADD</title><link>https://aviationweather.gov/api/data/metar?ids=WADD&amp;hours=24</link><description>Latest METAR data for WADD</description><item><title>2026-05-28 04:52:22Z</title><link>https://aviationweather.gov/api/data/metar?ids=WADD&amp;hours=24</link><description>METAR WADD 280430Z 11012KT 9999 FEW017 30/21 Q1013 NOSIG
METAR WADD 280400Z 11011KT 9999 FEW017 30/21 Q1014 NOSIG
METAR WADD 280330Z 11010KT 9999 FEW017 30/21 Q1014 NOSIG
METAR WADD 280300Z 12012KT 9999 FEW017 30/22 Q1014 NOSIG
METAR WADD 280230Z 12012KT 9999 FEW017 29/22 Q1014 NOSIG
METAR WADD 280200Z 11010KT 9999 FEW017 29/22 Q1015 NOSIG
METAR WADD 280130Z 10009KT 9999 SCT016 29/21 Q1015 NOSIG
METAR WADD 280100Z 10009KT 9999 SCT016 28/22 Q1015 NOSIG
METAR WADD 280030Z 10008KT 9999 SCT016 28/22 Q1015 NOSIG
METAR WADD 280000Z 10006KT 9999 SCT016 27/23 Q1014 NOSIG
METAR WADD 272330Z 06007KT 9999 SCT016 26/22 Q1014 NOSIG
METAR WADD 272300Z 09007KT 9999 SCT016 26/22 Q1014 NOSIG
METAR WADD 272230Z 11007KT 9999 SCT016 27/22 Q1014 NOSIG
METAR WADD 272200Z 11007KT 9999 FEW017 27/22 Q1013 NOSIG
METAR WADD 272130Z 12007KT 9999 FEW017 26/22 Q1013 NOSIG
METAR WADD 272100Z 11006KT 9999 FEW017 26/22 Q1013 NOSIG
METAR WADD 272030Z 12006KT 9999 FEW017 26/22 Q1013 NOSIG
METAR WADD 272000Z 14005KT 9999 FEW017 26/23 Q1012 NOSIG
METAR WADD 271930Z 14004KT 9999 FEW017 26/23 Q1013 NOSIG
METAR WADD 271900Z 13004KT 9999 FEW017 25/23 Q1013 NOSIG
METAR WADD 271830Z 08005KT 9999 FEW017 25/22 Q1012 NOSIG
METAR WADD 271800Z 10005KT 9999 FEW017 26/22 Q1013 NOSIG
METAR WADD 271730Z 10006KT 9999 FEW017 26/22 Q1013 NOSIG
METAR WADD 271700Z 11006KT 9999 FEW017 26/22 Q1013 NOSIG
METAR WADD 271630Z 13007KT 9999 FEW017 26/23 Q1013 NOSIG
METAR WADD 271600Z 12006KT 9999 FEW017 26/23 Q1013 NOSIG
METAR WADD 271530Z 13008KT 9999 FEW017 27/22 Q1013 NOSIG
METAR WADD 271500Z 12009KT 9999 FEW017 27/22 Q1013 NOSIG
METAR WADD 271430Z 12007KT 9999 FEW017 27/22 Q1013 NOSIG
METAR WADD 271400Z 12007KT 9999 FEW017 27/22 Q1013 NOSIG
METAR WADD 271330Z 12009KT 9999 FEW017 27/22 Q1013 NOSIG
METAR WADD 271300Z 12011KT 9999 FEW017 27/23 Q1013 NOSIG
METAR WADD 271230Z 11010KT 9999 FEW017 27/23 Q1013 NOSIG
METAR WADD 271200Z 12009KT 9999 FEW017 27/23 Q1013 NOSIG
METAR WADD 271130Z 12010KT 9999 FEW017 27/23 Q1012 NOSIG
METAR WADD 271100Z 12010KT 9999 FEW017 27/22 Q1012 NOSIG
METAR WADD 271030Z 11010KT 9999 FEW017 27/22 Q1012 NOSIG
METAR WADD 271000Z 12011KT 9999 FEW017 28/22 Q1011 NOSIG
METAR WADD 270930Z 13013KT 9999 FEW017 28/22 Q1011 NOSIG
METAR WADD 270900Z 13015KT 9999 FEW017 29/22 Q1011 NOSIG
METAR WADD 270830Z 12013KT 9999 FEW017 29/22 Q1011 NOSIG
METAR WADD 270730Z 13013KT 9999 FEW016 29/23 Q1011 NOSIG
METAR WADD 270700Z 12012KT 9999 FEW016 30/23 Q1011 NOSIG
METAR WADD 270630Z 11011KT 9999 FEW016 30/23 Q1011 NOSIG
METAR WADD 270600Z 12013KT 9999 FEW016 30/23 Q1012 NOSIG
METAR WADD 270530Z 11012KT 9999 FEW016 30/22 Q1012 NOSIG
METAR WADD 270500Z 11013KT 9999 SCT016 30/22 Q1012 NOSIG</description><pubDate>Thu, 28 May 2026 04:52:22 </pubDate></item></channel></rss>