<rss version="2.0"><channel><title>Aviation Weather METAR Data for WADD</title><link>https://aviationweather.gov/api/data/metar?ids=WADD&amp;hours=24</link><description>Latest METAR data for WADD</description><item><title>2025-06-07 23:43:30Z</title><link>https://aviationweather.gov/api/data/metar?ids=WADD&amp;hours=24</link><description>WADD 072330Z 13006KT 9999 FEW015CB BKN016 28/26 Q1011 NOSIG
WADD 072300Z 13006KT 9999 SCT016 28/26 Q1011 NOSIG
WADD 072230Z 13008KT 9999 SCT016 28/26 Q1010 NOSIG
WADD 072200Z 13007KT 9999 SCT016 28/26 Q1010 NOSIG
WADD 072130Z 12005KT 9999 SCT016 28/25 Q1010 NOSIG
WADD 072100Z 12004KT 040V150 9999 SCT016 28/26 Q1010 NOSIG
WADD 072030Z 13006KT 9999 SCT017 28/26 Q1010 NOSIG
WADD 072000Z 14008KT 9999 SCT017 28/26 Q1010 NOSIG
WADD 071930Z 12007KT 9999 SCT017 28/26 Q1010 NOSIG
WADD 071900Z 12007KT 9999 SCT017 28/25 Q1010 NOSIG
WADD 071830Z 12009KT 9999 SCT017 28/26 Q1010 NOSIG
WADD 071800Z 13008KT 9999 SCT017 28/26 Q1010 NOSIG
WADD 071730Z 13009KT 9999 SCT017 28/26 Q1011 NOSIG
WADD 071700Z 11007KT 9999 SCT017 28/26 Q1011 NOSIG
WADD 071630Z 13006KT 9999 SCT017 27/26 Q1011 NOSIG
WADD 071600Z 12008KT 9999 SCT016 27/26 Q1011 NOSIG
WADD 071530Z 13009KT 9999 SCT016 27/26 Q1011 NOSIG
WADD 071500Z 12012KT 9999 SCT016 27/26 Q1012 NOSIG
WADD 071430Z 12010KT 9999 FEW015CB BKN016 27/26 Q1012 NOSIG
WADD 071400Z 13007KT 9999 FEW014CB BKN015 27/26 Q1012 NOSIG
WADD 071330Z 16013KT 8000 FEW014CB BKN015 26/26 Q1012 RERA NOSIG
WADD 071300Z 12006KT 9999 FEW015CB BKN016 27/26 Q1012 NOSIG
WADD 071230Z 13007KT 9999 SCT016 27/26 Q1012 NOSIG
WADD 071200Z 14010KT 9999 SCT016 27/26 Q1011 NOSIG
WADD 071130Z 13012KT 9999 SCT016 28/26 Q1011 NOSIG
WADD 071100Z 13008KT 9999 SCT016 28/25 Q1011 NOSIG
WADD 071030Z 12010KT 9999 SCT016 28/25 Q1011 NOSIG
WADD 071000Z 12012KT 9999 SCT016 28/25 Q1010 NOSIG
WADD 070930Z 10008KT 9999 SCT016 28/26 Q1010 NOSIG
WADD 070900Z 11008KT 9999 SCT016 28/26 Q1010 NOSIG
WADD 070830Z 11009KT 9999 SCT016 29/26 Q1010 NOSIG
WADD 070800Z 11009KT 9999 SCT016 29/26 Q1010 NOSIG
WADD 070730Z 10010KT 9999 SCT016 29/25 Q1010 NOSIG
WADD 070700Z 10011KT 9999 SCT016 28/26 Q1010 NOSIG
WADD 070630Z 11011KT 9999 BKN016 29/26 Q1010 NOSIG
WADD 070600Z 10011KT 9999 BKN016 29/25 Q1010 NOSIG
WADD 070530Z 09009KT 9999 BKN016 28/26 Q1011 NOSIG
WADD 070500Z 09007KT 9999 SCT016 29/26 Q1011 NOSIG
WADD 070430Z 11007KT 9999 SCT016 28/26 Q1012 NOSIG
WADD 070400Z 10011KT 9999 FEW015CB BKN016 27/26 Q1012 NOSIG
WADD 070330Z 11010KT 9999 FEW015CB BKN016 27/26 Q1012 RERA NOSIG
WADD 070300Z 10006G16KT 6000 -RA FEW014CB BKN015 26/26 Q1013 NOSIG TEMPO TL0400 6000 -RA RMK CB IN APCH
WADD 070230Z 10007KT 4000 RA FEW014CB BKN015 28/26 Q1012 TEMPO TL0330 4000 RA RMK CB IN APCH AND CLIMB-OUT
WADD 070200Z 09008KT 9999 FEW016CB BKN016 29/26 Q1012 NOSIG
WADD 070130Z 08009KT 9999 BKN016 28/26 Q1013 NOSIG
WADD 070100Z 10005KT 9999 BKN016 27/26 Q1013 NOSIG
WADD 070030Z 04004KT 9999 BKN016 27/25 Q1013 NOSIG
WADD 070000Z 02004KT 360V070 9999 BKN016 26/25 Q1013 NOSIG</description><pubDate>Sat, 07 Jun 2025 23:43:30 </pubDate></item></channel></rss>