<rss version="2.0"><channel><title>Aviation Weather METAR Data for WADD</title><link>https://aviationweather.gov/api/data/metar?ids=WADD&amp;hours=24</link><description>Latest METAR data for WADD</description><item><title>2025-11-08 12:49:39Z</title><link>https://aviationweather.gov/api/data/metar?ids=WADD&amp;hours=24</link><description>METAR WADD 081230Z VRB02KT 9999 TS FEW015CB BKN015 29/26 Q1010 TEMPO TL1330 TS
METAR WADD 081200Z 12003KT 9999 TS FEW015CB SCT015 29/26 Q1009 TEMPO TL1330 TS
METAR WADD 081130Z 17004KT 9999 SCT016 29/26 Q1009 NOSIG
METAR WADD 081100Z 18005KT 9999 SCT016 29/26 Q1008 NOSIG
METAR WADD 081030Z 18005KT 9999 SCT016 29/26 Q1008 NOSIG
METAR WADD 081000Z 16004KT 9999 SCT016 30/26 Q1008 NOSIG
METAR WADD 080930Z 15004KT 110V200 9999 SCT016 30/26 Q1007 NOSIG
METAR WADD 080900Z 18003KT 9999 SCT016 30/25 Q1007 NOSIG
METAR WADD 080830Z 19005KT 130V250 9999 SCT016 31/25 Q1007 NOSIG
METAR WADD 080800Z 20008KT 9999 BKN016 29/25 Q1007 RETS NOSIG
METAR WADD 080730Z 16005KT 100V210 9999 TS FEW015CB BKN016 29/25 Q1007 RERA TEMPO TL0830 TS
METAR WADD 080700Z 32009KT 280V350 8000 -RA FEW015CB BKN016 30/26 Q1007 TREND TEMPO TL0800 -RA
METAR WADD 080630Z 35006KT 250V040 9999 FEW015CB BKN016 30/26 Q1008 R ETS NOSIG
METAR WADD 080600Z 10005KT 070V130 9999 TS FEW015CB BKN016 31/26 Q100 8 TEMPO TL0700 TS
METAR WADD 080530Z 22003KT 9999 TS FEW015CB SCT016 32/27 Q1008 TEMPO TL0630 TS
METAR WADD 080500Z 12008KT 9999 TS FEW015CB SCT016 32/27 Q1008 TEMPO TL0600 TS
METAR WADD 080430Z 11008KT 9999 FEW016 32/27 Q1008 NOSIG
METAR WADD 080400Z 11008KT 9999 FEW016 32/26 Q1009 NOSIG
METAR WADD 080330Z 11007KT 9999 FEW017 32/27 Q1009 NOSIG
METAR WADD 080300Z 08007KT 9999 FEW017 30/26 Q1009 NOSIG
METAR WADD 080230Z 11006KT 070V140 9999 FEW017 31/26 Q1010 NOSIG
METAR WADD 080200Z 12005KT 070V170 9999 SCT016 30/25 Q1010 NOSIG
METAR WADD 080130Z 13004KT 070V200 9999 SCT016 30/26 Q1010 NOSIG
METAR WADD 080100Z 11004KT 060V160 9999 FEW016 30/25 Q1010 NOSIG
METAR WADD 080030Z VRB02KT 9999 FEW017 29/26 Q1010 NOSIG
METAR WADD 080000Z 07003KT 9999 FEW017 28/25 Q1010 NOSIG
METAR WADD 072330Z 06003KT 9999 FEW017 28/25 Q1009 NOSIG
METAR WADD 072300Z 06003KT 9999 FEW017 27/25 Q1009 NOSIG
METAR WADD 072230Z 06002KT 9999 FEW017 26/25 Q1009 NOSIG
METAR WADD 072200Z VRB02KT 9999 SCT016 26/25 Q1009 NOSIG
METAR WADD 072130Z 06002KT 9999 SCT016 26/25 Q1009 NOSIG
METAR WADD 072100Z VRB01KT 9999 SC016 26/25 Q1009 NOSIG
METAR WADD 072030Z 11002KT 9999 SCT016 26/25 Q1009 NOSIG
METAR WADD 072000Z VRB01KT 9999 SCT016 26/25 Q1008 NOSIG
METAR WADD 071930Z 02003KT 9999 SCT016 27/25 Q1008 NOSIG
METAR WADD 071900Z 03003KT 9999 FEW016 27/25 Q1008 NOSIG
METAR WADD 071830Z 03003KT 9999 FEW016 27/25 Q1008 NOSIG
METAR WADD 071800Z 07002KT 9999 FEW016 27/25 Q1009 NOSIG
METAR WADD 071730Z 03003KT 9999 FEW016 27/25 Q1009 NOSIG
METAR WADD 071700Z 33005KT 290V010 9999 FEW016 28/26 Q1010 NOSIG
METAR WADD 071630Z VRB02KT 9999 FEW016 28/25 Q1010 NOSIG
METAR WADD 071600Z 27003KT 9999 FEW016 27/25 Q1010 NOSIG
METAR WADD 071530Z 28005KT 9999 FEW016 27/25 Q1010 NOSIG
METAR WADD 071500Z 23002KT 9999 FEW016 27/25 Q1010 NOSIG
METAR WADD 071430Z 23002KT 9999 FEW016 28/26 Q1010 NOSIG
METAR WADD 071400Z 22001KT 9999 FEW016 28/26 Q1010 NOSIG
METAR WADD 071330Z 23001KT 9999 FEW016 27/25 Q1010 NOSIG
METAR WADD 071300Z 24002KT 9999 FEW016 28/25 Q1010 NOSIG</description><pubDate>Sat, 08 Nov 2025 12:49:39 </pubDate></item></channel></rss>