<rss version="2.0"><channel><title>Aviation Weather METAR Data for WADD</title><link>https://aviationweather.gov/api/data/metar?ids=WADD&amp;hours=24</link><description>Latest METAR data for WADD</description><item><title>2025-03-05 11:39:45Z</title><link>https://aviationweather.gov/api/data/metar?ids=WADD&amp;hours=24</link><description>WADD 051130Z 12009KT 9999 FEW017 29/28 Q1007 NOSIG
WADD 051100Z 13009KT 9999 FEW017 30/29 Q1007 NOSIG
WADD 051030Z 13010KT 9999 FEW017 30/28 Q1007 NOSIG
WADD 051000Z 13010KT 9999 FEW017 31/28 Q1007 NOSIG
WADD 050930Z 11010KT 9999 FEW017 31/28 Q1006 NOSIG
WADD 050900Z 11011KT 9999 FEW017 31/27 Q1006 NOSIG
WADD 050830Z 11011KT 9999 FEW017 32/27 Q1006 NOSIG
WADD 050800Z 11010KT 9999 FEW017 32/28 Q1006 NOSIG
WADD 050730Z 10010KT 070V130 9999 FEW017 32/27 Q1006 NOSIG
WADD 050700Z 10010KT 9999 FEW017 32/28 Q1006 NOSIG
WADD 050630Z 10007KT 9999 FEW017 32/28 Q1006 NOSIG
WADD 050600Z 12009KT 9999 FEW017 32/27 Q1007 NOSIG
WADD 050530Z 10010KT 9999 SCT016 32/27 Q1007 NOSIG
WADD 050500Z 11008KT 9999 FEW017 32/28 Q1007 NOSIG
WADD 050430Z 12011KT 9999 FEW017 32/27 Q1008 NOSIG
WADD 050400Z 12010KT 9999 FEW017 32/27 Q1009 NOSIG
WADD 050330Z 11007KT 9999 FEW017 31/28 Q1009 NOSIG
WADD 050300Z 12007KT 9999 FEW017 31/28 Q1009 NOSIG
WADD 050230Z 12007KT 9999 FEW017 31/27 Q1010 NOSIG
WADD 050200Z 12007KT 9999 FEW017 31/27 Q1009 NOSIG
WADD 050130Z 12004KT 9999 FEW017 30/28 Q1010 NOSIG
WADD 050100Z 10004KT 060V130 9999 FEW017 30/28 Q1010 NOSIG
WADD 050030Z VRB04KT 9999 FEW017 29/28 Q1010 NOSIG
WADD 050000Z 04004KT 340V060 9999 FEW017 29/28 Q1009 NOSIG
WADD 042330Z 09003KT 9999 FEW017 28/27 Q1009 NOSIG
WADD 042300Z 07003KT 9999 FEW017 27/27 Q1009 NOSIG
WADD 042230Z 08003KT 9999 FEW017 27/27 Q1008 NOSIG
WADD 042200Z 09002KT 9999 SCT017 27/27 Q1008 NOSIG
WADD 042130Z VRB01KT 9999 FEW017 27/27 Q1008 NOSIG
WADD 042100Z 09003KT 9999 FEW017 27/27 Q1008 NOSIG
WADD 042030Z 07003KT 9999 FEW017 27/27 Q1007 NOSIG
WADD 042000Z 07003KT 9999 FEW017 27/27 Q1008 NOSIG
WADD 041930Z 07004KT 9999 FEW017 27/27 Q1008 NOSIG
WADD 041900Z 10005KT 9999 FEW017 28/28 Q1008 NOSIG
WADD 041830Z 09005KT 9999 FEW017 28/27 Q1008 NOSIG
WADD 041800Z 11004KT 9999 FEW017 28/27 Q1008 NOSIG
WADD 041730Z 12003KT 9999 FEW017 28/27 Q1008 NOSIG
WADD 041700Z 13003KT 9999 FEW017 28/28 Q1008 NOSIG
WADD 041630Z 12004KT 9999 FEW017 28/27 Q1008 NOSIG
WADD 041600Z 12004KT 9999 FEW017 28/28 Q1009 NOSIG
WADD 041530Z 12005KT 9999 FEW017 29/28 Q1009 NOSIG
WADD 041500Z 13005KT 9999 FEW017 29/28 Q1009 NOSIG
WADD 041430Z 12005KT 9999 FEW017 29/28 Q1009 NOSIG
WADD 041400Z 11005KT 9999 FEW017 29/28 Q1009 NOSIG
WADD 041330Z 10005KT 9999 FEW017 29/28 Q1009 NOSIG
WADD 041300Z 10005KT 9999 FEW017 28/27 Q1009 NOSIG
WADD 041230Z 09006KT 9999 FEW017 28/28 Q1008 NOSIG
WADD 041200Z 10007KT 9999 FEW017 29/28 Q1008 NOSIG</description><pubDate>Wed, 05 Mar 2025 11:39:45 </pubDate></item></channel></rss>