<rss version="2.0"><channel><title>Aviation Weather METAR Data for WADD</title><link>https://aviationweather.gov/api/data/metar?ids=WADD&amp;hours=24</link><description>Latest METAR data for WADD</description><item><title>2025-04-28 16:48:24Z</title><link>https://aviationweather.gov/api/data/metar?ids=WADD&amp;hours=24</link><description>WADD 281630Z 10006KT 9999 FEW016 27/24 Q1010 NOSIG
WADD 281600Z 12007KT 9999 SCT016 28/25 Q1010 NOSIG
WADD 281500Z 13007KT 9999 SCT016 28/25 Q1010 NOSIG
WADD 281430Z 13006KT 9999 SCT016 28/25 Q1010 NOSIG
WADD 281400Z 10005KT 9999 SCT016 27/25 Q1010
WADD 281330Z 12008KT 9999 SCT016 28/25 Q1010 NOSIG
WADD 281300Z 12009KT 9999 SCT016 28/25 Q1010 NOSIG
WADD 281230Z 12009KT 9999 SCT017 28/25 Q1009 NOSIG
WADD 281200Z 13009KT 9999 SCT017 28/25 Q1009 NOSIG
WADD 281130Z 12009KT 9999 SCT017 28/25 Q1009 NOSIG
WADD 281100Z 12008KT 9999 SCT017 28/25 Q1009 NOSIG
WADD 281030Z 12009KT 9999 FEW017 29/25 Q1008 NOSIG
WADD 281000Z 13011KT 9999 FEW017 29/26 Q1008 NOSIG
WADD 280930Z 13009KT 9999 FEW017 29/26 Q1008 NOSIG
WADD 280900Z 13011KT 9999 FEW017 30/26 Q1008 NOSIG
WADD 280830Z 14010KT 9999 FEW017 30/26 Q1008 NOSIG
WADD 280800Z 15011KT 9999 FEW017 30/26 Q1008 NOSIG
WADD 280730Z 15011KT 9999 FEW017 30/26 Q1008 NOSIG
WADD 280700Z 14010KT 9999 FEW017 30/26 Q1008 NOSIG
WADD 280630Z 13006KT 9999 FEW016 31/24 Q1008 NOSIG
WADD 280600Z 14006KT 100V170 9999 SCT016 30/24 Q1008 NOSIG
WADD 280530Z 24005KT 190V320 9999 SCT016 30/25 Q1009 NOSIG
WADD 280500Z 26007KT 9999 SCT016 29/24 Q1009 NOSIG
WADD 280430Z 26006KT 230V300 9999 SCT016 29/24 Q1009 NOSIG
WADD 280400Z 26005KT 220V290 9999 SCT016 29/24 Q1010 NOSIG
WADD 280330Z 25007KT 230V310 9999 SCT016 28/24 Q1010 NOSIG
WADD 280300Z 27004KT 210V330 9999 SCT016 28/24 Q1011 NOSIG
WADD 280230Z 30006KT 260V330 9999 FEW017 28/24 Q1011 NOSIG
WADD 280200Z 30007KT 9999 FEW017 27/24 Q1011 NOSIG
WADD 280130Z 31006KT 9999 SCT016 26/24 Q1011 NOSIG
WADD 280100Z 31006KT 9999 SCT016 26/24 Q1011 NOSIG
WADD 280030Z 30004KT 210V340 9999 SCT016 25/23 Q1011 NOSIG
WADD 280000Z 01004KT 320V090 9999 FEW014CB BKN015 24/23 Q1011 RERA NOSIG RMK CB CLIMB-OUT
WADD 272300Z 27006KT 7000 -RA FEW014CB BKN015 24/23 Q1011 TEMPO TL2430 -RA RMK CB IN APCH
WADD 272230Z 26008KT 220V280 9999 FEW014CB BKN015 24/23 Q1010 RERA NOSIG
WADD 272200Z 21009KT 5000 -RA FEW014CB BKN015 24/24 Q1010 TEMPO TL2230 5000 -RA
WADD 272100Z 29006KT 5000 -RA FEW014CB BKN015 25/25 Q1009 TEMPO TL2200 5000 -RA
WADD 272030Z 15003KT 3000 RA FEW014CB BKN015 25/25 Q1009 TEMPO TL2130 3000 RA RMK CB IN CLIMB-OUT
WADD 272000Z 22009KT 3000 RA FEW014CB BKN015 25/25 Q1009 TEMPO TL2100 3000 RA RMK CB IN CLIMB-OUT
WADD 271930Z 21015KT 9999 -RA FEW014CB BKN015 25/25 Q1009 TEMPO TL2030 -RA
WADD 271900Z 28006KT 9999 FEW014CB BKN015 26/25 Q1009 NOSIG
WADD 271830Z 29006KT 9999 FEW014CB BKN015 26/25 Q1009 NOSIG
WADD 271800Z 33005KT 300V020 9999 FEW014CB SCT015 25/23 Q1009 NOSIG
WADD 271730Z 35005KT 330V040 9999 FFEW014CB SCT015 25/24 Q1009 NOSIG RMK CB IN APCH
WADD 271700Z 34008KT 9999 FEW014CB SCT015 25/24 Q1010 NOSIG RMK CB IN APCH</description><pubDate>Mon, 28 Apr 2025 16:48:24 </pubDate></item></channel></rss>