<rss version="2.0"><channel><title>Aviation Weather METAR Data for WADD</title><link>https://aviationweather.gov/api/data/metar?ids=WADD&amp;hours=24</link><description>Latest METAR data for WADD</description><item><title>2025-09-12 14:43:15Z</title><link>https://aviationweather.gov/api/data/metar?ids=WADD&amp;hours=24</link><description>METAR WADD 121430Z 16003KT 9999 FEW017 26/25 Q1013 NOSIG
METAR WADD 121400Z 16004KT 9999 FEW017 26/25 Q1013 NOSIG
METAR WADD 121330Z 15005KT 9999 FEW017 26/25 Q1013 NOSIG
METAR WADD 121300Z 15006KT 9999 FEW017 26/25 Q1012 NOSIG
 WADD 121230Z 15010KT 9999 FEW017 26/24 Q1012 NOSIG
METAR WADD 121200Z 16012KT 9999 FEW017 27/25 Q1012 NOSIG
 WADD 121130Z 16011KT 9999 FEW017 27/25 Q1011 NOSIG
METAR WADD 121100Z 16010KT 9999 FEW017 27/25 Q1011 NOSIG
 WADD 121030Z 15009KT 9999 FEW017 27/24 Q1011 NOSIG
METAR WADD 121000Z 15008KT 9999 FEW017 27/25 Q1010 NOSIG
 WADD 120930Z 15010KT 9999 FEW017 28/25 Q1010 NOSIG
 WADD 120900Z 16010KT 9999 FEW017 28/25 Q1010 NOSIG
METAR WADD 120830Z 16010KT 9999 FEW017 29/24 Q1010 NOSIG
METAR WADD 120800Z 16009KT 9999 FEW017 29/24 Q1009 NOSIG
METAR WADD 120730Z 15009KT 9999 FEW017 30/24 Q1009 NOSIG
METAR WADD 120700Z 13009KT 9999 FEW017 30/24 Q1010 NOSIG
METAR WADD 120630Z 15008KT 9999 FEW017 29/24 Q1010 NOSIG
METAR WADD 120600Z 14011KT 9999 FEW017 30/24 Q1010 NOSIG
METAR WADD 120530Z 11010KT 9999 FEW017 30/24 Q1010 NOSIG
METAR WADD 120500Z 10010KT 9999 FEW017 29/24 Q1011 NOSIG
METAR WADD 120430Z 10011KT 9999 SCT017 30/24 Q1011 NOSIG
METAR WADD 120400Z 14009KT 9999 SCT017 28/24 Q1012 NOSIG
METAR WADD 120330Z 15009KT 9999 SCT017 28/24 Q1012 NOSIG
METAR WADD 120300Z 14009KT 9999 SCT017 29/25 Q1012 NOSIG
METAR WADD 120230Z 11009KT 9999 FEW017 29/24 Q1013 NOSIG
METAR WADD 120200Z 12010KT 9999 FEW017 28/24 Q1013 NOSIG
METAR WADD 120130Z 10007KT 9999 FEW017 29/24 Q1013 NOSIG
METAR WADD 120100Z 11009KT 9999 FEW016 28/24 Q1013 NOSIG
METAR WADD 120030Z 11006KT 9999 FEW016 27/25 Q1013 NOSIG
METAR WADD 120000Z 14006KT 9999 FEW016 27/25 Q1013 NOSIG
 WADD 112330Z 14004KT 9999 FEW017 26/25 Q1012 NOSIG
METAR WADD 112300Z 15006KT 9999 FEW017 26/25 Q1012 NOSIG
METAR WADD 112230Z 14008KT 9999 FEW017 25/25 Q1012 NOSIG
METAR WADD 112200Z 15010KT 9999 FEW017 26/25 Q1011 NOSIG
METAR WADD 112130Z 15009KT 9999 FEW017 26/25 Q1011 NOSIG
METAR WADD 112100Z 15006KT 9999 FEW017 26/25 Q1011 NOSIG
METAR WADD 112030Z 14005KT 9999 FEW017 26/25 Q1011 NOSIG
METAR WADD 112000Z 12004KT 9999 +DZ OVC040 26/24 Q1011 NOSIG
METAR WADD 111930Z 14004KT 9999 FEW017 26/25 Q1011 NOSIG
METAR WADD 111900Z 14006KT 9999 FEW017 26/25 Q1011 NOSIG
METAR WADD 111830Z 15005KT 9999 FEW017 26/25 Q1011 NOSIG
METAR WADD 111800Z 14006KT 9999 +DZ BKN018 26/25 Q1011 NOSIG
METAR WADD 111730Z 13006KT 9999 FEW017 26/25 Q1011 NOSIG
METAR WADD 111700Z 13006KT 9999 FEW017 26/25 Q1012 NOSIG
METAR WADD 111630Z 14007KT 9999 FEW017 26/25 Q1012 NOSIG
METAR WADD 111600Z 11005KT 9999 FEW017 26/25 Q1012 NOSIG
METAR WADD 111530Z 13006KT 9999 FEW017 26/25 Q1012 NOSIG
METAR WADD 111500Z 13006KT 9999 FEW017 26/25 Q1012 NOSIG</description><pubDate>Fri, 12 Sep 2025 14:43:15 </pubDate></item></channel></rss>