<rss version="2.0"><channel><title>Aviation Weather METAR Data for WADD</title><link>https://aviationweather.gov/api/data/metar?ids=WADD&amp;hours=24</link><description>Latest METAR data for WADD</description><item><title>2026-01-07 13:03:05Z</title><link>https://aviationweather.gov/api/data/metar?ids=WADD&amp;hours=24</link><description>METAR WADD 071230Z 26008KT 9999 FEW015CB SCT016 29/25 Q1009 NOSIG RMK CB IN CLIMB-OUT
METAR WADD 071200Z 26011KT 9999 FEW017 29/25 Q1009 NOSIG
METAR WADD 071130Z 26010KT 9999 SCT016 29/25 Q1009 NOSIG
METAR WADD 071100Z 26010KT 9999 SCT016 29/25 Q1009 NOSIG
METAR WADD 071030Z 26011KT 9999 SCT016 29/25 Q1008 NOSIG
METAR WADD 071000Z 25010KT 9999 SCT016 29/25 Q1008 NOSIG
METAR WADD 070930Z 25011KT 9999 SCT016 30/25 Q1008 NOSIG
METAR WADD 070900Z 26013KT 9999 SCT017 30/25 Q1007 NOSIG
METAR WADD 070830Z 26012KT 9999 SCT017 31/26 Q1007 NOSIG
METAR WADD 070800Z 26013KT 9999 SCT017 31/26 Q1007 NOSIG
METAR WADD 070730Z 26014KT 9999 SCT017 31/26 Q1007 NOSIG
METAR WADD 070700Z 26013KT 9999 SCT017 31/25 Q1007 NOSIG
METAR WADD 070630Z 26015KT 9999 SCT017 31/26 Q1008 NOSIG
METAR WADD 070600Z 26011KT 9999 SCT017 30/25 Q1008 NOSIG
METAR WADD 070530Z 26013KT 9999 SCT017 30/25 Q1008 NOSIG
METAR WADD 070500Z 26013KT 9999 SCT017 31/26 Q1009 NOSIG
METAR WADD 070430Z 26013KT 9999 SCT017 31/26 Q1009 NOSIG
METAR WADD 070400Z 26013KT 9999 SCT017 31/26 Q1009 NOSIG
METAR WADD 070330Z 26014KT 9999 SCT017 30/25 Q1010 NOSIG
METAR WADD 070300Z 26013KT 9999 SCT017 30/25 Q1010 NOSIG
METAR WADD 070230Z 26013KT 9999 SCT017 31/25 Q1010 NOSIG
METAR WADD 070200Z 26012KT 9999 SCT016 30/25 Q1010 NOSIG
METAR WADD 070130Z 26012KT 9999 BKN015 29/25 Q1011 NOSIG
METAR WADD 070100Z 27012KT 9999 BKN014 29/25 Q1010 NOSIG
METAR WADD 070030Z 30006KT 9999 FEW016 29/25 Q1010 NOSIG
METAR WADD 070000Z 26011KT 9999 FEW014CB BKN014 29/25 Q1010 NOSIG
METAR WADD 062330Z 26011KT 9999 FEW014CB BKN014 29/24 Q1010 NOSIG
METAR WADD 062300Z 27009KT 230V320 9999 FEW014CB BKN014 28/24 Q1010 N OSIG
METAR WADD 062230Z 26011KT 9999 FEW014CB BKN014 28/25 Q1009 NOSIG
METAR WADD 062200Z 26011KT 9999 FEW014CB BKN014 28/24 Q1009 NOSIG
METAR WADD 062130Z 26009KT 9999 FEW015CB BKN015 28/24 Q1009 NOSIG
METAR WADD 062100Z 26011KT 9999 FEW015CB BKN015 28/25 Q1009 NOSIG
METAR WADD 062030Z 26011KT 9999 FEW015CB BKN015 28/24 Q1008 NOSIG
METAR WADD 062000Z 31007KT 9999 FEW014CB BKN014 26/25 Q1008 RERA NOSI G
METAR WADD 061930Z 26006KT 230V310 8000 -RA FEW014CB BKN014 27/25 Q1009 TEMPO TL2000 8000 -RA
METAR WADD 061900Z 04004KT 8000 -RA FEW014CB BKN014 26/26 Q1009 TEMPO TL2000 8000 -RA
METAR WADD 061830Z 12004KT 060V170 5000 RA FEW014CB BKN014 26/26 Q1009 TEMPO TL1930 5000 RA
METAR WADD 061800Z 01003KT 5000 RA FEW014CB BKN014 25/25 Q1009 TEMPO TL1830 5000 RA
METAR WADD 061730Z 32009G16KT 280V010 5000 RA FEW014CB BKN015 26/24 Q1009 TEMPO TL1830 5000 RA
METAR WADD 061700Z 28005KT 260V330 8000 -RA SCT015 27/26 Q1009 TEMPO TL1800 8000 -RA
METAR WADD 061630Z 31006KT 260V350 9999 FEW016 28/25 Q1009 NOSIG
METAR WADD 061600Z 28009KT 9999 FEW016 28/25 Q1010 NOSIG
METAR WADD 061530Z 28010KT 9999 FEW016 28/25 Q1010 NOSIG
METAR WADD 061500Z 27007KT 9999 FEW016 28/25 Q1010 NOSIG
METAR WADD 061430Z 31007KT 9999 FEW016 28/25 Q1010 NOSIG
METAR WADD 061400Z 33005KT 290V020 9999 FEW016 28/24 Q1010 NOSIG
METAR WADD 061330Z 32006KT 290V350 9999 FEW016 28/24 Q1010 NOSIG</description><pubDate>Wed, 07 Jan 2026 13:03:05 </pubDate></item></channel></rss>