<rss version="2.0"><channel><title>Aviation Weather METAR Data for WADD</title><link>https://aviationweather.gov/api/data/metar?ids=WADD&amp;hours=24</link><description>Latest METAR data for WADD</description><item><title>2026-01-02 12:58:19Z</title><link>https://aviationweather.gov/api/data/metar?ids=WADD&amp;hours=24</link><description>METAR WADD 021230Z 02006KT 330V060 6000 -RA FEW014CB BKN015 25/24 Q1010 TEMPO TL1330 6000 -RA RMK CB IN CLIMB-OUT
METAR WADD 021200Z 04006KT 6000 -RA FEW014CB BKN015 25/25 Q1010 RETS TEMPO TL1300 6000 -RA RMK CB IN APCH
METAR WADD 021130Z 02009G19KT 5000 TSRA FEW013CB BKN014 25/24 Q1010 TEMPO TL1230 3000 TSRA RMK CB IN APCH
METAR WADD 021100Z 26004KT 220V030 5000 -TSRA FEW013CB BKN014 28/25 Q1009 TEMPO TL1200 3000 TSRA RMK CB IN APCH
METAR WADD 021030Z 26007KT 9000 3000E -TSRA FEW013CB BKN014 29/26 Q1009 TEMPO TL1130 3000 TSRA RMK CB IN APCH
METAR WADD 021000Z 24005KT 190V260 9999 5000E TS FEW015CB BKN016 29/2 6 Q1008 TEMPO TL1100 TS
METAR WADD 020930Z 22004KT 140V280 9999 TS FEW015CB SCT016 29/25 Q1008 TEMPO TL1000 TS
METAR WADD 020900Z 24005KT 200V270 9999 FEW015CB SCT016 29/26 Q1008 N OSIG
METAR WADD 020830Z 23007KT 180V270 9999 FEW015CB SCT016 29/25 Q1007 N OSIG
METAR WADD 020800Z 23005KT 190V270 9999 FEW015CB SCT016 30/25 Q1007 N OSIG
METAR WADD 020730Z 24009KT 200V260 9999 FEW015CB SCT016 30/25 Q1007 N OSIG
METAR WADD 020700Z 25010KT 9999 FEW015CB SCT016 30/26 Q1007 NOSIG
METAR WADD 020630Z 26010KT 9999 FEW015CB SCT016 31/27 Q1007 NOSIG
METAR WADD 020600Z 25010KT 9999 FEW015CB SCT016 31/26 Q1008 NOSIG
METAR WADD 020530Z 25008KT 9999 FEW015CB SCT016 30/26 Q1008 NOSIG
METAR WADD 020500Z 26009KT 9999 FEW015CB SCT016 30/26 Q1008 NOSIG
METAR WADD 020430Z 26009KT 9999 FEW015CB SCT016 30/26 Q1009 NOSIG
METAR WADD 020400Z 26009KT 9999 FEW015CB SCT016 30/26 Q1009 NOSIG
METAR WADD 020330Z 26008KT 9999 FEW015CB SCT016 30/25 Q1009 NOSIG
METAR WADD 020300Z 26008KT 9999 SCT016 30/25 Q1009 NOSIG
METAR WADD 020230Z 26006KT 210V280 9999 FEW015CB SCT016 30/26 Q1009 N OSIG
METAR WADD 020200Z 28007KT 9999 FEW015CB SCT016 30/27 Q1009 NOSIG
METAR WADD 020130Z 31005KT 280V010 9999 FEW015CB SCT016 30/27 Q1009 N OSIG
METAR WADD 020100Z 30004KT 9999 SCT016 30/27 Q1009 NOSIG
METAR WADD 020030Z VRB01KT 9999 SCT016 29/26 Q1009 NOSIG
METAR WADD 020000Z VRB02KT 9999 FEW016 29/26 Q1009 NOSIG
METAR WADD 012330Z 02004KT 340V070 9999 FEW016 28/25 Q1009 NOSIG
METAR WADD 012300Z 36003KT 9999 FEW017 27/25 Q1009 NOSIG
METAR WADD 012230Z 35003KT 9999 FEW017 27/25 Q1009 NOSIG
METAR WADD 012200Z 33002KT 9999 FEW017 27/26 Q1008 NOSIG
METAR WADD 012130Z 02002KT 9999 FEW017 27/25 Q1008 NOSIG
METAR WADD 012100Z 36002KT 9999 FEW017 28/25 Q1008 NOSIG
METAR WADD 012030Z VRB01KT 9999 FEW017 27/25 Q1008 NOSIG
METAR WADD 012000Z 03003KT 9999 FEW017 27/25 Q1008 NOSIG
METAR WADD 011930Z 02003KT 9999 FEW017 27/26 Q1008 NOSIG
METAR WADD 011900Z 03003KT 9999 FEW017 28/25 Q1008 NOSIG
METAR WADD 011830Z 34002KT 9999 FEW017 28/25 Q1008 NOSIG
METAR WADD 011800Z 34003KT 9999 FEW017 28/25 Q1008 NOSIG
METAR WADD 011730Z 33006KT 310V030 9999 +DZ OVC019 28/25 Q1008 NOSIG
METAR WADD 011700Z 34005KT 330V050 9999 FEW017 28/25 Q1009 NOSIG
METAR WADD 011630Z 36004KT 9999 FEW017 27/24 Q1009 NOSIG
METAR WADD 011600Z 06003KT 9999 FEW017 28/25 Q1009 NOSIG
METAR WADD 011530Z 02004KT 340V060 9999 FEW017 28/25 Q1009 NOSIG
METAR WADD 011500Z 01005KT 330V040 9999 FEW017 28/25 Q1010 NOSIG
METAR WADD 011430Z VRB03KT 9999 SCT017 28/26 Q1010 NOSIG
METAR WADD 011400Z 12004KT 9999 FEW017 29/27 Q1009 NOSIG
METAR WADD 011330Z 12004KT 9999 FEW017 29/27 Q1009 NOSIG
METAR WADD 011300Z 13005KT 9999 FEW017 29/27 Q1009 NOSIG</description><pubDate>Fri, 02 Jan 2026 12:58:19 </pubDate></item></channel></rss>