<rss version="2.0"><channel><title>Aviation Weather METAR Data for WADD</title><link>https://aviationweather.gov/api/data/metar?ids=WADD&amp;hours=24</link><description>Latest METAR data for WADD</description><item><title>2025-03-06 07:42:43Z</title><link>https://aviationweather.gov/api/data/metar?ids=WADD&amp;hours=24</link><description>WADD 060730Z 14012KT 9999 FEW017 32/27 Q1006 NOSIG
WADD 060700Z 15011KT 9999 FEW017 32/27 Q1006 NOSIG
WADD 060630Z 11010KT 9999 FEW017 32/27 Q1006 NOSIG
WADD 060600Z 10009KT 9999 FEW017 32/27 Q1007 NOSIG
WADD 060530Z 11008KT 9999 FEW017 32/27 Q1007 NOSIG
WADD 060500Z 12008KT 9999 FEW017 32/27 Q1008 NOSIG
WADD 060430Z 11011KT 9999 FEW017 31/27 Q1008 NOSIG
WADD 060400Z 10012KT 9999 FEW017 31/27 Q1009 NOSIG
WADD 060330Z 11012KT 9999 FEW017 30/27 Q1009 NOSIG
WADD 060300Z 11014KT 9999 FEW017 30/27 Q1009 NOSIG
WADD 060230Z 10013KT 9999 FEW017 30/27 Q1010 NOSIG
WADD 060200Z 11011KT 9999 FEW017 30/27 Q1010 NOSIG
WADD 060130Z 10012KT 9999 SCT016 30/28 Q1010 NOSIG
WADD 060100Z 10013KT 9999 SCT016 29/27 Q1010 NOSIG
WADD 060030Z 10009KT 9999 SCT016 29/28 Q1010 NOSIG
WADD 060000Z 11007KT 9999 SCT016 29/28 Q1010 NOSIG
WADD 052330Z 09005KT 9999 FEW017 29/28 Q1009 NOSIG
WADD 052300Z 10003KT 9999 FEW017 28/28 Q1009 NOSIG
WADD 052230Z 09003KT 9999 FEW017 27/27 Q1009 NOSIG
WADD 052200Z 08004KT 9999 FEW017 27/27 Q1009 NOSIG
WADD 052130Z 09004KT 9999 FEW017 27/27 Q1009 NOSIG
WADD 052100Z 07004KT 9999 FEW017 27/27 Q1008 NOSIG
WADD 052030Z 08005KT 9999 FEW017 27/27 Q1008 NOSIG
WADD 052000Z 10003KT 9999 FEW017 27/27 Q1008 NOSIG
WADD 051930Z 10004KT 9999 FEW017 28/28 Q1008 NOSIG
WADD 051900Z 12005KT 9999 FEW017 28/28 Q1008 NOSIG
WADD 051830Z 13006KT 9999 FEW017 29/28 Q1008 NOSIG
WADD 051800Z 11005KT 9999 FEW017 28/28 Q1008 NOSIG
WADD 051730Z 12005KT 9999 FEW017 29/28 Q1008 NOSIG
WADD 051700Z 10006KT 9999 FEW017 28/28 Q1008 NOSIG
WADD 051630Z 11006KT 9999 FEW017 29/28 Q1009 NOSIG
WADD 051600Z 12008KT 9999 FEW017 29/28 Q1009 NOSIG
WADD 051530Z 13010KT 9999 FEW017 29/28 Q1009 NOSIG
WADD 051500Z 12007KT 9999 FEW017 29/28 Q1009 NOSIG
WADD 051430Z 12008KT 9999 FEW017 29/28 Q1009 NOSIG
WADD 051400Z 11006KT 070V130 9999 FEW017 29/28 Q1009 NOSIG
WADD 051330Z 11007KT 9999 FEW017 28/28 Q1009 NOSIG
WADD 051300Z 11006KT 9999 FEW017 28/28 Q1008 NOSIG
WADD 051230Z 11008KT 9999 FEW017 29/28 Q1008 NOSIG
WADD 051200Z 09008KT 9999 FEW017 28/28 Q1008 NOSIG
WADD 051130Z 12009KT 9999 FEW017 29/28 Q1007 NOSIG
WADD 051100Z 13009KT 9999 FEW017 30/29 Q1007 NOSIG
WADD 051030Z 13010KT 9999 FEW017 30/28 Q1007 NOSIG
WADD 051000Z 13010KT 9999 FEW017 31/28 Q1007 NOSIG
WADD 050930Z 11010KT 9999 FEW017 31/28 Q1006 NOSIG
WADD 050900Z 11011KT 9999 FEW017 31/27 Q1006 NOSIG
WADD 050830Z 11011KT 9999 FEW017 32/27 Q1006 NOSIG
WADD 050800Z 11010KT 9999 FEW017 32/28 Q1006 NOSIG</description><pubDate>Thu, 06 Mar 2025 07:42:43 </pubDate></item></channel></rss>