<rss version="2.0"><channel><title>Aviation Weather METAR Data for WADD</title><link>https://aviationweather.gov/api/data/metar?ids=WADD&amp;hours=24</link><description>Latest METAR data for WADD</description><item><title>2025-04-19 14:41:20Z</title><link>https://aviationweather.gov/api/data/metar?ids=WADD&amp;hours=24</link><description>WADD 191430Z 11003KT 9999 SCT017 28/26 Q1009 NOSIG
WADD 191400Z VRB02KT 9999 SCT017 29/26 Q1009
WADD 191330Z VRB02KT 9999 SCT017 29/26 Q1009 NOSIG
WADD 191300Z VRB01KT 9999 FEW016CB SCT017 29/25 Q1009 NOSIG
WADD 191230Z VRB02KT 9999 FEW016CB SCT017 29/25 Q1009 NOSIG
WADD 191200Z VRB02KT 9999 FEW016CB SCT017 29/25 Q1009 NOSIG
WADD 191130Z VRB02KT 9999 SCT017 29/25 Q1008 NOSIG
WADD 191100Z 22003KT 9999 SCT017 29/26 Q1008 NOSIG
WADD 191030Z 22004KT 180V260 9999 SCT017 29/26 Q1007 NOSIG
WADD 191000Z 23005KT 190V270 9999 SCT017 30/26 Q1007 NOSIG
WADD 190930Z 26008KT 9999 SCT017 29/26 Q1007 NOSIG
WADD 190900Z 26008KT 9999 FEW017 30/26 Q1007 NOSIG
WADD 190830Z 27010KT 9999 FEW017 30/26 Q1007 NOSIG
WADD 190800Z 26009KT 9999 FEW017 30/26 Q1006 NOSIG
WADD 190730Z 27008KT 220V290 9999 FEW017 31/26 Q1006 NOSIG
WADD 190700Z 26007KT 9999 FEW017 30/26 Q1006 NOSIG
WADD 190630Z 26008KT 220V300 9999 FEW017 31/26 Q1007 NOSIG
WADD 190600Z 26008KT 9999 FEW017 30/26 Q1007 NOSIG
WADD 190530Z 26009KT 9999 FEW017 30/25 Q1007 NOSIG
WADD 190500Z 28010KT 9999 FEW017 30/26 Q1008 NOSIG
WADD 190430Z 25007KT 210V290 9999 FEW017 31/26 Q1008 NOSIG
WADD 190400Z 26007KT 9999 FEW017 30/26 Q1008 NOSIG
WADD 190330Z 28007KT 9999 FEW017 30/26 Q1008 NOSIG
WADD 190300Z 31007KT 9999 FEW017 30/27 Q1009 NOSIG
WADD 190230Z 31008KT 9999 SCT017 29/26 Q1009 NOSIG
WADD 190200Z 29007KT 9999 FEW017 30/27 Q1009 NOSIG
WADD 190130Z 29007KT 260V330 9999 FEW017 29/26 Q1009 NOSIG
WADD 190100Z 31007KT 9999 FEW017 29/26 Q1009 NOSIG
WADD 190030Z 30008KT 9999 FEW017 29/26 Q1009
WADD 190000Z 30005KT 280V340 9999 FEW017 28/26 Q1008 NOSIG
WADD 182330Z 33004KT 280V020 9999 FEW017 27/25 Q1008 NOSIG
WADD 182300Z 02003KT 9999 FEW017 26/25 Q1008 NOSIG
WADD 182230Z 28003KT 9999 FEW016 26/25 Q1008 NOSIG
WADD 182200Z 26004KT 9999 SCT016 26/25 Q1007 NOSIG
WADD 182130Z VRB01KT 9999 SCT016 26/25 Q1007 NOSIG
WADD 182100Z VRB01KT 9999 SCT016 26/25 Q1007 NOSIG
WADD 182030Z VRB01KT 9999 SCT016 26/25 Q1007 NOSIG
WADD 182000Z VRB01KT 9999 SCT016 26/25 Q1007 NOSIG
WADD 181930Z 33003KT 9999 SCT016 26/25 Q1008 NOSIG
WADD 181900Z 01003KT 9999 SCT016 26/25 Q1008 NOSIG
WADD 181830Z 02003KT 9999 SCT016 26/25 Q1008 NOSIG
WADD 181800Z 01004KT 310V050 9999 SCT016 26/25 Q1008 NOSIG
WADD 181730Z 01004KT 310V030 9999 SCT016 26/25 Q1008 RERA NOSIG
WADD 181700Z VRB04KT 7000 -RA BKN016 26/25 Q1009 TEMPO TL1800 7000 -RA
WADD 181630Z 10004KT 070V140 6000 -RA FEW015CB BKN016 26/25 Q1009 TEMPO TL1800 6000 -RA
WADD 181600Z 24003KT 6000 -RA FEW015CB BKN016 27/26 Q1009 RETS TEMPO TL1730 6000 -RA
WADD 181530Z 26008KT 5000 -TSRA FEW014CB BKN015 28/26 Q1009 TEMPO TL1700 5000 -TSRA
WADD 181500Z 28012KT 9999 TS FEW014CB SCT015 28/26 Q1009 TEMPO TL1630 TS</description><pubDate>Sat, 19 Apr 2025 14:41:20 </pubDate></item></channel></rss>