<rss version="2.0"><channel><title>Aviation Weather METAR Data for WADD</title><link>https://aviationweather.gov/api/data/metar?ids=WADD&amp;hours=24</link><description>Latest METAR data for WADD</description><item><title>2025-02-19 22:40:46Z</title><link>https://aviationweather.gov/api/data/metar?ids=WADD&amp;hours=24</link><description>WADD 192230Z VRB02KT 9999 FEW015CB SCT016 25/25 Q1010 NOSIG
WADD 192200Z 31004KT 9999 FEW015CB SCT016 26/25 Q1010 NOSIG
WADD 192130Z 31006KT 9999 FEW015CB SCT016 26/25 Q1010 NOSIG
WADD 192100Z 26004KT 9999 FEW015CB SCT016 25/24 Q1009 RERA NOSIG
WADD 192030Z 28004KT 260V020 7000 -RA FEW014CB BKN015 25/24 Q1009 TEMPO TL2130 -RA
WADD 192000Z 36004KT 310V080 5000 -RA FEW015CB BKN016 27/25 Q1009 TEMPO TL2100 RA
WADD 191930Z 02002KT 9999 SCT016 26/25 Q1009 NOSIG
WADD 191900Z VRB01KT 9999 SCT016 26/26 Q1009 NOSIG
WADD 191830Z VRB01KT 9999 SCT016 26/25 Q1009 NOSIG
WADD 191800Z VRB01KT 9999 SCT016 26/25 Q1009 RERA NOSIG
WADD 191730Z 12006KT 5000 -RA SCT016 27/25 Q1010 TEMPO TL1830 RA
WADD 191700Z VRB03KT 9999 FEW017 28/25 Q1010 NOSIG
WADD 191630Z 32004KT 240V360 9999 FEW017 28/25 Q1010 NOSIG
WADD 191600Z VRB02KT 9999 FEW017 27/24 Q1011 NOSIG
WADD 191530Z 27003KT 9999 FEW017 27/25 Q1011 NOSIG
WADD 191500Z 26003KT 9999 FEW015CB SCT016 27/24 Q1011 NOSIG
WADD 191430Z 21010KT 9999 FEW015CB SCT016 27/26 Q1011 NOSIG RMK CB IN APCH
WADD 191400Z 09004KT 9999 FEW015CB SCT016 28/27 Q1010 NOSIG RMK CB IN APCH
WADD 191330Z 09005KT 9999 FEW015CB SCT016 28/27 Q1010 NOSIG RMK CB IN APCH
WADD 191300Z 09005KT 9999 FEW015CB SCT016 27/26 Q1010 NOSIG RMK CB IN APCH
WADD 191230Z 08003KT 9999 FEW015CB SCT016 28/27 Q1010 NOSIG RMK CB IN APCH
WADD 191200Z 09003KT 9999 FEW015CB SCT016 28/27 Q1009 CB IN APCH NOSIG
WADD 191130Z 07003KT 9999 BKN016 28/27 Q1009 NOSIG
WADD 191100Z 09003KT 9999 SCT016 28/27 Q1008 NOSIG
WADD 191030Z 08004KT 9999 BKN016 28/27 Q1008 NOSIG
WADD 191000Z 09005KT 9999 SCT016 28/27 Q1008 NOSIG
WADD 190930Z 05006KT 9999 FEW015CB BKN016 28/27 Q1008 NOSIG
WADD 190900Z 06006KT 020V090 9999 FEW015CB BKN016 28/25 Q1008 RETS NOSIG
WADD 190830Z 27004KT 240V320 9999 TS FEW015CB BKN016 29/26 Q1008 TEMPO TL0930 TS RMK CB IN APCH
WADD 190800Z 27008KT 9999 TS FEW015CB BKN016 30/26 Q1007 TEMPO TL0900 TS RMK CB IN APCH
WADD 190730Z 27011KT 9999 FEW015CB BKN016 30/26 Q1007 NOSIG
WADD 190700Z 26010KT 9999 FEW015CB SCT016 31/26 Q1007 NOSIG
WADD 190630Z 26009KT 9999 FEW015CB SCT016 31/25 Q1007 NOSIG
WADD 190600Z 25009KT 9999 SCT016 31/26 Q1007 NOSIG
WADD 190530Z 10006KT 060V140 9999 SCT017 31/27 Q1007 NOSIG
WADD 190500Z 17004KT 090V230 9999 SCT017 30/26 Q1008 NOSIG
WADD 190430Z 25006KT 9999 SCT017 30/26 Q1009 NOSIG
WADD 190400Z 26005KT 210V300 9999 SCT017 30/25 Q1010 NOSIG
WADD 190330Z 26005KT 9999 SCT017 31/27 Q1010 NOSIG
WADD 190300Z 28006KT 250V320 9999 FEW016CB SCT017 30/27 Q1011 NOSIG
WADD 190230Z 28004KT 250V330 9999 SCT017 29/27 Q1011 NOSIG
WADD 190200Z 30004KT 240V330 9999 SCT017 29/27 Q1011 NOSIG
WADD 190130Z 29004KT 260V330 9999 FEW017 29/27 Q1011 NOSIG
WADD 190100Z 34003KT 9999 FEW017 29/27 Q1011 NOSIG
WADD 190030Z 34004KT 9999 FEW017 28/27 Q1011 NOSIG
WADD 190000Z 06003KT 9999 FEW017 28/27 Q1011 NOSIG
WADD 182330Z 09003KT 9999 FEW017 27/26 Q1011 NOSIG
WADD 182300Z 09004KT 9999 SCT016 26/26 Q1010 NOSIG</description><pubDate>Wed, 19 Feb 2025 22:40:46 </pubDate></item></channel></rss>