<rss version="2.0"><channel><title>Aviation Weather METAR Data for WADD</title><link>https://aviationweather.gov/api/data/metar?ids=WADD&amp;hours=24</link><description>Latest METAR data for WADD</description><item><title>2025-07-11 09:46:20Z</title><link>https://aviationweather.gov/api/data/metar?ids=WADD&amp;hours=24</link><description>WADD 110930Z 13015KT 9999 SCT016 27/23 Q1008 NOSIG
WADD 110900Z 12016KT 9999 SCT016 27/23 Q1008 NOSIG
WADD 110830Z 12016KT 9999 BKN016 27/23 Q1008 NOSIG
WADD 110800Z 13016KT 9999 BKN016 27/23 Q1008 NOSIG
WADD 110730Z 12014KT 9999 BKN016 27/23 Q1008 NOSIG
WADD 110700Z 12016KT 9999 BKN016 27/23 Q1008 NOSIG
WADD 110630Z 12015KT 9999 BKN016 28/23 Q1008 NOSIG
WADD 110600Z 13016KT 9999 BKN016 28/23 Q1008 NOSIG
WADD 110530Z 12017KT 9999 SCT016 28/23 Q1008 NOSIG
WADD 110500Z 12015KT 9999 BKN016 28/22 Q1009 NOSIG
WADD 110430Z 11015KT 9999 BKN016 28/22 Q1009 NOSIG
WADD 110400Z 12015KT 9999 BKN016 28/22 Q1009 NOSIG
WADD 110330Z 12014KT 9999 BKN016 28/23 Q1010 NOSIG
WADD 110300Z 12014KT 9999 SCT017 28/22 Q1010 NOSIG
WADD 110230Z 12014KT 9999 SCT017 27/22 Q1010 NOSIG
WADD 110200Z 12014KT 9999 SCT017 28/23 Q1011 NOSIG
WADD 110130Z 13013KT 9999 SCT017 27/22 Q1011 NOSIG
WADD 110100Z 12012KT 9999 SCT016 27/22 Q1011 NOSIG
WADD 110030Z 13012KT 9999 SCT016 26/22 Q1010 NOSIG
WADD 110000Z 13010KT 9999 BKN016 26/22 Q1010 NOSIG
WADD 102330Z 13007KT 9999 BKN016 26/21 Q1010 NOSIG
WADD 102300Z 13008KT 9999 BKN016 26/21 Q1010 NOSIG
WADD 102230Z 13008KT 9999 BKN016 26/22 Q1010 NOSIG
WADD 102200Z 13008KT 9999 SCT016 26/22 Q1009 NOSIG
WADD 102130Z 13009KT 9999 SCT016 26/22 Q1009 NOSIG
WADD 102100Z 13008KT 9999 SCT016 26/22 Q1009 NOSIG
WADD 102030Z 14010KT 9999 SCT016 26/22 Q1009 NOSIG
WADD 102000Z 14009KT 9999 SCT016 26/22 Q1009 NOSIG
WADD 101930Z 12009KT 9999 SCT016 26/22 Q1010 NOSIG
WADD 101900Z 13009KT 9999 SCT016 26/22 Q1010 NOSIG
WADD 101830Z 13009KT 9999 BKN016 26/22 Q1010 NOSIG
WADD 101800Z 13009KT 9999 BKN016 26/22 Q1010 NOSIG
WADD 101730Z 13008KT 9999 BKN016 26/22 Q1010 NOSIG
WADD 101700Z 13009KT 9999 BKN016 26/22 Q1010 NOSIG
WADD 101630Z 13011KT 9999 BKN016 26/22 Q1011 NOSIG
WADD 101600Z 13009KT 9999 BKN016 26/22 Q1011 NOSIG
WADD 101530Z 12010KT 9999 BKN016 26/22 Q1011 NOSIG
WADD 101500Z 12010KT 9999 BKN016 26/22 Q1011 NOSIG
WADD 101430Z 12009KT 9999 BKN016 26/22 Q1011 NOSIG
WADD 101400Z 13010KT 9999 BKN016 26/22 Q1011 NOSIG
WADD 101330Z 13010KT 9999 SCT016 26/22 Q1011 NOSIG
WADD 101300Z 13009KT 9999 SCT016 26/22 Q1011 NOSIG
WADD 101230Z 13010KT 9999 FEW017 26/22 Q1010 NOSIG
WADD 101200Z 13009KT 9999 FEW017 26/22 Q1010 NOSIG
WADD 101130Z 13008KT 9999 FEW017 26/22 Q1010 NOSIG
WADD 101100Z 13009KT 9999 FEW017 26/22 Q1010 NOSIG
WADD 101030Z 13011KT 9999 FEW017 26/22 Q1009 NOSIG
WADD 101000Z 13013KT 9999 FEW017 26/22 Q1009 NOSIG</description><pubDate>Fri, 11 Jul 2025 09:46:20 </pubDate></item></channel></rss>