<rss version="2.0"><channel><title>Aviation Weather METAR Data for WADD</title><link>https://aviationweather.gov/api/data/metar?ids=WADD&amp;hours=24</link><description>Latest METAR data for WADD</description><item><title>2025-09-14 22:22:38Z</title><link>https://aviationweather.gov/api/data/metar?ids=WADD&amp;hours=24</link><description>METAR WADD 142200Z 13010KT 9999 SCT016 26/25 Q1012 NOSIG
METAR WADD 142130Z 13010KT 9999 FEW017 26/25 Q1012 NOSIG
 WADD 142100Z 14009KT 9999 FEW017 26/25 Q1011 NOSIG
 WADD 142030Z 13008KT 9999 FEW017 26/25 Q1011 NOSIG
METAR WADD 142000Z 13009KT 9999 FEW017 26/25 Q1011 NOSIG
 WADD 141930Z 13009KT 9999 FEW022 27/25 Q1011 NOSIG
METAR WADD 141900Z 13010KT 9999 +DZ FEW017 27/25 Q1011 NOSIG
 WADD 141830Z 13008KT 9999 SCT016 26/25 Q1011 NOSIG
METAR WADD 141800Z 14009KT 9999 FEW016 26/25 Q1011 NOSIG
METAR WADD 141730Z 13006KT 9999 SCT016 26/25 Q1012 NOSIG
METAR WADD 141700Z 14007KT 9999 FEW016 26/25 Q1012 NOSIG
METAR WADD 141630Z 15006KT 9999 SCT016 26/25 Q1012 NOSIG
 WADD 141600Z 14004KT 9999 FEW015CB SCT016 26/25 Q1013 NOSIG
 WADD 141530Z 14003KT 9999 SCT016 26/25 Q1013 NOSIG
 WADD 141500Z 14006KT 9999 SCT016 26/25 Q1013 NOSIG
 WADD 141430Z 12005KT 9999 SCT016 26/25 Q1013 NOSIG
METAR WADD 141400Z 13005KT 9999 SCT016 26/25 Q1013 NOSIG
METAR WADD 141330Z 14010KT 9999 FEW015CB SCT016 26/25 Q1013 RERA NOSIG
METAR WADD 141300Z 15009KT 9999 FEW015CB BKN015 27/25 Q1013 NOSIG
METAR WADD 141230Z 14007KT 9999 SCT016 27/25 Q1012 NOSIG
METAR WADD 141200Z 13008KT 9999 SCT016 27/25 Q1012 NOSIG
METAR WADD 141130Z 13009KT 9999 SCT017 27/25 Q1012 NOSIG
METAR WADD 141100Z 13009KT 9999 SCT017 27/25 Q1011 NOSIG
METAR WADD 141030Z 13011KT 9999 SCT017 27/25 Q1011 NOSIG
METAR WADD 141000Z 14011KT 9999 SCT017 27/25 Q1011 NOSIG
METAR WADD 140930Z 14015KT 9999 SCT017 28/25 Q1010 NOSIG
METAR WADD 140900Z 14016KT 9999 SCT017 28/25 Q1010 NOSIG
METAR WADD 140830Z 14017KT 9999 SCT017 28/25 Q1010 NOSIG
METAR WADD 140800Z 14018KT 9999 SCT017 29/25 Q1009 NOSIG
METAR WADD 140730Z 16020KT 9999 FEW017 29/25 Q1009 NOSIG
METAR WADD 140700Z 15019KT 9999 FEW017 29/24 Q1009 NOSIG
METAR WADD 140630Z 14016KT 9999 FEW017 29/24 Q1010 NOSIG
METAR WADD 140600Z 14014KT 9999 FEW017 30/25 Q1010 NOSIG
METAR WADD 140530Z 14013KT 9999 FEW017 30/25 Q1011 NOSIG
METAR WADD 140500Z 13011KT 9999 FEW017 30/25 Q1011 NOSIG
METAR WADD 140430Z 12013KT 9999 SCT017 30/25 Q1012 NOSIG
METAR WADD 140400Z 12017KT 9999 SCT016 29/25 Q1012 NOSIG
METAR WADD 140330Z 12013KT 9999 SCT016 29/26 Q1012 NOSIG
METAR WADD 140300Z 14012KT 9999 SCT016 28/26 Q1013 NOSIG
METAR WADD 140230Z 13010KT 9999 SCT016 28/26 Q1013 NOSIG
METAR WADD 140200Z 11011KT 9999 SCT016 29/25 Q1013 NOSIG
METAR WADD 140130Z 11011KT 9999 SCT016 29/26 Q1014 NOSIG
METAR WADD 140100Z 11009KT 9999 SCT016 28/26 Q1014 NOSIG
METAR WADD 140030Z 12012KT 9999 BKN016 27/25 Q1014 NOSIG
METAR WADD 140000Z 12010KT 9999 SCT016 27/25 Q1013 NOSIG
METAR WADD 132330Z 12011KT 9999 SCT016 27/25 Q1013 NOSIG
METAR WADD 132300Z 12008KT 9999 SCT016 27/25 Q1013 NOSIG
METAR WADD 132230Z 13006KT 9999 SCT016 26/25 Q1012 NOSIG</description><pubDate>Sun, 14 Sep 2025 22:22:38 </pubDate></item></channel></rss>