<rss version="2.0"><channel><title>Aviation Weather METAR Data for WADD</title><link>https://aviationweather.gov/api/data/metar?ids=WADD&amp;hours=24</link><description>Latest METAR data for WADD</description><item><title>2026-04-15 08:00:35Z</title><link>https://aviationweather.gov/api/data/metar?ids=WADD&amp;hours=24</link><description>METAR WADD 150730Z 12015KT 9999 FEW017 31/25 Q1007 NOSIG
METAR WADD 150700Z 12015KT 9999 FEW017 31/25 Q1007 NOSIG
METAR WADD 150630Z 14018KT 9999 FEW017 31/26 Q1008 NOSIG
METAR WADD 150600Z 13016KT 9999 FEW017 31/25 Q1008 NOSIG
METAR WADD 150530Z 12016KT 9999 FEW017 31/25 Q1008 NOSIG
METAR WADD 150500Z 13014KT 9999 FEW017 31/25 Q1009 NOSIG
METAR WADD 150430Z 13016KT 9999 FEW017 31/25 Q1009 NOSIG
METAR WADD 150400Z 14016KT 9999 FEW017 30/26 Q1009 NOSIG
METAR WADD 150330Z 14012KT 9999 FEW015CB SCT016 29/26 Q1010 NOSIG
SPECI WADD 150308Z 15017KT 9999 FEW015CB SCT015 29/26 Q1010 RERA NOSIG
SPECI WADD 150305Z 13012KT FEW003 SCT014 BKN024 OVC090 29/26 Q1010
METAR WADD 150300Z 13012G22KT 8000 -RA FEW015CB SCT015 29/26 Q1011 NO SIG
METAR WADD 150230Z 15013KT 9999 FEW015CB SCT016 31/26 Q1011 NOSIG
METAR WADD 150200Z 13009KT 9999 FEW015CB SCT016 30/25 Q1011 NOSIG
METAR WADD 150130Z 15013KT 9999 FEW015CB SCT016 30/25 Q1011 NOSIG
METAR WADD 150100Z 18003KT 9999 FEW015CB FEW017 30/25 Q1011 NOSIG
METAR WADD 150030Z 18002KT 9999 FEW018 30/24 Q1011 NOSIG
METAR WADD 150000Z VRB02KT 9999 FEW018 28/24 Q1010 NOSIG
METAR WADD 142330Z VRB02KT 9999 FEW017 27/24 Q1010 NOSIG
METAR WADD 142300Z 36004KT 9999 FEW017 26/23 Q1010 NOSIG
METAR WADD 142230Z VRB01KT 9999 FEW017 26/24 Q1010 NOSIG
METAR WADD 142200Z 03003KT 9999 FEW017 26/24 Q1010 NOSIG
METAR WADD 142130Z 14004KT 9999 SCT016 27/24 Q1010 NOSIG
METAR WADD 142100Z 19003KT 9999 FEW015CB SCT016 26/24 Q1010 NOSIG
METAR WADD 142030Z VRB02KT 6000 FEW015CB SCT016 27/24 Q1010 NOSIG RMK CB IN APCH
METAR WADD 142000Z 31003KT 6000 FEW015CB SCT016 26/24 Q1009 NOSIG RMK CB IN CLIMB-OUT
METAR WADD 141930Z VRB02KT 6000 FEW015CB SCT016 27/24 Q1009 RERA NOSIG RMK CB IN APCH AND CLIMB-OUT
METAR WADD 141900Z 09005KT 060V130 4000 -RA FEW016CB SCT016 27/24 Q1009 TEMPO TL2000 4000 RA RMK CB IN APCH AND CLIMB-OUT
SPECI WADD 141851Z 07006KT 3000 RA FEW015CB SCT016 27/24 Q1010 TEMPO TL2000 3000 RA RMK CB IN APCH AND CLIMB-OUT
METAR WADD 141830Z 07006KT 8000 FEW016CB SCT017 27/24 Q1010 NOSIG RMK CB IN CLIMB-OUT
METAR WADD 141800Z 07010KT 8000 FEW016CB SCT017 27/24 Q1010 NOSIG RMK CB IN CLIMB-OUT
METAR WADD 141730Z 12010KT 8000 FEW016CB SCT017 29/26 Q1010 NOSIG RMK CB IN CLIMB-OUT
METAR WADD 141700Z 11008KT 9999 FEW017 28/25 Q1011 NOSIG
METAR WADD 141630Z 12010KT 9999 FEW017 29/25 Q1011 NOSIG
METAR WADD 141600Z 12010KT 9999 FEW017 29/25 Q1011 NOSIG
METAR WADD 141530Z 12011KT 9999 FEW017 29/25 Q1011 NOSIG
METAR WADD 141500Z 13011KT 9999 FEW017 29/25 Q1011 NOSIG
METAR WADD 141430Z 13011KT 9999 FEW017 29/25 Q1011 NOSIG
METAR WADD 141400Z 13011KT 9999 FEW017 29/26 Q1011 NOSIG
METAR WADD 141330Z 12010KT 9999 FEW017 29/25 Q1011 NOSIG
METAR WADD 141300Z 12013KT 9999 FEW017 29/25 Q1011 NOSIG
METAR WADD 141230Z 12013KT 9999 FEW017 29/25 Q1010 NOSIG
METAR WADD 141200Z 12014KT 9999 FEW017 29/25 Q1010 NOSIG
METAR WADD 141130Z 12012KT 9999 FEW017 29/25 Q1010 NOSIG</description><pubDate>Wed, 15 Apr 2026 08:00:35 </pubDate></item></channel></rss>