<rss version="2.0"><channel><title>Aviation Weather METAR Data for WADD</title><link>https://aviationweather.gov/api/data/metar?ids=WADD&amp;hours=24</link><description>Latest METAR data for WADD</description><item><title>2024-12-31 12:44:43Z</title><link>https://aviationweather.gov/api/data/metar?ids=WADD&amp;hours=24</link><description>WADD 311230Z 22004KT 170V260 7000 -RA FEW014CB BKN014 25/25 Q1009 RETS TEMPO TL1330 7000 -RA
WADD 311200Z 35005KT 250V030 6000 -TSRA FEW014CB BKN014 26/26 Q1008 NOSIG TEMPO TL1300 6000 -TSRA RMK CB IN CLIMB-OUT
WADD 311130Z 02007KT 340V070 6000 -TSRA FEW015CB BKN016 26/26 Q1008 TEMPO TL1230 6000 -TSRA
WADD 311100Z VRB02KT 7000 -TSRA FEW015CB BKN016 29/26 Q1007 TEMPO TL1200 7000 -TSRA
WADD 311030Z 22003KT 9999 TS FEW015CB SCT016 29/26 Q1007 TEMPO TL1130 TS
WADD 311000Z 21003KT 9999 FEW015CB SCT016 29/26 Q1007 NOSIG
WADD 310930Z 22005KT 170V280 9999 FEW015CB SCT016 30/26 Q1007 NOSIG
WADD 310900Z 24006KT 210V270 9999 SCT016 30/27 Q1006 NOSIG
WADD 310830Z 25007KT 9999 SCT016 30/26 Q1006 NOSIG
WADD 310800Z 26007KT 220V280 9999 SCT016 30/26 Q1006 NOSIG
WADD 310730Z 25006KT 200V280 9999 SCT016 30/26 Q1006 NOSIG
WADD 310700Z 25007KT 210V270 9999 SCT016 31/26 Q1006 NOSIG
WADD 310630Z 25007KT 9999 SCT016 30/25 Q1007 NOSIG
WADD 310600Z 26004KT 230V290 9999 SCT016 30/26 Q1007 NOSIG
WADD 310530Z 28008KT 9999 SCT016 30/25 Q1007 NOSIG
WADD 310500Z 26007KT 220V300 9999 SCT016 31/25 Q1008 NOSIG
WADD 310430Z 24006KT 190V260 9999 SCT017 31/25 Q1008 NOSIG
WADD 310400Z 25007KT 9999 SCT017 30/27 Q1008 NOSIG
WADD 310330Z VRB06KT 9999 FEW017 31/27 Q1008 NOSIG
WADD 310300Z 10006KT 080V140 9999 FEW017 30/26 Q1009 NOSIG
WADD 310230Z 09006KT 060V140 9999 FEW017 30/26 Q1009 NOSIG
WADD 310200Z 10006KT 080V140 9999 FEW017 30/26 Q1009 NOSIG
WADD 310130Z 13004KT 090V160 9999 FEW017 30/26 Q1009 NOSIG
WADD 310100Z 11004KT 080V150 9999 FEW017 29/25 Q1009 NOSIG
WADD 310030Z VRB02KT 9999 FEW017 29/25 Q1009 NOSIG
WADD 310000Z 30005KT 280V350 9999 FEW017 28/26 Q1009 NOSIG
WADD 302330Z 32005KT 9999 FEW017 28/26 Q1008 NOSIG
WADD 302300Z VRB02KT 9999 FEW017 27/25 Q1008 NOSIG
WADD 302230Z VRB01KT 9999 FEW017 27/25 Q1008 NOSIG
WADD 302200Z 07004KT 9999 FEW017 27/25 Q1007 NOSIG
WADD 302130Z VRB01KT 9999 SCT014 26/25 Q1007 NOSIG
WADD 302100Z 04003KT 9999 SCT016 27/25 Q1007 NOSIG
WADD 302030Z 08003KT 9999 SCT016 27/26 Q1007 NOSIG
WADD 302000Z VRB02KT 9999 SCT016 26/25 Q1007 NOSIG
WADD 301930Z VRB02KT 9999 SCT016 26/25 Q1007 NOSIG
WADD 301900Z VRB01KT 9999 SCT016 27/25 Q1008 NOSIG
WADD 301830Z VRB02KT 9999 SCT016 27/25 Q1008 NOSIG
WADD 301800Z 33004KT 280V340 9999 SCT016 27/25 Q1008 NOSIG
WADD 301730Z 34003KT 9999 SCT016 28/25 Q1008 NOSIG
WADD 301700Z 03003KT 9999 SCT016 28/25 Q1009 NOSIG
WADD 301630Z 09004KT 060V140 9999 SCT016 28/26 Q1009 NOSIG
WADD 301600Z VRB01KT 9999 SCT016 27/26 Q1009 NOSIG
WADD 301530Z VRB02KT 9999 SCT016 27/26 Q1009 NOSIG
WADD 301500Z 23002KT 9999 SCT016 27/26 Q1009 NOSIG
WADD 301430Z 26004KT 9999 SCT016 27/26 Q1010 NOSIG
WADD 301400Z 25003KT 9999 SCT016 28/26 Q1010 NOSIG
WADD 301330Z 32005KT 270V350 9999 SCT016 28/26 Q1009 NOSIG
WADD 301300Z 04003KT 9999 FEW015CB SCT016 28/25 Q1009 NOSIG RMK CB IN CLIMB-OUT</description><pubDate>Tue, 31 Dec 2024 12:44:43 </pubDate></item></channel></rss>