<rss version="2.0"><channel><title>Aviation Weather METAR Data for WADD</title><link>https://aviationweather.gov/api/data/metar?ids=WADD&amp;hours=24</link><description>Latest METAR data for WADD</description><item><title>2025-01-02 05:41:12Z</title><link>https://aviationweather.gov/api/data/metar?ids=WADD&amp;hours=24</link><description>WADD 020530Z VRB02KT 8000 -RA FEW015CB BKN016 27/26 Q1009 TEMPO TL0630 -RA
WADD 020500Z VRB02KT 9999 FEW015CB BKN016 27/26 Q1009 RERA NOSIG
WADD 020430Z VRB01KT 7000 -RA FEW015CB BKN016 26/25 Q1010 TEMPO TL0530 -RA
WADD 020400Z 35003KT 7000 -RA FEW014CB BKN015 26/25 Q1010 TEMPO TL0500 -RA
WADD 020330Z VRB02KT 7000 -RA FEW015CB BKN016 26/25 Q1010 TEMPO TL0430 -RA
WADD 020300Z 17003KT 4000 RA FEW014CB BKN015 26/25 Q1010 TEMPO TL0400 4000 RA
WADD 020230Z 33004KT 290V020 8000 -RA FEW015CB BKN016 26/25 Q1011 TEMPO TL0330 -RA
WADD 020200Z 33005KT 290V360 8000 -RA FEW015CB BKN016 26/25 Q1010 TEMPO TL0300 -RA
WADD 020130Z 34005KT 8000 -RA BKN016 26/25 Q1011 TEMPO TL0230 -RA
WADD 020100Z 28008KT 8000 -RA BKN016 27/25 Q1010 TEMPO TL0200 -RA
WADD 020030Z 28009KT 9999 SCT016 27/24 Q1010 NOSIG
WADD 020000Z 28009KT 9999 SCT016 26/24 Q1010 NOSIG
WADD 012330Z 29011KT 9999 SCT016 26/24 Q1009 NOSIG
WADD 012300Z 29012KT 9999 SCT016 25/24 Q1009 NOSIG
WADD 012230Z 29013KT 9999 BKN016 25/24 Q1009 RERA NOSIG
WADD 012200Z 27012KT 8000 -RA FEW015CB BKN016 25/24 Q1009 TEMPO TL2300 -RA
WADD 012130Z 27017KT 6000 -RA FEW015CB BKN016 24/24 Q1009 TEMPO TL2230 6000 -RA
WADD 012100Z 25014KT 6000 -RA FEW015CB BKN016 25/24 Q1009 TEMPO TL2200 6000 -RA
WADD 012030Z 25014KT 6000 -RA FEW015CB BKN016 24/24 Q1009 TEMPO TL2130 6000 -RA
WADD 012000Z 26013G24KT 6000 -RA FEW015CB BKN016 24/24 Q1009 TEMPO TL2100 6000 -RA
WADD 011930Z 26015KT 6000 -RA FEW015CB BKN016 24/24 Q1009 TEMPO TL2030 6000 -RA
WADD 011900Z 27016KT 6000 -RA FEW015CB BKN016 25/24 Q1009 TEMPO TL2000 6000 -RA
WADD 011830Z 13002KT 9999 FEW015CB BKN016 25/24 Q1008 RERA NOSIG
WADD 011800Z VRB02KT 8000 -RA BKN016 25/23 Q1008 TEMPO TL1900 -RA
WADD 011730Z 22005KT 180V250 6000 -RA FEW015CB BKN016 25/23 Q1009 TEMPO TL1830 6000 -RA
WADD 011700Z VRB03KT 6000 -RA FEW015CB BKN016 24/23 Q1009 TEMPO TL1800 6000 -RA
WADD 011630Z VRB05KT 8000 -RA FEW015CB BKN016 25/23 Q1009 TEMPO TL1730 -RA
WADD 011600Z 20004KT 140V240 9999 FEW015CB BKN016 26/23 Q1010 NOSIG
WADD 011530Z 06004KT 9999 FEW015CB BKN016 27/25 Q1010 NOSIG
WADD 011500Z 36003KT 9999 FEW015CB BKN016 28/25 Q1010 NOSIG
WADD 011430Z 34004KT 290V010 9999 BKN016 28/25 Q1010 NOSIG
WADD 011400Z VRB02KT 9999 BKN016 27/25 Q1009 NOSIG
WADD 011330Z 34004KT 300V020 9999 SCT016 28/25 Q1009 NOSIG
WADD 011300Z 34004KT 300V020 9999 SCT016 28/25 Q1009 NOSIG
WADD 011230Z 34005KT 300V020 9999 SCT016 28/25 Q1009 NOSIG
WADD 011200Z 33004KT 300V360 9999 SCT016 28/26 Q1008 NOSIG
WADD 011130Z 33004KT 300V020 9999 SCT016 28/26 Q1008 NOSIG
WADD 011100Z 33005KT 290V360 9999 SCT016 28/26 Q1007 NOSIG
WADD 011030Z 32004KT 280V350 9999 SCT016 28/26 Q1007 NOSIG
WADD 011000Z 30005KT 280V340 9999 SCT016 28/26 Q1007 NOSIG
WADD 010930Z 27004KT 220V300 9999 SCT016 28/26 Q1007 NOSIG
WADD 010900Z 30006KT 9999 SCT016 28/25 Q1006 NOSIG
WADD 010830Z 31005KT 280V350 9999 BKN016 28/25 Q1006 NOSIG
WADD 010800Z 29004KT 250V320 9999 SCT016 28/25 Q1006 NOSIG
WADD 010730Z 31005KT 270V350 9999 SCT016 28/26 Q1006 NOSIG
WADD 010700Z 31004KT 230V050 9999 SCT016 28/26 Q1006 NOSIG
WADD 010630Z 30003KT 9999 BKN016 28/26 Q1007 NOSIG
WADD 010600Z VRB02KT 9999 BKN016 28/26 Q1007 NOSIG</description><pubDate>Thu, 02 Jan 2025 05:41:12 </pubDate></item></channel></rss>