<rss version="2.0"><channel><title>Aviation Weather METAR Data for WADD</title><link>https://aviationweather.gov/api/data/metar?ids=WADD&amp;hours=24</link><description>Latest METAR data for WADD</description><item><title>2025-08-16 20:27:33Z</title><link>https://aviationweather.gov/api/data/metar?ids=WADD&amp;hours=24</link><description>WADD 162000Z 10006KT 9999 SCT016 26/24 Q1011 NOSIG
WADD 161930Z 10007KT 9999 SCT016 25/24 Q1011 NOSIG
WADD 161900Z 09007KT 9999 FEW017 25/24 Q1011 NOSIG
WADD 161830Z 12010KT 9999 FEW017 26/24 Q1010 NOSIG
WADD 161800Z 12009KT 9999 SCT016 26/24 Q1011 NOSIG
WADD 161730Z 12010KT 9999 SCT016 26/24 Q1011 NOSIG
WADD 161700Z 12008KT 9999 FEW017 26/24 Q1011 NOSIG
WADD 161630Z 13008KT 9999 FEW017 26/24 Q1012 NOSIG
WADD 161600Z 12009KT 9999 FEW017 26/24 Q1011 NOSIG
WADD 161530Z 11007KT 9999 FEW017 26/24 Q1011 NOSIG
WADD 161500Z 10007KT 9999 FEW017 25/24 Q1012 NOSIG
WADD 161430Z 10009KT 9999 FEW017 26/24 Q1012 NOSIG
WADD 161400Z 09008KT 9999 FEW017 26/24 Q1012 NOSIG
WADD 161330Z 10007KT 9999 FEW017 26/24 Q1011 NOSIG
WADD 161300Z 11009KT 9999 FEW017 26/24 Q1011 NOSIG
WADD 161230Z 12010KT 9999 FEW017 26/23 Q1011 NOSIG
WADD 161200Z 12011KT 9999 FEW017 26/23 Q1010 NOSIG
WADD 161130Z 12011KT 9999 FEW017 26/24 Q1010 NOSIG
WADD 161100Z 12011KT 9999 FEW017 26/23 Q1010 NOSIG
WADD 161030Z 12013KT 9999 SCT017 27/24 Q1009 NOSIG
WADD 161000Z 13015KT 9999 FEW017 27/23 Q1009 NOSIG
WADD 160930Z 12015KT 9999 FEW017 27/23 Q1009 NOSIG
WADD 160900Z 12016KT 9999 FEW017 28/24 Q1008 NOSIG
WADD 160830Z 13020KT 9999 FEW017 28/23 Q1008 NOSIG
WADD 160800Z 12020KT 9999 FEW017 28/24 Q1008 NOSIG
WADD 160730Z 13018KT 9999 FEW017 28/24 Q1009 NOSIG
WADD 160700Z 12019KT 9999 FEW017 28/23 Q1009 NOSIG
WADD 160630Z 12020KT 9999 FEW017 28/24 Q1009 NOSIG
WADD 160600Z 12019KT 9999 FEW017 28/24 Q1009 NOSIG
WADD 160530Z 12017KT 9999 SCT015 29/24 Q1009 NOSIG
WADD 160500Z 11017KT 9999 SCT015 29/24 Q1010 NOSIG
WADD 160430Z 11018KT 9999 SCT015 28/24 Q1010 NOSIG
WADD 160400Z 10018KT 9999 SCT015 29/24 Q1011 NOSIG
WADD 160330Z 12017KT 9999 SCT015 28/24 Q1011 NOSIG
WADD 160300Z 11017KT 9999 SCT015 28/24 Q1012 NOSIG
WADD 160230Z 11017KT 9999 SCT015 28/24 Q1012 NOSIG
WADD 160200Z 12017KT 9999 SCT015 27/24 Q1012 NOSIG
WADD 160130Z 13016KT 9999 SCT015 28/24 Q1012 NOSIG
WADD 160100Z 12015KT 9999 SCT015 27/24 Q1012 NOSIG
WADD 160030Z 12014KT 9999 SCT016 27/24 Q1012 NOSIG
WADD 160000Z 12011KT 9999 SCT016 27/23 Q1012 NOSIG
WADD 152330Z 13012KT 9999 SCT017 26/23 Q1011 NOSIG
WADD 152300Z 12012KT 9999 SCT017 26/23 Q1011 NOSIG
WADD 152230Z 12012KT 9999 SCT016 26/23 Q1011 NOSIG
WADD 152200Z 12012KT 9999 SCT016 26/23 Q1011 NOSIG
WADD 152130Z 13012KT 9999 SCT016 26/23 Q1011 NOSIG
WADD 152100Z 13012KT 9999 SCT016 26/23 Q1011 NOSIG
WADD 152030Z 13012KT 9999 SCT016 26/23 Q1011 NOSIG</description><pubDate>Sat, 16 Aug 2025 20:27:33 </pubDate></item></channel></rss>