<rss version="2.0"><channel><title>Aviation Weather METAR Data for WADD</title><link>https://aviationweather.gov/api/data/metar?ids=WADD&amp;hours=24</link><description>Latest METAR data for WADD</description><item><title>2026-01-24 23:43:55Z</title><link>https://aviationweather.gov/api/data/metar?ids=WADD&amp;hours=24</link><description>METAR WADD 242330Z 03004KT 350V130 9999 FEW017 27/26 Q1010 NOSIG
METAR WADD 242300Z 01003KT 9999 FEW017 27/25 Q1010 NOSIG
METAR WADD 242230Z 02004KT 9999 FEW017 27/25 Q1009 NOSIG
METAR WADD 242200Z 06002KT 9999 FEW017 26/25 Q1009 NOSIG
METAR WADD 242130Z VRB02KT 9999 FEW017 26/25 Q1009 NOSIG
METAR WADD 242100Z 03003KT 9999 FEW017 27/25 Q1009 NOSIG
METAR WADD 242030Z 01004KT 9999 FEW017 27/25 Q1008 NOSIG
METAR WADD 242000Z 02006KT 9999 FEW017 27/26 Q1008 NOSIG
METAR WADD 241930Z VRB02KT 9999 FEW017 27/26 Q1008 NOSIG
METAR WADD 241900Z 34001KT 9999 FEW017 27/26 Q1008 NOSIG
METAR WADD 241830Z 02002KT 9999 FEW017 28/26 Q1008 NOSIG
METAR WADD 241800Z 01002KT 9999 FEW017 28/26 Q1008 NOSIG
METAR WADD 241730Z 36004KT 340V060 9999 FEW017 28/26 Q1009 NOSIG
METAR WADD 241700Z 36006KT 340V040 9999 FEW017 28/26 Q1009 NOSIG
METAR WADD 241630Z 06003KT 9999 FEW017 28/26 Q1009 NOSIG
METAR WADD 241600Z 08003KT 9999 FEW017 28/26 Q1009 NOSIG
METAR WADD 241530Z 06003KT 9999 FEW017 28/26 Q1010 NOSIG
METAR WADD 241500Z 09005KT 9999 FEW017 28/26 Q1010 NOSIG
METAR WADD 241430Z 09005KT 9999 FEW017 29/26 Q1010 NOSIG
METAR WADD 241400Z 12007KT 9999 FEW017 29/26 Q1010 NOSIG
METAR WADD 241330Z 12007KT 9999 FEW017 29/26 Q1010 NOSIG
METAR WADD 241300Z 13009KT 9999 FEW017 30/26 Q1010 NOSIG
METAR WADD 241230Z 11008KT 9999 FEW017 30/26 Q1010 NOSIG
METAR WADD 241200Z 11008KT 9999 FEW017 30/26 Q1009 NOSIG
METAR WADD 241130Z 09008KT 9999 FEW017 30/25 Q1009 NOSIG
METAR WADD 241100Z 11006KT 090V170 8000 FEW017 30/25 Q1008 NOSIG
METAR WADD 241030Z 16006KT 070V210 9999 FEW017 30/24 Q1008 NOSIG
METAR WADD 241000Z 26009KT 9999 FEW017 32/24 Q1007 NOSIG
METAR WADD 240930Z 28010KT 9999 FEW017 32/24 Q1007 NOSIG
METAR WADD 240900Z 29013KT 9999 FEW017 32/24 Q1007 NOSIG
METAR WADD 240830Z 29012KT 9999 FEW017 33/23 Q1007 NOSIG
METAR WADD 240800Z 30009KT 260V320 9999 FEW017 33/24 Q1007 NOSIG
METAR WADD 240730Z 27010KT 230V320 9999 FEW017 33/23 Q1007 NOSIG
METAR WADD 240700Z 24009KT 190V260 9999 FEW017 32/26 Q1008 NOSIG
METAR WADD 240630Z 25010KT 9999 FEW017 31/25 Q1008 NOSIG
METAR WADD 240600Z 26011KT 9999 FEW017 31/25 Q1008 NOSIG
METAR WADD 240530Z 30009KT 270V330 9999 FEW017 33/23 Q1008 NOSIG
METAR WADD 240500Z VRB05KT 9999 FEW017 33/24 Q1008 NOSIG
METAR WADD 240430Z 26014KT 9999 SCT016 31/26 Q1007 NOSIG
METAR WADD 240400Z 30011KT 270V340 9999 FEW017 34/23 Q1008 NOSIG
METAR WADD 240330Z 26005KT 220V320 9999 FEW017 32/24 Q1009 NOSIG
METAR WADD 240300Z 31009KT 280V340 9999 FEW017 32/23 Q1009 NOSIG
METAR WADD 240230Z 31010KT 9999 FEW017 33/23 Q1009 NOSIG
METAR WADD 240200Z 31011KT 9999 FEW017 32/22 Q1009 NOSIG
METAR WADD 240130Z 31009KT 9999 FEW017 32/22 Q1010 NOSIG
METAR WADD 240100Z 30005KT 270V350 9999 FEW017 31/22 Q1010 NOSIG
METAR WADD 240030Z 32006KT 290V360 9999 FEW017 30/21 Q1010 NOSIG
METAR WADD 240000Z 33007KT 300V010 9999 FEW017 30/22 Q1009 NOSIG</description><pubDate>Sat, 24 Jan 2026 23:43:55 </pubDate></item></channel></rss>