<rss version="2.0"><channel><title>Aviation Weather METAR Data for WADD</title><link>https://aviationweather.gov/api/data/metar?ids=WADD&amp;hours=24</link><description>Latest METAR data for WADD</description><item><title>2025-01-29 05:40:27Z</title><link>https://aviationweather.gov/api/data/metar?ids=WADD&amp;hours=24</link><description>WADD 290530Z 25008KT 220V290 9999 FEW016CB FEW017 31/26 Q1007 NOSIG
WADD 290500Z 25007KT 210V280 9999 FEW016CB FEW017 30/26 Q1008 NOSIG
WADD 290430Z 25006KT 220V280 9999 FEW017 30/26 Q1008 NOSIG
WADD 290400Z 24007KT 210V270 9999 FEW017 30/27 Q1008 NOSIG
WADD 290330Z 25007KT 220V290 9999 FEW017 30/27 Q1009 NOSIG
WADD 290300Z 25007KT 220V290 9999 FEW017 30/27 Q1009 NOSIG
WADD 290230Z 27008KT 9999 FEW017 30/27 Q1009 NOSIG
WADD 290200Z 29007KT 250V320 9999 FEW017 30/27 Q1009 NOSIG
WADD 290130Z 30006KT 9999 SCT017 29/26 Q1009 NOSIG
WADD 290100Z 31004KT 250V360 9999 SCT017 29/26 Q1009 NOSIG
WADD 290030Z 29004KT 9999 SCT017 29/26 Q1009 NOSIG
WADD 290000Z 34004KT 310V040 9999 FEW017 28/25 Q1009 NOSIG
WADD 282330Z 01004KT 310V050 9999 FEW017 27/25 Q1008 NOSIG
WADD 282300Z 01003KT 9999 FEW017 27/26 Q1008 NOSIG
WADD 282230Z 01004KT 9999 FEW017 26/26 Q1008 NOSIG
WADD 282200Z 28005KT 9999 SCT016 27/26 Q1007 NOSIG
WADD 282130Z 26006KT 9999 BKN016 27/26 Q1007 NOSIG
WADD 282100Z 26006KT 9999 SCT017 27/26 Q1007 NOSIG
WADD 282030Z 27007KT 9999 SCT017 27/26 Q1007 NOSIG
WADD 282000Z 27008KT 9999 SCT017 27/26 Q1007 NOSIG
WADD 281930Z 26005KT 9999 SCT017 27/26 Q1008 NOSIG
WADD 281900Z 26007KT 9999 SCT017 27/25 Q1008 NOSIG
WADD 281830Z 25006KT 210V280 9999 FEW017 27/26 Q1008 NOSIG
WADD 281800Z 27004KT 220V320 9999 FEW017 28/26 Q1008 NOSIG
WADD 281730Z 36004KT 300V030 9999 FEW017 27/26 Q1008 NOSIG
WADD 281700Z 31005KT 9999 FEW017 28/26 Q1009 NOSIG
WADD 281630Z 30007KT 9999 FEW017 28/26 Q1009 NOSIG
WADD 281600Z 30007KT 9999 FEW017 28/26 Q1010 NOSIG
WADD 281530Z 31006KT 9999 SCT017 28/26 Q1010 NOSIG
WADD 281500Z 28010KT 9999 SCT017 29/25 Q1010 NOSIG
WADD 281430Z 27009KT 9999 SCT016 29/25 Q1010 NOSIG
WADD 281400Z 27009KT 9999 SCT016 28/26 Q1009 NOSIG
WADD 281330Z 26008KT 9999 SCT016 29/26 Q1009 NOSIG
WADD 281300Z 26007KT 9999 SCT016 29/26 Q1009 NOSIG
WADD 281230Z VRB01KT 9999 FEW017 28/26 Q1008 NOSIG
WADD 281200Z VRB01KT 9999 FEW016 28/25 Q1008 NOSIG
WADD 281130Z VRB02KT 9999 FEW016 28/25 Q1008 NOSIG
WADD 281100Z 22003KT 9999 FEW015CB FEW016 28/25 Q1007 NOSIG
WADD 281030Z 25006KT 9999 FEW015CB SCT016 28/24 Q1007 NOSIG
WADD 281000Z 06004KT 020V090 9999 FEW015CB SCT016 28/26 Q1007 NOSIG RMK CB IN APCH
WADD 280930Z 05003KT 9999 FEW015CB SCT016 29/25 Q1006 NOSIG
WADD 280900Z 03004KT 320V050 9999 FEW015CB SCT016 28/25 Q1006 NOSIG
WADD 280830Z 02007KT 320V060 9999 FEW015CB SCT015 29/25 Q1006 RETS NOSIG
WADD 280800Z 29005KT 250V330 9999 TS FEW015CB BKN015 29/26 Q1006 NOSIG
WADD 280730Z 26006KT 9999 TS FEW015CB SCT015 30/26 Q1006 NOSIG
WADD 280700Z 26005KT 190V300 9999 SCT015 30/26 Q1006 NOSIG
WADD 280630Z VRB04KT 9999 SCT015 30/26 Q1007 NOSIG
WADD 280600Z 24006KT 200V270 9999 SCT016 30/26 Q1007 NOSIG</description><pubDate>Wed, 29 Jan 2025 05:40:27 </pubDate></item></channel></rss>