<rss version="2.0"><channel><title>Aviation Weather METAR Data for WADD</title><link>https://aviationweather.gov/api/data/metar?ids=WADD&amp;hours=24</link><description>Latest METAR data for WADD</description><item><title>2025-08-13 21:43:30Z</title><link>https://aviationweather.gov/api/data/metar?ids=WADD&amp;hours=24</link><description>WADD 132130Z 14008KT 9999 SCT017 25/22 Q1013 NOSIG
WADD 132100Z 13007KT 9999 SCT016 25/22 Q1013 NOSIG
WADD 132030Z 13007KT 9999 SCT017 25/22 Q1013 NOSIG
WADD 132000Z 13008KT 9999 SCT017 25/22 Q1013 NOSIG
WADD 131930Z 13011KT 9999 SCT016 26/22 Q1013 NOSIG
WADD 131900Z 13009KT 9999 SCT016 26/22 Q1013 NOSIG
WADD 131800Z 12009KT 9999 SCT016 26/23 Q1013 NOSIG
WADD 131700Z 12012KT 9999 FEW017 26/22 Q1013 NOSIG
WADD 131630Z 12012KT 9999 SCT016 26/22 Q1013 NOSIG
WADD 131600Z 13012KT 9999 SCT016 26/22 Q1014 NOSIG
WADD 131530Z 13012KT 9999 SCT016 26/22 Q1014 NOSIG
WADD 131500Z 12013KT 9999 SCT016 26/22 Q1014 NOSIG
WADD 131430Z 12012KT 9999 SCT016 26/22 Q1014 NOSIG
WADD 131400Z 12012KT 9999 SCT016 26/22 Q1014 NOSIG
WADD 131330Z 12010KT 9999 FEW016 26/23 Q1013 NOSIG
WADD 131300Z 12009KT 9999 FEW017 26/23 Q1013 NOSIG
WADD 131230Z 10008KT 9999 FEW017 26/23 Q1013 NOSIG
WADD 131200Z 11008KT 9999 FEW017 26/23 Q1013 NOSIG
WADD 131130Z 11009KT 9999 FEW017 26/23 Q1012 NOSIG
WADD 131100Z 11009KT 9999 FEW017 26/23 Q1012 NOSIG
WADD 131030Z 11010KT 9999 FEW017 26/23 Q1011 NOSIG
WADD 131000Z 12013KT 9999 FEW017 27/23 Q1011 NOSIG
WADD 130930Z 11012KT 9999 FEW017 27/23 Q1011
WADD 130900Z 11015KT 9999 FEW017 27/23 Q1010 NOSIG
WADD 130830Z 11016KT 9999 FEW017 28/23 Q1010 NOSIG
WADD 130800Z 12017KT 9999 FEW017 28/23 Q1010 NOSIG
WADD 130730Z 11017KT 9999 FEW017 28/23 Q1010 NOSIG
WADD 130700Z 13018KT 9999 FEW017 28/23 Q1011 NOSIG
WADD 130630Z 13018KT 9999 FEW017 28/23 Q1011 NOSIG
WADD 130600Z 13017KT 9999 FEW017 28/23 Q1011 NOSIG
WADD 130530Z 13016KT 9999 FEW017 28/23 Q1012 NOSIG
WADD 130500Z 11016KT 9999 FEW017 28/23 Q1012 NOSIG
WADD 130430Z 12015KT 9999 FEW017 28/23 Q1013 NOSIG
WADD 130400Z 12014KT 9999 FEW017 28/23 Q1013 NOSIG
WADD 130330Z 12015KT 9999 SCT017 28/23 Q1013 NOSIG
WADD 130300Z 12014KT 9999 SCT017 28/23 Q1014 NOSIG
WADD 130230Z 11012KT 9999 SCT017 28/23 Q1014 NOSIG
WADD 130200Z 09010KT 9999 SCT016 28/24 Q1014 NOSIG
WADD 130130Z 08007KT 050V120 9999 BKN016 27/24 Q1014 NOSIG
WADD 130100Z 13003KT 9999 BKN016 26/23 Q1014 NOSIG
WADD 130030Z 15002KT 9999 SCT017 26/23 Q1014 NOSIG
WADD 130000Z VRB02KT 9999 SCT017 25/22 Q1014 NOSIG
WADD 122330Z VRB02KT 9999 SCT017 25/22 Q1014 NOSIG
WADD 122300Z VRB01KT 9999 SCT017 24/22 Q1013 NOSIG
WADD 122230Z 03004KT 9999 SCT017 24/22 Q1013 NOSIG
WADD 122200Z 03003KT 9999 SCT017 24/22 Q1013 NOSIG</description><pubDate>Wed, 13 Aug 2025 21:43:30 </pubDate></item></channel></rss>