<rss version="2.0"><channel><title>Aviation Weather METAR Data for WADD</title><link>https://aviationweather.gov/api/data/metar?ids=WADD&amp;hours=24</link><description>Latest METAR data for WADD</description><item><title>2025-06-12 21:25:15Z</title><link>https://aviationweather.gov/api/data/metar?ids=WADD&amp;hours=24</link><description>WADD 122100Z 11012KT 9999 SCT017 27/26 Q1011 NOSIG
WADD 122030Z 11013KT 9999 SCT017 28/26 Q1011 NOSIG
WADD 122000Z 12013KT 9999 SCT017 28/26 Q1011 NOSIG
WADD 121930Z 12011KT 9999 SCT017 28/26 Q1011 NOSIG
WADD 121900Z 11011KT 9999 SCT017 28/26 Q1011 NOSIG
WADD 121830Z 11013KT 9999 SCT017 28/25 Q1011 NOSIG
WADD 121800Z 12012KT 9999 SCT017 28/25 Q1011 NOSIG
WADD 121730Z 12014KT 9999 SCT017 28/25 Q1011 NOSIG
WADD 121700Z 12017KT 9999 SCT017 28/25 Q1011 NOSIG
WADD 121630Z 12014KT 9999 SCT017 28/25 Q1011 NOSIG
WADD 121600Z 12015KT 9999 SCT017 28/25 Q1011 NOSIG
WADD 121530Z 13014KT 9999 SCT017 28/25 Q1011 NOSIG
WADD 121500Z 13017KT 9999 SCT017 28/25 Q1011 NOSIG
WADD 121430Z 14015KT 9999 BKN017 28/25 Q1011 NOSIG
WADD 121400Z 13017KT 9999 BKN017 28/25 Q1011 NOSIG
WADD 121330Z 13015KT 9999 BKN017 28/25 Q1011 NOSIG
WADD 121300Z 13015KT 9999 SCT017 28/25 Q1011 NOSIG
WADD 121230Z 13017KT 9999 SCT017 28/25 Q1010 NOSIG
WADD 121200Z 13016KT 9999 SCT017 28/25 Q1010 NOSIG
WADD 121130Z 13016KT 9999 FEW017 28/25 Q1010 NOSIG
WADD 121100Z 13014KT 9999 FEW017 28/25 Q1010 NOSIG
WADD 121030Z 13014KT 9999 FEW017 28/25 Q1010 NOSIG
WADD 121000Z 13017KT 9999 FEW017 28/25 Q1009 NOSIG
WADD 120930Z 12017KT 9999 FEW017 28/25 Q1009 NOSIG
WADD 120900Z 13016KT 9999 FEW017 28/25 Q1009 NOSIG
WADD 120830Z 13018KT 9999 FEW017 29/25 Q1009 NOSIG
WADD 120800Z 12018KT 9999 FEW017 29/25 Q1009 NOSIG
WADD 120730Z 12019KT 9999 FEW017 29/25 Q1009 NOSIG
WADD 120700Z 12017KT 9999 FEW017 30/25 Q1009 NOSIG
WADD 120630Z 11017KT 9999 FEW017 30/25 Q1009 NOSIG
WADD 120600Z 12017KT 9999 FEW017 29/25 Q1010 NOSIG
WADD 120530Z 12017KT 9999 FEW016 30/25 Q1010 NOSIG
WADD 120500Z 12017KT 9999 FEW016 30/25 Q1010 NOSIG
WADD 120430Z 12017KT 9999 FEW016 30/25 Q1011 NOSIG
WADD 120400Z 12017KT 9999 FEW017 30/25 Q1011 NOSIG
WADD 120330Z 12016KT 9999 FEW016 29/25 Q1011 NOSIG
WADD 120300Z 11016KT 9999 FEW016 30/25 Q1011 NOSIG
WADD 120230Z 11015KT 9999 SCT016 30/25 Q1011 NOSIG
WADD 120200Z 10012KT 9999 SCT016 30/25 Q1011 NOSIG
WADD 120130Z 10011KT 9999 FEW016 29/25 Q1011 NOSIG
WADD 120100Z 10007KT 060V130 9999 FEW016 29/25 Q1011 NOSIG
WADD 120030Z 06006KT 9999 SCT016 28/25 Q1011 NOSIG
WADD 120000Z 03004KT 9999 SCT016 27/24 Q1011 NOSIG
WADD 112330Z 04007KT 010V080 9999 FEW016 26/23 Q1011 NOSIG
WADD 112300Z 04004KT 9999 SCT016 25/23 Q1011 NOSIG
WADD 112230Z 01006KT 9999 SCT017 25/23 Q1010 NOSIG
WADD 112200Z 04003KT 9999 SCT017 25/23 Q1010 NOSIG
WADD 112130Z 10008KT 9999 SCT017 27/24 Q1010 NOSIG</description><pubDate>Thu, 12 Jun 2025 21:25:15 </pubDate></item></channel></rss>