<rss version="2.0"><channel><title>Aviation Weather METAR Data for WADD</title><link>https://aviationweather.gov/api/data/metar?ids=WADD&amp;hours=24</link><description>Latest METAR data for WADD</description><item><title>2026-02-21 18:49:25Z</title><link>https://aviationweather.gov/api/data/metar?ids=WADD&amp;hours=24</link><description>METAR WADD 211830Z 29012KT 9999 SCT016 28/25 Q1005 NOSIG
METAR WADD 211800Z 28013KT 9999 SCT016 28/25 Q1005 NOSIG
METAR WADD 211730Z 28015KT 9999 SCT016 28/25 Q1005 NOSIG
METAR WADD 211700Z 28014KT 9999 FEW015CB SCT016 27/25 Q1005 NOSIG
METAR WADD 211630Z 29014KT 9999 FEW015CB SCT016 28/25 Q1006 NOSIG
METAR WADD 211600Z 28012KT 9999 SCT016 27/24 Q1007 NOSIG
METAR WADD 211530Z 28016KT 8000 FEW015CB SCT016 28/25 Q1007 TREND TEMPO FM1535 4000 RA RMK CB IN CLIMB-OUT
METAR WADD 211500Z 26012KT 9999 SCT016 28/25 Q1006 NOSIG
METAR WADD 211430Z 26011KT 9999 SCT016 28/25 Q1006 NOSIG
METAR WADD 211400Z 26011KT 9999 FEW015CB SCT016 28/25 Q1007 NOSIG
METAR WADD 211330Z 26014KT 8000 FEW014CB SCT015 28/25 Q1006 NOSIG RMK CB IN APCH
SPECI WADD 211319Z 26014KT 6000 FEW014CB SCT015 27/26 Q1006 RERA NOSIG RMK CB IN APCH
METAR WADD 211300Z 26014KT 6000 FEW015CB SCT016 28/26 Q1006 TEMPO FM1305 4000 RA RMK CB IN CLIMB-OUT
METAR WADD 211230Z 25011KT 9999 FEW015CB SCT016 28/25 Q1006 NOSIG
METAR WADD 211200Z 24011G19KT 9999 FEW015CB SCT016 28/25 Q1006 NOSIG
METAR WADD 211130Z 26013KT 9999 FEW015CB SCT016 29/25 Q1005 NOSIG
METAR WADD 211100Z 26013KT 9999 FEW015CB SCT016 29/25 Q1005 NOSIG
METAR WADD 211030Z 26014KT 9999 FEW015CB SCT016 29/25 Q1005 NOSIG
METAR WADD 211000Z 26014KT 9999 FEW015CB FEW016 29/25 Q1005 NOSIG
METAR WADD 210930Z 26012KT 9999 FEW016 29/25 Q1004 NOSIG
METAR WADD 210900Z 26014KT 9999 FEW016 30/25 Q1004 NOSIG
METAR WADD 210830Z 26013KT 9999 SCT016 30/26 Q1004 NOSIG
METAR WADD 210800Z 25010KT 9999 SCT016 30/25 Q1004 NOSIG
METAR WADD 210730Z 26011KT 9999 SCT016 30/25 Q1005 NOSIG
METAR WADD 210700Z 26009KT 9999 SCT016 30/25 Q1005 NOSIG
METAR WADD 210630Z 26010KT 9999 SCT016 30/25 Q1005 NOSIG
METAR WADD 210600Z 27011KT 9999 SCT016 30/25 Q1005 NOSIG
METAR WADD 210530Z 30011KT 9999 FEW017 30/25 Q1006 NOSIG
METAR WADD 210500Z 29009KT 250V320 9999 FEW017 30/25 Q1006 NOSIG
METAR WADD 210430Z 28008KT 9999 FEW017 31/26 Q1006 NOSIG
METAR WADD 210400Z 28007KT 9999 FEW017 30/25 Q1007 NOSIG
METAR WADD 210330Z 27010KT 230V300 9999 FEW017 29/25 Q1007 NOSIG
METAR WADD 210300Z 27012KT 9999 FEW016 30/24 Q1007 NOSIG
METAR WADD 210230Z 27012KT 240V300 9999 FEW015CB SCT016 28/25 Q1007 N OSIG
METAR WADD 210200Z 29012KT 9999 FEW015CB SCT016 30/25 Q1008 NOSIG
METAR WADD 210130Z 29012KT 9999 FEW017 29/26 Q1008 NOSIG
METAR WADD 210100Z 28008KT 9999 FEW017 29/26 Q1008 NOSIG
METAR WADD 210030Z 28009KT 9999 FEW017 28/25 Q1007 NOSIG
METAR WADD 210000Z 30009KT 9999 FEW017 27/24 Q1007 NOSIG
METAR WADD 202330Z 30008KT 9999 SCT016 27/24 Q1007 NOSIG
METAR WADD 202300Z 30009KT 9999 BKN016 26/24 Q1007 NOSIG
METAR WADD 202230Z 32007KT 290V350 9999 FEW015CB BKN015 26/25 Q1007 R ERA NOSIG
METAR WADD 202200Z 29007KT 7000 -RA FEW015CB BKN015 26/25 Q1007 TEMPO TL2300 7000 -RA RMK CB IN APCH
METAR WADD 202130Z 28013KT 7000 -RA FEW015CB BKN015 26/25 Q1007 TEMPO TL2217 7000 -RA RMK CB IN APCH AND CLIMB-OUT
METAR WADD 202100Z 27015KT 9999 FEW015CB SCT016 28/25 Q1007 NOSIG RMK CB IN CLIMB-OUT
METAR WADD 202030Z COR 28007KT 9999 FEW015CB SCT016 27/25 Q1007 NOSIG
METAR WADD 202000Z 27006KT 9999 SCT016 27/25 Q1007 NOSIG
METAR WADD 201930Z 25002KT 9999 SCT016 27/26 Q1007 NOSIG
METAR WADD 201900Z 16002KT 9999 SCT016 27/26 Q1007 NOSIG</description><pubDate>Sat, 21 Feb 2026 18:49:25 </pubDate></item></channel></rss>