<rss version="2.0"><channel><title>Aviation Weather METAR Data for WADD</title><link>https://aviationweather.gov/api/data/metar?ids=WADD&amp;hours=24</link><description>Latest METAR data for WADD</description><item><title>2025-07-06 19:41:36Z</title><link>https://aviationweather.gov/api/data/metar?ids=WADD&amp;hours=24</link><description>WADD 061930Z 34002KT 9999 FEW015CB BKN016 23/23 Q1012 NOSIG
WADD 061900Z 17002KT 9999 FEW015CB BKN016 24/24 Q1012 NOSIG
WADD 061830Z 13004KT 9999 FEW015CB BKN016 24/24 Q1012 NOSIG
WADD 061800Z 13004KT 9999 FEW015CB BKN016 24/24 Q1012 NOSIG
WADD 061730Z 12006KT 9999 FEW015CB BKN016 24/24 Q1013 RETS NOSIG
WADD 061700Z 15010KT 9999 TS FEW015CB BKN016 24/24 Q1013 TEMPO TL1800 TS
WADD 061630Z 14005KT 9999 TS FEW015CB BKN016 24/24 Q1013 TEMPO TL1730 TS
WADD 061600Z 13002KT 9999 TS FEW015CB BKN016 24/24 Q1013 TEMPO TL1700 TS
WADD 061530Z VRB02KT 9999 FEW015CB BKN016 24/24 Q1013 NOSIG
WADD 061500Z 13005KT 9999 FEW015CB BKN016 24/24 Q1014 RERA NOSIG
WADD 061430Z 16003KT 8000 -RA FEW014CB BKN015 24/24 Q1014 TEMPO TL1530 -RA
WADD 061400Z 18009KT 6000 -RA FEW013CB BKN014 24/24 Q1013 TEMPO TL1500 6000 -RA
WADD 061330Z 14005KT 050V150 2000 +RA FEW013CB BKN014 23/23 Q1014 TEMPO TL1430 2000 RA RMK CB IN CLIMB-OUT
WADD 061300Z 33006KT 2000 +RA FEW013CB BKN014 23/23 Q1013 TEMPO TL1400 2000 +RA RMK CB IN APCH
WADD 061230Z 31011KT 300V010 2000 +RA FEW013CB BKN014 23/23 Q1013 RETS TEMPO TL1330 2000 +RA RMK CB IN APCH
WADD 061200Z 33012KT 2000 +TSRA FEW013CB BKN014 23/23 Q1013 TEMPO TL1300 2000 +TSRA RMK CB IN CLIMB-OUT
WADD 061130Z 32014KT 1000 +TSRA FEW013CB BKN014 24/23 Q1012 TEMPO TL1230 1000 +TSRA RMK CB IN APCH AND CLIMB-OUT
WADD 061100Z 33012KT 280V040 5000 TSRA FEW013CB BKN014 24/23 Q1012 CB IN CLIMB-OUT TEMPO TL1200 5000 TSRA
WADD 061030Z 13011KT 9999 FEW015CB BKN015 28/25 Q1011 NOSIG RMK CB IN APCH
WADD 061000Z 13014KT 9999 FEW015CB BKN015 28/26 Q1011 NOSIG
WADD 060930Z 13016KT 9999 FEW015CB BKN015 28/26 Q1010 NOSIG
WADD 060900Z 13018KT 9999 FEW015CB BKN015 28/26 Q1010 NOSIG
WADD 060830Z 14017KT 9999 FEW015CB BKN015 28/26 Q1010 NOSIG
WADD 060800Z 14020G28KT 9999 FEW015CB BKN015 28/26 Q1009 NOSIG
WADD 060730Z 14019KT 9999 FEW015CB BKN015 29/26 Q1009 NOSIG
WADD 060700Z 14019KT 9999 FEW015CB BKN015 29/26 Q1010 NOSIG
WADD 060630Z 13018KT 9999 FEW015CB BKN015 29/26 Q1010 NOSIG
WADD 060600Z 13017KT 9999 FEW015CB BKN015 29/26 Q1010 NOSIG
WADD 060530Z 13017KT 9999 FEW015CB BKN015 29/26 Q1011 NOSIG
WADD 060500Z 12018KT 9999 FEW015CB BKN015 29/26 Q1011 NOSIG
WADD 060430Z 12018KT 9999 FEW015CB BKN015 29/26 Q1011 NOSIG
WADD 060300Z 12018KT 9999 BKN016 29/26 Q1012 NOSIG
WADD 060230Z 11017KT 9999 BKN016 28/26 Q1012 NOSIG
WADD 060200Z 12018KT 9999 BKN015 28/26 Q1012 NOSIG
WADD 060130Z 13013KT 9999 BKN015 27/26 Q1012 RERA NOSIG
WADD 060100Z 12016KT 7000 -RA BKN015 27/26 Q1012 TEMPO TL0130 7000 -RA
WADD 060030Z 13018KT 9999 BKN015 28/25 Q1012 NOSIG
WADD 060000Z 12016KT 9999 BKN015 27/25 Q1012 NOSIG
WADD 052330Z 13014KT 9999 SCT016 27/25 Q1011 NOSIG
WADD 052300Z 13015KT 9999 SCT016 27/25 Q1011 NOSIG
WADD 052230Z 12014KT 9999 SCT016 27/25 Q1011 NOSIG
WADD 052200Z 12016KT 9999 SCT016 27/25 Q1010 NOSIG
WADD 052130Z 12016KT 9999 SCT016 27/25 Q1010 NOSIG
WADD 052100Z 12017KT 9999 SCT016 27/25 Q1010 NOSIG
WADD 052030Z 12016KT 9999 SCT016 27/25 Q1010 NOSIG
WADD 052000Z 12016KT 9999 SCT016 27/25 Q1010 NOSIG</description><pubDate>Sun, 06 Jul 2025 19:41:36 </pubDate></item></channel></rss>