<rss version="2.0"><channel><title>Aviation Weather METAR Data for WADD</title><link>https://aviationweather.gov/api/data/metar?ids=WADD&amp;hours=24</link><description>Latest METAR data for WADD</description><item><title>2026-01-07 20:52:45Z</title><link>https://aviationweather.gov/api/data/metar?ids=WADD&amp;hours=24</link><description>METAR WADD 072030Z 29010KT 8000 FEW015CB BKN016 28/25 Q1008 NOSIG
METAR WADD 072000Z 27013KT 9999 SCT016 28/25 Q1008 NOSIG
METAR WADD 071930Z 26012KT 9999 SCT016 28/24 Q1007 NOSIG
METAR WADD 071900Z 26010KT 9999 SCT016 28/25 Q1007 NOSIG
METAR WADD 071830Z 26010KT 9999 SCT016 28/25 Q1007 NOSIG
METAR WADD 071800Z 27012KT 9999 SCT016 28/25 Q1008 NOSIG
METAR WADD 071730Z 27010KT 9999 SCT016 28/25 Q1008 NOSIG
METAR WADD 071700Z 26006KT 9999 SCT017 28/26 Q1008 NOSIG
METAR WADD 071630Z 26009KT 9999 SCT016 28/26 Q1009 RERA NOSIG
METAR WADD 071600Z 33009G18KT 5000 -RA FEW014CB BKN015 27/25 Q1009 TE MPO TL1630 5000 -RA RMK CB IN APCH
METAR WADD 071530Z 27026G37KT 1000 +RA FEW014CB BKN015 27/24 Q1009 TEMPO TL1400 1000 RA RMK CB IN APCH AND CLIMB-OUT
METAR WADD 071500Z 27010KT 9999 SCT017 29/25 Q1009 NOSIG
METAR WADD 071430Z 27011KT 9999 FEW017 29/25 Q1010 NOSIG
METAR WADD 071400Z 27009KT 9999 FEW017 29/25 Q1009 NOSIG
METAR WADD 071330Z 26009KT 9999 FEW017 29/25 Q1009 NOSIG
METAR WADD 071300Z 27010KT 9999 FEW017 28/24 Q1009 NOSIG
METAR WADD 071230Z 26008KT 9999 FEW015CB SCT016 29/25 Q1009 NOSIG RMK CB IN CLIMB-OUT
METAR WADD 071200Z 26011KT 9999 FEW017 29/25 Q1009 NOSIG
METAR WADD 071130Z 26010KT 9999 SCT016 29/25 Q1009 NOSIG
METAR WADD 071100Z 26010KT 9999 SCT016 29/25 Q1009 NOSIG
METAR WADD 071030Z 26011KT 9999 SCT016 29/25 Q1008 NOSIG
METAR WADD 071000Z 25010KT 9999 SCT016 29/25 Q1008 NOSIG
METAR WADD 070930Z 25011KT 9999 SCT016 30/25 Q1008 NOSIG
METAR WADD 070900Z 26013KT 9999 SCT017 30/25 Q1007 NOSIG
METAR WADD 070830Z 26012KT 9999 SCT017 31/26 Q1007 NOSIG
METAR WADD 070800Z 26013KT 9999 SCT017 31/26 Q1007 NOSIG
METAR WADD 070730Z 26014KT 9999 SCT017 31/26 Q1007 NOSIG
METAR WADD 070700Z 26013KT 9999 SCT017 31/25 Q1007 NOSIG
METAR WADD 070630Z 26015KT 9999 SCT017 31/26 Q1008 NOSIG
METAR WADD 070600Z 26011KT 9999 SCT017 30/25 Q1008 NOSIG
METAR WADD 070530Z 26013KT 9999 SCT017 30/25 Q1008 NOSIG
METAR WADD 070500Z 26013KT 9999 SCT017 31/26 Q1009 NOSIG
METAR WADD 070430Z 26013KT 9999 SCT017 31/26 Q1009 NOSIG
METAR WADD 070400Z 26013KT 9999 SCT017 31/26 Q1009 NOSIG
METAR WADD 070330Z 26014KT 9999 SCT017 30/25 Q1010 NOSIG
METAR WADD 070300Z 26013KT 9999 SCT017 30/25 Q1010 NOSIG
METAR WADD 070230Z 26013KT 9999 SCT017 31/25 Q1010 NOSIG
METAR WADD 070200Z 26012KT 9999 SCT016 30/25 Q1010 NOSIG
METAR WADD 070130Z 26012KT 9999 BKN015 29/25 Q1011 NOSIG
METAR WADD 070100Z 27012KT 9999 BKN014 29/25 Q1010 NOSIG
METAR WADD 070030Z 30006KT 9999 FEW016 29/25 Q1010 NOSIG
METAR WADD 070000Z 26011KT 9999 FEW014CB BKN014 29/25 Q1010 NOSIG
METAR WADD 062330Z 26011KT 9999 FEW014CB BKN014 29/24 Q1010 NOSIG
METAR WADD 062300Z 27009KT 230V320 9999 FEW014CB BKN014 28/24 Q1010 N OSIG
METAR WADD 062230Z 26011KT 9999 FEW014CB BKN014 28/25 Q1009 NOSIG
METAR WADD 062200Z 26011KT 9999 FEW014CB BKN014 28/24 Q1009 NOSIG
METAR WADD 062130Z 26009KT 9999 FEW015CB BKN015 28/24 Q1009 NOSIG
METAR WADD 062100Z 26011KT 9999 FEW015CB BKN015 28/25 Q1009 NOSIG</description><pubDate>Wed, 07 Jan 2026 20:52:45 </pubDate></item></channel></rss>