<rss version="2.0"><channel><title>Aviation Weather METAR Data for WADD</title><link>https://aviationweather.gov/api/data/metar?ids=WADD&amp;hours=24</link><description>Latest METAR data for WADD</description><item><title>2026-06-30 09:55:32Z</title><link>https://aviationweather.gov/api/data/metar?ids=WADD&amp;hours=24</link><description>METAR WADD 300930Z 15009KT 9999 FEW017 28/22 Q1010 NOSIG
METAR WADD 300900Z 14008KT 9999 FEW017 28/22 Q1010 NOSIG
METAR WADD 300830Z 13008KT 9999 FEW017 29/22 Q1010 NOSIG
METAR WADD 300800Z 15008KT 9999 FEW017 29/22 Q1010 NOSIG
METAR WADD 300730Z 11007KT 9999 FEW017 29/21 Q1010 NOSIG
METAR WADD 300700Z 12008KT 080V150 9999 FEW017 29/21 Q1010 NOSIG
METAR WADD 300630Z 14009KT 100V160 9999 FEW017 29/20 Q1010 NOSIG
METAR WADD 300600Z COR 13008KT 9999 FEW017 29/22 Q1011 NOSIG
METAR WADD 300530Z 10009KT 9999 FEW017 29/21 Q1011 NOSIG
METAR WADD 300500Z 11009KT 9999 FEW017 29/21 Q1012 NOSIG?
METAR WADD 300430Z 11009KT 9999 FEW017 29/21 Q1012 NOSIG
METAR WADD 300400Z 10007KT 060V150 9999 FEW017 30/22 Q1012 NOSIG
METAR WADD 300330Z 12007KT 090V160 9999 FEW017 29/22 Q1013 NOSIG
METAR WADD 300300Z 10006KT 060V140 9999 FEW017 29/22 Q1013 NOSIG
METAR WADD 300230Z 10007KT 060V140 9999 FEW017 29/21 Q1013 NOSIG
METAR WADD 300200Z VRB02KT 9999 FEW017 29/22 Q1013 NOSIG
METAR WADD 300130Z VRB02KT 9999 FEW017 28/22 Q1013 NOSIG
METAR WADD 300100Z 21003KT 9999 FEW017 27/21 Q1013 NOSIG
METAR WADD 300030Z 19002KT 9999 FEW017 27/22 Q1013 NOSIG
METAR WADD 300000Z VRB01KT 9999 FEW017 27/21 Q1012 NOSIG
METAR WADD 292330Z VRB02KT 9999 FEW017 24/20 Q1012 NOSIG
METAR WADD 292300Z VRB02KT 9999 FEW017 22/19 Q1012 NOSIG
METAR WADD 292230Z VRB02KT 9999 FEW017 22/19 Q1012 NOSIG
METAR WADD 292200Z VRB02KT 9999 FEW017 22/19 Q1012 NOSIG
METAR WADD 292130Z 04003KT 9999 FEW017 22/20 Q1012 NOSIG
METAR WADD 292100Z VRB02KT 9999 FEW017 22/20 Q1012 NOSIG
METAR WADD 292030Z 03004KT 9999 FEW017 23/20 Q1012 NOSIG
METAR WADD 292000Z 02002KT 9999 FEW017 23/20 Q1012 NOSIG
METAR WADD 291930Z 01004KT 9999 FEW017 24/21 Q1012 NOSIG
METAR WADD 291900Z 01003KT 9999 FEW017 23/21 Q1012 NOSIG
METAR WADD 291830Z 04003KT 9999 FEW017 23/21 Q1012 NOSIG
METAR WADD 291800Z 13002KT 9999 FEW017 24/21 Q1012 NOSIG
METAR WADD 291730Z 14003KT 9999 FEW017 25/22 Q1012 NOSIG
METAR WADD 291700Z 16004KT 9999 FEW017 25/22 Q1012 NOSIG
METAR WADD 291630Z 13003KT 9999 FEW017 25/21 Q1013 NOSIG
METAR WADD 291600Z 14004KT 9999 FEW017 25/21 Q1013 NOSIG
METAR WADD 291530Z 15003KT 9999 FEW017 25/22 Q1013 NOSIG
METAR WADD 291500Z 14003KT 9999 FEW017 25/21 Q1013 NOSIG
METAR WADD 291430Z 14003KT 9999 FEW017 25/21 Q1013 NOSIG
METAR WADD 291400Z 12004KT 9999 FEW017 25/21 Q1013 NOSIG
METAR WADD 291330Z 12004KT 9999 FEW017 25/21 Q1013 NOSIG
METAR WADD 291300Z 13004KT 9999 FEW017 25/21 Q1012 NOSIG
METAR WADD 291230Z 13006KT 9999 FEW017 26/21 Q1012 NOSIG
METAR WADD 291200Z 14007KT 9999 FEW017 26/21 Q1012 NOSIG
METAR WADD 291130Z 14007KT 9999 FEW017 26/21 Q1011 NOSIG
METAR WADD 291100Z 13006KT 9999 FEW017 26/21 Q1011 NOSIG
METAR WADD 291030Z 14010KT 9999 FEW017 26/21 Q1011 NOSIG
METAR WADD 291000Z 14012KT 9999 FEW017 27/22 Q1010 NOSIG</description><pubDate>Tue, 30 Jun 2026 09:55:32 </pubDate></item></channel></rss>