<rss version="2.0"><channel><title>Aviation Weather METAR Data for WADD</title><link>https://aviationweather.gov/api/data/metar?ids=WADD&amp;hours=24</link><description>Latest METAR data for WADD</description><item><title>2025-03-16 17:40:00Z</title><link>https://aviationweather.gov/api/data/metar?ids=WADD&amp;hours=24</link><description>WADD 161700Z 28008KT 9999 SCT016 28/25 Q1008 NOSIG
WADD 161630Z 26006KT 9999 SCT016 28/25 Q1008 NOSIG
WADD 161600Z 25004KT 9999 SCT016 28/25 Q1009 NOSIG
WADD 161530Z 26007KT 9999 SCT015 28/25 Q1009 NOSIG
WADD 161500Z 24005KT 9999 SCT015 28/25 Q1009 NOSIG
WADD 161430Z 27007KT 9999 SCT016 28/25 Q1008 NOSIG
WADD 161400Z 26006KT 9999 FEW016 27/25 Q1008 NOSIG
WADD 161330Z 26006KT 9999 FEW016 27/25 Q1008 NOSIG
WADD 161300Z 27008KT 9999 FEW016 27/25 Q1008 NOSIG
WADD 161230Z 27008KT 9999 SCT016 27/26 Q1008 NOSIG
WADD 161200Z 26005KT 9999 SCT016 28/26 Q1008 NOSIG
WADD 161130Z 26006KT 9999 SCT016 28/25 Q1008 NOSIG
WADD 161100Z 24002KT 9999 SCT016 28/26 Q1007 NOSIG
WADD 161030Z 26003KT 9999 SCT016 28/26 Q1007 NOSIG
WADD 161000Z 31002KT 9999 SCT016 28/27 Q1007 NOSIG
WADD 160930Z VRB02KT 9999 FEW014CB BKN015 27/27 Q1007 NOSIG
WADD 160900Z VRB02KT 9999 SCT016 27/27 Q1007 NOSIG
WADD 160830Z 25003KT 9999 SCT016 27/27 Q1007 RERA NOSIG
WADD 160800Z 23003KT 9000 -RA FEW015CB SCT016 27/27 Q1007 TEMPO TL0900 -RA
WADD 160730Z 36005KT 300V040 8000 -RA FEW015CB SCT016 26/26 Q1007 RETS TEMPO TL0830 -RA
WADD 160700Z VRB02KT 7000 -TSRA FEW014CB BKN015 26/25 Q1007 TEMPO TL0800 7000 -TSRA
WADD 160630Z VRB10KT 1000 +TSRA FEW014CB BKN015 29/27 Q1007 TEMPO TL0730 1000 +TSRA
WADD 160600Z 26006KT 9999 TS FEW014CB BKN015 30/28 Q1007 TEMPO TL0700 TS
WADD 160530Z 26006KT 9999 FEW014CB BKN014 30/28 Q1007 NOSIG
WADD 160500Z 24006KT 9999 FEW014CB BKN014 30/28 Q1007 NOSIG
WADD 160430Z 23007KT 9999 BKN014 31/28 Q1008 NOSIG
WADD 160400Z 23007KT 9999 BKN015 30/28 Q1008 NOSIG
WADD 160330Z 10006KT 060V140 9999 BKN015 30/26 Q1009 NOSIG
WADD 160300Z 10006KT 080V140 9999 BKN015 29/26 Q1009 NOSIG
WADD 160230Z 09007KT 9999 BKN015 30/26 Q1009 NOSIG
WADD 160200Z 09006KT 9999 BKN015 29/26 Q1009 NOSIG
WADD 160130Z 11004KT 9999 BKN015 29/25 Q1009 NOSIG
WADD 160100Z 11004KT 080V150 9999 BKN015 28/25 Q1009 NOSIG
WADD 160030Z 08004KT 040V110 9999 BKN015 28/25 Q1009 NOSIG
WADD 160000Z 02003KT 9999 BKN015 27/24 Q1009 NOSIG
WADD 152330Z 35003KT 9999 SCT015 27/24 Q1009 NOSIG
WADD 152300Z 01002KT 9999 SCT017 26/24 Q1009 NOSIG
WADD 152230Z 03002KT 9999 SCT017 26/24 Q1008 NOSIG
WADD 152200Z 01003KT 9999 SCT017 26/25 Q1008 NOSIG
WADD 152130Z 35004KT 310V050 9999 FEW017 27/25 Q1008 NOSIG
WADD 152100Z 29006KT 9999 FEW017 27/25 Q1008 NOSIG
WADD 152030Z 29008KT 9999 FEW017 27/25 Q1008 NOSIG
WADD 152000Z VRB03KT 9999 FEW017 27/25 Q1008 NOSIG
WADD 151930Z VRB02KT 9999 FEW017 26/25 Q1008 NOSIG
WADD 151900Z 29005KT 9999 FEW017 27/25 Q1008 NOSIG
WADD 151830Z 28005KT 9999 FEW017 26/25 Q1008 NOSIG
WADD 151800Z 26006KT 9999 FEW017 27/25 Q1008 NOSIG</description><pubDate>Sun, 16 Mar 2025 17:40:00 </pubDate></item></channel></rss>