<rss version="2.0"><channel><title>Aviation Weather METAR Data for WADD</title><link>https://aviationweather.gov/api/data/metar?ids=WADD&amp;hours=24</link><description>Latest METAR data for WADD</description><item><title>2025-03-02 19:39:21Z</title><link>https://aviationweather.gov/api/data/metar?ids=WADD&amp;hours=24</link><description>WADD 021930Z 07003KT 9999 FEW017 27/26 Q1007 NOSIG
WADD 021900Z 04003KT 9999 FEW017 27/27 Q1007 NOSIG
WADD 021830Z 02003KT 9999 FEW017 27/27 Q1007 NOSIG
WADD 021800Z 04005KT 9999 FEW017 27/27 Q1007 NOSIG
WADD 021730Z 03005KT 9999 FEW017 27/27 Q1007 NOSIG
WADD 021700Z 11006KT 9999 FEW017 28/27 Q1007 NOSIG
WADD 021630Z 11005KT 9999 FEW017 28/27 Q1008 NOSIG
WADD 021600Z 09005KT 9999 FEW017 28/27 Q1008 NOSIG
WADD 021530Z 10005KT 9999 FEW017 28/27 Q1008 NOSIG
WADD 021500Z 10006KT 9999 FEW017 28/27 Q1008 NOSIG
WADD 021430Z 11007KT 9999 FEW017 28/27 Q1008 NOSIG
WADD 021400Z 12008KT 9999 FEW017 29/28 Q1008 NOSIG
WADD 021330Z 12007KT 9999 SCT016 29/28 Q1008 NOSIG
WADD 021300Z 12006KT 9999 SCT016 29/28 Q1007 NOSIG
WADD 021230Z 12008KT 9999 SCT016 30/28 Q1007 NOSIG
WADD 021200Z 12009KT 9999 SCT016 30/27 Q1007 NOSIG
WADD 021130Z 12009KT 9999 BKN016 29/27 Q1007 NOSIG
WADD 021100Z 14011KT 9999 FEW016 30/28 Q1006 NOSIG
WADD 021030Z 14010KT 9999 FEW016 30/27 Q1006 NOSIG
WADD 021000Z 12010KT 9999 FEW017 30/27 Q1006 NOSIG
WADD 020930Z 14010KT 9999 FEW017 31/27 Q1005 NOSIG
WADD 020900Z 15012KT 9999 FEW017 31/28 Q1005 NOSIG
WADD 020830Z 12011KT 9999 FEW017 31/27 Q1005 NOSIG
WADD 020800Z 12011KT 9999 FEW017 32/26 Q1005 NOSIG
WADD 020730Z 11009KT 9999 FEW017 32/26 Q1005 NOSIG
WADD 020700Z 12009KT 070V150 9999 FEW017 32/27 Q1005 NOSIG
WADD 020630Z 12008KT 070V170 9999 FEW017 32/26 Q1006 NOSIG
WADD 020600Z 13009KT 9999 FEW017 32/27 Q1006 NOSIG
WADD 020530Z 12008KT 9999 FEW017 32/27 Q1007 NOSIG
WADD 020500Z 11008KT 9999 FEW017 32/27 Q1007 NOSIG
WADD 020430Z 10009KT 9999 FEW017 32/27 Q1008 NOSIG
WADD 020400Z 11009KT 9999 FEW017 31/27 Q1009 NOSIG
WADD 020330Z 11007KT 9999 SCT017 31/28 Q1009 NOSIG
WADD 020300Z 12007KT 9999 SCT017 30/28 Q1009 NOSIG
WADD 020230Z 10007KT 070V140 9999 SCT016 30/28 Q1010 NOSIG
WADD 020200Z 13007KT 9999 SCT016 30/28 Q1010 NOSIG
WADD 020130Z 11007KT 080V140 9999 SCT016 30/28 Q1010 NOSIG
WADD 020100Z 10005KT 060V130 9999 SCT016 30/28 Q1010 NOSIG
WADD 020030Z 13002KT 9999 SCT016 28/27 Q1010 NOSIG
WADD 020000Z 06003KT 9999 SCT016 28/28 Q1009 NOSIG
WADD 012330Z 02003KT 9999 SCT016 27/27 Q1009 NOSIG
WADD 012300Z 05003KT 9999 SCT016 27/27 Q1009 NOSIG
WADD 012230Z VRB01KT 9999 SCT016 27/27 Q1009 NOSIG
WADD 012200Z 12004KT 9999 FEW016CB BKN016 27/27 Q1008 NOSIG
WADD 012130Z 01005KT 9999 FEW016CB FEW016 26/26 Q1008 NOSIG
WADD 012100Z 02005KT 9999 FEW016 26/26 Q1008 NOSIG
WADD 012030Z 04003KT 9999 FEW016 26/26 Q1008 NOSIG
WADD 012000Z 12003KT 9999 SCT016 27/27 Q1008 RERA NOSIG</description><pubDate>Sun, 02 Mar 2025 19:39:21 </pubDate></item></channel></rss>