<rss version="2.0"><channel><title>Aviation Weather METAR Data for WADD</title><link>https://aviationweather.gov/api/data/metar?ids=WADD&amp;hours=24</link><description>Latest METAR data for WADD</description><item><title>2026-07-22 10:02:26Z</title><link>https://aviationweather.gov/api/data/metar?ids=WADD&amp;hours=24</link><description>METAR WADD 220930Z 13015KT 9999 BKN016 27/21 Q1013 NOSIG
METAR WADD 220900Z 13015KT 9999 BKN016 27/21 Q1013 NOSIG
METAR WADD 220830Z 13013KT 9999 BKN016 28/22 Q1013 NOSIG
METAR WADD 220800Z 14013KT 9999 BKN016 28/22 Q1013 NOSIG
METAR WADD 220730Z 14016KT 9999 SCT016 28/21 Q1013 NOSIG
METAR WADD 220700Z 14014KT 9999 SCT016 28/21 Q1013 NOSIG
METAR WADD 220630Z 13016KT 9999 SCT016 29/21 Q1013 NOSIG
METAR WADD 220600Z 12013KT 9999 SCT016 28/21 Q1013 NOSIG
METAR WADD 220530Z 13018KT 9999 SCT016 29/21 Q1013 NOSIG
METAR WADD 220500Z 14017KT 9999 SCT016 28/22 Q1014 NOSIG
METAR WADD 220430Z 13017KT 9999 SCT016 29/22 Q1014 NOSIG
METAR WADD 220400Z 13018KT 9999 SCT016 28/20 Q1014 NOSIG
METAR WADD 220330Z 12017KT 9999 SCT016 29/21 Q1015 NOSIG
METAR WADD 220300Z 11015KT 9999 SCT016 29/21 Q1015 NOSIG
METAR WADD 220230Z 11017KT 9999 SCT016 29/21 Q1015 NOSIG
METAR WADD 220200Z 12018KT 8000 FEW016CB SCT016 28/22 Q1015 NOSIG
METAR WADD 220130Z 12017KT 9999 SCT016 28/23 Q1015 NOSIG
METAR WADD 220100Z 12016KT 9999 SCT016 28/22 Q1016 NOSIG
METAR WADD 220030Z COR 13015KT 9999 BKN016 27/22 Q1015 NOSIG
METAR WADD 220000Z 12015KT 9999 BKN016 26/22 Q1015 NOSIG
METAR WADD 212330Z 12011KT 9999 SCT016 26/22 Q1015 NOSIG
METAR WADD 212300Z 13013KT 9999 SCT016 25/22 Q1014 NOSIG
METAR WADD 212230Z 14013KT 9999 BKN016 25/22 Q1014 NOSIG
METAR WADD 212200Z 12010KT 9999 BKN016 25/22 Q1014 NOSIG
METAR WADD 212130Z 12010KT 9999 SCT016 25/22 Q1014 NOSIG
METAR WADD 212100Z 12009KT 9999 SCT016 25/22 Q1014 NOSIG
METAR WADD 212030Z 13010KT 9999 SCT016 25/22 Q1014 NOSIG
METAR WADD 212000Z 13011KT 9999 SCT016 25/22 Q1014 NOSIG
METAR WADD 211930Z 13011KT 9999 SCT016 25/22 Q1014 NOSIG
METAR WADD 211900Z 13011KT 9999 SCT016 25/22 Q1014 NOSIG
METAR WADD 211830Z 13013KT 9999 BKN016 25/22 Q1014 NOSIG
METAR WADD 211800Z 13011KT 9999 BKN016 25/22 Q1014 NOSIG
METAR WADD 211730Z 14010KT 9999 FEW017 25/22 Q1015 NOSIG
METAR WADD 211700Z 13011KT 9999 FEW017 25/22 Q1015 NOSIG
METAR WADD 211630Z 13011KT 9999 FEW017 25/22 Q1015 NOSIG
METAR WADD 211600Z 13010KT 9999 FEW017 25/22 Q1015 NOSIG
METAR WADD 211530Z 13012KT 9999 FEW017 25/22 Q1015 NOSIG
METAR WADD 211500Z 13012KT 9999 FEW017 25/22 Q1015 NOSIG
METAR WADD 211430Z 12012KT 9999 SCT017 25/22 Q1015 NOSIG
METAR WADD 211400Z 12014KT 9999 SCT017 25/22 Q1015 NOSIG
METAR WADD 211330Z 12014KT 9999 SCT017 26/22 Q1015 NOSIG
METAR WADD 211300Z 12013KT 9999 SCT017 26/22 Q1015 NOSIG
METAR WADD 211230Z 12013KT 9999 SCT017 26/22 Q1015 NOSIG
METAR WADD 211200Z 12012KT 9999 FEW017 26/22 Q1015 NOSIG
METAR WADD 211130Z 12014KT 9999 FEW017 26/22 Q1014 NOSIG
METAR WADD 211100Z 12012KT 9999 FEW017 26/22 Q1014 NOSIG
METAR WADD 211030Z 12013KT 9999 FEW017 26/22 Q1014 NOSIG</description><pubDate>Wed, 22 Jul 2026 10:02:26 </pubDate></item></channel></rss>