<rss version="2.0"><channel><title>Aviation Weather METAR Data for WADD</title><link>https://aviationweather.gov/api/data/metar?ids=WADD&amp;hours=24</link><description>Latest METAR data for WADD</description><item><title>2025-10-10 15:42:34Z</title><link>https://aviationweather.gov/api/data/metar?ids=WADD&amp;hours=24</link><description>METAR WADD 101530Z 14009KT 9999 SCT016 28/25 Q1012 NOSIG
METAR WADD 101500Z 13009KT 9999 SCT016 28/25 Q1012 NOSIG
METAR WADD 101430Z 14010KT 9999 SCT016 28/25 Q1012 NOSIG
METAR WADD 101400Z 14010KT 9999 SCT016 28/25 Q1013 NOSIG
METAR WADD 101330Z 14009KT 9999 SCT016 28/24 Q1012 NOSIG
METAR WADD 101300Z 13010KT 9999 SCT016 28/25 Q1012 NOSIG
METAR WADD 101230Z 13008KT 9999 SCT016 28/24 Q1012 NOSIG
METAR WADD 101200Z 14007KT 9999 SCT016 28/24 Q1012 NOSIG
METAR WADD 101130Z 14008KT 9999 SCT016 28/24 Q1012 NOSIG
METAR WADD 101100Z 16009KT 9999 SCT016 28/24 Q1011 NOSIG
METAR WADD 101030Z 16010KT 9999 SCT016 28/25 Q1011 NOSIG
METAR WADD 101000Z 16010KT 9999 FEW017 28/24 Q1011 NOSIG
METAR WADD 100930Z 16009KT 9999 FEW017 29/24 Q1010 NOSIG
METAR WADD 100900Z 16007KT 9999 FEW016 29/24 Q1010 NOSIG
METAR WADD 100830Z 16009KT 9999 FEW016 29/24 Q1010 NOSIG
METAR WADD 100800Z 18010KT 9999 FEW016 29/24 Q1010 NOSIG
METAR WADD 100730Z 18011KT 9999 FEW016 30/24 Q1009 NOSIG
METAR WADD 100700Z 16011KT 9999 FEW016 30/24 Q1009 NOSIG
METAR WADD 100630Z 17011KT 9999 FEW016 31/24 Q1010 NOSIG
METAR WADD 100600Z 17009KT 9999 FEW016 31/24 Q1010 NOSIG
METAR WADD 100530Z 19007KT 9999 FEW016 31/24 Q1010 NOSIG
METAR WADD 100500Z 17008KT 9999 SCT016 31/24 Q1011 NOSIG
METAR WADD 100430Z 12008KT 090V160 9999 SCT016 30/24 Q1011 NOSIG
METAR WADD 100400Z 28004KT 240V030 9999 SCT016 30/24 Q1011 NOSIG
METAR WADD 100330Z VRB04KT 9999 SCT016 30/24 Q1012 NOSIG
METAR WADD 100300Z 24005KT 200V270 9999 SCT016 29/24 Q1012 NOSIG
METAR WADD 100230Z 27006KT 9999 SCT016 28/24 Q1013 NOSIG
METAR WADD 100200Z VRB04KT 9999 FEW016 29/24 Q1013 NOSIG
METAR WADD 100130Z VRB02KT 9999 SCT016 29/24 Q1013 NOSIG
 WADD 100100Z 10004KT 060V130 FEW017 29/24 Q1013 NOSIG
METAR WADD 100030Z 10004KT 060V150 9999 FEW017 28/24 Q1013 NOSIG
METAR WADD 100000Z VRB03KT 9999 FEW017 28/24 Q1013 NOSIG
METAR WADD 092330Z VRB02KT 9999 FEW017 27/24 Q1013 NOSIG
METAR WADD 092300Z 00000KT 9999 FEW016 26/24 Q1013 NOSIG
 WADD 092230Z 34002KT 9999 FEW016 25/23 Q1012 NOSIG
METAR WADD 092200Z VRB01KT 9999 FEW016 25/24 Q1012 NOSIG
 WADD 092130Z 36003KT 9999 FEW016 25/24 Q1012 NOSIG
METAR WADD 092100Z 03002KT 9999 FEW017 25/24 Q1012 NOSIG
METAR WADD 092030Z 11001KT 9999 FEW017 25/24 Q1012 NOSIG
METAR WADD 092000Z 00000KT 9999 FEW017 24/23 Q1011 NOSIG
METAR WADD 091930Z VRB01KT 9999 FEW017 25/23 Q1012 NOSIG
METAR WADD 091900Z 15002KT 9999 FEW017 25/24 Q1012 NOSIG
METAR WADD 091830Z VRB01KT 9999 FEW017 25/23 Q1012 NOSIG
METAR WADD 091800Z VRB01KT 9999 SCT016 25/23 Q1012 NOSIG
 WADD 091730Z 14002KT 9999 SCT016 26/24 Q1012 NOSIG
 WADD 091700Z VRB01KT 9999 SCT016 27/24 Q1012 NOSIG
 WADD 091630Z 22002KT 9999 SCT016 26/23 Q1012 NOSIG
METAR WADD 091600Z 00000KT 9999 SCT016 26/23 Q1012 NOSIG</description><pubDate>Fri, 10 Oct 2025 15:42:34 </pubDate></item></channel></rss>