<rss version="2.0"><channel><title>Aviation Weather METAR Data for WADD</title><link>https://aviationweather.gov/api/data/metar?ids=WADD&amp;hours=24</link><description>Latest METAR data for WADD</description><item><title>2026-02-07 23:39:14Z</title><link>https://aviationweather.gov/api/data/metar?ids=WADD&amp;hours=24</link><description>METAR WADD 072330Z 33004KT 270V030 9999 FEW017 28/25 Q1008 NOSIG
SPECI WADD 072300Z VRB01KT 9999 FEW016 27/25 Q1008 NOSIG
METAR WADD 072230Z 29006KT 9999 SCT016 27/24 Q1007 NOSIG
METAR WADD 072200Z 28005KT 9999 SCT016 27/24 Q1007 NOSIG
METAR WADD 072130Z 28007KT 9999 SCT016 27/24 Q1007 NOSIG
METAR WADD 072100Z 28009KT 9999 BKN016 27/24 Q1007 NOSIG
METAR WADD 072030Z 27010KT 9999 BKN016 27/25 Q1007 NOSIG
METAR WADD 072000Z 29009KT 9999 BKN016 27/25 Q1007 NOSIG
METAR WADD 071930Z 30009KT 9999 FEW015CB BKN016 28/24 Q1007 NOSIG
METAR WADD 071900Z 29009KT 9999 FEW015CB BKN016 27/25 Q1007 NOSIG
METAR WADD 071830Z 29010KT 9999 FEW015CB BKN016 27/24 Q1007 NOSIG
METAR WADD 071800Z 29011KT 9999 BKN015 27/24 Q1007 NOSIG
METAR WADD 071730Z 29013KT 9999 BKN015 27/24 Q1007 NOSIG
METAR WADD 071700Z 29011KT 9999 BKN015 28/24 Q1008 NOSIG
METAR WADD 071630Z 31009KT 9999 BKN015 27/25 Q1009 RERA NOSIG
METAR WADD 071600Z 32007KT 290V010 8000 -RA FEW014CB BKN015 27/25 Q10 09 TEMPO TL1700 -RA
METAR WADD 071530Z 31009KT 8000 -RA FEW014CB BKN015 27/25 Q1009 TEMPO TL1630 -RA
METAR WADD 071500Z 30013KT 8000 -RA FEW014CB BKN015 27/25 Q1009 TEMPO TL1600 -RA
METAR WADD 071430Z 30011KT 7000 -RA FEW014CB BKN015 26/24 Q1009 RETS TEMPO TL1530 -RA
METAR WADD 071400Z 30017KT 7000 -TSRA FEW014CB BKN015 26/24 Q1009 TEMPO TL1500 -TSRA RMK CB IN APCH
METAR WADD 071330Z 29020G30KT 3000 TSRA FEW014CB BKN015 26/25 Q1009 TEMPO TL1500 3000 TSRA RMK CB IN APCH AND CLIMB-OUT
METAR WADD 071300Z 29011KT 4000 TSRA FEW014CB BKN015 29/25 Q1009 TEMPO TL1400 4000 TSRA RMK CB IN APCH AND CLIMB-OUT
METAR WADD 071230Z 32007KT 9999 FEW015CB SCT016 28/25 Q1008 NOSIG
METAR WADD 071200Z 30009KT 9999 FEW015CB SCT016 29/25 Q1008 NOSIG
METAR WADD 071130Z 29009KT 9999 SCT016 29/25 Q1008 NOSIG
METAR WADD 071100Z 29012KT 9999 SCT016 29/25 Q1007 NOSIG
METAR WADD 071030Z 26014KT 9999 FEW015CB SCT016 30/25 Q1007 NOSIG
METAR WADD 071000Z 26013KT 9999 FEW017 29/25 Q1006 NOSIG
METAR WADD 070930Z 25011KT 9999 FEW017 30/25 Q1006 NOSIG
METAR WADD 070900Z 25012G22KT 9999 FEW017 30/25 Q1006 NOSIG
METAR WADD 070830Z 25012KT 9999 FEW017 30/25 Q1006 NOSIG
METAR WADD 070800Z 25012G22KT 9999 FEW017 30/25 Q1006 NOSIG
METAR WADD 070730Z 26013KT 9999 FEW017 30/25 Q1006 NOSIG
METAR WADD 070700Z 26013KT 9999 FEW017 31/25 Q1006 NOSIG
METAR WADD 070630Z 25010KT 9999 FEW017 31/25 Q1007 NOSIG
METAR WADD 070600Z 26011KT 9999 FEW017 31/25 Q1007 NOSIG
METAR WADD 070530Z 27011KT 9999 FEW017 31/25 Q1007 NOSIG
METAR WADD 070500Z 26013KT 9999 FEW017 31/25 Q1008 NOSIG
METAR WADD 070430Z 28013KT 9999 FEW017 32/24 Q1008 NOSIG
METAR WADD 070400Z 29013KT 9999 FEW017 32/24 Q1008 NOSIG
METAR WADD 070330Z 28013KT 9999 FEW017 31/24 Q1009 NOSIG
METAR WADD 070300Z 28012KT 9999 FEW017 31/25 Q1009 NOSIG
METAR WADD 070230Z 28012KT 9999 FEW017 31/25 Q1009 NOSIG
METAR WADD 070200Z 28011KT 9999 FEW017 31/25 Q1009 NOSIG
METAR WADD 070130Z 28011KT 9999 FEW017 31/25 Q1009 NOSIG
METAR WADD 070100Z 29009KT 9999 FEW017 30/25 Q1009 NOSIG
METAR WADD 070030Z 28010KT 9999 FEW017 30/25 Q1009 NOSIG
METAR WADD 070000Z 29010KT 9999 FEW017 29/25 Q1009 NOSIG</description><pubDate>Sat, 07 Feb 2026 23:39:14 </pubDate></item></channel></rss>