<rss version="2.0"><channel><title>Aviation Weather METAR Data for WADD</title><link>https://aviationweather.gov/api/data/metar?ids=WADD&amp;hours=24</link><description>Latest METAR data for WADD</description><item><title>2025-03-25 17:23:41Z</title><link>https://aviationweather.gov/api/data/metar?ids=WADD&amp;hours=24</link><description>WADD 251700Z 07004KT 9999 FEW015CB SCT016 28/26 Q1006 NOSIG
WADD 251630Z VRB02KT 9999 FEW015CB SCT016 29/26 Q1006 NOSIG
WADD 251600Z 25004KT 210V280 9999 FEW015CB SCT016 29/26 Q1007 NOSIG
WADD 251530Z 25006KT 9999 FEW015CB SCT016 29/26 Q1007 NOSIG
WADD 251500Z 26005KT 9999 BKN016 29/26 Q1007 NOSIG
WADD 251430Z 26005KT 9999 BKN016 29/26 Q1007 NOSIG
WADD 251400Z 26007KT 9999 BKN016 29/26 Q1007 NOSIG
WADD 251330Z 26007KT 9999 BKN016 29/25 Q1006 NOSIG
WADD 251300Z 26005KT 9999 FEW017 29/25 Q1006 NOSIG
WADD 251230Z 25005KT 9999 FEW017 29/25 Q1006 NOSIG
WADD 251200Z 26005KT 9999 FEW017 29/25 Q1006 NOSIG
WADD 251130Z 25006KT 9999 FEW017 29/25 Q1005 NOSIG
WADD 251100Z 25007KT 9999 FEW017 30/25 Q1005 NOSIG
WADD 251030Z 24007KT 9999 SCT016 30/25 Q1005 NOSIG
WADD 251000Z 24008KT 9999 SCT017 30/26 Q1004 NOSIG
WADD 250930Z 25008KT 9999 FEW017 30/26 Q1004 NOSIG
WADD 250900Z 25010KT 9999 FEW017 30/26 Q1003 NOSIG
WADD 250830Z 25008KT 9999 FEW017 31/26 Q1003 NOSIG
WADD 250800Z 26009KT 9999 FEW017 31/26 Q1003 NOSIG
WADD 250730Z 26010KT 9999 FEW017 31/26 Q1003 NOSIG
WADD 250700Z 25011KT 9999 FEW017 31/26 Q1003 NOSIG
WADD 250630Z 26010KT 9999 FEW017 31/27 Q1004 NOSIG
WADD 250600Z 25009KT 9999 FEW017 31/26 Q1004 NOSIG
WADD 250530Z 26009KT 9999 FEW017 31/26 Q1004 NOSIG
WADD 250500Z 25009KT 220V290 9999 FEW017 31/26 Q1005 NOSIG
WADD 250430Z 27011KT 9999 FEW017 31/25 Q1005 NOSIG
WADD 250400Z 29012KT 9999 FEW017 31/25 Q1006 NOSIG
WADD 250330Z 29011KT 9999 FEW017 31/25 Q1006 NOSIG
WADD 250300Z 28012KT 9999 FEW017 31/25 Q1006 NOSIG
WADD 250230Z 29011KT 9999 FEW017 29/25 Q1007 NOSIG
WADD 250200Z 29014KT 9999 FEW017 29/25 Q1007 NOSIG
WADD 250130Z 28013KT 9999 FEW017 29/25 Q1007 NOSIG
WADD 250100Z 28012KT 9999 FEW017 29/25 Q1007 NOSIG
WADD 250030Z 28011KT 9999 FEW017 29/25 Q1007 NOSIG
WADD 250000Z 29012KT 9999 SCT017 28/25 Q1007 NOSIG
WADD 242330Z 28013KT 9999 FEW017 28/25 Q1006 NOSIG
WADD 242300Z 29010KT 9999 FEW017 28/25 Q1006 NOSIG
WADD 242230Z 31005KT 9999 FEW017 27/25 Q1006 NOSIG
WADD 242200Z 31007KT 9999 FEW017 27/24 Q1006 NOSIG
WADD 242130Z 30007KT 9999 FEW017 28/25 Q1006 NOSIG
WADD 242100Z 30010KT 9999 FEW017 28/25 Q1005 NOSIG
WADD 242030Z 30010KT 9999 SCT016 28/25 Q1005 NOSIG
WADD 242000Z 30008KT 9999 SCT016 27/25 Q1005 NOSIG
WADD 241900Z 32006KT 9999 SCT016 27/25 Q1006 NOSIG
WADD 241830Z 32006KT 9999 SCT016 27/25 Q1006 NOSIG
WADD 241800Z 32006KT 9999 SCT016 27/25 Q1006 NOSIG
WADD 241730Z 32006KT 9999 SCT016 27/25 Q1007 NOSIG</description><pubDate>Tue, 25 Mar 2025 17:23:41 </pubDate></item></channel></rss>