<rss version="2.0"><channel><title>Aviation Weather METAR Data for WADD</title><link>https://aviationweather.gov/api/data/metar?ids=WADD&amp;hours=24</link><description>Latest METAR data for WADD</description><item><title>2025-11-07 22:43:17Z</title><link>https://aviationweather.gov/api/data/metar?ids=WADD&amp;hours=24</link><description>METAR WADD 072230Z 06002KT 9999 FEW017 26/25 Q1009 NOSIG
METAR WADD 072200Z VRB02KT 9999 SCT016 26/25 Q1009 NOSIG
METAR WADD 072130Z 06002KT 9999 SCT016 26/25 Q1009 NOSIG
METAR WADD 072100Z VRB01KT 9999 SC016 26/25 Q1009 NOSIG
METAR WADD 072030Z 11002KT 9999 SCT016 26/25 Q1009 NOSIG
METAR WADD 072000Z VRB01KT 9999 SCT016 26/25 Q1008 NOSIG
METAR WADD 071930Z 02003KT 9999 SCT016 27/25 Q1008 NOSIG
METAR WADD 071900Z 03003KT 9999 FEW016 27/25 Q1008 NOSIG
METAR WADD 071830Z 03003KT 9999 FEW016 27/25 Q1008 NOSIG
METAR WADD 071800Z 07002KT 9999 FEW016 27/25 Q1009 NOSIG
METAR WADD 071730Z 03003KT 9999 FEW016 27/25 Q1009 NOSIG
METAR WADD 071700Z 33005KT 290V010 9999 FEW016 28/26 Q1010 NOSIG
METAR WADD 071630Z VRB02KT 9999 FEW016 28/25 Q1010 NOSIG
METAR WADD 071600Z 27003KT 9999 FEW016 27/25 Q1010 NOSIG
METAR WADD 071530Z 28005KT 9999 FEW016 27/25 Q1010 NOSIG
METAR WADD 071500Z 23002KT 9999 FEW016 27/25 Q1010 NOSIG
METAR WADD 071430Z 23002KT 9999 FEW016 28/26 Q1010 NOSIG
METAR WADD 071400Z 22001KT 9999 FEW016 28/26 Q1010 NOSIG
METAR WADD 071330Z 23001KT 9999 FEW016 27/25 Q1010 NOSIG
METAR WADD 071300Z 24002KT 9999 FEW016 28/25 Q1010 NOSIG
METAR WADD 071230Z VRB02KT 9999 FEW016 28/25 Q1009 NOSIG
METAR WADD 071200Z 24003KT 9999 FEW016 28/25 Q1009 NOSIG
METAR WADD 071130Z 25003KT 9999 FEW016 28/25 Q1009 NOSIG
METAR WADD 071100Z 26004KT 9999 SCT016 28/25 Q1008 NOSIG
METAR WADD 071030Z 26005KT 9999 SCT016 28/25 Q1008 NOSIG
METAR WADD 071000Z 26006KT 9999 FEW015CB SCT016 29/25 Q1008 NOSIG
METAR WADD 070930Z 26007KT 9999 FEW015CB SCT016 29/25 Q1007 NOSIG
METAR WADD 070900Z 26008KT 9999 FEW015CB SCT016 29/26 Q1007 NOSIG
METAR WADD 070830Z 25008KT 9999 FEW015CB SCT016 29/26 Q1007 NOSIG
METAR WADD 070800Z 27009KT 9999 FEW015CB SCT016 30/26 Q1007 NOSIG
METAR WADD 070730Z 25008KT 220V290 9999 SCT016 30/26 Q1007 NOSIG
METAR WADD 070700Z 25009KT 9999 SCT016 30/26 Q1007 NOSIG
METAR WADD 070630Z 26010KT 9999 SCT016 30/26 Q1007 NOSIG
METAR WADD 070600Z 26011KT 9999 FEW017 30/26 Q1007 NOSIG
METAR WADD 070530Z 25009KT 9999 FEW017 31/26 Q1007 NOSIG
METAR WADD 070500Z 25010KT 9999 FEW017 30/25 Q1008 NOSIG
METAR WADD 070430Z 25008KT 220V280 9999 FEW017 30/26 Q1008 NOSIG
METAR WADD 070400Z 24007KT 210V270 9999 FEW017 30/25 Q1009 NOSIG
METAR WADD 070330Z 25008KT 210V270 9999 FEW017 30/25 Q1009 NOSIG
METAR WADD 070300Z 30008KT 9999 FEW017 30/25 Q1009 NOSIG
METAR WADD 070230Z 29007KT 9999 FEW017 30/25 Q1009 NOSIG
METAR WADD 070200Z 30008KT 9999 FEW017 30/25 Q1010 NOSIG
METAR WADD 070130Z 31007KT 280V350 9999 SCT017 30/25 Q1010 NOSIG
METAR WADD 070100Z 30008KT 270V330 9999 SCT017 29/25 Q1010 NOSIG
METAR WADD 070030Z 31009KT 9999 FEW017 29/25 Q1010 NOSIG
METAR WADD 070000Z 31007KT 9999 FEW017 29/25 Q1010 NOSIG
METAR WADD 062330Z 32007KT 9999 FEW017 28/25 Q1009 NOSIG
METAR WADD 062300Z 33007KT 9999 SCT016 27/25 Q1009 NOSIG</description><pubDate>Fri, 07 Nov 2025 22:43:17 </pubDate></item></channel></rss>