<rss version="2.0"><channel><title>Aviation Weather METAR Data for WADD</title><link>https://aviationweather.gov/api/data/metar?ids=WADD&amp;hours=24</link><description>Latest METAR data for WADD</description><item><title>2026-01-11 23:43:57Z</title><link>https://aviationweather.gov/api/data/metar?ids=WADD&amp;hours=24</link><description>METAR WADD 112330Z 05003KT 9999 FEW017 27/24 Q1009 NOSIG
METAR WADD 112300Z 02003KT 9999 FEW017 26/24 Q1009 NOSIG
METAR WADD 112230Z VRB02KT 9999 FEW017 25/23 Q1009 NOSIG
METAR WADD 112200Z 02002KT 9999 FEW017 25/23 Q1009 NOSIG
METAR WADD 112130Z 01005KT 9999 FEW017 25/22 Q1008 NOSIG
METAR WADD 112100Z 01005KT 9999 FEW017 26/23 Q1008 NOSIG
METAR WADD 112030Z 31006KT 290V010 9999 FEW017 27/23 Q1008 NOSIG
METAR WADD 112000Z 28011KT 9999 FEW017 27/23 Q1008 NOSIG
METAR WADD 111930Z 28010KT 9999 FEW017 27/23 Q1008 NOSIG
METAR WADD 111900Z 28008KT 9999 FEW017 27/22 Q1008 NOSIG
METAR WADD 111830Z 31006KT 9999 FEW017 27/23 Q1008 NOSIG
METAR WADD 111800Z 31003KT 9999 FEW017 26/24 Q1008 NOSIG
METAR WADD 111730Z 32004KT 9999 FEW017 26/23 Q1008 NOSIG
METAR WADD 111700Z 34004KT 300V010 9999 FEW017 26/23 Q1009 NOSIG
METAR WADD 111630Z 02003KT 9999 FEW017 26/24 Q1009 NOSIG
METAR WADD 111600Z 02004KT 9999 FEW017 26/24 Q1010 NOSIG
METAR WADD 111530Z 01003KT 9999 FEW017 26/23 Q1010 NOSIG
METAR WADD 111500Z 36003KT 9999 FEW017 26/23 Q1010 NOSIG
METAR WADD 111430Z 35006KT 300V040 9999 FEW017 27/24 Q1010 NOSIG
METAR WADD 111400Z 35006KT 300V020 9999 FEW017 27/24 Q1010 NOSIG
METAR WADD 111330Z 33005KT 310V020 9999 FEW017 27/24 Q1010 NOSIG
METAR WADD 111300Z 35005KT 320V030 9999 FEW017 26/24 Q1010 NOSIG
METAR WADD 111230Z 35004KT 320V050 9999 FEW017 26/24 Q1010 NOSIG
METAR WADD 111200Z 03004KT 330V080 9999 FEW017 26/24 Q1010 NOSIG
METAR WADD 111130Z 02005KT 330V050 9999 FEW017 25/24 Q1009 NOSIG
METAR WADD 111100Z 03005KT 330V060 9999 FEW017 25/24 Q1009 NOSIG
METAR WADD 111030Z 03005KT 350V060 9999 FEW017 26/24 Q1009 NOSIG
METAR WADD 111000Z 02005KT 330V090 9999 SCT016 26/25 Q1008 NOSIG
METAR WADD 110930Z 02004KT 320V050 9999 SCT016 27/25 Q1008 NOSIG
METAR WADD 110900Z 32004KT 270V040 8000 SCT016 27/24 Q1008 RERA NOSIG
METAR WADD 110830Z 32006KT 280V350 8000 -RA BKN016 26/24 Q1008 NOSIG
METAR WADD 110800Z 29010KT 6000 -RA FEW013CB BKN014 25/23 Q1008 NOSIG
SPECI WADD 110752Z 29010KT 6000 -RA FEW013CB BKN014 26/23 Q1008 NOSIG RMK CB IN APCH
METAR WADD 110730Z 28016KT 8000 FEW015CB BKN016 26/24 Q1008 RERA NOSIG RMK CB IN APCH AND CLIMB-OUT
METAR WADD 110700Z 30013G23KT 7000 -RA FEW015CB BKN016 27/24 Q1008 NO SIG
METAR WADD 110630Z 26017KT 9999 FEW015CB BKN016 29/25 Q1008 NOSIG
METAR WADD 110600Z 26016G27KT 9999 FEW015CB FEW016 30/26 Q1008 NOSIG
METAR WADD 110530Z 26014KT 9999 SCT016 30/24 Q1008 NOSIG
METAR WADD 110500Z 25011KT 9999 FEW016 29/26 Q1008 NOSIG
METAR WADD 110430Z 24009KT 9999 FEW016 29/25 Q1009 NOSIG
METAR WADD 110400Z 24010KT 9999 SCT016 29/25 Q1009 NOSIG
METAR WADD 110330Z 24010KT 9999 FEW016CB BKN016 29/25 Q1009 NOSIG
METAR WADD 110300Z 24013KT 9999 FEW015CB BKN016 28/24 Q1010 NOSIG
METAR WADD 110230Z 24014G25KT 9999 FEW015CB BKN016 27/25 Q1010 NOSIG
METAR WADD 110200Z 29010KT 9999 FEW015CB BKN016 29/24 Q1010 NOSIG
METAR WADD 110130Z 28010KT 9999 SCT016 29/24 Q1010 NOSIG
METAR WADD 110100Z 26007KT 9999 FEW016 29/26 Q1010 NOSIG
METAR WADD 110030Z 24004KT 9999 FEW016CB SCT016 27/25 Q1009 RERA NOSI G
METAR WADD 110000Z 23005KT 200V270 6000 -RA FEW014CB BKN014 26/24 Q1009 TEMPO TL0100 6000 -RA</description><pubDate>Sun, 11 Jan 2026 23:43:57 </pubDate></item></channel></rss>