<rss version="2.0"><channel><title>Aviation Weather METAR Data for WADD</title><link>https://aviationweather.gov/api/data/metar?ids=WADD&amp;hours=24</link><description>Latest METAR data for WADD</description><item><title>2026-02-24 19:13:45Z</title><link>https://aviationweather.gov/api/data/metar?ids=WADD&amp;hours=24</link><description>METAR WADD 241900Z 30014KT 7000 -RA FEW015CB BKN015 25/24 Q1008 TEMPO TL2000 -RA RMK CB IN APCH
METAR WADD 241830Z 28017G32KT 7000 -RA FEW015CB BKN015 26/24 Q1008 TEMPO TL1930 -RA RMK CB IN APCH
METAR WADD 241800Z 26015KT 9999 FEW015CB BKN015 26/24 Q1008 NOSIG RMK CB IN CLIMB-OUT
METAR WADD 241730Z 26016KT 9999 BKN016 26/24 Q1009 NOSIG
METAR WADD 241700Z 27020KT 9999 BKN016 26/24 Q1009 NOSIG
METAR WADD 241630Z 27018KT 9999 FEW015CB BKN015 26/24 Q1009 NOSIG
SPECI WADD 241610Z 26016KT 8000 FEW015CB BKN015 25/24 Q1010 RERA NOSIG RMK CB IN APCH
METAR WADD 241600Z 26016G27KT 3000 RA FEW014CB BKN014 25/24 Q1010 TEM PO TL1700 5000 RA RMK CB IN APCH AND CLIMB-OUT
METAR WADD 241530Z 28016KT 9999 FEW016CB BKN016 27/23 Q1009 NOSIG RMK CB IN CLIMB-OUT
METAR WADD 241500Z 29013KT 9999 SCT016 27/24 Q1010 NOSIG
METAR WADD 241430Z 29012KT 9999 SCT016 26/24 Q1010 NOSIG
METAR WADD 241400Z 29012KT 9999 SCT016 26/24 Q1010 NOSIG
METAR WADD 241330Z 28012KT 9999 BKN016 26/24 Q1010 NOSIG
METAR WADD 241300Z 28014KT 9999 FEW016CB BKN016 26/24 Q1010 NOSIG
METAR WADD 241230Z 29019KT 8000 FEW014CB BKN014 26/24 Q1009 NOSIG
METAR WADD 241200Z 26015KT 8000 FEW014CB BKN014 26/24 Q1009 RERA NOSI G RMK CB IN APCH
METAR WADD 241130Z 25015KT 8000 -RA FEW014CB BKN014 26/25 Q1009 TEMPO 1230 8000 -RA RMK CB IN APCH AND CLIMB-OUT
METAR WADD 241100Z 29013KT 9999 FEW014CB BKN014 27/24 Q1008 NOSIG RMK CB IN APCH AND CLIMB-OUT
METAR WADD 241030Z 28014KT 9999 FEW014CB BKN014 26/24 Q1008 NOSIG RMK CB IN APCH AND CLIMB-OUT
SPECI WADD 241004Z 29014KT 9999 FEW014CB BKN014 26/24 Q1008 NOSIG RMK CB IN APCH AND CLIMB-OUT
METAR WADD 241000Z 29014KT 9999 FEW014CB BKN014 26/24 Q1008 NOSIG RMK CB IN APCH AND CLIMB-OUT
METAR WADD 240930Z 28019KT 9999 FEW014CB BKN014 26/24 Q1007 NOSIG RMK CB IN APCH AND CLIMB-OUT
METAR WADD 240900Z 28018KT 9999 FEW014CB BKN014 26/24 Q1007 NOSIG RMK CB IN APCH AND CLIMB-OUT
METAR WADD 240830Z 27018KT 9999 FEW014CB BKN014 26/24 Q1007 RERA NOSIG RMK CB IN APCH AND CLIMB-OUT
METAR WADD 240800Z 27020KT 8000 -RA FEW014CB BKN014 27/24 Q1007 TEMPO TL0900 8000 -RA RMK CB IN APCH AND CLIMB-OUT
METAR WADD 240730Z 28018KT 9999 FEW014CB BKN014 27/24 Q1007 NOSIG RMK CB IN APCH AND CLIMB-OUT
METAR WADD 240700Z 27021KT 9999 FEW014CB BKN014 27/24 Q1007 RERA NOSIG RMK CB IN APCH AND CLIMB-OUT
METAR WADD 240630Z 28018KT 9000 -RA FEW014CB BKN014 27/25 Q1007 TEMPO TL0730 9000 -RA RMK CB IN APCH AND CLIMB-OUT
METAR WADD 240600Z 27019KT 7000 -RA FEW014CB BKN014 25/25 Q1007 TEMPO TL0730 7000 -RA RMK CB IN APCH AND CLIMB-OUT
METAR WADD 240530Z 29016KT 2000 RA FEW014CB BKN014 26/25 Q1008 TEMPO TL0630 3000 RA RMK CB IN APCH
METAR WADD 240500Z 29017KT 7000 -RA BKN015 26/25 Q1008 NOSIG
METAR WADD 240430Z 28019KT 7000 -RA FEW014CB BKN014 26/25 Q1009 NOSIG RMK CB IN APCH
METAR WADD 240400Z 27018KT 3000 RA FEW014CB BKN014 25/25 Q1009 TEMPO TL0500 3000 RA RMK CB IN APCH
METAR WADD 240330Z 28017KT 7000 -RA BKN015 26/25 Q1009 NOSIG
METAR WADD 240300Z 28018KT 7000 -RA BKN015 26/25 Q1009 NOSIG
METAR WADD 240230Z 28020KT 7000 -RA BKN015 26/24 Q1010 NOSIG
METAR WADD 240200Z 28026KT 7000 -RA BKN015 26/25 Q1010 NOSIG
METAR WADD 240130Z 27025KT 5000 -RA FEW014CB BKN014 25/24 Q1010 TEMPO TL0230 5000- RA
METAR WADD 240100Z 27029G39KT 4000 -RA FEW014CB BKN014 25/24 Q1009 TEMPO TL0230 4000- RA
METAR WADD 240030Z 27022G35KT 3000 RA FEW014CB BKN014 25/24 Q1009 TEMPO TL0200 3000 RA RMK CB IN APCH
METAR WADD 240000Z 28023KT 3000 RA FEW014CB BKN014 26/25 Q1009 TEMPO TL0130 3000 RA RMK CB IN APCH
METAR WADD 232330Z 27019KT 4000 -RA FEW014CB BKN014 26/25 Q1008 TEMPO TL2430 4000 -RA
METAR WADD 232300Z 26020KT 4000 -RA FEW014CB BKN014 25/25 Q1008 TEMPO TL2400 4000 -RA RMK CB IN APCH AND CLIMB-OUT
METAR WADD 232230Z 26021G31KT 4000 RA FEW014CB BKN014 26/25 Q1007 TEMPO TL2330 4000 RA RMK CB IN APCH AND CLIMB-OUT
METAR WADD 232200Z 26022G32KT 4000 RA FEW014CB BKN014 25/24 Q1007 TEMPO TL2300 4000 RA RMK CB IN APCH AND CLIMB-OUT
METAR WADD 232130Z 27025G35KT 5000 RA FEW014CB BKN014 25/24 Q1007 TEM PO TL2230 5000 RA RMK CB IN APCH AND CLIMB-OUT
METAR WADD 232100Z 28022KT 1800 RA FEW014CB BKN014 25/24 Q1006 TEMPO TL2200 1800 RA RMK CB IN APCH AND CLIMB-OUT
METAR WADD 232030Z 28016KT 2000 RA FEW014CB BKN014 25/25 Q1006 TEMPO TL2130 2000 RA RMK CB IN APCH AND CLIMB-OUT
METAR WADD 232000Z 27019KT 2000 RA FEW014CB BKN014 25/25 Q1006 TEMPO TL2100 2000 RA RMK CB IN APCH AND CLIMB-OUT
METAR WADD 231930Z 27022G33KT 1400 +RA FEW014CB BKN014 25/24 Q1007 TE MPO TL2030 1400 +RA RMK CB IN APCH AND CLIMB-OUT</description><pubDate>Tue, 24 Feb 2026 19:13:45 </pubDate></item></channel></rss>