<rss version="2.0"><channel><title>Aviation Weather METAR Data for WADD</title><link>https://aviationweather.gov/api/data/metar?ids=WADD&amp;hours=24</link><description>Latest METAR data for WADD</description><item><title>2025-05-08 17:41:54Z</title><link>https://aviationweather.gov/api/data/metar?ids=WADD&amp;hours=24</link><description>WADD 081700Z 05004KT 020V090 9999 FEW017 26/26 Q1009 NOSIG
WADD 081600Z 05006KT 9999 FEW017 26/25 Q1009 NOSIG
WADD 081530Z 04006KT 9999 FEW017 27/26 Q1009 NOSIG
WADD 081500Z 11009KT 9999 FEW017 27/26 Q1009 NOSIG
WADD 081430Z 11005KT 9999 FEW017 27/26 Q1009 NOSIG
WADD 081400Z 10005KT 9999 FEW017 27/26 Q1009 NOSIG
WADD 081300Z 12005KT 9999 FEW017 28/26 Q1009 NOSIG
WADD 081230Z 11007KT 9999 FEW017 28/26 Q1009 NOSIG
WADD 081130Z 06005KT 020V090 9999 SCT017 28/25 Q1008 NOSIG
WADD 081100Z VRB01KT 9999 SCT017 28/26 Q1007 NOSIG
WADD 080930Z 35006KT 300V020 9999 SCT016 29/26 Q1006 NOSIG
WADD 080900Z 32008KT 9999 SCT016 29/27 Q1006 NOSIG
WADD 080830Z 33006KT 300V010 9999 FEW015CB SCT016 28/26 Q1006 NOSIG
WADD 080730Z 12008KT 9999 SCT017 29/27 Q1005 NOSIG
WADD 080700Z 10011KT 9999 SCT016 29/27 Q1006 NOSIG
WADD 080630Z 09010KT 9999 SCT016 29/28 Q1006 NOSIG
WADD 080600Z 11012KT 9999 SCT016 29/27 Q1006 NOSIG
WADD 080530Z 10013KT 9999 SCT016 30/27 Q1006 NOSIG
WADD 080500Z 10009KT 9999 SCT016 30/27 Q1007 NOSIG
WADD 072300Z 08003KT 9999 SCT017 26/26 Q1008 NOSIG
WADD 072200Z 02003KT 9999 SCT017 26/26 Q1007 NOSIG
WADD 072130Z 03002KT 9999 SCT017 26/26 Q1007 RERA NOSIG
WADD 072100Z 01003KT 9999 SCT017 26/26 Q1007 RERA NOSIG
WADD 072030Z 05002KT 8000 -RA SCT016 26/26 Q1007 TEMPO TL2130 -RA
WADD 072000Z 08002KT 8000 -RA SCT016 26/26 Q1007 TEMPO TL2100 -RA
WADD 071830Z 09004KT 9999 TS FEW015CB BKN016 26/26 Q1007 RERA TEMPO TL1930 TS</description><pubDate>Thu, 08 May 2025 17:41:54 </pubDate></item></channel></rss>