<rss version="2.0"><channel><title>Aviation Weather METAR Data for WADD</title><link>https://aviationweather.gov/api/data/metar?ids=WADD&amp;hours=24</link><description>Latest METAR data for WADD</description><item><title>2025-07-31 23:28:12Z</title><link>https://aviationweather.gov/api/data/metar?ids=WADD&amp;hours=24</link><description>WADD 312300Z 12013KT 9999 SCT016 26/24 Q1012 NOSIG
WADD 312230Z 12013KT 9999 BKN016 26/24 Q1012 NOSIG
WADD 312200Z 13012KT 9999 BKN016 25/24 Q1011 NOSIG
WADD 312100Z 13015KT 9999 BKN016 26/24 Q1011 NOSIG
WADD 312030Z 13014KT 9999 SCT016 26/24 Q1011 NOSIG
WADD 312000Z 14015KT 9999 SCT016 26/24 Q1011 NOSIG
WADD 311930Z 13014KT 9999 SCT016 26/24 Q1011 NOSIG
WADD 311900Z 13014KT 9999 SCT016 26/24 Q1011 NOSIG
WADD 311830Z 14017KT 9999 SCT016 26/24 Q1011 NOSIG
WADD 311800Z 13013KT 9999 SCT016 26/24 Q1011 NOSIG
WADD 311730Z 13012KT 9999 SCT016 26/23 Q1012 NOSIG
WADD 311700Z 13014KT 9999 SCT016 26/24 Q1012 NOSIG
WADD 311630Z 13012KT 9999 SCT016 26/24 Q1012 NOSIG
WADD 311600Z 14013KT 9999 SCT016 26/24 Q1012 NOSIG
WADD 311530Z 13012KT 9999 SCT016 26/24 Q1012 NOSIG
WADD 311500Z 14011KT 9999 SCT016 26/24 Q1012 NOSIG
WADD 311430Z 14013KT 9999 SCT016 26/24 Q1012 NOSIG
WADD 311400Z 14017KT 9999 SCT016 26/24 Q1013 NOSIG
WADD 311330Z 15014KT 9999 BKN016 26/24 Q1012 NOSIG
WADD 311300Z 14013KT 9999 BKN016 26/24 Q1012 NOSIG
WADD 311230Z 14014KT 9999 BKN016 26/24 Q1012 NOSIG
WADD 311200Z 14014KT 9999 BKN0016 26/24 Q1012 NOSIG
WADD 311130Z 13013KT 9999 SCT016 26/24 Q1012 NOSIG
WADD 311100Z 14013KT 9999 SCT016 26/24 Q1012 NOSIG
WADD 311030Z 13014KT 9999 SCT016 26/23 Q1011 NOSIG
WADD 311000Z 13014KT 9999 SCT016 26/24 Q1011 NOSIG
WADD 310930Z 14013KT 9999 BKN016 26/24 Q1011 NOSIG
WADD 310900Z 14016KT 9999 BKN016 27/24 Q1011 NOSIG
WADD 310830Z 14017KT 9999 BKN016 27/24 Q1011 NOSIG
WADD 310800Z 13016KT 9999 SCT016 27/24 Q1010 NOSIG
WADD 310730Z 13015KT 9999 SCT016 27/24 Q1011 NOSIG
WADD 310700Z 13018KT 9999 BKN016 27/24 Q1011 NOSIG
WADD 310630Z 13013KT 9999 BKN016 27/24 Q1011 NOSIG
WADD 310600Z 13015KT 9999 SCT016 27/24 Q1011 NOSIG
WADD 310530Z 13014KT 9999 SCT016 28/24 Q1012 NOSIG
WADD 310500Z 12015KT 9999 SCT016 28/24 Q1012 NOSIG
WADD 310430Z 12016KT 9999 SCT016 28/23 Q1013 NOSIG
WADD 310400Z 13014KT 9999 SCT016 28/23 Q1013 NOSIG
WADD 310330Z 13015KT 9999 SCT016 27/24 Q1013 NOSIG
WADD 310300Z 12015KT 9999 SCT016 27/24 Q1013 NOSIG
WADD 310230Z 12013KT 9999 SCT016 27/24 Q1014 NOSIG
WADD 310200Z 12013KT 9999 SCT016 27/23 Q1014 NOSIG
WADD 310130Z 12010KT 9999 FEW015CB BKN015 26/24 Q1014 RERA NOSIG
WADD 310100Z 13012KT 9999 FEW015CB BKN015 26/24 Q1014 NOSIG
WADD 310030Z 11009KT 9999 BKN015 25/23 Q1014 RERA NOSIG
WADD 310000Z 13010KT 9999 BKN015 25/23 Q1014 NOSIG
WADD 302330Z 13011KT 9999 BKN015 25/23 Q1013 NOSIG</description><pubDate>Thu, 31 Jul 2025 23:28:12 </pubDate></item></channel></rss>