<rss version="2.0"><channel><title>Aviation Weather METAR Data for WADD</title><link>https://aviationweather.gov/api/data/metar?ids=WADD&amp;hours=24</link><description>Latest METAR data for WADD</description><item><title>2025-12-09 14:51:39Z</title><link>https://aviationweather.gov/api/data/metar?ids=WADD&amp;hours=24</link><description>METAR WADD 091430Z 26008KT 9999 SCT017 29/26 Q1009 NOSIG
METAR WADD 091400Z 26007KT 9999 SCT017 29/26 Q1009 NOSIG
METAR WADD 091330Z 26009KT 9999 FEW017 29/26 Q1009 NOSIG
METAR WADD 091300Z 26008KT 9999 FEW017 29/26 Q1009 NOSIG
METAR WADD 091230Z 25007KT 9999 FEW017 29/26 Q1008 NOSIG
METAR WADD 091200Z 25008KT 9999 FEW017 29/26 Q1008 NOSIG
METAR WADD 091130Z 25008KT 9999 FEW017 29/26 Q1008 NOSIG
METAR WADD 091100Z 26008KT 9999 FEW017 29/26 Q1008 NOSIG
METAR WADD 091030Z 26009KT 9999 FEW017 29/26 Q1007 NOSIG
METAR WADD 091000Z 25009KT 9999 FEW017 29/26 Q1007 NOSIG
METAR WADD 090930Z 25009KT 9999 FEW017 30/26 Q1007 NOSIG
METAR WADD 090900Z 25009KT 9999 FEW017 30/26 Q1006 NOSIG
METAR WADD 090830Z 25009KT 9999 FEW017 30/27 Q1006 NOSIG
METAR WADD 090800Z 24009KT 9999 FEW017 31/27 Q1006 NOSIG
METAR WADD 090730Z 26010KT 9999 FEW017 31/27 Q1006 NOSIG
METAR WADD 090700Z 26011KT 9999 FEW017 31/27 Q1006 NOSIG
METAR WADD 090630Z 26011KT 9999 SCT017 31/27 Q1006 NOSIG
METAR WADD 090600Z 25011KT 9999 SCT016 31/26 Q1006 NOSIG
METAR WADD 090530Z 26011KT 9999 SCT016 31/27 Q1007 NOSIG
METAR WADD 090500Z 27010KT 9999 SCT016 31/27 Q1007 NOSIG
METAR WADD 090430Z 28010KT 9999 SCT016 30/26 Q1007 NOSIG
METAR WADD 090400Z 30009KT 270V340 9999 SCT016 30/26 Q1007 NOSIG
METAR WADD 090330Z 29010KT 9999 SCT016 30/27 Q1007 NOSIG
METAR WADD 090300Z 30011KT 9999 SCT016 30/26 Q1008 NOSIG
METAR WADD 090230Z 30013KT 9999 SCT016 30/27 Q1008 NOSIG
METAR WADD 090200Z 29011KT 9999 SCT016 29/26 Q1008 NOSIG
METAR WADD 090130Z 28011KT 9999 SCT016 29/26 Q1008 NOSIG
METAR WADD 090100Z 28010KT 9999 BKN016 29/26 Q1008 NOSIG
METAR WADD 090030Z 30009KT 9999 SCT016 29/26 Q1008 NOSIG
METAR WADD 090000Z 30008KT 9999 SCT016 28/26 Q1008 NOSIG
METAR WADD 082330Z 32009KT 9999 SCT016 28/25 Q1008 NOSIG
METAR WADD 082300Z 32007KT 9999 BKN015 27/25 Q1008 NOSIG
METAR WADD 082230Z 33005KT 9999 BKN015 26/25 Q1008 NOSIG
METAR WADD 082200Z 32006KT 9999 BKN015 26/25 Q1007 NOSIG
METAR WADD 082130Z 32007KT 9999 BKN015 26/25 Q1007 NOSIG
METAR WADD 082100Z 32006KT 9999 BKN015 26/25 Q1007 NOSIG
METAR WADD 082030Z 32008KT 9999 BKN015 26/26 Q1007 NOSIG
METAR WADD 082000Z 30005KT 9999 BKN015 26/25 Q1007 NOSIG
METAR WADD 081930Z 34002KT 9999 BKN015 25/25 Q1007 RETS NOSIG
METAR WADD 081900Z VRB02KT 9999 TS FEW014CB BKN015 25/25 Q1007 TEMPO TL2000 TS
METAR WADD 081830Z VRB02KT 9999 TS FEW014CB BKN015 25/24 Q1007 RERA T EMPO TL1930 TS
METAR WADD 081800Z 34005KT 300V010 6000 -TSRA FEW014CB BKN015 25/24 Q1008 TEMPO TL1900 6000 -TSRA
METAR WADD 081730Z 32006KT 290V010 8000 -TSRA FEW014CB BKN015 25/24 Q 1008 TEMPO TL1830 -TSRA
METAR WADD 081700Z 33013KT 6000 -TSRA FEW014CB BKN015 25/24 Q1008 TEMPO TL1800 6000 -TSRA
METAR WADD 081630Z 31012KT 8000 -TSRA FEW014CB BKN015 27/25 Q1008 TEM PO TL1730 -TSRA
METAR WADD 081600Z 32008KT 9999 TS FEW014CB BKN015 27/25 Q1008 TEMPO TL1700 TS
METAR WADD 081530Z 31004KT 9999 TS FEW014CB SCT015 28/25 Q1009 TEMPO TL1630 TS
METAR WADD 081500Z 26003KT 9999 TS FEW014CB SCT015 28/26 Q1009 TEMPO TL1600 TS</description><pubDate>Tue, 09 Dec 2025 14:51:39 </pubDate></item></channel></rss>