<rss version="2.0"><channel><title>Aviation Weather METAR Data for WADD</title><link>https://aviationweather.gov/api/data/metar?ids=WADD&amp;hours=24</link><description>Latest METAR data for WADD</description><item><title>2025-05-23 09:28:47Z</title><link>https://aviationweather.gov/api/data/metar?ids=WADD&amp;hours=24</link><description>WADD 230900Z 19006KT 160V230 5000 TSRA FEW014CB BKN014 26/26 Q1007 TEMPO TL1000 5000 TSRA RMK CB IN APCH AND CLIMB-OUT
WADD 230830Z 36014KT 350V050 0700 +TSRA FEW014CB BKN014 25/25 Q1006 TEMPO TL0930 2000 TSRA RMK CB IN APCH AND CLIMB-OUT
WADD 230800Z 08006KT 010V110 9999 TS FEW015CB BKN015 28/26 Q1006 TEMPO TL0900 TS
WADD 230730Z 12007KT 9999 FEW015CB BKN015 29/26 Q1006 RETS NOSIG
WADD 230700Z 13008KT 9999 TS FEW015CB SCT016 29/26 Q1006 TEMPO TL0800 TS
WADD 230630Z 13009KT 9999 TS FEW015CB SCT016 30/26 Q1006 TEMPO TL0730 TS
WADD 230600Z 13009KT 9999 SCT016 30/27 Q1006 NOSIG
WADD 230530Z 11010KT 9999 SCT016 30/26 Q1006 NOSIG
WADD 230500Z 11010KT 9999 SCT016 30/26 Q1007 NOSIG
WADD 230430Z 10010KT 9999 SCT016 30/26 Q1007 NOSIG
WADD 230400Z 11009KT 9999 SCT016 30/26 Q1008 NOSIG
WADD 230330Z 12010KT 9999 SCT016 29/26 Q1008 NOSIG
WADD 230300Z 11010KT 9999 BKN016 29/26 Q1008 NOSIG
WADD 230230Z 12011KT 9999 BKN015 28/26 Q1008 NOSIG
WADD 230200Z 12010KT 9999 FEW014CB BKN015 28/26 Q1009 NOSIG
WADD 230130Z 11011KT 9999 FEW014CB BKN015 28/26 Q1009 NOSIG
WADD 230100Z 09010KT 9999 FEW014CB BKN015 28/27 Q1009 NOSIG
WADD 230030Z 05006KT 360V080 9999 FEW014CB BKN015 27/26 Q1009 NOSIG
WADD 230000Z 05008KT 9999 FEW015CB SCT016 27/26 Q1008 RERA NOSIG
WADD 222330Z 05006KT 010V100 8000 -RA FEW015CB BKN016 26/26 Q1008 TEMPO TL2430 -RA
WADD 222300Z 12008KT 9999 FEW015CB BKN016 27/26 Q1008 NOSIG
WADD 222230Z 13007KT 9999 FEW015CB BKN016 27/27 Q1008 NOSIG
WADD 222200Z 13008KT 9999 FEW015CB BKN016 26/26 Q1007 NOSIG
WADD 222130Z 13011KT 9999 FEW015CB BKN016 26/26 Q1007 NOSIG
WADD 222100Z 12009KT 9999 FEW015CB BKN016 27/26 Q1007 RERA NOSIG
WADD 222030Z 09007KT 8000 -RA FEW015CB BKN016 26/26 Q1007 TEMPO TL2130 -RA RMK CB IN APCH
WADD 222000Z 18004KT 140V200 8000 -RA FEW015CB BKN016 26/26 Q1007 TEMPO TL2100 -RA RMK CB IN APCH
WADD 221930Z 14010KT 120V180 6000 -RA FEW015CB BKN016 26/26 Q1007 TEMPO TL2030 -RA RMK CB IN APCH
WADD 221900Z 11011KT 5000 RA FEW015CB BKN016 27/26 Q1007 TEMPO TL2000 RA RMK CB IN APCH
WADD 221830Z 13008KT 6000 -RA FEW015CB BKN016 27/26 Q1007 TEMPO TL1930 -RA RMK CB IN APCH
WADD 221800Z 15007KT 6000 -RA FEW015CB BKN016 27/27 Q1007 TEMPO TL1900 -RA RMK CB IN APCH
WADD 221730Z 11007KT 6000 -RA FEW015CB BKN016 27/26 Q1008 TEMPO TL1830 -RA RMK CB OVER THE FIELD
WADD 221700Z 08005KT 8000 -RA FFEW015CB BKN016 27/26 Q1008 TEMPO TL1800 -RA RMK CB OVER THE FIELD
WADD 221630Z 09006KT 9999 BKN016 27/26 Q1008 NOSIG
WADD 221600Z 08007KT 9999 BKN016 27/26 Q1008 NOSIG
WADD 221530Z 06006KT 9999 BKN016 27/26 Q1008 NOSIG
WADD 221500Z 05006KT 9999 FEW015CB BKN016 27/26 Q1009 RERA NOSIG
WADD 221430Z 10010KT 8000 -RA FEW015CB BKN016 27/26 Q1009 TEMPO TL1530 -RA
WADD 221400Z 11008KT 6000 -RA FEW015CB BKN016 28/26 Q1009 TEMPO TL1500 -RA
WADD 221330Z 12010KT 8000 -RA FEW015CB BKN016 28/26 Q1009 TEMPO TL1430 -RA
WADD 221300Z 13013KT 9999 FEW015CB BKN016 28/26 Q1009 NOSIG
WADD 221230Z 13012KT 9999 FEW015CB BKN016 28/26 Q1008 RERA NOSIG
WADD 221200Z 12012KT 8000 -RA FEW015CB BKN016 28/26 Q1008 TEMPO TL1300 -RA
WADD 221130Z 12011KT 7000 -RA FEW015CB BKN016 28/26 Q1008 TEMPO TL1230 -RA
WADD 221100Z 13011KT 6000 -RA FEW015CB BKN016 28/26 Q1007 TEMPO TL1200 -RA
WADD 221030Z 12012KT 9000 FEW015CB BKN016 28/26 Q1007 NOSIG
WADD 221000Z 12012KT 9999 FEW015CB BKN016 28/26 Q1007 NOSIG
WADD 220930Z 12014KT 9999 FEW015CB BKN015 28/26 Q1007 NOSIG</description><pubDate>Fri, 23 May 2025 09:28:47 </pubDate></item></channel></rss>