<rss version="2.0"><channel><title>Aviation Weather METAR Data for WADD</title><link>https://aviationweather.gov/api/data/metar?ids=WADD&amp;hours=24</link><description>Latest METAR data for WADD</description><item><title>2025-06-25 13:40:11Z</title><link>https://aviationweather.gov/api/data/metar?ids=WADD&amp;hours=24</link><description>WADD 251300Z 25002KT 9999 FEW015CB BKN015 25/24 Q1013 NOSIG RMK CB IN CLIMB-OUT
WADD 251230Z VRB01KT 9999 BKN015 25/24 Q1013 NOSIG
WADD 251200Z VRB02KT 9999 BKN015 25/24 Q1013 RERA NOSIG
WADD 251130Z 16006KT 110V220 6000 -RA FEW015CB BKN015 24/24 Q1013 TEMPO TL1200 6000 -RA
WADD 251100Z 14003KT 6000 -RA FEW015CB BKN015 25/24 Q1012 TEMPO TL1200 6000 -RA
WADD 251030Z VRB01KT 9999 BKN015 25/24 Q1012 NOSIG
WADD 251000Z 19004KT 150V230 9999 BKN015 25/24 Q1012 RERA NOSIG
WADD 250930Z 16005KT 110V190 9999 BKN015 25/24 Q1012 NOSIG
WADD 250900Z 13007KT 9999 BKN015 26/25 Q1011 NOSIG
WADD 250830Z 12007KT 9999 BKN015 26/24 Q1011 NOSIG
WADD 250800Z 13008KT 9999 FEW015CB BKN015 26/25 Q1011 RERA NOSIG
WADD 250730Z 07005KT 5000 -RA FEW014CB BKN014 25/24 Q1011 TEMPO TL0830 7000 -RA RMK CB IN APCH
WADD 250700Z 28005KT 9999 2000 RA FEW014CB BKN014 25/25 Q1011 TEMPO TL0800 2000 RA
WADD 250630Z VRB02KT 9999 RERA FEW014CB BKN014 25/25 Q1012 NOSIG
WADD 250600Z 28010KT 8000 -RA FEW014 CB BKN014 25/25 Q1012 TEMPO TL0630 8000 -RA RMK CB IN APCH
WADD 250530Z 16010KT 4000 RA FEW015CB BKN015 25/25 Q1012 TEMPO TL0630 4000 RA
WADD 250500Z 16010KT 8000 -RA FEW015CB BKN015 25/25 Q1013 TEMPO TL0530 8000 -RA
WADD 250430Z 11010KT 8000 -RA FEW015CB BKN015 25/25 Q1013 TEMPO TL0530 8000 -RA
WADD 250400Z 10012KT 9999 FEW015CB BKN015 25/25 Q1013 RERA NOSIG
WADD 250330Z 13007KT 9999 FEW015CB BKN015 26/25 Q1014 NOSIG
WADD 250300Z 14009KT 9999 FEW015CB BKN015 26/26 Q1014 NOSIG
WADD 250230Z 14010KT 9999 FEW015CB BKN015 26/25 Q1014 NOSIG
WADD 250200Z 16009KT 9999 FEW014CB BKN015 25/25 Q1014 RERA NOSIG RMK CB IN APCH AND CLIMB-OUT
WADD 250130Z 17008KT 9000 FEW014CB BKN015 25/25 Q1014 TEMPO TL0230 9000 -RA RMK CB IN APCH AND CLIMB-OUT
WADD 250100Z 17008KT 9000 -RA FEW014CB BKN015 25/25 Q1014 NOSIG TEMPO TL0130 9000 -RA RMK CB IN APCH AND CLIMB-OUT
WADD 250030Z 14010KT 2000 +RA FEW014CB BKN015 24/24 Q1014 TEMPO TL0130 3000 +RA RMK CB IN APCH AND CLIMB-OUT
WADD 250000Z 13015KT 1500 +RA FEW014CB BKN015 25/24 Q1014 NOSIG TEMPO TL0130 3000 +RA RMK CB IN APCH AND CLIMB-OUT
WADD 242330Z 12012KT 3000 RA FEW014CB BKN015 25/25 Q1013 TEMPO TL2430 3000 RA
WADD 242300Z 13011KT 9999 FEW014CB BKN015 26/24 Q1013 NOSIG
WADD 242230Z 13013KT 9999 BKN016 26/24 Q1012 NOSIG
WADD 242200Z 13013KT 9999 BKN016 26/24 Q1012 NOSIG
WADD 242130Z 13014KT 9999 FEW017 26/24 Q1012 NOSIG
WADD 242100Z 12012KT 9999 FEW017 26/24 Q1012 NOSIG
WADD 242030Z 12014KT 9999 FEW017 26/24 Q1012 NOSIG
WADD 242000Z 13014KT 9999 FEW017 26/24 Q1012 NOSIG
WADD 241930Z 13016KT 9999 FEW017 27/24 Q1012 NOSIG
WADD 241900Z 12015KT 9999 FEW017 27/24 Q1012 NOSIG
WADD 241830Z 12014KT 9999 FEW017 27/24 Q1012 NOSIG
WADD 241800Z 12016KT 9999 FEW017 27/24 Q1012 NOSIG
WADD 241730Z 12012KT 9999 FEW017 27/24 Q1012 NOSIG
WADD 241700Z 12013KT 9999 FEW017 27/24 Q1013 NOSIG
WADD 241630Z 12016KT 9999 FEW017 27/24 Q1013 NOSIG
WADD 241600Z 13015KT 9999 FEW017 27/24 Q1013 NOSIG
WADD 241530Z 13014KT 9999 SCT016 27/24 Q1013 NOSIG
WADD 241500Z 13017KT 9999 SCT016 27/24 Q1013 NOSIG
WADD 241430Z 13012KT 9999 SCT016 27/24 Q1013 NOSIG
WADD 241400Z 13015KT 9999 SCT016 27/24 Q1013 NOSIG</description><pubDate>Wed, 25 Jun 2025 13:40:11 </pubDate></item></channel></rss>