<rss version="2.0"><channel><title>Aviation Weather METAR Data for WADD</title><link>https://aviationweather.gov/api/data/metar?ids=WADD&amp;hours=24</link><description>Latest METAR data for WADD</description><item><title>2025-10-26 11:19:40Z</title><link>https://aviationweather.gov/api/data/metar?ids=WADD&amp;hours=24</link><description>METAR WADD 261100Z 14007KT 9999 FEW017 29/26 Q1009 NOSIG
METAR WADD 261030Z 13008KT 9999 FEW017 29/26 Q1009 NOSIG
METAR WADD 261000Z 11007KT 9999 FEW017 29/26 Q1009 NOSIG
METAR WADD 260930Z 11009KT 9999 FEW017 30/26 Q1008 NOSIG
METAR WADD 260900Z 12009KT 9999 FEW017 31/26 Q1008 NOSIG
METAR WADD 260830Z 13011KT 9999 FEW017 31/26 Q1008 NOSIG
METAR WADD 260800Z 11010KT 9999 FEW017 31/25 Q1008 NOSIG
METAR WADD 260730Z 13011KT 9999 FEW017 31/25 Q1008 NOSIG
METAR WADD 260700Z 14012KT 9999 FEW017 31/25 Q1008 NOSIG
METAR WADD 260630Z 13012KT 9999 FEW017 31/25 Q1008 NOSIG
METAR WADD 260600Z 13012KT 9999 FEW016 31/26 Q1008 NOSIG
METAR WADD 260530Z 11013KT 9999 FEW017 32/25 Q1009 NOSIG
METAR WADD 260500Z 12014KT 9999 FEW017 31/26 Q1009 NOSIG
METAR WADD 260430Z 13011KT 9999 FEW017 32/26 Q1009 NOSIG
METAR WADD 260400Z 12012KT 9999 FEW017 32/26 Q1010 NOSIG
METAR WADD 260330Z 11010KT 9999 FEW017 31/26 Q1010 NOSIG
METAR WADD 260300Z 12010KT 9999 FEW017 31/26 Q1010 NOSIG
 WADD 260230Z 12009KT 070V150 9999 FEW017 31/26 Q1010 NOSIG
 WADD 260200Z 12008KT 9999 FEW017 30/26 Q1010 NOSIG
METAR WADD 260130Z 12006KT 9999 FEW017 30/26 Q1010 NOSIG
METAR WADD 260100Z 13007KT 9999 FEW017 30/26 Q1011 NOSIG
METAR WADD 260030Z 12005KT 9999 FEW017 29/26 Q1010 NOSIG
METAR WADD 260000Z VRB02KT 9999 FEW017 28/26 Q1010 NOSIG
 WADD 252330Z 18002KT 9999 FEW017 28/26 Q1010 NOSIG
METAR WADD 252300Z VRB01KT 9999 FEW017 27/26 Q1009 NOSIG
METAR WADD 252230Z 01004KT 9999 FEW017 26/26 Q1009 NOSIG
METAR WADD 252200Z 01003KT 9999 FEW017 26/25 Q1009 NOSIG
METAR WADD 252130Z 02003KT 9999 FEW017 27/26 Q1009
METAR WADD 252100Z VRB01KT 9999 FEW017 27/26 Q1008 NOSIG
METAR WADD 252030Z 03001KT 9999 -DZ BKN005 OVC009 27/26 Q1008 NOSIG
METAR WADD 252000Z 08002KT 9999 FEW017 27/26 Q1008 NOSIG
METAR WADD 251930Z VRB01KT 9999 FEW017 27/26 Q1008 NOSIG
METAR WADD 251900Z 12002KT 9999 FEW017 28/26 Q1008 NOSIG
METAR WADD 251830Z VRB02KT 9999 FEW017 27/26 Q1008 NOSIG
METAR WADD 251800Z 12004KT 9999 FEW017 28/26 Q1008 NOSIG
METAR WADD 251730Z 11004KT 9999 FEW017 28/27 Q1009 NOSIG
METAR WADD 251700Z 13003KT 9999 FEW017 28/27 Q1009 NOSIG
METAR WADD 251630Z VRB02KT 9999 FEW017 28/27 Q1009 NOSIG
METAR WADD 251600Z VRB02KT 9999 FEW017 28/27 Q1009 NOSIG
METAR WADD 251530Z 15003KT 9999 FEW017 28/27 Q1010 NOSIG
METAR WADD 251500Z 14004KT 9999 FEW017 28/27 Q1010 NOSIG
METAR WADD 251430Z 16003KT 9999 FEW017 28/27 Q1010 NOSIG
METAR WADD 251400Z 17004KT 9999 FEW017 29/27 Q1010 NOSIG
METAR WADD 251330Z 16003KT 9999 FEW017 29/27 Q1009 NOSIG
METAR WADD 251300Z 18004KT 9999 FEW017 29/27 Q1009 NOSIG
METAR WADD 251230Z 21003KT 9999 FEW017 29/27 Q1009 NOSIG
 WADD 251200Z 21005KT 9999 FEW017 29/27 Q1009 NOSIG
METAR WADD 251130Z 18006KT 9999 FEW017 29/27 Q1008 NOSIG</description><pubDate>Sun, 26 Oct 2025 11:19:40 </pubDate></item></channel></rss>