<rss version="2.0"><channel><title>Aviation Weather METAR Data for WADD</title><link>https://aviationweather.gov/api/data/metar?ids=WADD&amp;hours=24</link><description>Latest METAR data for WADD</description><item><title>2025-08-06 10:33:33Z</title><link>https://aviationweather.gov/api/data/metar?ids=WADD&amp;hours=24</link><description>WADD 061000Z 14011KT 9999 FEW017 27/23 Q1010 NOSIG
WADD 060930Z 15013KT 9999 FEW017 27/23 Q1009 NOSIG
WADD 060900Z 13013KT 9999 FEW017 28/23 Q1009 NOSIG
WADD 060830Z 14012KT 9999 FEW017 28/22 Q1009 NOSIG
WADD 060800Z 13011KT 9999 FEW017 28/23 Q1009 NOSIG
WADD 060730Z 13011KT 9999 FEW017 28/22 Q1009 NOSIG
WADD 060700Z 11012KT 9999 FEW017 29/22 Q1009 NOSIG
WADD 060630Z 13011KT 9999 FEW017 29/22 Q1010 NOSIG
WADD 060600Z 13012KT 9999 FEW017 29/22 Q1010 NOSIG
WADD 060530Z 11011KT 9999 FEW017 29/22 Q1010 NOSIG
WADD 060500Z 13009KT 9999 FEW017 29/22 Q1011 NOSIG
WADD 060430Z 10011KT 9999 FEW017 29/22 Q1011 NOSIG
WADD 060400Z 13011KT 9999 FEW017 28/22 Q1012 NOSIG
WADD 060330Z 11010KT 9999 FEW017 28/23 Q1012 NOSIG
WADD 060300Z 11011KT 9999 FEW017 28/22 Q1012 NOSIG
WADD 060230Z 11010KT 9999 FEW017 28/22 Q1013 NOSIG
WADD 060200Z 10010KT 9999 FEW017 28/22 Q1013 NOSIG
WADD 060130Z 08011KT 9999 SCT017 28/22 Q1013 NOSIG
WADD 060100Z 09010KT 9999 SCT017 30/23 Q1013 NOSIG
WADD 060030Z 06008KT 9999 FEW017 27/23 Q1013 NOSIG
WADD 060000Z 05005KT 9999 SCT017 26/23 Q1013 NOSIG
WADD 052330Z 10004KT 040V140 9999 SCT017 26/23 Q1013 NOSIG
WADD 052300Z 12006KT 9999 SCT017 26/22 Q1013 NOSIG
WADD 052230Z 13006KT 9999 SCT017 26/23 Q1012 NOSIG
WADD 052200Z 14006KT 9999 SCT017 25/23 Q1012 NOSIG
WADD 052130Z 13004KT 9999 SCT017 25/23 Q1012 NOSIG
WADD 052100Z 13006KT 9999 SCT017 25/23 Q1012 NOSIG
WADD 052030Z 13006KT 9999 SCT017 26/23 Q1012 NOSIG
WADD 052000Z 14007KT 9999 SCT017 26/23 Q1012 NOSIG
WADD 051930Z 14007KT 9999 SCT017 26/23 Q1012 NOSIG
WADD 051900Z 14006KT 9999 SCT017 26/23 Q1012 NOSIG
WADD 051830Z 13007KT 9999 SCT017 26/23 Q1012 NOSIG
WADD 051800Z 14007KT 9999 SCT017 26/23 Q1013 NOSIG
WADD 051730Z 13006KT 9999 SCT017 26/23 Q1013 NOSIG
WADD 051700Z 14006KT 9999 SCT017 26/23 Q1013 NOSIG
WADD 051630Z 15006KT 9999 SCT017 26/23 Q1014 NOSIG
WADD 051600Z 14005KT 9999 FEW017 26/23 Q1014 NOSIG
WADD 051530Z 15005KT 9999 FEW017 26/23 Q1014 NOSIG
WADD 051500Z 14008KT 9999 FEW017 26/23 Q1014 NOSIG
WADD 051430Z 13007KT 9999 FEW017 26/24 Q1014 NOSIG
WADD 051400Z 13008KT 9999 FEW017 26/24 Q1013 NOSIG
WADD 051330Z 14010KT 9999 FEW017 26/24 Q1013 NOSIG
WADD 051300Z 13011KT 9999 FEW017 26/24 Q1013 NOSIG
WADD 051230Z 13010KT 9999 FEW017 26/24 Q1012 NOSIG
WADD 051200Z 13011KT 9999 FEW017 26/24 Q1012 NOSIG
WADD 051130Z 14012KT 9999 FEW017 26/24 Q1012 NOSIG
WADD 051100Z 13010KT 9999 FEW018 26/24 Q1011 NOSIG</description><pubDate>Wed, 06 Aug 2025 10:33:33 </pubDate></item></channel></rss>