<rss version="2.0"><channel><title>Aviation Weather METAR Data for WADD</title><link>https://aviationweather.gov/api/data/metar?ids=WADD&amp;hours=24</link><description>Latest METAR data for WADD</description><item><title>2025-06-09 23:25:34Z</title><link>https://aviationweather.gov/api/data/metar?ids=WADD&amp;hours=24</link><description>WADD 092300Z 13012KT 9999 SCT016 28/25 Q1009 NOSIG
WADD 092230Z 13013KT 9999 SCT016 28/25 Q1009 NOSIG
WADD 092200Z 13013KT 9999 SCT017 28/25 Q1009 NOSIG
WADD 092130Z 13014KT 9999 SCT017 28/25 Q1009 NOSIG
WADD 092100Z 12015KT 9999 SCT017 28/25 Q1008 NOSIG
WADD 092030Z 12014KT 9999 SCT017 28/25 Q1008 NOSIG
WADD 092000Z 12013KT 9999 SCT017 28/25 Q1008 NOSIG
WADD 091930Z 12011KT 9999 SCT017 28/25 Q1008 NOSIG
WADD 091900Z 12013KT 9999 SCT017 28/25 Q1008 NOSIG
WADD 091830Z 12012KT 9999 FEW017 28/25 Q1008 NOSIG
WADD 091800Z 12011KT 9999 FEW017 28/25 Q1009 NOSIG
WADD 091730Z 12013KT 9999 FEW017 28/25 Q1009 NOSIG
WADD 091700Z 12012KT 9999 FEW017 28/25 Q1009 NOSIG
WADD 091630Z 11012KT 9999 FEW017 28/25 Q1009 NOSIG
WADD 091600Z 11012KT 9999 FEW017 28/25 Q1010 NOSIG
WADD 091530Z 12012KT 9999 FEW017 28/25 Q1010 NOSIG
WADD 091500Z 12013KT 9999 FEW017 28/25 Q1010 NOSIG
WADD 091430Z 12013KT 9999 SCT017 28/25 Q1010 NOSIG
WADD 091400Z 12012KT 9999 SCT017 28/25 Q1010 NOSIG
WADD 091330Z 12012KT 9999 SCT017 28/25 Q1010 NOSIG
WADD 091300Z 12012KT 9999 SCT017 28/25 Q1010 NOSIG
WADD 091230Z 12011KT 9999 SCT017 28/25 Q1009 NOSIG
WADD 091200Z 11010KT 9999 SCT017 28/25 Q1009 NOSIG
WADD 091130Z 12011KT 9999 SCT017 28/25 Q1009 NOSIG
WADD 091100Z 12011KT 9999 SCT017 28/25 Q1008 NOSIG
WADD 091030Z 12010KT 9999 SCT017 28/25 Q1008 NOSIG
WADD 091000Z 12011KT 9999 BKN017 29/25 Q1008 NOSIG
WADD 090930Z 12012KT 9999 SCT017 29/25 Q1007 NOSIG
WADD 090900Z 12012KT 9999 SCT016 29/25 Q1007 NOSIG
WADD 090830Z 12012KT 9999 SCT016 29/25 Q1007 NOSIG
WADD 090800Z 12016KT 9999 FEW017 30/25 Q1007 NOSIG
WADD 090730Z 12016KT 9999 FEW017 30/25 Q1007 NOSIG
WADD 090700Z 12017KT 9999 FEW017 30/25 Q1007 NOSIG
WADD 090630Z 13018KT 9999 FEW016 30/25 Q1007 NOSIG
WADD 090600Z 12018KT 9999 FEW016 30/26 Q1008 NOSIG
WADD 090530Z 11017KT 9999 FEW016 30/26 Q1008 NOSIG
WADD 090500Z 11015KT 9999 FEW016 30/26 Q1009 NOSIG
WADD 090430Z 12015KT 9999 FEW016 30/26 Q1009 NOSIG
WADD 090400Z 11016KT 9999 SCT016 30/26 Q1010 NOSIG
WADD 090330Z 10015KT 9999 SCT016 30/25 Q1010 NOSIG
WADD 090300Z 12009KT 9999 SCT016 29/26 Q1010 NOSIG
WADD 090230Z 12005KT 9999 SCT016 29/26 Q1011 NOSIG NOSIG
WADD 090200Z 13004KT 090V160 9999 SCT016 28/26 Q1011 RERA NOSIG
WADD 090130Z 11003KT 5000 -RA FEW014CB BKN015 27/26 Q1011 TEMPO TL0230 5000 -RA RMK CB IN CLIMB-OUT
WADD 090100Z 18005KT 9000 FEW014CB BKN015 27/25 Q1011 NOSIG
WADD 090030Z VRB02KT 9000 FEW014CB BKN015 27/25 Q1011 RERA NOSIG
WADD 090000Z 04003KT 6000 -RA FEW014CB BKN015 26/25 Q1011 TEMPO TL0100 6000 -RA
WADD 082330Z 35003KT 9999 FEW015CB SCT016 26/24 Q1010 NOSIG</description><pubDate>Mon, 09 Jun 2025 23:25:34 </pubDate></item></channel></rss>