<rss version="2.0"><channel><title>Aviation Weather METAR Data for WADD</title><link>https://aviationweather.gov/api/data/metar?ids=WADD&amp;hours=24</link><description>Latest METAR data for WADD</description><item><title>2025-05-14 21:40:11Z</title><link>https://aviationweather.gov/api/data/metar?ids=WADD&amp;hours=24</link><description>WADD 142100Z 10006KT 9999 FEW017 27/26 Q1009 NOSIG
WADD 142030Z 10004KT 9999 FEW017 27/26 Q1009 NOSIG
WADD 142000Z 08005KT 9999 FEW016 26/26 Q1009 NOSIG
WADD 141930Z 07005KT 9999 FEW017 27/26 Q1009 NOSIG
WADD 141900Z 06004KT 9999 SCT016 27/26 Q1010 NOSIG
WADD 141830Z 08005KT 9999 FEW017 27/26 Q1010 NOSIG
WADD 141800Z 09006KT 9999 FEW017 27/26 Q1010 NOSIG
WADD 141730Z 09007KT 9999 FEW017 27/27 Q1010 NOSIG
WADD 141700Z 10006KT 9999 FEW017 27/27 Q1010 NOSIG
WADD 141630Z 10006KT 9999 FEW017 27/27 Q1010 NOSIG
WADD 141600Z 11007KT 9999 FEW017 28/27 Q1011 NOSIG
WADD 141530Z 12010KT 9999 FEW017 28/27 Q1011 NOSIG
WADD 141500Z 12009KT 9999 FEW017 28/27 Q1011 NOSIG
WADD 141430Z 12009KT 9999 FEW017 28/27 Q1011 NOSIG
WADD 141400Z 12007KT 9999 FEW017 28/26 Q1011 NOSIG
WADD 141330Z 12010KT 9999 FEW017 28/26 Q1011 NOSIG
WADD 141300Z 12010KT 9999 FEW017 28/26 Q1011 NOSIG
WADD 141230Z 12009KT 9999 FEW017 28/26 Q1011 NOSIG
WADD 141200Z 12008KT 9999 FEW017 28/27 Q1010 NOSIG
WADD 141130Z 11009KT 9999 FEW017 28/27 Q1009 NOSIG
WADD 141100Z 11010KT 9999 FEW017 28/27 Q1009 NOSIG
WADD 141030Z 11008KT 9999 SCT017 28/27 Q1009 NOSIG
WADD 141000Z 11009KT 9999 SCT017 28/27 Q1009 NOSIG
WADD 140930Z 11011KT 9999 SCT016 28/27 Q1008 RERA NOSIG
WADD 140900Z 11009KT 9000 -RA SCT016 28/27 Q1009 TEMPO TL1000 -RA
WADD 140830Z 11010KT 9999 SCT016 29/27 Q1009 NOSIG
WADD 140800Z 11009KT 9999 SCT016 29/27 Q1009 NOSIG
WADD 140730Z 11008KT 9999 SCT016 29/27 Q1008 NOSIG
WADD 140700Z 11008KT 9999 FEW015CB SCT016 29/27 Q1008 NOSIG
WADD 140630Z 12010KT 9999 FEW015CB SCT016 29/27 Q1009 RETS NOSIG
WADD 140600Z 12012KT 9999 TS FEW015CB SCT016 30/27 Q1009 TEMPO TL0700 TS
WADD 140530Z 11013KT 9999 FEW017 30/27 Q1009 NOSIG
WADD 140500Z 11009KT 9999 FEW017 31/27 Q1009 NOSIG
WADD 140430Z 12009KT 9999 FEW017 30/27 Q1010 NOSIG
WADD 140400Z 11012KT 9999 FEW017 30/27 Q1010 NOSIG
WADD 140330Z 11007KT 9999 FEW017 30/27 Q1010 NOSIG
WADD 140300Z 12006KT 9999 FEW017 29/27 Q1011 NOSIG
WADD 140230Z 11005KT 9999 FEW016 29/27 Q1011 NOSIG
WADD 140200Z 11008KT 9999 FEW017 28/27 Q1011 NOSIG
WADD 140130Z 12008KT 9999 SCT016 Q1011 NOSIG
WADD 140100Z 10006KT 8000 BKN016 28/27 Q1011 NOSIG
WADD 140030Z 12005KT 8000 FEW015CB SCT016 27/27 Q1011 NOSIG
WADD 140000Z 13007KT 8000 FEW015CB SCT016 27/27 Q1010 RERA NOSIG
WADD 132330Z 10005KT 8000 -RA FEW014CB BKN015 26/26 Q1010 TEMPO TL2400 8000 -RA
WADD 132300Z 13006KT 8000 -TSRA FEW014CB BKN015 26/26 Q1010 TEMPO TL2400 -TSRA
WADD 132230Z 06004KT 8000 -TSRA FEW014CB BKN015 26/26 Q1010 TEMPO TL2330 -TSRA
WADD 132200Z 06004KT 8000 -RA FEW014CB BKN015 26/26 Q1010 TEMPO TL2300 -RA</description><pubDate>Wed, 14 May 2025 21:40:11 </pubDate></item></channel></rss>