<rss version="2.0"><channel><title>Aviation Weather METAR Data for WADD</title><link>https://aviationweather.gov/api/data/metar?ids=WADD&amp;hours=24</link><description>Latest METAR data for WADD</description><item><title>2026-01-28 21:37:46Z</title><link>https://aviationweather.gov/api/data/metar?ids=WADD&amp;hours=24</link><description>METAR WADD 282130Z 04002KT 9999 SCT016 25/24 Q1010 NOSIG
METAR WADD 282100Z 07002KT 9999 SCT016 25/24 Q1010 NOSIG
METAR WADD 282030Z VRB01KT 9999 SCT016 25/24 Q1010 NOSIG
METAR WADD 282000Z VRB01KT 9999 SCT016 25/24 Q1010 NOSIG
METAR WADD 281930Z 03002KT 9999 SCT016 25/24 Q1011 NOSIG
METAR WADD 281900Z VRB01KT 9999 SCT016 25/24 Q1011 NOSIG
METAR WADD 281830Z VRB02KT 9999 SCT016 24/24 Q1011 NOSIG
METAR WADD 281800Z VRB02KT 9999 SCT016 25/24 Q1011 NOSIG
METAR WADD 281730Z 13003KT 9999 SCT016 25/24 Q1011 NOSIG
METAR WADD 281700Z 12002KT 9999 BKN016 25/24 Q1012 NOSIG
METAR WADD 281630Z VRB02KT 9999 BKN016 25/24 Q1012 NOSIG
METAR WADD 281600Z 25003KT 9999 BKN016 25/24 Q1012 NOSIG
METAR WADD 281530Z 30003KT 9999 BKN016 25/23 Q1013 RERA NOSIG
METAR WADD 281500Z 30006KT 8000 -RA FEW015CB BKN015 25/23 Q1013 TEMPO TL1600 8000 -RA
METAR WADD 281430Z 26004KT 8000 -RA FEW015CB BKN015 25/24 Q1013 TEMPO TL1530 8000 -RA
METAR WADD 281330Z 31007KT 270V340 7000 -TSRA FEW015CB BKN015 26/24 Q1013 TEMPO TL1430 7000 -TSRA RMK CB IN APCH
METAR WADD 281300Z 01007KT 340V050 9999 FEW015CB BKN015 26/25 Q1013 NOSIG RMK CB IN APCH
METAR WADD 281230Z 01005KT 9999 FEW015CB SCT015 27/25 Q1012 NOSIG
METAR WADD 281200Z 05006KT 350V070 9999 SCT015 27/25 Q1012 NOSIG
METAR WADD 281130Z 07008KT 9999 FEW015CB SCT016 27/25 Q1011 NOSIG
METAR WADD 281100Z 08009KT 9999 FEW015CB SCT016 27/25 Q1011 NOSIG
METAR WADD 281030Z 08004KT 9999 FEW015CB SCT016 27/24 Q1011 NOSIG
METAR WADD 281000Z 13003KT 9999 SCT016 27/24 Q1010 NOSIG
METAR WADD 280930Z 15004KT 120V210 9999 SCT016 27/25 Q1010 NOSIG
METAR WADD 280900Z 15004KT 100V220 9999 SCT016 28/25 Q1009 NOSIG
METAR WADD 280830Z 18004KT 110V270 9999 SCT016 28/24 Q1009 NOSIG
METAR WADD 280800Z VRB02KT 9999 SCT016 28/24 Q1009 NOSIG
METAR WADD 280730Z 23004KT 9999 SCT016 27/24 Q1009 NOSIG
METAR WADD 280700Z 22005KT 190V250 9999 SCT016 27/24 Q1009 NOSIG
METAR WADD 280630Z 22005KT 190V260 9999 FEW014CB SCT015 27/25 Q1010 N OSIG
METAR WADD 280600Z 23006KT 9999 FEW014CB BKN015 28/25 Q1010 NOSIG
METAR WADD 280530Z 24005KT 190V270 9999 FEW016CB SCT016 28/25 Q1010 N OSIG
METAR WADD 280500Z 23007KT 190V260 9999 FEW015CB BKN015 28/25 Q1010 N OSIG
METAR WADD 280430Z 26005KT 9999 FEW015CB SCT015 28/25 Q1011 NOSIG
METAR WADD 280400Z 26006KT 9999 FEW015CB SCT015 28/25 Q1011 NOSIG
METAR WADD 280330Z 24005KT 9999 FEW015CB BKN015 28/25 Q1011 NOSIG
METAR WADD 280300Z 27007KT 9999 FEW015CB BKN015 28/25 Q1011 NOSIG
METAR WADD 280230Z 31006KT 270V330 9999 FEW015CB BKN015 28/25 Q1011 N OSIG
METAR WADD 280200Z 28006KT 9999 BKN016 28/25 Q1011 NOSIG
METAR WADD 280130Z 27008KT 9999 BKN016 28/24 Q1011 NOSIG
METAR WADD 280100Z 27008KT 9999 SCT016 28/25 Q1011 NOSIG
METAR WADD 280030Z 27010KT 9999 SCT016 27/24 Q1011 NOSIG
METAR WADD 280000Z 27008KT 9999 SCT016 26/25 Q1011 NOSIG
METAR WADD 272330Z 25006KT 9999 FEW015CB SCT016 27/25 Q1010 NOSIG
METAR WADD 272300Z 25007KT 9999 FEW015CB SCT016 27/25 Q1010 NOSIG
METAR WADD 272230Z 25009KT 9999 SCT015 27/25 Q1010 RERA NOSIG
METAR WADD 272200Z 24006KT 9000 -RA FEW014CB BKN015 26/25 Q1009 TEMPO TL2300 9000 -RA</description><pubDate>Wed, 28 Jan 2026 21:37:46 </pubDate></item></channel></rss>