<rss version="2.0"><channel><title>Aviation Weather METAR Data for WADD</title><link>https://aviationweather.gov/api/data/metar?ids=WADD&amp;hours=24</link><description>Latest METAR data for WADD</description><item><title>2025-04-02 23:23:03Z</title><link>https://aviationweather.gov/api/data/metar?ids=WADD&amp;hours=24</link><description>WADD 022300Z 03004KT 9999 FEW017 25/25 Q1011 NOSIG
WADD 022230Z 06003KT 9999 FEW017 24/24 Q1011 NOSIG
WADD 022200Z 08002KT 9999 FEW017 25/24 Q1010 NOSIG
WADD 022130Z VRB01KT 9999 FEW017 25/24 Q1010 NOSIG
WADD 022100Z VRB02KT 9999 FEW017 25/25 Q1010 NOSIG
WADD 022030Z VRB02KT 9999 FEW017 26/24 Q1010 NOSIG
WADD 022000Z VRB01KT 9999 FEW017 25/24 Q1010 NOSIG
WADD 021930Z VRB01KT 9999 FEW017 26/24 Q1010 NOSIG
WADD 021900Z VRB01KT 9999 FEW017 26/24 Q1010 NOSIG
WADD 021830Z VRB01KT 9999 FEW017 26/24 Q1010 NOSIG
WADD 021800Z VRB02KT 9999 FEW017 26/24 Q1010 NOSIG
WADD 021730Z VRB02KT 9999 FEW017 27/25 Q1010 NOSIG
WADD 021700Z VRB03KT 9999 FEW017 27/25 Q1010 NOSIG
WADD 021630Z VRB02KT 9999 FEW017 27/25 Q1011 NOSIG
WADD 021600Z 35003KT 9999 FEW017 27/25 Q1011 NOSIG
WADD 021530Z 02003KT 9999 FEW017 27/25 Q1011 NOSIG
WADD 021500Z 05003KT 9999 FEW017 27/25 Q1011 NOSIG
WADD 021430Z VRB02KT 9999 FEW017 27/25 Q1011 NOSIG
WADD 021400Z VRB01KT 9999 FEW017 27/25 Q1011 NOSIG
WADD 021330Z VRB01KT 9999 FEW017 27/25 Q1011 NOSIG
WADD 021300Z VRB01KT 9999 FEW017 27/25 Q1010 NOSIG
WADD 021230Z VRB01KT 9999 FEW017 28/25 Q1010 NOSIG
WADD 021200Z 14003KT 9999 FEW017 28/25 Q1010 NOSIG
WADD 021130Z 15003KT 9999 FEW017 28/25 Q1009 NOSIG
WADD 021100Z 14003KT 9999 FEW017 28/25 Q1009 NOSIG
WADD 021030Z 13005KT 9999 SCT016 29/25 Q1009 NOSIG
WADD 021000Z 14005KT 9999 SCT016 29/25 Q1009 NOSIG
WADD 020930Z 13006KT 100V160 9999 SCT016 30/25 Q1008 NOSIG
WADD 020900Z 14006KT 9999 FEW016 30/25 Q1008 NOSIG
WADD 020830Z 14006KT 110V200 9999 FEW016 31/25 Q1008 NOSIG
WADD 020800Z 14006KT 100V180 9999 FEW016 31/25 Q1008 NOSIG
WADD 020730Z 17005KT 110V230 9999 FEW016 31/25 Q1008 NOSIG
WADD 020700Z 20005KT 140V260 9999 FEW016 32/25 Q1008 NOSIG
WADD 020630Z 10005KT 9999 SCT016 30/25 Q1008 NOSIG
WADD 020600Z 27009KT 9999 FEW016 31/26 Q1008 NOSIG
WADD 020530Z 26008KT 9999 SCT016 31/25 Q1009 NOSIG
WADD 020500Z VRB03KT 9999 SCT016 30/25 Q1009 NOSIG
WADD 020430Z 08006KT 060V120 9999 SCT016 29/25 Q1010 NOSIG
WADD 020400Z VRB03KT 9999 FEW015CB SCT016 30/26 Q1010 NOSIG
WADD 020330Z 25006KT 220V290 9999 FEW015CB SCT016 29/26 Q1010 NOSIG
WADD 020300Z 27006KT 200V340 9999 FEW015CB SCT016 30/26 Q1011 NOSIG
WADD 020230Z 26006KT 9999 FEW015CB SCT016 29/25 Q1011 NOSIG
WADD 020200Z 24004KT 170V290 9999 FEW015CB SCT016 30/25 Q1011 NOSIG
WADD 020130Z 26004KT 200V320 9999 FEW015CB SCT016 29/25 Q1011 NOSIG
WADD 020100Z VRB02KT 9999 FEW015CB SCT016 29/25 Q1011 NOSIG
WADD 020030Z VRB03KT 9999 FEW017 29/26 Q1011 NOSIG
WADD 020000Z VRB01KT 9999 FEW017 28/25 Q1011 NOSIG
WADD 012330Z VRB01KT 9999 SCT016 27/25 Q1011 NOSIG</description><pubDate>Wed, 02 Apr 2025 23:23:03 </pubDate></item></channel></rss>