<rss version="2.0"><channel><title>Aviation Weather METAR Data for WADD</title><link>https://aviationweather.gov/api/data/metar?ids=WADD&amp;hours=24</link><description>Latest METAR data for WADD</description><item><title>2025-05-14 09:28:41Z</title><link>https://aviationweather.gov/api/data/metar?ids=WADD&amp;hours=24</link><description>WADD 140900Z 11009KT 9000 -RA SCT016 28/27 Q1009 TEMPO TL1000 -RA
WADD 140830Z 11010KT 9999 SCT016 29/27 Q1009 NOSIG
WADD 140800Z 11009KT 9999 SCT016 29/27 Q1009 NOSIG
WADD 140730Z 11008KT 9999 SCT016 29/27 Q1008 NOSIG
WADD 140700Z 11008KT 9999 FEW015CB SCT016 29/27 Q1008 NOSIG
WADD 140630Z 12010KT 9999 FEW015CB SCT016 29/27 Q1009 RETS NOSIG
WADD 140600Z 12012KT 9999 TS FEW015CB SCT016 30/27 Q1009 TEMPO TL0700 TS
WADD 140530Z 11013KT 9999 FEW017 30/27 Q1009 NOSIG
WADD 140500Z 11009KT 9999 FEW017 31/27 Q1009 NOSIG
WADD 140430Z 12009KT 9999 FEW017 30/27 Q1010 NOSIG
WADD 140400Z 11012KT 9999 FEW017 30/27 Q1010 NOSIG
WADD 140330Z 11007KT 9999 FEW017 30/27 Q1010 NOSIG
WADD 140300Z 12006KT 9999 FEW017 29/27 Q1011 NOSIG
WADD 140230Z 11005KT 9999 FEW016 29/27 Q1011 NOSIG
WADD 140200Z 11008KT 9999 FEW017 28/27 Q1011 NOSIG
WADD 140130Z 12008KT 9999 SCT016 Q1011 NOSIG
WADD 140100Z 10006KT 8000 BKN016 28/27 Q1011 NOSIG
WADD 140030Z 12005KT 8000 FEW015CB SCT016 27/27 Q1011 NOSIG
WADD 140000Z 13007KT 8000 FEW015CB SCT016 27/27 Q1010 RERA NOSIG
WADD 132330Z 10005KT 8000 -RA FEW014CB BKN015 26/26 Q1010 TEMPO TL2400 8000 -RA
WADD 132300Z 13006KT 8000 -TSRA FEW014CB BKN015 26/26 Q1010 TEMPO TL2400 -TSRA
WADD 132230Z 06004KT 8000 -TSRA FEW014CB BKN015 26/26 Q1010 TEMPO TL2330 -TSRA
WADD 132200Z 06004KT 8000 -RA FEW014CB BKN015 26/26 Q1010 TEMPO TL2300 -RA
WADD 132130Z 07004KT 8000 -RA FEW014CB BKN015 26/26 Q1009 TEMPO TL2230 -RA
WADD 132100Z 09004KT 8000 -RA FEW014CB BKN015 26/26 Q1009 TEMPO TL2200 -RA
WADD 132030Z 06006KT 8000 -RA FEW014CB BKN015 26/26 Q1009 TEMPO TL2130 -RA
WADD 132000Z 03003KT 98000 -RA FEW014CB BKN015 26/26 Q1009 TEMPO TL2100 -RA
WADD 131930Z 05007KT 8000 -RA FEW014CB BKN015 26/26 Q1010 TEMPO TL2030 -RA
WADD 131900Z 07007KT 8000 -RA FEW014CB BKN015 27/26 Q1010 TEMPO TL2000 -RA
WADD 131830Z 15006KT 9999 FEW014CB BKN015 27/26 Q1010 NOSIG
WADD 131800Z 15006KT 9999 FEW014CB BKN015 28/27 Q1010 NOSIG
WADD 131730Z 16003KT 9999 FEW014CB BKN015 28/27 Q1010 NOSIG
WADD 131700Z 14004KT 080V150 9999 FEW014CB BKN015 28/26 Q1010 NOSIG
WADD 131630Z 09003KT 9999 SCT016 27/26 Q1010 NOSIG
WADD 131600Z 08003KT 9999 BKN016 27/26 Q1010 NOSIG
WADD 131530Z 09005KT 9999 BKN0016 27/26 Q1011 NOSIG
WADD 131500Z 10006KT 9999 BKN016 28/26 Q1010 NOSIG
WADD 131430Z 11009KT 9999 SCT016 28/26 Q1010 NOSIG
WADD 131400Z 11011KT 9999 SCT016 Q1010 NOSIG
WADD 131330Z 11008KT 9999 SCT017 28/26 Q1010 NOSIG
WADD 131300Z 10009KT 9999 SCT017 27/26 Q1010 NOSIG
WADD 131230Z 12009KT 9999 SCT016 27/26 Q1010 NOSIG
WADD 131200Z 12009KT 9999 SCT016 27/26 Q1010 NOSIG
WADD 131130Z 13008KT 9999 SCT016 27/26 Q1009 NOSIG
WADD 131100Z 12006KT 9999 SCT016 27/26 Q1009 NOSIG
WADD 131000Z 11012KT 9999 SCT016 27/26 Q1008 NOSIG
WADD 130930Z 12011KT 9999 SCT016 28/26 Q1008 NOSIG</description><pubDate>Wed, 14 May 2025 09:28:41 </pubDate></item></channel></rss>