<rss version="2.0"><channel><title>Aviation Weather METAR Data for WADD</title><link>https://aviationweather.gov/api/data/metar?ids=WADD&amp;hours=24</link><description>Latest METAR data for WADD</description><item><title>2026-07-14 22:32:48Z</title><link>https://aviationweather.gov/api/data/metar?ids=WADD&amp;hours=24</link><description>METAR WADD 142200Z 03001KT 9999 FEW017 22/20 Q1014 NOSIG
METAR WADD 142130Z 36003KT 9999 FEW017 23/21 Q1014 NOSIG
METAR WADD 142100Z COR 02003KT 9999 FEW017 23/21 Q1014 NOSIG
METAR WADD 142030Z 01004KT 9999 FEW017 23/22 Q1014 NOSIG
METAR WADD 142000Z 36003KT 9999 FEW017 24/22 Q1014 NOSIG
METAR WADD 141930Z 01004KT 9999 FEW017 24/22 Q1014 NOSIG
METAR WADD 141900Z 36004KT 9999 FEW017 24/22 Q1014 NOSIG
METAR WADD 141830Z 34004KT 9999 SCT016 25/23 Q1014 NOSIG
METAR WADD 141800Z 32005KT 9999 SCT016 25/23 Q1014 NOSIG
METAR WADD 141730Z VRB04KT 9999 FEW017 25/24 Q1014 NOSIG
METAR WADD 141700Z VRB02KT 9999 FEW017 25/23 Q1014 NOSIG
METAR WADD 141630Z 08004KT 020V110 9999 FEW017 25/24 Q1014 NOSIG
METAR WADD 141600Z 08004KT 030V100 9999 FEW017 25/24 Q1014 NOSIG
METAR WADD 141530Z 10007KT 9999 FEW017 26/24 Q1014 NOSIG
METAR WADD 141500Z 11007KT 9999 FEW017 26/24 Q1014 NOSIG
METAR WADD 141430Z 12007KT 9999 FEW017 26/24 Q1014 NOSIG
METAR WADD 141400Z 12008KT 9999 FEW017 26/24 Q1014 NOSIG
METAR WADD 141330Z 10008KT 9999 FEW017 26/24 Q1014 NOSIG
METAR WADD 141300Z 12008KT 9999 FEW017 26/24 Q1013 NOSIG
METAR WADD 141230Z 11010KT 9999 FEW017 26/24 Q1013 NOSIG
METAR WADD 141200Z 12009KT 9999 FEW017 26/24 Q1013 NOSIG
METAR WADD 141130Z 11010KT 9999 FEW017 26/24 Q1013 NOSIG
METAR WADD 141100Z 11010KT 9999 FEW017 26/24 Q1012 NOSIG
METAR WADD 141030Z 12010KT 9999 FEW017 27/23 Q1012 NOSIG
METAR WADD 141000Z 13011KT 9999 FEW017 27/23 Q1012 NOSIG
METAR WADD 140930Z 12012KT 9999 FEW017 28/23 Q1012 NOSIG
METAR WADD 140900Z 13014KT 9999 FEW017 28/23 Q1011 NOSIG
METAR WADD 140830Z 13014KT 9999 FEW017 28/22 Q1011 NOSIG
METAR WADD 140800Z 13013KT 9999 FEW017 29/23 Q1011 NOSIG
METAR WADD 140730Z 12013KT 9999 FEW017 29/23 Q1011 NOSIG
METAR WADD 140700Z 12011KT 9999 FEW017 29/23 Q1011 NOSIG
METAR WADD 140630Z 12013KT 9999 FEW017 29/23 Q1012 NOSIG
METAR WADD 140600Z 13013KT 9999 FEW016 29/23 Q1012 NOSIG
METAR WADD 140530Z 12012KT 9999 FEW016 29/23 Q1013 NOSIG
METAR WADD 140500Z 11014KT 9999 FEW016 29/22 Q1013 NOSIG
METAR WADD 140430Z 12014KT 9999 FEW016 29/23 Q1013 NOSIG
METAR WADD 140400Z 12015KT 9999 FEW016 29/23 Q1014 NOSIG
METAR WADD 140330Z 11014KT 9999 FEW016 29/23 Q1014 NOSIG
METAR WADD 140300Z 12012KT 9999 SCT016 29/23 Q1014 NOSIG
METAR WADD 140230Z 10010KT 070V130 9999 SCT016 29/23 Q1015 NOSIG
METAR WADD 140200Z 10009KT 070V130 9999 SCT016 29/23 Q1015 NOSIG
METAR WADD 140130Z 10009KT 9999 SCT016 29/23 Q1015 NOSIG
METAR WADD 140100Z 10007KT 070V140 9999 SCT016 28/23 Q1014 NOSIG
METAR WADD 140030Z 07009KT 9999 SCT016 28/23 Q1014 NOSIG
METAR WADD 140000Z 08008KT 050V120 9999 BKN016 27/23 Q1014 NOSIG
METAR WADD 132330Z 10007KT 060V120 9999 BKN016 26/23 Q1014 NOSIG
METAR WADD 132300Z 08006KT 9999 SCT015 24/22 Q1014 NOSIG</description><pubDate>Tue, 14 Jul 2026 22:32:48 </pubDate></item></channel></rss>