<rss version="2.0"><channel><title>Aviation Weather METAR Data for WADD</title><link>https://aviationweather.gov/api/data/metar?ids=WADD&amp;hours=24</link><description>Latest METAR data for WADD</description><item><title>2026-02-27 22:34:18Z</title><link>https://aviationweather.gov/api/data/metar?ids=WADD&amp;hours=24</link><description>METAR WADD 272200Z 26018KT 5000 -RA FEW013CB BKN014 25/25 Q1005 TEMPO TL2300 -RA RMK CB IN APCH AND CLIMB-OUT
METAR WADD 272130Z 30012KT 5000 -RA FEW014CB BKN015 25/25 Q1005 TEMPO TL2230 -RA RMK CB IN APCH AND CLIMB-OUT
METAR WADD 272100Z 26016KT 5000 -RA FEW014CB BKN015 25/24 Q1005 TEMPO TL2200 -RA RMK CB IN APCH AND CLIMB-OUT
METAR WADD 272030Z 26011KT 5000 -RA FEW014CB BKN015 26/25 Q1004 TEMPO TL2130 -RA RMK CB IN APCH AND CLIMB-OUT
METAR WADD 272000Z 25010KT 5000 -RA FEW014CB BKN015 26/25 Q1005 TEMPO TL2100 -RA RMK CB IN APCH AND CLIMB-OUT
METAR WADD 271930Z COR 28016G26KT 5000 -RA FEW014CB BKN015 25/24 Q1005 TEMPO TL2030 -RA RMK CB IN APCH AND CLIMB-OUT
METAR WADD 271900Z 25009KT 8000 -RA FEW014CB BKN015 26/25 Q1005 TEMPO TL2000 -RA RMK CB IN APCH AND CLIMB-OUT
METAR WADD 271830Z 26009KT 220V280 5000 -RA FEW014CB BKN015 26/25 Q1005 TEMPO TL1930 -RA RMK CB IN APCH AND CLIMB-OUT
METAR WADD 271800Z 28015KT 9999 FEW015CB BKN016 27/25 Q1005 NOSIG RMK CB IN APCH AND CLIMB-OUT
METAR WADD 271730Z 28013KT 9999 FEW015CB BKN016 27/25 Q1005 NOSIG
METAR WADD 271700Z 28014KT 9999 FEW015CB BKN016 27/25 Q1006 NOSIG
METAR WADD 271630Z 27013KT 9999 FEW015CB BKN016 27/25 Q1006 NOSIG RMK CB IN APCH
METAR WADD 271600Z 28013KT 9999 FEW015CB BKN016 27/25 Q1007 NOSIG
METAR WADD 271530Z 24008KT 9999 FEW015CB BKN016 26/25 Q1007 NOSIG RMK CB IN APCH
METAR WADD 271500Z 26011KT 9999 FEW015CB BKN016 27/25 Q1007 NOSIG RMK CB IN APCH
METAR WADD 271430Z 28016KT 9999 FEW015CB BKN016 28/26 Q1007 NOSIG RMK CB IN APCH AND CLIMB-OUT
METAR WADD 271400Z 27013KT 9999 FEW015CB SCT016 27/25 Q1007 NOSIG RMK CB TO SE
METAR WADD 271330Z 27014KT 9999 FEW015CB SCT016 28/25 Q1007 NOSIG RMK CB TO S
METAR WADD 271300Z 27014KT 9999 FEW015CB SCT016 28/24 Q1006 NOSIG
METAR WADD 271230Z 27014KT 9999 FEW017 28/24 Q1006 NOSIG
METAR WADD 271200Z 27011KT 9999 FEW017 28/24 Q1006 NOSIG
METAR WADD 271130Z 29011KT 9999 FEW017 28/24 Q1005 NOSIG
METAR WADD 271100Z 30009KT 9999 FEW017 28/24 Q1005 NOSIG
METAR WADD 271030Z 28012KT 9999 FEW017 28/24 Q1004 NOSIG
METAR WADD 271000Z 27016KT 9999 FEW017 28/23 Q1004 NOSIG
METAR WADD 270930Z 27016KT 9999 FEW017 28/23 Q1004 NOSIG
METAR WADD 270900Z 27015KT 9999 FEW017 29/24 Q1004 NOSIG
METAR WADD 270830Z 27015KT 9999 FEW017 29/24 Q1004 NOSIG
METAR WADD 270800Z 28015KT 9999 SCT016 29/24 Q1004 NOSIG
METAR WADD 270730Z 27014KT 9999 SCT016 30/24 Q1004 NOSIG
METAR WADD 270700Z 26012KT 9999 SCT016 30/23 Q1005 NOSIG
METAR WADD 270630Z 28014KT 9999 SCT016 31/24 Q1005 NOSIG
METAR WADD 270600Z 28014KT 9999 SCT016 30/24 Q1005 NOSIG
METAR WADD 270530Z 28016KT 9999 SCT016 30/23 Q1005 NOSIG
METAR WADD 270500Z 28015KT 9999 SCT016 29/24 Q1006 NOSIG
METAR WADD 270430Z 27016KT 9999 SCT016 29/24 Q1006 NOSIG
METAR WADD 270400Z 29017KT 9999 SCT016 29/24 Q1006 NOSIG
METAR WADD 270330Z 29015KT 9999 SCT016 30/24 Q1006 NOSIG
METAR WADD 270300Z 29015KT 9999 SCT016 29/24 Q1007 NOSIG
METAR WADD 270230Z 29015KT 9999 SCT016 29/24 Q1007 NOSIG
METAR WADD 270200Z 33008KT 300V360 9999 SCT016 27/23 Q1007 NOSIG
METAR WADD 270130Z 32010KT 9999 BKN016 26/23 Q1007 NOSIG
METAR WADD 270100Z 29014KT 9999 BKN016 26/23 Q1007 RERA NOSIG
METAR WADD 270030Z 28013KT 8000 -RA BKN016 25/24 Q1007 TEMPO TL0130 -RA
METAR WADD 270000Z 29014KT 7000 -RA FEW014CB BKN015 24/23 Q1007 TEMPO TL0100 -RA
METAR WADD 262330Z 29013KT 6000 -RA FEW014CB BKN015 23/23 Q1007 TEMPO TL2430 -RA RMK CB IN APCH
METAR WADD 262300Z 28014KT 5000 RA FEW014CB BKN015 23/22 Q1007 TEMPO TL2400 5000 RA RMK CB IN APCH</description><pubDate>Fri, 27 Feb 2026 22:34:18 </pubDate></item></channel></rss>