<rss version="2.0"><channel><title>Aviation Weather METAR Data for WADD</title><link>https://aviationweather.gov/api/data/metar?ids=WADD&amp;hours=24</link><description>Latest METAR data for WADD</description><item><title>2025-10-07 01:55:54Z</title><link>https://aviationweather.gov/api/data/metar?ids=WADD&amp;hours=24</link><description>METAR WADD 070130Z 27005KT 9999 FEW017 29/24 Q1013 NOSIG
METAR WADD 070100Z 25003KT 9999 FEW017 28/25 Q1014 NOSIG
METAR WADD 070030Z VRB02KT 9999 FEW017 27/25 Q1014 NOSIG
METAR WADD 070000Z VRB01KT 9999 FEW017 27/25 Q1014 NOSIG
METAR WADD 062330Z 12003KT 9999 FEW017 26/25 Q1013 NOSIG
METAR WADD 062300Z 01003KT 9999 FEW017 25/24 Q1013 NOSIG
METAR WADD 062230Z 01004KT 9999 FEW017 25/24 Q1013 NOSIG
METAR WADD 062200Z 35004KT 9999 FEW017 25/25 Q1013 NOSIG
 WADD 062130Z 01002KT 9999 FEW017 25/24 Q1013 NOSIG
METAR WADD 062100Z 19002KT 9999 FEW017 26/25 Q1013 NOSIG
METAR WADD 062030Z VRB01KT 9999 FEW017 26/25 Q1013 NOSIG
METAR WADD 062000Z VRB01KT 9999 FEW017 26/25 Q1013 NOSIG
METAR WADD 061930Z 19003KT 9999 FEW017 27/26 Q1013 NOSIG
METAR WADD 061900Z 21004KT 9999 FEW017 27/26 Q1013 NOSIG
METAR WADD 061830Z 22004KT 9999 FEW017 27/26 Q1013 NOSIG
METAR WADD 061800Z 18004KT 9999 FEW017 27/26 Q1013 NOSIG
METAR WADD 061730Z 16002KT 9999 FEW017 27/26 Q1014 NOSIG
METAR WADD 061700Z 16003KT 9999 FEW017 27/26 Q1014 NOSIG
METAR WADD 061630Z 15004KT 9999 FEW017 27/26 Q1014 NOSIG
METAR WADD 061600Z 17002KT 9999 FEW017 27/26 Q1014 NOSIG
METAR WADD 061530Z 17002KT 9999 FEW017 27/26 Q1014 NOSIG
METAR WADD 061500Z 15003KT 9999 FEW017 27/26 Q1014 NOSIG
METAR WADD 061430Z 15003KT 9999 FEW017 28/26 Q1014 NOSIG
METAR WADD 061400Z 15004KT 9999 FEW017 28/26 Q1014 NOSIG
METAR WADD 061330Z 14005KT 9999 FEW017 28/26 Q1014 NOSIG
METAR WADD 061300Z 14005KT 9999 FEW017 28/26 Q1014 NOSIG
 WADD 061230Z 12004KT 9999 FEW017 28/26 Q1014 NOSIG
METAR WADD 061200Z 13003KT 9999 FEW017 28/26 Q1013 NOSIG
METAR WADD 061130Z 14006KT 9999 FEW017 28/26 Q1013 NOSIG
METAR WADD 061100Z 15006KT 9999 FEW017 28/26 Q1012 NOSIG
METAR WADD 061030Z 16007KT 9999 FEW017 28/26 Q1012 NOSIG
METAR WADD 061000Z 15009KT 9999 FEW017 29/26 Q1012 NOSIG
METAR WADD 060930Z 15011KT 9999 FEW017 29/25 Q1011 NOSIG
 WADD 060900Z 16010KT 9999 FEW017 30/25 Q1011 NOSIG
METAR WADD 060830Z 15010KT 9999 FEW017 30/25 Q1010 NOSIG
METAR WADD 060800Z 16009KT 9999 FEW017 30/25 Q1010 NOSIG
METAR WADD 060730Z 15010KT 9999 FEW017 31/25 Q1011 NOSIG
METAR WADD 060700Z 16009KT 9999 FEW017 31/25 Q1011 NOSIG
METAR WADD 060630Z 14009KT 9999 FEW017 31/25 Q1011 NOSIG
METAR WADD 060600Z 13009KT 9999 FEW017 32/25 Q1011 NOSIG
METAR WADD 060530Z 11011KT 9999 FEW017 31/25 Q1012 NOSIG
METAR WADD 060500Z 10011KT 9999 FEW017 31/25 Q1012 NOSIG
METAR WADD 060430Z 10011KT 9999 FEW017 31/25 Q1013 NOSIG
METAR WADD 060400Z 11011KT 9999 FEW017 31/26 Q1013 NOSIG
METAR WADD 060330Z 12010KT 090V160 9999 FEW017 30/26 Q1013 NOSIG
METAR WADD 060300Z 11010KT 9999 FEW017 30/26 Q1014 NOSIG
METAR WADD 060230Z 11009KT 9999 FEW017 30/26 Q1014 NOSIG
 WADD 060200Z 11005KT 9999 FEW017 30/26 Q1014 NOSIG</description><pubDate>Tue, 07 Oct 2025 01:55:54 </pubDate></item></channel></rss>