<rss version="2.0"><channel><title>Aviation Weather METAR Data for WADD</title><link>https://aviationweather.gov/api/data/metar?ids=WADD&amp;hours=24</link><description>Latest METAR data for WADD</description><item><title>2026-02-08 14:01:31Z</title><link>https://aviationweather.gov/api/data/metar?ids=WADD&amp;hours=24</link><description>METAR WADD 081330Z 33003KT 9999 SCT016 27/24 Q1010 NOSIG
METAR WADD 081300Z VRB02KT 9999 SCT016 26/23 Q1010 NOSIG
METAR WADD 081230Z 36005KT 280V050 9999 FEW015CB BKN016 26/23 Q1010 R ERA NOSIG
METAR WADD 081200Z 29009KT 270V360 8000 -RA FEW015CB BKN016 27/23 Q1010 TEMPO TL1300 -RA
METAR WADD 081130Z 28018G27KT 9999 FEW016CB BKN016 26/24 Q1009 NOSIG RMK CB IN APCH AND CLIMB-OUT
METAR WADD 081100Z 26012KT 9999 FEW016CB SCT016 29/26 Q1009 NOSIG
METAR WADD 081030Z 25009KT 9999 FEW016CB FEW017 29/25 Q1008 NOSIG
METAR WADD 081000Z 25009KT 9999 FEW016CB FEW017 29/25 Q1008 NOSIG
METAR WADD 080930Z 25009KT 9999 FEW017 29/25 Q1007 NOSIG
METAR WADD 080900Z 26010KT 9999 FEW017 30/25 Q1007 NOSIG
METAR WADD 080830Z 26010KT 9999 FEW017 30/25 Q1007 NOSIG
METAR WADD 080800Z 26009KT 9999 FEW017 31/25 Q1006 NOSIG
METAR WADD 080730Z 26010KT 9999 FEW017 31/24 Q1006 NOSIG
METAR WADD 080700Z 26010KT 9999 FEW017 31/25 Q1007 NOSIG
METAR WADD 080630Z 26011KT 9999 FEW017 31/25 Q1007 NOSIG
METAR WADD 080600Z 26010KT 9999 FEW017 31/25 Q1007 NOSIG
METAR WADD 080530Z 25010KT 210V270 9999 FEW017 31/25 Q1007 NOSIG
METAR WADD 080500Z 25010KT 9999 SCT017 31/24 Q1007 NOSIG
METAR WADD 080430Z 25008KT 220V280 9999 SCT017 31/24 Q1008 NOSIG
METAR WADD 080400Z 25009KT 9999 SCT017 31/25 Q1008 NOSIG
METAR WADD 080330Z 27008KT 230V300 9999 SCT017 31/25 Q1008 NOSIG
METAR WADD 080230Z 29008KT 260V330 9999 FEW017 31/24 Q1009 NOSIG
METAR WADD 080200Z 30007KT 260V340 9999 FEW017 30/24 Q1009 NOSIG
METAR WADD 080130Z 31007KT 270V330 9999 FEW017 30/25 Q1009 NOSIG
METAR WADD 080100Z 29006KT 260V330 9999 FEW017 29/25 Q1009 NOSIG
METAR WADD 080030Z 29005KT 260V330 9999 FEW017 29/25 Q1009 NOSIG
METAR WADD 080000Z 35003KT 9999 FEW017 28/25 Q1009 NOSIG
METAR WADD 072330Z 33004KT 270V030 9999 FEW017 28/25 Q1008 NOSIG
SPECI WADD 072300Z VRB01KT 9999 FEW016 27/25 Q1008 NOSIG
METAR WADD 072230Z 29006KT 9999 SCT016 27/24 Q1007 NOSIG
METAR WADD 072200Z 28005KT 9999 SCT016 27/24 Q1007 NOSIG
METAR WADD 072130Z 28007KT 9999 SCT016 27/24 Q1007 NOSIG
METAR WADD 072100Z 28009KT 9999 BKN016 27/24 Q1007 NOSIG
METAR WADD 072030Z 27010KT 9999 BKN016 27/25 Q1007 NOSIG
METAR WADD 072000Z 29009KT 9999 BKN016 27/25 Q1007 NOSIG
METAR WADD 071930Z 30009KT 9999 FEW015CB BKN016 28/24 Q1007 NOSIG
METAR WADD 071900Z 29009KT 9999 FEW015CB BKN016 27/25 Q1007 NOSIG
METAR WADD 071830Z 29010KT 9999 FEW015CB BKN016 27/24 Q1007 NOSIG
METAR WADD 071800Z 29011KT 9999 BKN015 27/24 Q1007 NOSIG
METAR WADD 071730Z 29013KT 9999 BKN015 27/24 Q1007 NOSIG
METAR WADD 071700Z 29011KT 9999 BKN015 28/24 Q1008 NOSIG
METAR WADD 071630Z 31009KT 9999 BKN015 27/25 Q1009 RERA NOSIG
METAR WADD 071600Z 32007KT 290V010 8000 -RA FEW014CB BKN015 27/25 Q10 09 TEMPO TL1700 -RA
METAR WADD 071530Z 31009KT 8000 -RA FEW014CB BKN015 27/25 Q1009 TEMPO TL1630 -RA
METAR WADD 071500Z 30013KT 8000 -RA FEW014CB BKN015 27/25 Q1009 TEMPO TL1600 -RA
METAR WADD 071430Z 30011KT 7000 -RA FEW014CB BKN015 26/24 Q1009 RETS TEMPO TL1530 -RA</description><pubDate>Sun, 08 Feb 2026 14:01:31 </pubDate></item></channel></rss>