<rss version="2.0"><channel><title>Aviation Weather METAR Data for WADD</title><link>https://aviationweather.gov/api/data/metar?ids=WADD&amp;hours=24</link><description>Latest METAR data for WADD</description><item><title>2025-04-01 07:41:34Z</title><link>https://aviationweather.gov/api/data/metar?ids=WADD&amp;hours=24</link><description>WADD 010730Z 26008KT 9999 FEW017 30/26 Q1007 NOSIG
WADD 010700Z 25008KT 9999 FEW017 30/25 Q1007 NOSIG
WADD 010630Z 26010KT 9999 FEW017 30/26 Q1007 NOSIG
WADD 010600Z 27010KT 9999 FEW017 30/25 Q1007 NOSIG
WADD 010530Z 26009KT 220V310 9999 FEW017 30/26 Q1008 NOSIG
WADD 010500Z 25008KT 210V290 9999 FEW017 30/26 Q1008 NOSIG
WADD 010430Z 25009KT 220V310 9999 SCT017 30/26 Q1008 NOSIG
WADD 010400Z 25007KT 9999 SCT016 30/26 Q1009 NOSIG
WADD 010330Z 26007KT 220V300 9999 SCT016 30/26 Q1009 NOSIG
WADD 010300Z 27008KT 220V310 9999 SCT016 30/26 Q1009 NOSIG
WADD 010230Z 29007KT 240V330 9999 SCT016 30/26 Q1009 NOSIG
WADD 010200Z 29009KT 9999 SCT016 30/25 Q1009 NOSIG
WADD 010130Z 30007KT 9999 SCT016 29/26 Q1009 NOSIG
WADD 010100Z 30006KT 270V330 9999 SCT016 29/26 Q1009 NOSIG
WADD 010030Z 30005KT 270V330 9999 SCT016 29/25 Q1009 NOSIG
WADD 312330Z VRB02KT 9999 SCT017 28/25 Q1008 NOSIG
WADD 312300Z VRB01KT 9999 SCT016 26/25 Q1008 NOSIG
WADD 312230Z 04004KT 9999 SCT016 26/25 Q1008 NOSIG
WADD 312200Z VRB01KT 9999 SCT016 26/25 Q1007 NOSIG
WADD 312130Z 05002KT 9999 FEW017 26/25 Q1007 NOSIG
WADD 312100Z VRB02KT 9999 FEW017 26/25 Q1007 NOSIG
WADD 312030Z VRB01KT 9999 FEW017 26/25 Q1007 NOSIG
WADD 312000Z VRB01KT 9999 FEW017 26/25 Q1007 NOSIG
WADD 311930Z VRB01KT 9999 FEW017 26/25 Q1007 NOSIG
WADD 311900Z VRB01KT 9999 FEW017 26/25 Q1007 NOSIG
WADD 311830Z VRB02KT 9999 FEW017 26/24 Q1007 NOSIG
WADD 311800Z 34004KT 9999 FEW017 27/25 Q1008 NOSIG
WADD 311730Z 36004KT 290V020 9999 FEW017 27/24 Q1008 NOSIG
WADD 311700Z 01003KT 9999 FEW017 27/25 Q1008 NOSIG
WADD 311630Z 02004KT 330V060 9999 FEW017 27/25 Q1008 NOSIG
WADD 311600Z VRB01KT 9999 FEW017 27/25 Q1009 NOSIG
WADD 311530Z VRB02KT 9999 FEW017 27/25 Q1009 NOSIG
WADD 311500Z 20001KT 9999 FEW017 27/25 Q1009 NOSIG
WADD 311430Z VRB01KT 9999 FEW017 27/25 Q1009 NOSIG
WADD 311400Z VRB01KT 9999 FEW017 27/25 Q1009 NOSIG
WADD 311330Z VRB01KT 9999 FEW017 28/25 Q1008 NOSIG
WADD 311300Z VRB01KT 9999 FEW017 28/25 Q1008 NOSIG
WADD 311230Z VRB02KT 9999 FEW017 28/25 Q1008 NOSIG
WADD 311200Z 22001KT 9999 FEW017 28/25 Q1008 NOSIG
WADD 311130Z VRB02KT 9999 SCT016 28/25 Q1007 NOSIG
WADD 311100Z 24003KT 9999 SCT016 29/26 Q1007 NOSIG
WADD 311030Z 24005KT 9999 SCT016 29/26 Q1007 NOSIG
WADD 311000Z 25007KT 9999 SCT016 29/25 Q1006 NOSIG
WADD 310930Z 24007KT 9999 SCT016 30/26 Q1006 NOSIG
WADD 310900Z 25008KT 9999 SCT016 30/26 Q1006 NOSIG
WADD 310830Z 25008KT 9999 SCT016 30/26 Q1006 NOSIG
WADD 310800Z 25008KT 220V280 9999 SCT016 31/26 Q1006 NOSIG</description><pubDate>Tue, 01 Apr 2025 07:41:34 </pubDate></item></channel></rss>