<rss version="2.0"><channel><title>Aviation Weather METAR Data for WADD</title><link>https://aviationweather.gov/api/data/metar?ids=WADD&amp;hours=24</link><description>Latest METAR data for WADD</description><item><title>2026-05-21 08:39:16Z</title><link>https://aviationweather.gov/api/data/metar?ids=WADD&amp;hours=24</link><description>METAR WADD 210830Z 11008KT 9999 SCT017 31/26 Q1008 NOSIG
METAR WADD 210800Z 12008KT 9999 SCT017 31/26 Q1008 NOSIG
METAR WADD 210730Z 11009KT 9999 SCT017 31/26 Q1008 NOSIG
METAR WADD 210700Z 11007KT 060V130 9999 SCT017 32/26 Q1008 NOSIG
METAR WADD 210630Z 11006KT 070V140 9999 FEW017 33/27 Q1008 NOSIG
METAR WADD 210600Z 11005KT 080V160 9999 FEW017 33/27 Q1009 NOSIG
METAR WADD 210530Z 11004KT 070V160 9999 FEW017 34/26 Q1009 NOSIG
METAR WADD 210500Z 12004KT 070V170 9999 FEW017 33/26 Q1009 NOSIG
METAR WADD 210430Z 26008KT 220V290 9999 FEW017 32/27 Q1009 NOSIG
METAR WADD 210400Z 27007KT 210V290 9999 FEW017 32/26 Q1010 NOSIG
METAR WADD 210330Z VRB03KT 9999 FEW017 33/27 Q1010 NOSIG
METAR WADD 210300Z 13004KT 080V170 9999 FEW017 32/26 Q1010 NOSIG
METAR WADD 210230Z 13005KT 090V160 9999 FEW017 31/26 Q1011 NOSIG
METAR WADD 210200Z 25004KT 190V300 9999 FEW017 31/27 Q1011 NOSIG
METAR WADD 210130Z 27007KT 230V300 9999 FEW017 30/27 Q1011 NOSIG
METAR WADD 210100Z 30005KT 280V340 9999 FEW017 30/26 Q1011 NOSIG
METAR WADD 210030Z 29004KT 9999 FEW017 30/26 Q1010 NOSIG
METAR WADD 210000Z 31003KT 9999 FEW017 29/26 Q1010 NOSIG
METAR WADD 202330Z 30003KT 8000 FEW017 28/26 Q1010 NOSIG
METAR WADD 202300Z 25003KT 6000 FEW017 26/25 Q1010 NOSIG
METAR WADD 202230Z VRB02KT 4000 BR FEW017 26/25 Q1009 TEMPO TL2330 BR
METAR WADD 202200Z VRB01KT 7000 FEW017 26/25 Q1009 NOSIG
METAR WADD 202130Z 01003KT 9999 FEW017 26/25 Q1009 NOSIG
METAR WADD 202100Z 03002KT 9999 FEW017 26/25 Q1009 NOSIG
METAR WADD 202030Z VRB01KT 9999 FEW017 26/25 Q1009 NOSIG
METAR WADD 202000Z 00000KT 9999 FEW017 26/25 Q1009 NOSIG
METAR WADD 201930Z 07003KT 9999 SCT017 26/25 Q1008 NOSIG
METAR WADD 201900Z 08004KT 9999 SCT017 26/25 Q1009 NOSIG
METAR WADD 201830Z 08004KT 9999 SCT017 27/25 Q1009 NOSIG
METAR WADD 201800Z 08004KT 9999 SCT017 27/25 Q1009 NOSIG
METAR WADD 201730Z 07006KT 9999 SCT017 27/26 Q1009 NOSIG
METAR WADD 201700Z 11007KT 9999 SCT017 27/26 Q1009 NOSIG
METAR WADD 201630Z 11008KT 9999 FEW017 27/26 Q1010 NOSIG
METAR WADD 201600Z 11008KT 9999 FEW017 28/26 Q1010 NOSIG
METAR WADD 201530Z 11009KT 9999 FEW017 28/26 Q1010 NOSIG
METAR WADD 201500Z 11010KT 9999 SCT017 28/26 Q1010 NOSIG
METAR WADD 201430Z 11008KT 9999 SCT017 28/26 Q1010 NOSIG
METAR WADD 201400Z 12008KT 9999 SCT017 28/26 Q1010 NOSIG
METAR WADD 201330Z 12008KT 9999 FEW017 28/26 Q1010 NOSIG
METAR WADD 201300Z 12008KT 9999 FEW017 28/26 Q1010 NOSIG
METAR WADD 201230Z 12010KT 9999 FEW017 28/26 Q1009 NOSIG
METAR WADD 201200Z 13011KT 9999 FEW017 28/26 Q1009 NOSIG
METAR WADD 201100Z 13009KT 9999 SCT017 28/26 Q1009 NOSIG
METAR WADD 201030Z 11007KT 9999 SCT016 28/26 Q1008 NOSIG
METAR WADD 201000Z 12007KT 9999 FEW015CB SCT016 29/26 Q1008 NOSIG
METAR WADD 200930Z 12009KT 9999 FEW015CB FEW016 29/26 Q1008 NOSIG
METAR WADD 200900Z 12011KT 9999 FEW015CB FEW016 30/26 Q1007 NOSIG</description><pubDate>Thu, 21 May 2026 08:39:16 </pubDate></item></channel></rss>