<rss version="2.0"><channel><title>Aviation Weather METAR Data for WADD</title><link>https://aviationweather.gov/api/data/metar?ids=WADD&amp;hours=24</link><description>Latest METAR data for WADD</description><item><title>2025-02-15 08:26:27Z</title><link>https://aviationweather.gov/api/data/metar?ids=WADD&amp;hours=24</link><description>WADD 150800Z 13007KT 080V150 9999 FEW015CB SCT016 31/27 Q1006 NOSIG
WADD 150730Z 13006KT 9999 FEW015CB SCT016 31/27 Q1007 NOSIG
WADD 150700Z 15008KT 9999 FEW015CB SCT016 31/27 Q1007 NOSIG
WADD 150630Z 26009KT 9999 FEW015CB SCT016 32/26 Q1007 NOSIG
WADD 150600Z 25006KT 220V280 9999 SCT017 32/25 Q1007 NOSIG
WADD 150530Z 26008KT 220V280 9999 SCT017 31/26 Q1007 NOSIG
WADD 150500Z 25007KT 9999 SCT017 31/26 Q1008 NOSIG
WADD 150430Z 25008KT 220V280 9999 SCT017 31/26 Q1008 NOSIG
WADD 150400Z VRB04KT 9999 SCT017 30/26 Q1009 NOSIG
WADD 150330Z 12004KT 080V160 9999 FEW017 30/26 Q1009 NOSIG
WADD 150300Z 11006KT 060V150 9999 FEW017 30/27 Q1009 NOSIG
WADD 150230Z 25005KT 210V290 9999 FEW017 30/26 Q1009 NOSIG
WADD 150200Z 25004KT 180V290 9999 FEW017 29/26 Q1009 NOSIG
WADD 150130Z 26004KT 170V320 9999 FEW017 29/26 Q1009 NOSIG
WADD 150100Z 26005KT 220V290 9999 FEW017 29/25 Q1009 NOSIG
WADD 150030Z VRB02KT 9999 FEW017 29/26 Q1008 NOSIG
WADD 150000Z VRB02KT 9999 FEW017 28/26 Q1008 NOSIG
WADD 142330Z 15003KT 9999 FEW016 27/25 Q1008 NOSIG
WADD 142300Z VRB02KT 7000 FEW016 26/25 Q1008 NOSIG
WADD 142230Z VRB02KT 7000 FEW016 26/25 Q1008 NOSIG
WADD 142200Z 02003KT 9999 SCT016 26/25 Q1008 NOSIG
WADD 142130Z 01003KT 9999 SCT016 26/25 Q1008 NOSIG
WADD 142100Z 04003KT 9999 SCT016 25/25 Q1008 NOSIG
WADD 142030Z 29005KT 9999 SCT016 26/25 Q1007 NOSIG
WADD 142000Z 28005KT 9999 SCT016 26/25 Q1007 NOSIG
WADD 141930Z VRB01KT 9999 SCT016 26/25 Q1007 NOSIG
WADD 141900Z VRB02KT 9999 SCT016 26/25 Q1007 NOSIG
WADD 141830Z 34003KT 9999 SCT016 26/25 Q1007 NOSIG
WADD 141800Z 32002KT 9999 SCT016 27/26 Q1008 NOSIG
WADD 141730Z 36004KT 320V020 9999 FEW015CB SCT016 27/26 Q1008 NOSIG
WADD 141700Z 35004KT 300V040 9999 FEW015CB SCT016 28/26 Q1009 NOSIG
WADD 141630Z 35003KT 9999 SCT016 27/26 Q1009 NOSIG
WADD 141600Z VRB01KT 9999 SCT016 27/26 Q1009 NOSIG
WADD 141530Z VRB01KT 9999 SCT016 27/26 Q1009 NOSIG
WADD 141500Z VRB02KT 9999 SCT016 27/26 Q1009 NOSIG
WADD 141430Z VRB02KT 9999 SCT016 27/26 Q1009 NOSIG
WADD 141400Z VRB02KT 9999 FEW015CB SCT016 28/26 Q1009 RERA NOSIG
WADD 141330Z 34004KT 270V030 5000 -RA FEW015CB SCT015 27/26 Q1009 TEMPO TL1430 5000 -RA RMK CB IN APCH
WADD 141300Z 03003KT 9999 FEW015CB SCT016 28/26 Q1008 NOSIG
WADD 141230Z VRB02KT 9999 SCT016 29/26 Q1008 NOSIG
WADD 141200Z VRB01KT 9999 SCT016 28/25 Q1008 NOSIG
WADD 141130Z VRB02KT 9999 SCT016 28/25 Q1008 NOSIG
WADD 141100Z 25004KT 9999 SCT016 28/25 Q1007 NOSIG
WADD 141030Z 26007KT 9999 SCT016 28/26 Q1007 NOSIG
WADD 141000Z 24004KT 190V280 9999 SCT016 29/25 Q1007 NOSIG
WADD 140930Z VRB03KT 9999 SCT016 30/25 Q1007 NOSIG
WADD 140900Z 22004KT 140V280 9999 SCT016 30/25 Q1006 NOSIG
WADD 140830Z 23008KT 9999 SCT016 30/25 Q1006 NOSIG</description><pubDate>Sat, 15 Feb 2025 08:26:27 </pubDate></item></channel></rss>