<rss version="2.0"><channel><title>Aviation Weather METAR Data for WADD</title><link>https://aviationweather.gov/api/data/metar?ids=WADD&amp;hours=24</link><description>Latest METAR data for WADD</description><item><title>2025-04-29 21:23:50Z</title><link>https://aviationweather.gov/api/data/metar?ids=WADD&amp;hours=24</link><description>WADD 292030Z 03004KT 9999 SCT017 25/24 Q1009 NOSIG
WADD 292000Z 05004KT 9999 SCT017 25/24 Q1008 NOSIG
WADD 291930Z 03003KT 9999 SCT017 25/24 Q1009 NOSIG
WADD 291900Z 05003KT 9999 SCT017 25/24 Q1009 NOSIG
WADD 291830Z 02005KT 9999 FEW017 25/24 Q1009 NOSIG
WADD 291800Z 04004KT 9999 SCT017 26/25 Q1009 NOSIG
WADD 291730Z 03005KT 9999 FEW016CB SCT017 26/24 Q1009 NOSIG
WADD 291700Z 05005KT 020V080 9999 FEW016CB SCT017 26/24 Q1009 NOSIG
WADD 291630Z VRB02KT 9999 FEW016CB SCT017 26/24 Q1010 NOSIG
WADD 291600Z 03003KT 9999 FEW016CB SCT017 27/25 Q1010 NOSIG
WADD 291530Z 02005KT 9999 SCT017 26/25 Q1010 NOSIG
WADD 291500Z 05005KT 010V070 9999 SCT017 27/26 Q1010 NOSIG
WADD 291430Z 08004KT 020V120 9999 SCT017 27/26 Q1010 NOSIG
WADD 291400Z 10002KT 9999 FEW017 26/26 Q1010 NOSIG
WADD 291330Z 12003KT 9999 FEW017 27/26 Q1010 NOSIG
WADD 291300Z 11004KT 9999 FEW017 27/26 Q1010 NOSIG
WADD 291200Z 13005KT 9999 FEW017 28/26 Q1009 NOSIG
WADD 291130Z 13006KT 9999 FEW017 28/26 Q1009 NOSIG
WADD 291030Z 13007KT 9999 FEW017 28/25 Q1008 NOSIG
WADD 291000Z 12008KT 9999 FEW017 29/25 Q1008 NOSIG
WADD 290900Z 12008KT 9999 FEW017 30/25 Q1008 NOSIG
WADD 290730Z 13010KT 9999 FEW017 30/26 Q1008 NOSIG
WADD 290700Z 11009KT 080V150 9999 FEW017 30/25 Q1008 NOSIG
WADD 290600Z 11008KT 9999 FEW017 31/26 Q1008 NOSIG
WADD 290530Z 10009KT 9999 FEW017 31/25 Q1009 NOSIG
WADD 290430Z 12007KT 050V130 9999 FEW017 30/25 Q1009 NOSIG
WADD 290300Z 12005KT 9999 FEW015CB SCT016 28/23 Q1011 NOSIG
WADD 290200Z 14018KT 4000 RA FEW014CB BKN015 26/24 Q1011 TEMPO TL0300 4000 RA
WADD 290130Z VRB02KT 9999 FEW015CB SCT016 29/24 Q1011 NOSIG
WADD 290000Z VRB02G18KT 8000 -RA FEW015CB SCT016 26/23 Q1011 TEMPO TL0100 -RA
WADD 282330Z 01006KT 340V070 9999 SCT016 26/24 Q1010 NOSIG
WADD 282300Z 01004KT 9999 SCT016 25/24 Q1010 NOSIG
WADD 282230Z 02004KT 9999 SCT016 24/24 Q1010 NOSIG
WADD 282200Z VRB01KT 9999 BKN016 26/24 Q1009 NOSIG
WADD 282130Z VRB01KT 9999 FEW015CB BKN016 25/24 Q1009 RERA NOSIG</description><pubDate>Tue, 29 Apr 2025 21:23:50 </pubDate></item></channel></rss>