<rss version="2.0"><channel><title>Aviation Weather METAR Data for WADD</title><link>https://aviationweather.gov/api/data/metar?ids=WADD&amp;hours=24</link><description>Latest METAR data for WADD</description><item><title>2025-09-08 12:55:11Z</title><link>https://aviationweather.gov/api/data/metar?ids=WADD&amp;hours=24</link><description>METAR WADD 081230Z 15016KT 9999 BKN016 27/24 Q1013 NOSIG
METAR WADD 081200Z 15015KT 9999 BKN015 27/24 Q1012 NOSIG
METAR WADD 081130Z 15017KT 9999 BKN015 27/24 Q1012 NOSIG
METAR WADD 081100Z 15016KT 9999 BKN015 27/24 Q1011 NOSIG
METAR WADD 081030Z 14015KT 9999 BKN015 27/24 Q1011 NOSIG
METAR WADD 081000Z 14016KT 9999 FEW015CB BKN015 27/24 Q1011 NOSIG
METAR WADD 080930Z 15018KT 9999 FEW015CB BKN015 27/24 Q1011 NOSIG RMK CB IN CLIMB-OUT
METAR WADD 080900Z 15017G24KT 9999 FEW015CB BKN015 27/24 Q1011 NOSIG
METAR WADD 080830Z 15018KT 9999 FEW015CB BKN015 27/24 Q1010 NOSIG
 WADD 080800Z 15018KT 9999 FEW015CB BKN015 28/24 Q1011 NOSIG
METAR WADD 080730Z 15015KT 9999 BKN015 28/24 Q1011 NOSIG
METAR WADD 080700Z 14014KT 9999 SCT016 29/24 Q1011 NOSIG
METAR WADD 080630Z 14015KT 9999 SCT016 29/24 Q1011 NOSIG
METAR WADD 080500Z 14011KT 9999 SCT015 28/24 Q1012 NOSIG
METAR WADD 080430Z 13013KT 9999 SCT015 28/24 Q1012 NOSIG
METAR WADD 080400Z 13011KT 9999 SCT016 28/24 Q1013 NOSIG
METAR WADD 080330Z 13012KT 9999 BKN015 28/23 Q1013 NOSIG
METAR WADD 080300Z 12010KT 9999 BKN015 28/23 Q1013 NOSIG
METAR WADD 080230Z 11012KT 9999 BKN015 28/23 Q1013 NOSIG
METAR WADD 080200Z 11009KT 9999 SCT016 28/23 Q1013 NOSIG
METAR WADD 080130Z 11011KT 9999 SCT016 28/24 Q1013 NOSIG
METAR WADD 080100Z 11010KT 9999 SCT016 27/23 Q1013 NOSIG
METAR WADD 080030Z 11010KT 9999 SCT016 28/23 Q1013 NOSIG
METAR WADD 080000Z 12011KT 9999 SCT016 27/24 Q1013 NOSIG
METAR WADD 072330Z 13009KT 9999 BKN016 27/24 Q1013 NOSIG
METAR WADD 072300Z 12007KT 9999 SCT016 26/24 Q1013 NOSIG
METAR WADD 072230Z 12007KT 9999 SCT016 26/24 Q1013 NOSIG
METAR WADD 072200Z 11007KT 9999 SCT016 26/23 Q1012 NOSIG
METAR WADD 072130Z 12011KT 9999 SCT016 26/23 Q1012 NOSIG
METAR WADD 072100Z 13011KT 9999 SCT016 26/23 Q1012 NOSIG
METAR WADD 072030Z 13010KT 9999 SCT016 26/23 Q1012 NOSIG
METAR WADD 072000Z 13010KT 9999 SCT016 26/23 Q1012 NOSIG
METAR WADD 071930Z 13010KT 9999 BKN016 26/23 Q1012 NOSIG
METAR WADD 071900Z 13009KT 9999 BKN016 26/23 Q1012 NOSIG
METAR WADD 071830Z 13008KT 9999 BKN016 26/23 Q1012 NOSIG
METAR WADD 071800Z 14006KT 9999 BKN016 26/23 Q1012 NOSIG
METAR WADD 071730Z 12006KT 9999 BKN016 26/23 Q1013 NOSIG
METAR WADD 071700Z 13010KT 9999 BKN016 26/24 Q1013 NOSIG
METAR WADD 071630Z 13009KT 9999 SCT016 26/24 Q1013 NOSIG
METAR WADD 071600Z 12008KT 9999 SCT016 27/23 Q1013 NOSIG
 WADD 071530Z 13010KT 9999 SCT016 27/24 Q1014 NOSIG
METAR WADD 071500Z 13011KT 9999 SCT016 27/23 Q1014 NOSIG
 WADD 071430Z 13012KT 9999 SCT016 27/23 Q1014 NOSIG
METAR WADD 071400Z 12010KT 9999 SCT016 27/22 Q1014 NOSIG
METAR WADD 071330Z 13010KT 9999 SCT016 27/23 Q1014 NOSIG
METAR WADD 071300Z 13011KT 9999 SCT016 27/23 Q1013 NOSIG</description><pubDate>Mon, 08 Sep 2025 12:55:11 </pubDate></item></channel></rss>