<rss version="2.0"><channel><title>Aviation Weather METAR Data for WADD</title><link>https://aviationweather.gov/api/data/metar?ids=WADD&amp;hours=24</link><description>Latest METAR data for WADD</description><item><title>2025-04-17 13:46:12Z</title><link>https://aviationweather.gov/api/data/metar?ids=WADD&amp;hours=24</link><description>WADD 171330Z 29008KT 9999 SCT016 29/25 Q1009 NOSIG
WADD 171300Z 31009KT 9999 SCT016 28/25 Q1009 NOSIG
WADD 171230Z 27010KT 9999 SCT016 29/26 Q1008 NOSIG
WADD 171200Z 25006KT 9999 SCT016 29/26 Q1008 NOSIG
WADD 171130Z 26007KT 9999 SCT016 29/26 Q1008 NOSIG
WADD 171100Z 26006KT 9999 FEW016 29/26 Q1008 NOSIG
WADD 171030Z 26006KT 9999 FEW016 29/26 Q1007 NOSIG
WADD 171000Z 26006KT 9999 FEW016 29/26 Q1007 NOSIG
WADD 170930Z 26007KT 9999 FEW016 29/26 Q1006 NOSIG
WADD 170900Z 26008KT 9999 FEW016 29/26 Q1006 NOSIG
WADD 170830Z 26007KT 9999 SCT016 30/26 Q1006 NOSIG
WADD 170800Z 26008KT 9999 SCT016 30/26 Q1006 NOSIG
WADD 170730Z 26008KT 9999 SCT016 31/26 Q1006 NOSIG
WADD 170700Z 26010KT 9999 FEW016 31/27 Q1005 NOSIG
WADD 170630Z 25009KT 9999 FEW016 31/27 Q1006 NOSIG
WADD 170600Z 26010KT 9999 FEW016 31/27 Q1006 NOSIG
WADD 170530Z 26010KT 9999 FEW016 31/27 Q1006 NOSIG
WADD 170500Z 26010KT 9999 FEW016 31/27 Q1007 NOSIG
WADD 170430Z 26010KT 9999 FEW016 31/27 Q1007 NOSIG
WADD 170400Z 26009KT 9999 FEW016 31/27 Q1008 NOSIG
WADD 170330Z 26009KT 9999 FEW016 30/27 Q1008 NOSIG
WADD 170300Z 28008KT 250V320 9999 FEW016 31/27 Q1009 NOSIG
WADD 170230Z 29007KT 9999 FEW016 30/26 Q1009 NOSIG
WADD 170200Z 27006KT 240V300 9999 FEW016 30/26 Q1009 NOSIG
WADD 170130Z 29007KT 9999 FEW016 29/26 Q1009 NOSIG
WADD 170100Z 30005KT 270V330 9999 FEW017 29/26 Q1009 NOSIG
WADD 170030Z 30005KT 270V340 9999 FEW017 28/26 Q1009 NOSIG
WADD 170000Z 29004KT 250V320 9999 FEW017 28/26 Q1009 NOSIG
WADD 162330Z 33004KT 270V030 9999 SCT017 27/26 Q1009 NOSIG
WADD 162300Z 30005KT 9999 SCT017 27/25 Q1008 NOSIG
WADD 162230Z 28005KT 9999 SCT017 26/25 Q1008 NOSIG
WADD 162200Z 26005KT 9999 BKN016 26/24 Q1008 NOSIG
WADD 162130Z 30005KT 9999 FEW014CB BKN015 26/25 Q1008 RERA NOSIG
WADD 162100Z 28007KT 7000 -RA FEW014CB BKN015 25/24 Q1007 TEMPO TL2200 -RA RMK CB IN CLIMB-OUT
WADD 162030Z 27012KT 9999 TS FEW014CB BKN015 25/24 Q1008 RERA NOSIG RMK CB IN CLIMB-OUT
WADD 162000Z 28003KT 7000 -TSRA FEW014CB BKN015 26/25 Q1007 TEMPO TL2100 -TSRA RMK CB IN CLIMB-OUT
WADD 161930Z 31005KT 6000 3000W RA FEW014CB BKN015 26/23 Q1008 TEMPO TL2030 RA RMK CB IN CLIMB-OUT
WADD 161900Z 14004KT 050V220 9999 FEW014CB BKN015 26/23 Q1008 RERA NOSIG RMK CB IN CLIMB-OUT
WADD 161830Z VRB03KT 9999 -RA FEW014CB BKN015 28/26 Q1008 TEMPO TL1930 -RA RMK CB IN APCH
WADD 161800Z 01004KT 330V040 9999 FEW014CB BKN015 28/26 Q1008 NOSIG
WADD 161730Z 35004KT 9999 FEW017 28/26 Q1008 NOSIG
WADD 161700Z 28005KT 230V320 9999 FEW017 29/26 Q1008 NOSIG
WADD 161630Z 27004KT 240V300 9999 FEW017 28/26 Q1008 NOSIG
WADD 161600Z VRB01KT 9999 FEW017 28/26 Q1009 NOSIG
WADD 161530Z 20001KT 9999 FEW017 28/26 Q1009 NOSIG
WADD 161500Z 21001KT 9999 FEW017 28/26 Q1009 NOSIG
WADD 161430Z VRB01KT 9999 FEW017 28/26 Q1009 NOSIG
WADD 161400Z VRB01KT 9999 SCT017 28/26 Q1009 NOSIG</description><pubDate>Thu, 17 Apr 2025 13:46:12 </pubDate></item></channel></rss>