<rss version="2.0"><channel><title>Aviation Weather METAR Data for WADD</title><link>https://aviationweather.gov/api/data/metar?ids=WADD&amp;hours=24</link><description>Latest METAR data for WADD</description><item><title>2025-04-09 14:28:04Z</title><link>https://aviationweather.gov/api/data/metar?ids=WADD&amp;hours=24</link><description>WADD 091330Z 07007KT 010V100 9999 VCTS FEW016CB BKN016 28/27 Q1011 NOSIG
WADD 091300Z 10007KT 9999 VCTS FEW016CB FEW016 29/28 Q1011 NOSIG
WADD 091230Z 12007KT 9999 VCTS FEW016CB FEW016 29/28 Q1010 NOSIG
WADD 091200Z 11008KT 9999 VCTS FEW016CB FEW016 29/28 Q1010 NOSIG
WADD 091130Z 12007KT 9999 SCT016 29/28 Q1010 NOSIG
WADD 091100Z 13008KT 9999 SCT016 29/28 Q1009 NOSIG
WADD 091030Z 13008KT 9999 SCT016 29/28 Q1009 NOSIG
WADD 091000Z 13010KT 9999 SCT016 29/28 Q1008 NOSIG
WADD 090930Z 13010KT 9999 SCT016 30/28 Q1008 NOSIG
WADD 090900Z 14008KT 9999 SCT016 30/27 Q1007 NOSIG
WADD 090830Z 12008KT 9999 SCT016 30/27 Q1007 NOSIG
WADD 090800Z 12009KT 9999 SCT016 30/27 Q1007 NOSIG
WADD 090730Z 14010KT 9999 SCT016 31/28 Q1007 NOSIG
WADD 090700Z 14011KT 9999 SCT016 31/28 Q1007 NOSIG
WADD 090630Z 16010KT 9999 SCT016 31/28 Q1008 NOSIG
WADD 090600Z 14008KT 9999 SCT016 31/28 Q1008 NOSIG
WADD 090500Z 12008KT 9999 SCT016 31/29 Q1009 NOSIG
WADD 090400Z 10009KT 9999 FEW016 30/28 Q1010 NOSIG
WADD 090330Z 11007KT 9999 FEW016 30/28 Q1010 NOSIG
WADD 090300Z 10008KT 9999 SCT016 30/28 Q1011 NOSIG
WADD 090230Z 10007KT 9999 FEW015CB SCT016 31/28 Q1011 NOSIG
WADD 082300Z 12004KT 8000 -RA SCT017 27/27 Q1011 TEMPO TL2400 -RA
WADD 082230Z 13004KT 9999 SCT017 27/27 Q1011 NOSIG
WADD 082200Z 17006KT 9999 FEW016CB SCT017 27/27 Q1011 NOSIG
WADD 082130Z 19007KT 9999 FEW016CB SCT017 27/27 Q1010 RETS NOSIG
WADD 082100Z 16006KT 9999 TS FEW016CB SCT017 27/27 Q1010 TEMPO TL2200 TS
WADD 082030Z 18006KT 9999 TS FEW016CB BKN017 27/27 Q1010 TEMPO TL2130 TS
WADD 082000Z 17004KT 9999 TS FEW016CB BKN017 27/27 Q1011 TEMPO TL2100 TS
WADD 081930Z 10003KT 9999 TS FEW016CB BKN017 26/26 Q1010 RERA TEMPO TL2030 TS
WADD 081900Z 17005KT 8000 -TSRA FEW016CB BKN017 26/26 Q1010 TEMPO TL2000 -TSRA
WADD 081830Z 16004KT 100V170 7000 -TSRA FEW016CB BKN017 26/26 Q1011 TEMPO TL1930 7000 -TSRA
WADD 081800Z 08008KT 4000 TSRA FEW016CB BKN017 26/26 Q1011 TEMPO TL1900 4000 TSRA
WADD 081730Z 06003KT 7000 -TSRA FEW016CB BKN017 27/26 Q1011 TEMPO TL1830 7000 -TSRA
WADD 081700Z VRB03KT 7000 -TSRA FEW016CB BKN017 26/26 Q1011 TEMPO TL1800 7000 -TSRA
WADD 081630Z 12013G18KT 3000 TSRA FEW016CB BKN017 26/26 Q1011 TEMPO TL1730 3000 TSRA
WADD 081600Z 13019KT 1300 +TSRA FEW016CB BKN017 27/27 Q1012 TEMPO TL1700 1300 +TSRA
WADD 081530Z 19007KT 9999 TS FEW016CB BKN017 28/27 Q1012 TEMPO TL1630 TS
WADD 081500Z 09005KT 6000 -RA FEW016CB BKN017 27/27 Q1012 TEMPO TL1600 6000 -RA
WADD 081430Z 13006KT 100V180 6000 -RA FEW016CB BKN017 27/25 Q1012 TEMPO TL1530 6000 -RA</description><pubDate>Wed, 09 Apr 2025 14:28:04 </pubDate></item></channel></rss>