<rss version="2.0"><channel><title>Aviation Weather METAR Data for WADD</title><link>https://aviationweather.gov/api/data/metar?ids=WADD&amp;hours=24</link><description>Latest METAR data for WADD</description><item><title>2025-07-28 13:47:41Z</title><link>https://aviationweather.gov/api/data/metar?ids=WADD&amp;hours=24</link><description>WADD 281100Z 13015KT 9999 SCT017 26/25 Q1011 NOSIG
WADD 281030Z 13014KT 9999 SCT017 27/25 Q1011 NOSIG
WADD 280930Z 12016KT 9999 FEW017 27/24 Q1011 NOSIG
WADD 280900Z 13018KT 9999 FEW017 27/25 Q1011 NOSIG
WADD 280830Z 13018KT 9999 SCT017 28/25 Q1010 NOSIG
WADD 280800Z 13018KT 9999 FEW017 28/24 Q1010 NOSIG
WADD 280730Z 13019KT 9999 FEW017 28/24 Q1010 NOSIG
WADD 280530Z 12018KT 9999 SCT017 28/25 Q1011 NOSIG
WADD 280500Z 12018KT 9999 FEW017 28/25 Q1012 NOSIG
WADD 280430Z 12017KT 9999 SCT017 28/25 Q1012 NOSIG
WADD 280400Z 11016KT 9999 FEW017 29/25 Q1012 NOSIG
WADD 280330Z 12017KT 9999 FEW017 29/25 Q1012 NOSIG
WADD 280300Z 12016KT 9999 FEW017 28/25 Q1013 NOSIG
WADD 280230Z 12016KT 9999 SCT016 28/25 Q1013 NOSIG
WADD 280200Z 11014KT 9999 SCT016 28/26 Q1013 NOSIG
WADD 280130Z 11013KT 9999 SCT016 28/26 Q1013 NOSIG
WADD 280100Z 11010KT 9999 SCT016 27/26 Q1013 NOSIG
WADD 280030Z 11010KT 9999 FEW015CB BKN016 27/26 Q1013 NOSIG
WADD 280000Z 12009KT 9999 FEW015CB SCT016 26/26 Q1012 NOSIG
WADD 272330Z 12007KT 9999 FEW015CB BKN015 26/26 Q1012 NOSIG
WADD 272300Z 13009KT 9999 FEW015CB BKN015 26/26 Q1012 RERA NOSIG
WADD 272230Z 13006KT 8000 -RA FEW015CB BKN015 26/26 Q1012 TEMPO TL2300 8000 -RA
WADD 272200Z 12006KT 9999 FEW015CB BKN015 26/26 Q1012 NOSIG
WADD 272130Z 12008KT 9999 FEW015CB BKN015 26/26 Q1011 NOSIG
WADD 272100Z 08005KT 9999 FEW015CB BKN015 25/25 Q1011 RERA NOSIG RMK CB IN APCH AND CLIMB-OUT
WADD 272030Z 10005KT 070V180 8000 -RA FEW015CB BKN015 25/25 Q1011 TEMPO TL2130 8000 -RA RMK CB IN APCH AND CLIMB-OUT
WADD 272000Z 13003KT 8000 -RA FEW015CB BKN015 26/26 Q1011 TEMPO TL2130 5000 -RA RMK CB IN APCH AND CLIMB-OUT
WADD 271930Z 12005KT 5000 -RA FEW015CB BKN015 26/26 Q1011 TEMPO TL2000 5000 -RA RMK CB IN APCH AND CLIMB-OUT
WADD 271900Z VRB01KT 5000 -RA FEW015CB BKN015 25/25 Q1011 TEMPO TL2000 5000 -RA RMK CB IN APCH AND CLIMB-OUT
WADD 271830Z 06009KT 4000 RA FEW015CB BKN015 25/25 Q1012 TEMPO TL2000 4000 RA RMK CB IN APCH AND CLIMB-OUT
WADD 271800Z 08005KT 060V130 8000 -RA SCT016 26/25 Q1012 TEMPO TL1900 8000 -RA
WADD 271730Z 08007KT 9999 FEW016 26/25 Q1012 NOSIG
WADD 271700Z 09008KT 9999 FEW016 26/25 Q1012 NOSIG
WADD 271630Z 09008KT 9999 FEW016 26/26 Q1012 NOSIG
WADD 271600Z 11007KT 9999 FEW016 27/26 Q1012 NOSIG
WADD 271530Z 12009KT 9999 FEW016 27/26 Q1013 NOSIG
WADD 271500Z 12009KT 9999 FEW016 27/26 Q1013 NOSIG
WADD 271430Z 12010KT 9999 FEW016 27/26 Q1013 NOSIG
WADD 271400Z 12008KT 9999 FEW016 27/26 Q1013 NOSIG</description><pubDate>Mon, 28 Jul 2025 13:47:41 </pubDate></item></channel></rss>