<rss version="2.0"><channel><title>Aviation Weather METAR Data for WADD</title><link>https://aviationweather.gov/api/data/metar?ids=WADD&amp;hours=24</link><description>Latest METAR data for WADD</description><item><title>2025-02-25 03:30:24Z</title><link>https://aviationweather.gov/api/data/metar?ids=WADD&amp;hours=24</link><description>WADD 250300Z 25005KT 210V280 9999 FEW015CB SCT016 29/26 Q1013 NOSIG
WADD 250230Z 26005KT 220V310 9999 SCT016 28/26 Q1013 NOSIG
WADD 250200Z 28004KT 240V320 9999 FEW016 29/25 Q1013 NOSIG
WADD 250130Z 28004KT 9999 FEW016 29/25 Q1013 NOSIG
WADD 250100Z 27003KT 9999 FEW016 28/25 Q1013 NOSIG
WADD 250030Z 27004KT 240V310 9999 FEW016 28/25 Q1013 NOSIG
WADD 250000Z VRB02KT 9999 FEW017 27/25 Q1013 NOSIG
WADD 242330Z VRB02KT 9999 FEW017 27/25 Q1012 NOSIG
WADD 242300Z VRB02KT 9999 FEW016 26/25 Q1012 NOSIG
WADD 242230Z 27003KT 9999 FEW016 25/24 Q1012 NOSIG
WADD 242200Z 23007KT 8000 -RA FEW014CB BKN014 27/26 Q1012 TEMPO TL2300 8000 -RA RMK CB IN APCH
WADD 242130Z 35004KT 9999 FEW014CB SCT016 26/26 Q1011 NOSIG
WADD 242100Z 05003KT 9999 FEW017 26/26 Q1011 NOSIG
WADD 242030Z 03003KT 9999 FEW017 26/26 Q1011 NOSIG
WADD 242000Z 29002KT 9999 FEW017 27/27 Q1011 NOSIG
WADD 241900Z 33003KT 9999 FEW017 26/26 Q1011 NOSIG
WADD 241830Z 36003KT 9999 FEW017 26/26 Q1011 NOSIG
WADD 241800Z VRB01KT 9999 SCT016 27/26 Q1012 NOSIG
WADD 241730Z VRB01KT 9999 SCT016 27/26 Q1012 NOSIG
WADD 241700Z VRB02KT 9999 SCT016 27/25 Q1012 NOSIG
WADD 241630Z VRB02KT 9999 FEW017 27/25 Q1012 NOSIG
WADD 241600Z VRB01KT 9999 FEW017 27/26 Q1013 NOSIG
WADD 241530Z 04003KT 9999 FEW017 27/26 Q1013 NOSIG
WADD 241500Z 03003KT 9999 FEW017 27/26 Q1013 NOSIG
WADD 241430Z 04005KT 010V080 9999 FEW017 27/26 Q1013 NOSIG
WADD 241400Z 04005KT 9999 FEW017 27/26 Q1013 NOSIG
WADD 241330Z 04005KT 9999 FEW017 27/26 Q1013 NOSIG
WADD 241300Z 06010KT 9999 SCT016 27/27 Q1012 NOSIG
WADD 241230Z 09005KT 9999 SCT016 28/27 Q1012 NOSIG
WADD 241200Z 06005KT 030V110 9999 FEW017 28/26 Q1012 NOSIG
WADD 241130Z 08007KT 9999 SCT016 28/26 Q1012 NOSIG
WADD 241100Z 11006KT 9999 SCT016 29/27 Q1011 NOSIG
WADD 241030Z 12006KT 9999 SCT016 29/27 Q1011 NOSIG
WADD 241000Z 12007KT 9999 SCT016 29/27 Q1010 NOSIG
WADD 240930Z 12008KT 9999 SCT016 29/26 Q1010 NOSIG
WADD 240900Z 14010KT 9999 SCT016 30/27 Q1010 NOSIG
WADD 240830Z 13009KT 9999 SCT016 30/27 Q1010 NOSIG
WADD 240800Z 14010KT 9999 SCT016 30/27 Q1009 NOSIG
WADD 240730Z 15006KT 100V170 9999 SCT016 31/27 Q1010 NOSIG
WADD 240700Z 14007KT 9999 SCT016 30/27 Q1010 NOSIG
WADD 240630Z 16008KT 9999 SCT016 30/27 Q1010 NOSIG
WADD 240600Z VRB04KT 9999 SCT016 30/27 Q1011 NOSIG
WADD 240530Z 11008KT 070V140 9999 SCT017 31/25 Q1011 NOSIG
WADD 240500Z VRB03KT 9999 SCT016 30/26 Q1011 NOSIG
WADD 240430Z 24004KT 210V280 9999 SCT016 30/26 Q1012 RETS NOSIG
WADD 240400Z 25005KT 220V290 9999 TS FEW014CB SCT015 29/26 Q1012 RERA TEMPO TL0500 TS</description><pubDate>Tue, 25 Feb 2025 03:30:24 </pubDate></item></channel></rss>