<rss version="2.0"><channel><title>Aviation Weather METAR Data for WADD</title><link>https://aviationweather.gov/api/data/metar?ids=WADD&amp;hours=24</link><description>Latest METAR data for WADD</description><item><title>2025-10-31 21:21:06Z</title><link>https://aviationweather.gov/api/data/metar?ids=WADD&amp;hours=24</link><description>METAR WADD 312100Z 02003KT 9999 FEW017 27/26 Q1011 NOSIG
METAR WADD 312030Z 05004KT 9999 FEW017 27/26 Q1010 NOSIG
METAR WADD 312000Z 05004KT 9999 FEW017 27/27 Q1010 NOSIG
METAR WADD 311930Z 08004KT 9999 FEW017 27/26 Q1010 NOSIG
METAR WADD 311900Z 07005KT 9999 FEW017 27/26 Q1010
METAR WADD 311830Z 06007KT 9999 FEW017 27/26 Q1010 NOSIG
METAR WADD 311800Z 08007KT 9999 FEW017 27/26 Q1011 NOSIG
METAR WADD 311730Z 11008KT 9999 FEW017 28/26 Q1011 NOSIG
METAR WADD 311700Z 13008KT 9999 FEW017 28/27 Q1011 NOSIG
METAR WADD 311630Z 13010KT 9999 FEW017 28/27 Q1012 NOSIG
METAR WADD 311600Z 13008KT 9999 FEW017 28/27 Q1012 NOSIG
METAR WADD 311530Z 12006KT 9999 FEW017 28/27 Q1012 NOSIG
METAR WADD 311500Z 14006KT 9999 FEW017 28/27 Q1013 NOSIG
METAR WADD 311430Z 15006KT 9999 FEW017 28/27 Q1013 NOSIG
METAR WADD 311400Z 13007KT 9999 FEW017 28/27 Q1013 NOSIG
METAR WADD 311330Z 14005KT 9999 FEW017 28/27 Q1013 NOSIG
METAR WADD 311300Z 14007KT 9999 FEW017 29/27 Q1013 NOSIG
METAR WADD 311230Z 15005KT 9999 FEW017 29/27 Q1012 NOSIG
METAR WADD 311200Z 15006KT 9999 FEW017 29/27 Q1012 NOSIG
METAR WADD 311130Z 14007KT 9999 FEW017 29/26 Q1012 NOSIG
METAR WADD 311100Z 13007KT 9999 FEW017 29/26 Q1011 NOSIG
METAR WADD 311030Z 13007KT 9999 FEW017 29/26 Q1011 NOSIG
METAR WADD 311000Z 11006KT 9999 FEW017 29/26 Q1011 NOSIG
METAR WADD 310930Z 12008KT 9999 FEW017 30/26 Q1010 NOSIG
METAR WADD 310900Z 13007KT 9999 SCT017 30/26 Q1009 NOSIG
METAR WADD 310830Z 13008KT 9999 SCT017 30/26 Q1009 NOSIG
METAR WADD 310800Z 11006KT 9999 SCT017 30/26 Q1009 NOSIG
METAR WADD 310730Z 12009KT 9999 SCT017 30/26 Q1009 NOSIG
METAR WADD 310700Z 12009KT 9999 FEW016CB SCT017 30/26 Q1010 NOSIG
METAR WADD 310630Z 11008KT 9999 FEW016CB SCT017 31/26 Q1009 NOSIG
METAR WADD 310600Z 11006KT 9999 FEW016CB FEW017 31/26 Q1010 NOSIG
METAR WADD 310530Z 12007KT 080V150 9999 FEW016CB FEW017 31/26 Q1010 N OSIG
METAR WADD 310500Z 25005KT 9999 FEW016CB FEW017 31/27 Q1011 NOSIG
METAR WADD 310430Z 20007KT 130V250 9999 FEW017 30/26 Q1011 NOSIG
METAR WADD 310400Z 22003KT 9999 FEW017 31/26 Q1012 NOSIG
METAR WADD 310330Z 18003KT 9999 FEW017 30/27 Q1012 NOSIG
METAR WADD 310300Z 14005KT 9999 FEW017 29/27 Q1012 NOSIG
METAR WADD 310230Z 13006KT 9999 FEW017 29/26 Q1013 NOSIG
METAR WADD 310200Z 10006KT 9999 FEW017 29/26 Q1013 NOSIG
METAR WADD 310130Z 10007KT 9999 FEW016 27/26 Q1013 NOSIG
METAR WADD 310100Z 11005KT 9999 FEW016 26/25 Q1013 NOSIG
METAR WADD 310030Z 12005KT 9999 SCT016 26/25 Q1013 NOSIG
METAR WADD 310000Z 09006KT 9999 SCT016 25/25 Q1013 NOSIG
METAR WADD 302330Z 11005KT 060V140 9999 SCT016 25/25 Q1013 RERA NOSIG
METAR WADD 302300Z 10005KT 8000 -RA FEW016CB SCT016 24/24 Q1012 TEMPO TL2400 -RA
METAR WADD 302230Z 17006KT 7000 -TSRA FEW016CB BKN016 25/25 Q1012 TEMPO TL2330 7000 -RA
METAR WADD 302200Z 11004KT 080V150 7000 -TSRA FEW015CB BKN015 25/25 Q1012 TEMPO TL2300 7000 -TSRA
METAR WADD 302130Z 15005KT 7000 -TSRA FEW015CB BKN015 25/25 Q1012 TEMPO TL2230 7000 -TSRA</description><pubDate>Fri, 31 Oct 2025 21:21:06 </pubDate></item></channel></rss>