<rss version="2.0"><channel><title>Aviation Weather METAR Data for WADD</title><link>https://aviationweather.gov/api/data/metar?ids=WADD&amp;hours=24</link><description>Latest METAR data for WADD</description><item><title>2025-03-31 11:41:02Z</title><link>https://aviationweather.gov/api/data/metar?ids=WADD&amp;hours=24</link><description>WADD 311130Z VRB02KT 9999 SCT016 28/25 Q1007 NOSIG
WADD 311100Z 24003KT 9999 SCT016 29/26 Q1007 NOSIG
WADD 311030Z 24005KT 9999 SCT016 29/26 Q1007 NOSIG
WADD 311000Z 25007KT 9999 SCT016 29/25 Q1006 NOSIG
WADD 310930Z 24007KT 9999 SCT016 30/26 Q1006 NOSIG
WADD 310900Z 25008KT 9999 SCT016 30/26 Q1006 NOSIG
WADD 310830Z 25008KT 9999 SCT016 30/26 Q1006 NOSIG
WADD 310800Z 25008KT 220V280 9999 SCT016 31/26 Q1006 NOSIG
WADD 310730Z 26009KT 9999 SCT016 30/26 Q1006 NOSIG
WADD 310700Z 26010KT 9999 SCT016 30/26 Q1006 NOSIG
WADD 310630Z 26008KT 210V290 9999 SCT016 30/26 Q1007 NOSIG
WADD 310600Z 26007KT 9999 SCT016 30/26 Q1007 NOSIG
WADD 310530Z 25007KT 190V290 9999 FEW016 30/26 Q1007 NOSIG
WADD 310500Z 25008KT 220V290 9999 SCT016 30/26 Q1008 NOSIG
WADD 310430Z 29009KT 260V330 9999 FEW015CB SCT016 30/26 Q1008 NOSIG
WADD 310400Z 29008KT 9999 FEW015CB SCT016 30/26 Q1008 NOSIG
WADD 310330Z 29008KT 250V360 9999 FEW015CB SCT016 30/26 Q1009 NOSIG
WADD 310300Z 24005KT 200V310 9999 FEW015CB SCT016 29/25 Q1009 NOSIG
WADD 310230Z 24007KT 220V350 9999 FEW015CB BKN016 30/26 Q1010 NOSIG
WADD 310200Z VRB05KT 9999 FEW015CB SCT016 29/25 Q1010 NOSIG
WADD 310130Z 09004KT 9999 FEW015CB SCT016 29/26 Q1009 NOSIG
WADD 310100Z VRB02KT 9999 FEW015CB SCT016 27/26 Q1009 NOSIG
WADD 310030Z 16005KT 120V220 9999 FEW015CB BKN016 25/24 Q1010 RERA NOSIG
WADD 310000Z 21006KT 140V290 8000 -RA FEW015CB BKN016 26/25 Q1009 TEMPO TL0100 -RA
WADD 302330Z 34005KT 290V010 9999 FEW015CB BKN016 28/25 Q1009 NOSIG
WADD 302300Z 29008KT 9999 BKN016 28/25 Q1009 NOSIG
WADD 302230Z 28007KT 9999 BKN016 27/25 Q1008 NOSIG
WADD 302200Z 28008KT 9999 SCT016 27/25 Q1008 NOSIG
WADD 302130Z 28007KT 9999 SCT016 27/25 Q1008 NOSIG
WADD 302100Z 27006KT 9999 SCT016 27/25 Q1007 NOSIG
WADD 302030Z 28007KT 9999 SCT016 27/25 Q1007 NOSIG
WADD 302000Z 27007KT 9999 SCT016 27/25 Q1007 NOSIG
WADD 301930Z 27007KT 9999 SCT016 27/25 Q1007 NOSIG
WADD 301900Z 28008KT 9999 BKN015 27/25 Q1007 NOSIG
WADD 301830Z 29009KT 9999 BKN015 27/25 Q1007 NOSIG
WADD 301800Z 28010KT 9999 BKN015 27/25 Q1007 NOSIG
WADD 301730Z 29007KT 9999 BKN015 27/25 Q1007 NOSIG
WADD 301700Z 26006KT 9999 BKN015 27/24 Q1008 NOSIG
WADD 301630Z 31006KT 9999 BKN015 27/24 Q1008 NOSIG
WADD 301600Z 31006KT 270V330 9999 BKN015 27/24 Q1008 NOSIG
WADD 301530Z 32008KT 9999 BKN015 27/24 Q1008 NOSIG
WADD 301500Z 32007KT 9999 BKN015 27/24 Q1009 NOSIG
WADD 301430Z 31007KT 9999 BKN015 27/24 Q1009 NOSIG
WADD 301400Z 32006KT 9999 BKN015 26/24 Q1009 RERA NOSIG
WADD 301330Z 32006KT 9000 -RA BKN015 26/24 Q1009 TEMPO TL1430 9000 -RA
WADD 301300Z 32008KT 9000 -RA BKN015 26/25 Q1009 TEMPO TL1430 9000 -RA
WADD 301230Z 31011KT 9000 -RA FEW016CB SCT016 27/25 Q1009 TEMPO TL1330 9000 -RA
WADD 301200Z 30013KT 9999 FEW016CB SCT016 27/25 Q1009 RERA NOSIG</description><pubDate>Mon, 31 Mar 2025 11:41:02 </pubDate></item></channel></rss>