<rss version="2.0"><channel><title>Aviation Weather METAR Data for WADD</title><link>https://aviationweather.gov/api/data/metar?ids=WADD&amp;hours=24</link><description>Latest METAR data for WADD</description><item><title>2025-07-31 06:44:33Z</title><link>https://aviationweather.gov/api/data/metar?ids=WADD&amp;hours=24</link><description>WADD 310630Z 13013KT 9999 BKN016 27/24 Q1011 NOSIG
WADD 310600Z 13015KT 9999 SCT016 27/24 Q1011 NOSIG
WADD 310530Z 13014KT 9999 SCT016 28/24 Q1012 NOSIG
WADD 310500Z 12015KT 9999 SCT016 28/24 Q1012 NOSIG
WADD 310430Z 12016KT 9999 SCT016 28/23 Q1013 NOSIG
WADD 310400Z 13014KT 9999 SCT016 28/23 Q1013 NOSIG
WADD 310330Z 13015KT 9999 SCT016 27/24 Q1013 NOSIG
WADD 310300Z 12015KT 9999 SCT016 27/24 Q1013 NOSIG
WADD 310230Z 12013KT 9999 SCT016 27/24 Q1014 NOSIG
WADD 310200Z 12013KT 9999 SCT016 27/23 Q1014 NOSIG
WADD 310130Z 12010KT 9999 FEW015CB BKN015 26/24 Q1014 RERA NOSIG
WADD 310100Z 13012KT 9999 FEW015CB BKN015 26/24 Q1014 NOSIG
WADD 310030Z 11009KT 9999 BKN015 25/23 Q1014 RERA NOSIG
WADD 310000Z 13010KT 9999 BKN015 25/23 Q1014 NOSIG
WADD 302330Z 13011KT 9999 BKN015 25/23 Q1013 NOSIG
WADD 302300Z 13010KT 9999 SCT016 25/23 Q1013 NOSIG
WADD 302230Z 13013KT 9999 SCT016 25/23 Q1013 NOSIG
WADD 302200Z 14011KT 9999 BKN016 25/23 Q1013 NOSIG
WADD 302130Z 13011KT 9999 BKN016 25/23 Q1013 NOSIG
WADD 302100Z 14014KT 9999 BKN016 25/23 Q1012 NOSIG
WADD 302030Z 13011KT 9999 BKN016 25/23 Q1012 NOSIG
WADD 302000Z 13012KT 9999 BKN016 25/23 Q1012 NOSIG
WADD 301930Z 13014KT 9999 BKN016 25/23 Q1012 NOSIG
WADD 301900Z 13014KT 9999 BKN016 25/23 Q1012 NOSIG
WADD 301830Z 13015KT 9999 BKN016 26/23 Q1012 NOSIG
WADD 301800Z 13013KT 9999 BKN016 25/23 Q1012 NOSIG
WADD 301730Z 13018KT 9999 BKN016 25/23 Q1013 NOSIG
WADD 301700Z 14016KT 9999 BKN016 25/23 Q1013 NOSIG
WADD 301630Z 14016KT 9999 BKN016 25/23 Q1013 NOSIG
WADD 301600Z 14016KT 9999 BKN016 26/23 Q1013 NOSIG
WADD 301530Z 14014KT 9999 BKN016 25/23 Q1013 NOSIG
WADD 301500Z 14016KT 9999 BKN016 25/23 Q1013 NOSIG
WADD 301430Z 14015KT 9999 BKN016 25/23 Q1013 NOSIG
WADD 301400Z 13014KT 9999 BKN016 25/23 Q1013 NOSIG
WADD 301330Z 14013KT 9999 BKN016 25/24 Q1013 NOSIG
WADD 301300Z 13012KT 9999 BKN016 25/24 Q1013 RERA NOSIG
WADD 301230Z 13016KT 8000 -RA BKN016 24/24 Q1013 TEMPO TL1330 -RA
WADD 301200Z 13012KT 9999 BKN016 25/23 Q1013 NOSIG
WADD 301130Z 15014KT 9999 BKN016 24/23 Q1012 NOSIG
WADD 301100Z 14013KT 9999 BKN016 25/24 Q1012 NOSIG
WADD 301030Z 14016KT 9999 BKN016 25/24 Q1012 NOSIG
WADD 301000Z 14016KT 9999 BKN016 25/24 Q1011 RERA NOSIG
WADD 300930Z 14018KT 8000 -RA FEW015CB BKN016 25/24 Q1011 TEMPO TL1030 -RA
WADD 300900Z 14018KT 9999 BKN016 26/24 Q1011 NOSIG
WADD 300830Z 15018KT 9999 BKN016 26/24 Q1010 NOSIG
WADD 300800Z 15020KT 9999 BKN016 26/24 Q1010 NOSIG
WADD 300730Z 15019KT 9999 BKN016 26/24 Q1010 NOSIG
WADD 300700Z 14017KT 9999 BKN016 27/24 Q1010 NOSIG</description><pubDate>Thu, 31 Jul 2025 06:44:33 </pubDate></item></channel></rss>