<rss version="2.0"><channel><title>Aviation Weather METAR Data for WADD</title><link>https://aviationweather.gov/api/data/metar?ids=WADD&amp;hours=24</link><description>Latest METAR data for WADD</description><item><title>2025-12-08 10:33:59Z</title><link>https://aviationweather.gov/api/data/metar?ids=WADD&amp;hours=24</link><description>METAR WADD 081000Z 24007KT 9999 FEW015CB SCT016 30/26 Q1007 NOSIG
METAR WADD 080930Z 27009KT 240V300 9999 FEW015CB BKN016 29/26 Q1007 N OSIG
METAR WADD 080900Z 28009KT 9999 FEW015CB SCT016 29/26 Q1006 NOSIG RMK CB IN CLIMB-OUT
METAR WADD 080830Z 27009KT 9999 SCT016 30/26 Q1006 NOSIG
METAR WADD 080800Z 26009KT 9999 SCT016 30/26 Q1006 NOSIG
METAR WADD 080730Z 27011KT 9999 FEW016 30/26 Q1006 NOSIG
METAR WADD 080700Z 26010KT 9999 FEW016 31/26 Q1006 NOSIG
METAR WADD 080630Z 25007KT 9999 FEW016 31/26 Q1006 NOSIG
METAR WADD 080600Z 26008KT 220V290 9999 FEW016 30/26 Q1007 NOSIG
METAR WADD 080530Z 27010KT 9999 FEW017 30/26 Q1007 NOSIG
METAR WADD 080500Z 28013KT 9999 FEW017 30/27 Q1007 NOSIG
METAR WADD 080430Z 28012KT 9999 SCT017 30/27 Q1008 NOSIG
METAR WADD 080400Z 30010KT 9999 FEW016CB SCT016 30/26 Q1008 NOSIG
METAR WADD 080330Z 30008KT 9999 FEW016CB SCT016 29/26 Q1008 NOSIG
METAR WADD 080300Z 29009KT 9999 FEW016CB SCT016 29/26 Q1009 NOSIG
METAR WADD 080230Z 32008KT 9999 FEW016CB SCT016 29/27 Q1009 NOSIG
METAR WADD 080200Z 33009KT 9999 SCT016 28/26 Q1009 NOSIG
METAR WADD 080130Z 32006KT 9999 BKN015 28/26 Q1009 NOSIG
METAR WADD 080100Z 32006KT 9999 FEW015CB BKN015 27/26 Q1009 NOSIG
METAR WADD 080030Z 33005KT 9999 FEW015CB BKN015 27/26 Q1009 NOSIG
METAR WADD 080000Z 01005KT 320V030 9999 FEW015CB BKN015 26/25 Q1009 R ERA NOSIG
METAR WADD 072330Z 34005KT 300V010 8000 -RA FEW015CB BKN015 26/25 Q10 09 NOSIG
METAR WADD 072300Z COR 35007KT 8000 -TSRA FEW015CB BKN015 26/25 Q1009 NOSIG
METAR WADD 072230Z 33009KT 4000 TSRA FEW015CB BKN015 26/25 Q1008 TEMP O TL2330 4000 TSRA
METAR WADD 072200Z VRB02KT 9999 SCT016 26/25 Q1009 NOSIG
METAR WADD 072130Z 36006KT 9999 TS FEW015CB BKN015 26/25 Q1008 TEMPO TL2230 TS
METAR WADD 072100Z VRB01KT 8000 TS FEW015CB BKN015 26/25 Q1008 RERA T EMPO TL2200 TS RMK CB IN APCH
METAR WADD 072030Z VRB01KT 7000 -TSRA FEW015CB BKN015 26/25 Q1007 TEM PO TL2130 7000 -TSRA
METAR WADD 072000Z VRB02KT 9999 TS FEW015CB SCT016 27/26 Q1008 TEMPO TL2100 TS
METAR WADD 071930Z VRB01KT 9999 FEW015CB SCT016 27/25 Q1008 NOSIG
METAR WADD 071900Z VRB01KT 9999 FEW015CB SCT016 28/25 Q1008 NOSIG
METAR WADD 071830Z VRB02KT 9999 FEW015CB SCT016 28/26 Q1008 NOSIG
METAR WADD 071800Z VRB02KT 9999 FEW015CB SCT016 28/26 Q1008 NOSIG
METAR WADD 071730Z VRB02KT 9999 FEW015CB SCT016 28/26 Q1009 NOSIG
METAR WADD 071700Z VRB02KT 9999 FEW015CB SCT016 28/26 Q1009 NOSIG
METAR WADD 071630Z VRB02KT 9999 FEW015CB FEW016 28/25 Q1009 NOSIG
METAR WADD 071600Z VRB01KT 9999 FEW015CB FEW016 27/25 Q1009 NOSIG
METAR WADD 071530Z VRB01KT 9999 FEW015CB FEW016 28/25 Q1009 NOSIG
METAR WADD 071500Z VRB02KT 9999 FEW015CB FEW016 28/25 Q1010 NOSIG
METAR WADD 071430Z 23003KT 9999 FEW015CB FEW016 28/26 Q1009 NOSIG
METAR WADD 071400Z VRB02KT 9999 FEW015CB FEW016 29/26 Q1009 NOSIG
METAR WADD 071330Z VRB02KT 9999 FEW016 29/26 Q1009 NOSIG
METAR WADD 071300Z 23003KT 9999 SCT016 29/26 Q1009 NOSIG
METAR WADD 071230Z 22003KT 9999 SCT016 29/26 Q1009 NOSIG
METAR WADD 071200Z 23003KT 9999 SCT016 29/26 Q1009 NOSIG
METAR WADD 071130Z 23004KT 190V260 9999 FEW015CB SCT016 29/26 Q1008 N OSIG
METAR WADD 071100Z 24005KT 9999 SCT016 29/26 Q1008 NOSIG</description><pubDate>Mon, 08 Dec 2025 10:33:59 </pubDate></item></channel></rss>