<rss version="2.0"><channel><title>Aviation Weather METAR Data for WADD</title><link>https://aviationweather.gov/api/data/metar?ids=WADD&amp;hours=24</link><description>Latest METAR data for WADD</description><item><title>2025-01-15 06:45:21Z</title><link>https://aviationweather.gov/api/data/metar?ids=WADD&amp;hours=24</link><description>WADD 150630Z 26009KT 9999 FEW016 SCT016 Q1007 NOSIG
WADD 150600Z 26011KT 9999 FEW016CB SCT016 30/26 Q1007 NOSIG
WADD 150530Z 26010KT 9999 FEW017 30/26 Q1007 NOSIG
WADD 150500Z 26009KT 9999 FEW017 30/27 Q1007 NOSIG
WADD 150430Z 25009KT 9999 FEW017 30/26 Q1008 NOSIG
WADD 150400Z 25009KT 9999 FEW017 30/26 Q1009 NOSIG
WADD 150330Z 27010KT 9999 FEW017 30/26 Q1009 NOSIG
WADD 150300Z 27010KT 9999 FEW017 29/26 Q1009 NOSIG
WADD 150230Z 27010KT 9999 FEW017 29/26 Q1009 NOSIG
WADD 150200Z 29010KT 9999 FEW017 30/26 Q1010 NOSIG
WADD 150130Z 29008KT 9999 FEW017 29/26 Q1010 NOSIG
WADD 150100Z 31006KT 9999 FEW017 29/26 Q1010 NOSIG
WADD 150030Z 27008KT 9999 FEW017 28/26 Q1010 NOSIG
WADD 150000Z 27007KT 9999 SCT016 28/25 Q1010 NOSIG
WADD 142330Z 28008KT 9999 FEW017 28/26 Q1009 NOSIG
WADD 142300Z 29007KT 280V340 9999 BKN015 27/26 Q1009 NOSIG
WADD 142230Z 28008KT 9999 BKN015 27/25 Q1009 NOSIG
WADD 142200Z 28008KT 9999 SCT016 27/25 Q1008 NOSIG
WADD 142130Z 28009KT 9999 BKN015 27/26 Q1008 NOSIG
WADD 142100Z 28011KT 9999 SCT016 27/25 Q1008 NOSIG
WADD 142030Z 27012KT 9999 SCT016 27/25 Q1008 NOSIG
WADD 142000Z 27012KT 9999 SCT016 27/25 Q1008 NOSIG
WADD 141930Z 27011KT 9999 SCT016 27/25 Q1008 NOSIG
WADD 141900Z 26012KT 9999 SCT016 27/25 Q1008 NOSIG
WADD 141830Z 27010KT 9999 SCT016 26/25 Q1008 NOSIG
WADD 141800Z 28010KT 9999 BKN016 27/25 Q1009 NOSIG
WADD 141730Z 30006KT 9999 SCT016 27/25 Q1009 NOSIG
WADD 141700Z 27006KT 9999 SCT016 26/25 Q1009 NOSIG
WADD 141630Z 28007KT 9999 SCT016 27/25 Q1009 NOSIG
WADD 141600Z 29004KT 240V330 9999 SCT016 27/25 Q1010 NOSIG
WADD 141530Z VRB02KT 9999 SCT016 26/25 Q1010 NOSIG
WADD 141500Z VRB02KT 9999 FEW015CB BKN016 26/25 Q1010 NOSIG
WADD 141430Z 01004KT 320V060 9999 FEW014CB BKN014 26/25 Q1010 NOSIG
WADD 141400Z 35004KT 280V040 9999 FEW014CB BKN014 26/25 Q1010 RERA NOSIG
WADD 141330Z 32006KT 290V360 8000 -RA FEW014CB BKN014 26/26 Q1010 TEMPO TL1430 -RA
WADD 141300Z 33008KT 8000 -RA FEW014CB BKN014 26/26 Q1010 RETS TEMPO TL1400 -RA
WADD 141230Z 02005KT 330V030 9999 TS FEW014CB BKN014 27/26 Q1010 RERA TEMPO TL1330 TS
WADD 141200Z 32009KT 9000 -TSRA FEW014CB BKN014 27/26 Q1009 TEMPO TL1300 -TSRA
WADD 141130Z 27007KT 250V320 9999 TS FEW014CB BKN015 28/26 Q1009 TEMPO TL1230 TS
WADD 141100Z 23005KT 9999 FEW014CB BKN015 29/26 Q1008 NOSIG
WADD 141030Z 22005KT 9999 FEW014CB BKN015 29/26 Q1008 NOSIG
WADD 141000Z 23006KT 200V270 9999 FEW014CB BKN015 29/26 Q1007 NOSIG
WADD 140930Z 23005KT 190V280 9999 FEW014CB BKN015 29/26 Q1007 NOSIG
WADD 140900Z 24008KT 9999 FEW015CB BKN016 30/26 Q1007 NOSIG
WADD 140830Z 25009KT 9999 FEW015CB BKN016 30/26 Q1007 NOSIG
WADD 140800Z 25008KT 9999 FEW015CB SCT016 30/26 Q1007 NOSIG
WADD 140730Z 25009KT 9999 FEW015CB SCT016 30/27 Q1007 NOSIG
WADD 140700Z 25009KT 9999 FEW017 30/27 Q1007 NOSIG</description><pubDate>Wed, 15 Jan 2025 06:45:21 </pubDate></item></channel></rss>