<rss version="2.0"><channel><title>Aviation Weather METAR Data for WADD</title><link>https://aviationweather.gov/api/data/metar?ids=WADD&amp;hours=24</link><description>Latest METAR data for WADD</description><item><title>2025-04-02 12:51:57Z</title><link>https://aviationweather.gov/api/data/metar?ids=WADD&amp;hours=24</link><description>WADD 021230Z VRB01KT 9999 FEW017 28/25 Q1010 NOSIG
WADD 021200Z 14003KT 9999 FEW017 28/25 Q1010 NOSIG
WADD 021130Z 15003KT 9999 FEW017 28/25 Q1009 NOSIG
WADD 021100Z 14003KT 9999 FEW017 28/25 Q1009 NOSIG
WADD 021030Z 13005KT 9999 SCT016 29/25 Q1009 NOSIG
WADD 021000Z 14005KT 9999 SCT016 29/25 Q1009 NOSIG
WADD 020930Z 13006KT 100V160 9999 SCT016 30/25 Q1008 NOSIG
WADD 020900Z 14006KT 9999 FEW016 30/25 Q1008 NOSIG
WADD 020830Z 14006KT 110V200 9999 FEW016 31/25 Q1008 NOSIG
WADD 020800Z 14006KT 100V180 9999 FEW016 31/25 Q1008 NOSIG
WADD 020730Z 17005KT 110V230 9999 FEW016 31/25 Q1008 NOSIG
WADD 020700Z 20005KT 140V260 9999 FEW016 32/25 Q1008 NOSIG
WADD 020630Z 10005KT 9999 SCT016 30/25 Q1008 NOSIG
WADD 020600Z 27009KT 9999 FEW016 31/26 Q1008 NOSIG
WADD 020530Z 26008KT 9999 SCT016 31/25 Q1009 NOSIG
WADD 020500Z VRB03KT 9999 SCT016 30/25 Q1009 NOSIG
WADD 020430Z 08006KT 060V120 9999 SCT016 29/25 Q1010 NOSIG
WADD 020400Z VRB03KT 9999 FEW015CB SCT016 30/26 Q1010 NOSIG
WADD 020330Z 25006KT 220V290 9999 FEW015CB SCT016 29/26 Q1010 NOSIG
WADD 020300Z 27006KT 200V340 9999 FEW015CB SCT016 30/26 Q1011 NOSIG
WADD 020230Z 26006KT 9999 FEW015CB SCT016 29/25 Q1011 NOSIG
WADD 020200Z 24004KT 170V290 9999 FEW015CB SCT016 30/25 Q1011 NOSIG
WADD 020130Z 26004KT 200V320 9999 FEW015CB SCT016 29/25 Q1011 NOSIG
WADD 020100Z VRB02KT 9999 FEW015CB SCT016 29/25 Q1011 NOSIG
WADD 020030Z VRB03KT 9999 FEW017 29/26 Q1011 NOSIG
WADD 020000Z VRB01KT 9999 FEW017 28/25 Q1011 NOSIG
WADD 012330Z VRB01KT 9999 SCT016 27/25 Q1011 NOSIG
WADD 012300Z VRB02KT 9999 SCT016 27/24 Q1010 NOSIG
WADD 012230Z 34003KT 9999 SCT016 26/24 Q1010 NOSIG
WADD 012200Z VRB01KT 9999 SCT016 25/24 Q1010 NOSIG
WADD 012130Z VRB01KT 9999 FEW016 26/24 Q1009 NOSIG
WADD 012100Z VRB02KT 9999 SCT016 26/24 Q1009 NOSIG
WADD 012030Z 01002KT 9999 SCT016 26/24 Q1009 NOSIG
WADD 012000Z VRB01KT 9999 FEW017 26/24 Q1009 NOSIG
WADD 011930Z 03003KT 9999 FEW017 26/24 Q1009 NOSIG
WADD 011900Z 05003KT 9999 FEW017 26/24 Q1009 NOSIG
WADD 011830Z 03001KT 9999 FEW017 26/24 Q1009 NOSIG
WADD 011800Z VRB02KT 9999 FEW017 26/25 Q1009 NOSIG
WADD 011730Z VRB02KT 9999 FEW017 27/25 Q1009 NOSIG
WADD 011700Z VRB02KT 9999 FEW017 26/25 Q1009 NOSIG
WADD 011630Z VRB01KT 9999 FEW017 27/25 Q1009 NOSIG
WADD 011600Z VRB01KT 9999 FEW017 27/25 Q1010 NOSIG
WADD 011530Z 30003KT 9999 FEW017 27/25 Q1010 NOSIG
WADD 011500Z 33004KT 290V010 9999 FEW017 28/25 Q1010 NOSIG
WADD 011430Z 32007KT 9999 FEW017 28/25 Q1010 NOSIG
WADD 011400Z 31007KT 9999 FEW017 28/25 Q1010 NOSIG
WADD 011330Z 31009KT 9999 FEW017 28/25 Q1010 NOSIG
WADD 011300Z 27005KT 250V310 9999 SCT016 28/25 Q1010 NOSIG</description><pubDate>Wed, 02 Apr 2025 12:51:57 </pubDate></item></channel></rss>