<rss version="2.0"><channel><title>Aviation Weather METAR Data for WADD</title><link>https://aviationweather.gov/api/data/metar?ids=WADD&amp;hours=24</link><description>Latest METAR data for WADD</description><item><title>2026-06-09 08:07:09Z</title><link>https://aviationweather.gov/api/data/metar?ids=WADD&amp;hours=24</link><description>METAR WADD 090800Z 14012KT 9999 FEW016 29/23 Q1010 NOSIG
METAR WADD 090730Z 12012KT 9999 FEW016 30/23 Q1010 NOSIG
METAR WADD 090700Z 11014KT 9999 FEW016 30/23 Q1010 NOSIG
METAR WADD 090630Z 11011KT 9999 FEW016 30/23 Q1010 NOSIG
METAR WADD 090600Z 11012KT 9999 FEW016 30/23 Q1011 NOSIG
METAR WADD 090530Z 12012KT 9999 FEW016 30/23 Q1011 NOSIG
METAR WADD 090500Z 12012KT 9999 FEW016 30/22 Q1012 NOSIG
METAR WADD 090430Z 10011KT 9999 FEW016 30/23 Q1012 NOSIG
METAR WADD 090400Z 11013KT 9999 FEW016 30/23 Q1013 NOSIG
METAR WADD 090330Z 11014KT 9999 FEW016 30/23 Q1013 NOSIG
METAR WADD 090300Z 11012KT 9999 FEW016 30/23 Q1013 NOSIG
METAR WADD 090230Z 09011KT 9999 FEW016 30/24 Q1014 NOSIG
METAR WADD 090200Z 11011KT 9999 FEW016 30/23 Q1014 NOSIG
METAR WADD 090130Z 10009KT 050V130 9999 SCT016 30/23 Q1014 NOSIG
METAR WADD 090100Z 09006KT 9999 SCT016 29/23 Q1014 NOSIG
METAR WADD 090030Z 11004KT 070V150 9999 SCT016 28/22 Q1014 NOSIG
METAR WADD 090000Z 03005KT 350V070 9999 SCT016 26/22 Q1014 NOSIG
METAR WADD 082330Z 04006KT 9999 SCT016 26/22 Q1014 NOSIG
METAR WADD 082300Z 04006KT 9999 SCT016 25/22 Q1013 NOSIG
METAR WADD 082230Z 03005KT 9999 SCT016 24/22 Q1013 NOSIG
METAR WADD 082200Z 02005KT 9999 FEW017 24/22 Q1013 NOSIG
METAR WADD 082130Z 03005KT 9999 FEW017 25/22 Q1013 NOSIG
METAR WADD 082100Z 06006KT 9999 FEW017 25/22 Q1012 NOSIG
METAR WADD 082030Z 09006KT 9999 FEW017 25/23 Q1012 NOSIG
METAR WADD 082000Z 09007KT 9999 FEW017 26/23 Q1012 NOSIG
METAR WADD 081930Z 12006KT 9999 FEW017 27/23 Q1012 NOSIG
METAR WADD 081900Z 13006KT 9999 FEW017 27/23 Q1012 NOSIG
METAR WADD 081830Z 14007KT 9999 FEW017 27/23 Q1012 NOSIG
METAR WADD 081800Z 13007KT 9999 FEW017 27/23 Q1013 NOSIG
METAR WADD 081730Z 13006KT 9999 FEW017 27/23 Q1013 NOSIG
METAR WADD 081700Z 12008KT 9999 FEW017 27/23 Q1013 NOSIG
METAR WADD 081630Z 13007KT 9999 FEW017 27/23 Q1013 NOSIG
METAR WADD 081600Z 12008KT 9999 FEW017 27/23 Q1013 NOSIG
METAR WADD 081530Z 12008KT 9999 FEW017 27/23 Q1013 NOSIG
METAR WADD 081500Z 12008KT 9999 FEW017 27/23 Q1013 NOSIG
METAR WADD 081430Z 11008KT 9999 FEW017 27/23 Q1013 NOSIG
METAR WADD 081400Z 12008KT 9999 FEW017 27/23 Q1013 NOSIG
METAR WADD 081330Z 12009KT 9999 FEW017 27/23 Q1013 NOSIG
METAR WADD 081300Z 12009KT 9999 FEW017 27/23 Q1013 NOSIG
METAR WADD 081230Z 12010KT 9999 FEW017 27/23 Q1013 NOSIG
METAR WADD 081200Z 12009KT 9999 FEW017 27/24 Q1013 NOSIG
METAR WADD 081130Z 13008KT 9999 FEW017 27/24 Q1012 NOSIG
METAR WADD 081100Z 13009KT 9999 FEW017 28/24 Q1012 NOSIG
METAR WADD 081030Z 13010KT 9999 FEW017 28/25 Q1012 NOSIG
METAR WADD 081000Z 13013KT 9999 FEW017 28/24 Q1012 NOSIG
METAR WADD 080930Z 13014KT 9999 FEW017 29/24 Q1012 NOSIG
METAR WADD 080900Z 13013KT 9999 FEW017 29/24 Q1011 NOSIG
METAR WADD 080830Z 13015KT 9999 FEW017 29/24 Q1011 NOSIG</description><pubDate>Tue, 09 Jun 2026 08:07:09 </pubDate></item></channel></rss>