<rss version="2.0"><channel><title>Aviation Weather METAR Data for WADD</title><link>https://aviationweather.gov/api/data/metar?ids=WADD&amp;hours=24</link><description>Latest METAR data for WADD</description><item><title>2025-04-12 22:41:52Z</title><link>https://aviationweather.gov/api/data/metar?ids=WADD&amp;hours=24</link><description>WADD 122230Z 02006KT 6000 -RA BKN015 26/26 Q1010 TEMPO TL2330 -RA
WADD 122200Z 03008KT 8000 -RA FEW015CB BKN015 26/26 Q1010 TEMPO TL2300 -RA
WADD 122130Z 04009KT 010V080 5000 -RA FEW015CB BKN015 27/27 Q1009 TEMPO TL2300 5000 -RA RMK CB IN CLIMB-OUT
WADD 122100Z 03005KT 9999 FEW015CB SCT016 27/27 Q1009 NOSIG
WADD 122030Z 34002KT 9999 SCT016 27/26 Q1009 NOSIG
WADD 122000Z 10003KT 9999 SCT016 27/26 Q1009 NOSIG
WADD 121930Z 10004KT 070V130 9999 SCT016 27/26 Q1009 NOSIG
WADD 121900Z 07004KT 9999 SCT016 26/26 Q1010 NOSIG
WADD 121830Z 09004KT 9999 SCT016 26/26 Q1010 NOSIG
WADD 121800Z 09003KT 9999 SCT016 27/26 Q1010 NOSIG
WADD 121730Z VRB02KT 9999 SCT016 27/26 Q1010 NOSIG
WADD 121700Z 13004KT 9999 SCT016 27/25 Q1011 NOSIG
WADD 121600Z 01005KT 9999 SCT016 27/26 Q1011 NOSIG
WADD 121530Z 03005KT 9999 SCT016 27/26 Q1011 NOSIG
WADD 121500Z 05006KT 9999 SCT016 28/26 Q1011 NOSIG
WADD 121430Z 08006KT 9999 SCT016 27/26 Q1011 NOSIG
WADD 121400Z 08007KT 9999 SCT016 27/27 Q1011 NOSIG
WADD 121330Z 09005KT 060V130 9999 SCT016 28/26 Q1011 NOSIG
WADD 121300Z 13006KT 100V170 9999 SCT017 29/26 Q1010 NOSIG
WADD 121230Z 12007KT 9999 SCT017 29/26 Q1010 NOSIG
WADD 121200Z 11005KT 9999 SCT017 29/26 Q1010 NOSIG
WADD 121130Z 11007KT 090V150 9999 SCT017 29/26 Q1009 NOSIG
WADD 121100Z 12008KT 9999 SCT017 29/26 Q1009 NOSIG
WADD 121030Z 12008KT 090V150 9999 SCT017 29/26 Q1009 NOSIG
WADD 121000Z 13008KT 9999 FEW017 29/26 Q1009 NOSIG
WADD 120930Z 12007KT 080V160 9999 FEW017 30/26 Q1008 NOSIG
WADD 120900Z 13006KT 090V160 9999 SCT017 30/26 Q1008 NOSIG
WADD 120830Z 12007KT 080V150 9999 FEW017 30/26 Q1007 NOSIG
WADD 120800Z 13008KT 9999 FEW017 31/26 Q1007 NOSIG
WADD 120730Z 13008KT 100V160 9999 FEW017 31/26 Q1007 NOSIG
WADD 120700Z 12008KT 090V150 9999 FEW017 31/26 Q1007 NOSIG
WADD 120630Z 13009KT 9999 FEW017 31/26 Q1007 NOSIG
WADD 120600Z 13009KT 080V150 9999 FEW017 31/26 Q1008 NOSIG
WADD 120530Z 12008KT 9999 FEW017 31/26 Q1008 NOSIG
WADD 120500Z 11008KT 9999 FEW017 31/26 Q1008 NOSIG
WADD 120430Z 11008KT 9999 FEW017 31/27 Q1009 NOSIG
WADD 120400Z 11008KT 080V140 9999 FEW017 30/27 Q1009 NOSIG
WADD 120330Z 11007KT 080V140 9999 FEW017 31/27 Q1009 NOSIG
WADD 120300Z 09007KT 9999 FEW017 30/27 Q1010 NOSIG
WADD 120230Z 10007KT 9999 FEW017 30/27 Q1010 NOSIG
WADD 120200Z 10008KT 9999 FEW017 30/26 Q1010 NOSIG
WADD 120130Z 09007KT 9999 FEW017 29/26 Q1010 NOSIG
WADD 120100Z 09007KT 060V130 9999 FEW017 29/26 Q1010 NOSIG
WADD 120030Z 09003KT 9999 FEW017 28/26 Q1010 NOSIG
WADD 120000Z VRB02KT 9999 FEW017 28/25 Q1010 NOSIG
WADD 112330Z VRB02KT 9999 FEW017 26/24 Q1010 NOSIG
WADD 112300Z 02002KT 9999 FEW017 25/24 Q1009 NOSIG</description><pubDate>Sat, 12 Apr 2025 22:41:52 </pubDate></item></channel></rss>