<rss version="2.0"><channel><title>Aviation Weather METAR Data for WADD</title><link>https://aviationweather.gov/api/data/metar?ids=WADD&amp;hours=24</link><description>Latest METAR data for WADD</description><item><title>2025-10-02 22:23:48Z</title><link>https://aviationweather.gov/api/data/metar?ids=WADD&amp;hours=24</link><description>WADD 022200Z 29002KT 9999 FEW017 24/23 Q1012 NOSIG
 WADD 022130Z 32001KT 9999 FEW017 25/24 Q1012 NOSIG
METAR WADD 022100Z 00000KT 9999 FEW017 25/24 Q1012 NOSIG
 WADD 022030Z 00000KT 9999 FEW017 25/24 Q1011 NOSIG
METAR WADD 022000Z VRB01KT 9999 FEW017 25/24 Q1011 NOSIG
 WADD 021930Z VRB01KT 9999 FEW017 26/24 Q1011 NOSIG
METAR WADD 021900Z VRB03KT 9999 FEW017 26/24 Q1011 NOSIG
 WADD 021830Z 18004KT 9999 FEW017 27/25 Q1011 NOSIG
METAR WADD 021800Z 12004KT 9999 FEW017 27/24 Q1011 NOSIG
METAR WADD 021730Z 13003KT 9999 FEW017 27/24 Q1012 NOSIG
METAR WADD 021700Z 15007KT 9999 FEW017 27/25 Q1012 NOSIG
METAR WADD 021630Z 14005KT 9999 FEW017 27/24 Q1012 NOSIG
METAR WADD 021600Z 13005KT 9999 FEW017 27/24 Q1012 NOSIG
METAR WADD 021500Z 13005KT 9999 FEW017 27/24 Q1013 NOSIG
METAR WADD 021430Z 14006KT 9999 FEW017 27/24 Q1013 NOSIG
METAR WADD 021400Z 15005KT 9999 FEW017 27/24 Q1013 NOSIG
METAR WADD 021330Z 15005KT 9999 FEW017 27/24 Q1013 NOSIG
METAR WADD 021300Z 14006KT 9999 FEW017 28/24 Q1012 NOSIG
METAR WADD 021230Z 15006KT 9999 FEW017 27/24 Q1012 NOSIG
METAR WADD 021200Z 16004KT 9999 FEW017 28/24 Q1012 NOSIG
METAR WADD 021130Z 13004KT 9999 FEW017 28/24 Q1012 NOSIG
METAR WADD 021100Z 13006KT 9999 FEW017 28/24 Q1011 NOSIG
METAR WADD 021030Z 14009KT 9999 FEW017 28/24 Q1011 NOSIG
METAR WADD 021000Z 14012KT 9999 FEW017 28/24 Q1010 NOSIG
METAR WADD 020930Z 14011KT 9999 FEW017 29/24 Q1010 NOSIG
METAR WADD 020900Z 15012KT 9999 FEW017 29/24 Q1009 NOSIG
 WADD 020830Z 16010KT 9999 FEW017 30/24 Q1009 NOSIG
METAR WADD 020800Z 15010KT 9999 FEW017 30/24 Q1009 NOSIG
METAR WADD 020730Z 15010KT 9999 FEW017 30/24 Q1009 NOSIG
METAR WADD 020700Z 16010KT 9999 FEW017 30/24 Q1009 NOSIG
METAR WADD 020630Z 16010KT 9999 FEW017 30/25 Q1009 NOSIG
METAR WADD 020600Z 17011KT 9999 FEW017 30/24 Q1010 NOSIG
METAR WADD 020530Z 16009KT 9999 FEW017 31/24 Q1010 NOSIG
METAR WADD 020500Z 11009KT 9999 FEW017 31/24 Q1010 NOSIG
METAR WADD 020430Z 13008KT 9999 FEW017 31/24 Q1011 NOSIG
METAR WADD 020400Z 10009KT 9999 FEW017 31/24 Q1011 NOSIG
METAR WADD 020330Z 11007KT 070V140 9999 FEW017 31/23 Q1011 NOSIG
METAR WADD 020300Z 11007KT 9999 FEW017 30/23 Q1012 NOSIG
METAR WADD 020230Z 12007KT 9999 FEW017 30/24 Q1012 NOSIG
METAR WADD 020200Z 11007KT 9999 FEW017 30/24 Q1012 NOSIG
METAR WADD 020130Z 11007KT 080V150 9999 FEW017 29/24 Q1012 NOSIG
METAR WADD 020100Z 12006KT 080V150 9999 FEW017 29/25 Q1012 NOSIG
METAR WADD 020030Z 11006KT 9999 FEW017 29/25 Q1012 NOSIG
METAR WADD 020000Z 13006KT 9999 FEW017 28/25 Q1012 NOSIG
METAR WADD 012330Z 16003KT 9999 FEW017 27/25 Q1011 NOSIG
METAR WADD 012300Z 15004KT 9999 SCT016 27/25 Q1011 NOSIG
METAR WADD 012230Z 15004KT 9999 SCT016 26/25 Q1011 NOSIG</description><pubDate>Thu, 02 Oct 2025 22:23:48 </pubDate></item></channel></rss>