<rss version="2.0"><channel><title>Aviation Weather METAR Data for WADD</title><link>https://aviationweather.gov/api/data/metar?ids=WADD</link><description>Latest METAR data for WADD</description><item><title>2024-12-29 22:21:26Z</title><link>https://aviationweather.gov/api/data/metar?ids=WADD</link><description>WADD 292200Z 27013KT 9000 FEW014CB BKN015 25/24 Q1008 RERA NOSIG</description><pubDate>Sun, 29 Dec 2024 22:21:26 </pubDate></item></channel></rss>