<rss version="2.0"><channel><title>Aviation Weather METAR Data for WADD</title><link>https://aviationweather.gov/api/data/metar?ids=WADD&amp;hours=24</link><description>Latest METAR data for WADD</description><item><title>2025-02-11 13:28:51Z</title><link>https://aviationweather.gov/api/data/metar?ids=WADD&amp;hours=24</link><description>WADD 111300Z 28015KT 9999 SCT017 29/25 Q1009 NOSIG
WADD 111230Z 28015KT 9999 SCT017 29/25 Q1008 NOSIG
WADD 111200Z 28015KT 9999 SCT017 28/25 Q1008 NOSIG
WADD 111130Z 28014KT 9999 FEW017 28/25 Q1008 NOSIG
WADD 111100Z 28014KT 9999 FEW017 28/25 Q1008 NOSIG
WADD 111030Z 27016KT 9999 FEW017 28/25 Q1007 NOSIG
WADD 111000Z 28017KT 9999 FEW017 29/25 Q1007 NOSIG
WADD 110930Z 28017KT 9999 FEW017 29/26 Q1007 NOSIG
WADD 110900Z 28018KT 9999 FEW017 30/26 Q1006 NOSIG
WADD 110830Z 27016G26KT 9999 FEW017 30/26 Q1006 NOSIG
WADD 110800Z 28017KT 9999 SCT016 29/26 Q1006 NOSIG
WADD 110730Z 28016KT 9999 SCT016 29/26 Q1006 NOSIG
WADD 110700Z 28016KT 9999 SCT016 29/26 Q1007 NOSIG
WADD 110630Z 28018KT 9999 FEW015CB SCT016 28/26 Q1007 NOSIG
WADD 110600Z 28018KT 4000 RA FEW014CB BKN014 29/26 Q1007 TEMPO TL0700 4000 RA RMK CB IN APCH AND CLIMB-OUT
WADD 110530Z 28018KT 9999 FEW015CB BKN015 30/27 Q1008 NOSIG
WADD 110500Z 28020KT 9999 FEW015CB BKN015 29/26 Q1008 NOSIG
WADD 110430Z 28021KT 9999 FEW015CB BKN015 29/26 Q1008 RERA NOSIG
WADD 110400Z 29015KT 8000 -RA FEW014CB BKN014 27/26 Q1009 TEMPO TL0600 8000 -RA
WADD 110330Z 29016KT 0200 +RA FEW014CB BKN014 29/26 Q1008 NOSIG TEMPO TL0400 0200 +RA
WADD 110300Z 29017KT 8000 -RA FEW014CB BKN014 28/26 Q1009 TEMPO TL0400 8000 -RA
WADD 110230Z 29017KT 7000 -RA FEW013CB BKN013 27/26 Q1009 TEMPO TL0400 7000 -RA
WADD 110200Z 29017KT 4000 +RA FEW013CB BKN013 26/25 Q1009 TEMPO TL0300 4000 +RA RMK CB IN APCH AND CLIMB-OUT
WADD 110130Z 28021KT 5000 RA FEW013CB BKN013 24/24 Q1009 TEMPO TL0230 5000 RA RMK CB IN APCH AND CLIMB-OUT
WADD 110100Z 25013KT 0300 +RA FEW013CB BKN013 24/24 Q1009 TEMPO TL0130 0300 +RA RMK CB IN APCH AND CLIMB-OUT
WADD 110030Z 33009KT 4000 +RA FEW014CB BKN014 26/25 Q1008 TEMPO TL0200 4000 +RA RMK CB IN APCH AND CLIMB-OUT
WADD 110000Z 31008KT 4000 RA FEW014CB BKN015 26/25 Q1008 TEMPO TL0200 5000 RA
WADD 102330Z 29020KT 5000 -RA FEW014CB BKN015 26/25 Q1007 TEMPO TL0100 7000 -RA
WADD 102300Z 29023G33KT 3000 RA FEW014CB BKN015 26/25 Q1007 TEMPO TL2400 3000 RA RMK CB IN APCH AND CLIMB-OUT
WADD 102230Z 28025KT 3000 FEW014CB BKN015 25/25 Q1007 RETS TEMPO TL2300 3000 RA RMK CB IN APCH AND CLIMB-OUT
WADD 102200Z 27021G31KT 3000 RA FEW014CB BKN015 25/25 Q1007 TEMPO TL2300 RA RMK CB IN APCH AND CLIMB-OUT
WADD 102130Z 26022G35KT 1000 +RA FEW014CB BKN015 25/25 Q1007 TEMPO TL2200 +RA RMK CB IN APCH AND CLIMB-OUT
WADD 102100Z 24011KT 200V260 1000 +RA FFEW014CB BKN015 26/25 Q1006 TEMPO TL2200 +RA RMK CB IN APCH AND CLIMB-OUT
WADD 102030Z 24012KT 170V290 2000 RA FEW014CB BKN015 26/25 Q1006 TEMPO TL2100 RA RMK CB IN APCH AND CLIMB-OUT
WADD 102000Z 28021KT 3000 RA FEW015CB BKN015 28/25 Q1006 TEMPO TL2100 RA RMK CB IN APCH AND CLIMB-OUT
WADD 101930Z 30017KT 6000 FEW015CB BKN015 27/26 Q1005 NOSIG RMK CB IN CLIMB-OUT
WADD 101900Z 29017KT 6000 FEW015CB BKN015 27/26 Q1006 RERA NOSIG RMK CB IN APCH
WADD 101830Z 29018KT 8000 SCT16 28/26 Q1006 NOSIG
WADD 101800Z 28019KT 8000 FEW015CB BKN015 OVC085 28/26 Q1006 NOSIG
WADD 101730Z 28021G28KT 8000 FEW015CB BKN015 28/26 Q1006 NOSIG RMK CB IN APCH
WADD 101700Z 28018KT 6000 FEW015CB BKN015 28/26 Q1007 RERA NOSIG RMK CB IN APCH
WADD 101630Z 28018KT 8000 FEW015CB BKN015 28/26 Q1007 NOSIG
WADD 101600Z 30013KT 6000 FEW015CB BKN015 27/26 Q1007 NOSIG RMK CB IN APCH
WADD 101530Z 30013KT 6000 -RA FEW015CB BKN015 27/26 Q1008 TEMPO TL1630 3000 RA RMK CB IN CLIMB-OUT
WADD 101500Z 30014KT 6000 -RA FEW015CB BKN015 27/26 Q1008 TEMPO TL1600 6000 -RA RMK CB IN APCH
WADD 101430Z 31012KT 3000 RA FEW015CB BKN015 27/26 Q1008 TEMPO TL1530 3000 RA RMK CB IN APCH AND CLIMB-OUT
WADD 101400Z 30013KT 3000 RA FEW015CB BKN015 27/26 Q1008 NOSIG TEMPO TL1500 3000 RA RMK CB IN APCH AND CLIMB-OUT
WADD 101330Z 29016KT 5000 -RA FEW015CB BKN015 27/26 Q1007 TEMPO TL1400 5000 -RA RMK CB IN CLIMB-OUT</description><pubDate>Tue, 11 Feb 2025 13:28:51 </pubDate></item></channel></rss>