<rss version="2.0"><channel><title>Aviation Weather METAR Data for WADD</title><link>https://aviationweather.gov/api/data/metar?ids=WADD&amp;hours=24</link><description>Latest METAR data for WADD</description><item><title>2025-10-14 03:05:57Z</title><link>https://aviationweather.gov/api/data/metar?ids=WADD&amp;hours=24</link><description>METAR WADD 140230Z 10010KT 070V140 9999 SCT016 31/27 Q1011 NOSIG
METAR WADD 140200Z 11008KT 070V130 9999 SCT016 31/27 Q1011 NOSIG
METAR WADD 140130Z 11008KT 9999 SCT016 31/26 Q1011 NOSIG
METAR WADD 140100Z 11007KT 060V130 9999 SCT016 30/26 Q1011 NOSIG
METAR WADD 140030Z 08006KT 070V140 9999 SCT016 30/26 Q1011 NOSIG
METAR WADD 140000Z 13004KT 090V160 9999 SCT016 29/27 Q1011 NOSIG
METAR WADD 132330Z 13005KT 9999 SCT016 28/27 Q1010 NOSIG
METAR WADD 132300Z 08005KT 9999 FEW016 28/27 Q1010 NOSIG
METAR WADD 132230Z 09003KT 9999 FEW016 27/27 Q1010
METAR WADD 132200Z 11003KT 9999 FEW016 27/26 Q1010 NOSIG
METAR WADD 132130Z 12004KT 9999 FEW016 27/27 Q1010 NOSIG
METAR WADD 132100Z 12005KT 9999 FEW016 27/27 Q1009 NOSIG
METAR WADD 132030Z 14005KT 9999 FEW016 28/27 Q1009 NOSIG
METAR WADD 132000Z 14004KT 9999 FEW016 28/27 Q1009 NOSIG
METAR WADD 131930Z 12004KT 9999 FEW016 28/27 Q1009 NOSIG
METAR WADD 131900Z 12005KT 9999 FEW016 28/27 Q1009 NOSIG
METAR WADD 131830Z 14006KT 9999 FEW016 28/27 Q1009 NOSIG
METAR WADD 131800Z 14006KT 9999 FEW016 28/27 Q1009 NOSIG
 WADD 131730Z 12006KT 9999 FEW017 28/27 Q1009 NOSIG
 WADD 131700Z 13006KT 9999 FEW016 28/27 Q1010 NOSIG
METAR WADD 131630Z 13006KT 9999 FEW016 28/27 Q1010 NOSIG
 WADD 131600Z 13006KT 9999 FEW016 28/27 Q1010 NOSIG
 WADD 131530Z 13006KT 9999 FEW016 BKN033 28/27 Q1010 NOSIG
 WADD 131500Z 14007KT 9999 FEW016 28/27 Q1010 NOSIG
METAR WADD 131430Z 13007KT 9999 FEW016 28/27 Q1010 NOSIG
METAR WADD 131400Z 13006KT 9999 FEW016 28/27 Q1010 NOSIG
METAR WADD 131330Z 12005KT 9999 FEW016 28/27 Q1010 NOSIG
METAR WADD 131300Z 11004KT 9999 FEW016 28/26 Q1010 NOSIG
METAR WADD 131230Z 12005KT 9999 FEW016 28/26 Q1010 NOSIG
METAR WADD 131200Z 14006KT 9999 FEW016 29/27 Q1010 NOSIG
METAR WADD 131130Z 12007KT 9999 FEW017 29/26 Q1009 NOSIG
METAR WADD 131100Z 12010KT 9999 FEW017 29/26 Q1009 NOSIG
METAR WADD 131030Z 13009KT 9999 FEW016 29/26 Q1009 NOSIG
METAR WADD 131000Z 15010KT 9999 SCT016 30/26 Q1008 NOSIG
METAR WADD 130930Z 15011KT 9999 SCT016 30/27 Q1008 NOSIG
METAR WADD 130900Z 16010KT 9999 SCT016 30/27 Q1008 NOSIG
METAR WADD 130830Z 15011KT 9999 SCT016 31/27 Q1008 NOSIG
METAR WADD 130800Z 14012KT 9999 FEW016 31/26 Q1008 NOSIG
METAR WADD 130730Z 14012KT 9999 FEW016 31/27 Q1008 NOSIG
METAR WADD 130700Z 14013KT 9999 FEW016 31/26 Q1008 NOSIG
METAR WADD 130630Z 14014KT 9999 FEW016 31/26 Q1008 NOSIG
 WADD 130600Z 14015KT 9999 FEW016 31/26 Q1008 NOSIG
METAR WADD 130530Z 12011KT 100V170 9999 FEW016 32/26 Q1009 NOSIG
METAR WADD 130500Z 13012KT 9999 FEW016 32/27 Q1009 NOSIG
METAR WADD 130430Z 10011KT 9999 SCT016 32/26 Q1010 NOSIG
METAR WADD 130400Z 11012KT 9999 SCT016 32/27 Q1010 NOSIG
METAR WADD 130330Z 10012KT 9999 SCT016 32/27 Q1011 NOSIG</description><pubDate>Tue, 14 Oct 2025 03:05:57 </pubDate></item></channel></rss>