<rss version="2.0"><channel><title>Aviation Weather METAR Data for WADD</title><link>https://aviationweather.gov/api/data/metar?ids=WADD&amp;hours=24</link><description>Latest METAR data for WADD</description><item><title>2026-01-23 10:35:47Z</title><link>https://aviationweather.gov/api/data/metar?ids=WADD&amp;hours=24</link><description>METAR WADD 231030Z 31012KT 9999 FEW017 29/22 Q1007 NOSIG
METAR WADD 231000Z 31012KT 9999 FEW017 30/23 Q1007 NOSIG
METAR WADD 230930Z 30014KT 9999 FEW017 30/23 Q1007 NOSIG
METAR WADD 230900Z 30013KT 9999 FEW017 31/23 Q1006 NOSIG
METAR WADD 230830Z 30013KT 9999 FEW017 31/24 Q1006 NOSIG
METAR WADD 230800Z 31013KT 9999 FEW017 32/24 Q1006 NOSIG
METAR WADD 230730Z 31015KT 9999 FEW017 32/24 Q1005 NOSIG
METAR WADD 230700Z 30013KT 9999 FEW017 31/25 Q1006 NOSIG
METAR WADD 230630Z 30012KT 9999 FEW017 31/26 Q1006 NOSIG
METAR WADD 230600Z 29013KT 9999 FEW017 31/26 Q1006 NOSIG
METAR WADD 230530Z 28013KT 9999 FEW017 31/25 Q1007 NOSIG
METAR WADD 230500Z 27014KT 9999 FEW017 30/25 Q1007 NOSIG
METAR WADD 230430Z 27015KT 9999 FEW017 29/25 Q1007 NOSIG
METAR WADD 230400Z 27014KT 9999 FEW017 29/25 Q1008 NOSIG
METAR WADD 230330Z 27015KT 9999 FEW017 29/26 Q1008 NOSIG
METAR WADD 230300Z 27015KT 9999 FEW017 29/26 Q1008 NOSIG
METAR WADD 230230Z 28016KT 9999 FEW017 29/25 Q1008 NOSIG
METAR WADD 230200Z 28016KT 9999 FEW017 29/25 Q1009 NOSIG
METAR WADD 230130Z 29013KT 9999 FEW016 28/25 Q1009 NOSIG
METAR WADD 230100Z 31011KT 9999 SCT016 28/25 Q1009 NOSIG
METAR WADD 230030Z 31013KT 9999 SCT016 27/25 Q1008 NOSIG
METAR WADD 230000Z 28015KT 9999 FEW016 27/24 Q1008 NOSIG
METAR WADD 222330Z 27017KT 9999 FEW016 26/24 Q1008 NOSIG
METAR WADD 222300Z 27017KT 9999 SCT016 26/24 Q1008 NOSIG
METAR WADD 222230Z 26013KT 9999 SCT016 26/24 Q1008 RERA NOSIG
METAR WADD 222200Z 25017KT 6000 -RA FEW014CB BKN015 25/24 Q1008 NOSIG RMK CB IN APCH
METAR WADD 222130Z 25015KT 6000 -RA FEW014CB BKN015 25/24 Q1007 NOSIG RMK CB IN APCH
METAR WADD 222100Z 23002KT 9999 FEW014CB BKN015 25/25 Q1007 NOSIG RMK CB IN CLIMB-OUT
METAR WADD 222030Z VRB02KT 9999 FEW014CB BKN015 25/25 Q1006 NOSIG
METAR WADD 222000Z 02003KT 9999 BKN015 25/25 Q1006 NOSIG
METAR WADD 221930Z 36004KT 9999 BKN015 26/25 Q1006 NOSIG
METAR WADD 221900Z 35003KT 9999 FEW014CB BKN015 26/24 Q1006 NOSIG
METAR WADD 221830Z VRB02KT 9999 FEW014CB BKN015 26/24 Q1006 NOSIG
METAR WADD 221800Z 29004KT 9999 FEW014CB BKN015 26/24 Q1006 NOSIG
METAR WADD 221730Z VRB02KT 9999 FEW014CB BKN015 26/24 Q1007 NOSIG
METAR WADD 221700Z 18003KT 9999 FEW014CB BKN015 26/24 Q1007 NOSIG
METAR WADD 221630Z 31006KT 9999 FEW014CB BKN015 27/24 Q1007 NOSIG
METAR WADD 221600Z 30010KT 9999 FEW014CB BKN015 27/25 Q1007 NOSIG
METAR WADD 221530Z 29011KT 9999 FEW014CB BKN015 27/24 Q1008 NOSIG
METAR WADD 221500Z 27011KT 8000 FEW014CB BKN015 27/25 Q1008 RERA NOSI G
METAR WADD 221430Z 27013KT 7000 -RA FEW014CB BKN015 27/25 Q1008 NOSIG RMK CB IN APCH
METAR WADD 221400Z 26010KT 7000 -RA FEW014CB BKN015 26/23 Q1008 NOSIG RMK CB IN APCH AND CLIMB-OUT
METAR WADD 221330Z 27020KT 7000 -RA FEW014CB BKN015 27/25 Q1008 TEMPO TL1430 4000 RA RMK CB IN APCH AND CLIMB-OUT
METAR WADD 221300Z 28014KT 9999 FEW014CB BKN015 28/25 Q1008 NOSIG RMK CB IN APCH AND CLIMB-OUT
METAR WADD 221230Z 27012KT 9999 FEW014CB BKN015 28/26 Q1007 NOSIG RMK CB IN APCH
METAR WADD 221200Z 28009KT 240V320 9999 FEW014CB BKN015 27/25 Q1007 R ERA NOSIG RMK CB IN APCH
METAR WADD 221130Z 27012G22KT 9999 FEW014CB BKN015 27/26 Q1006 RERA NOSIG RMK CB IN APCH
METAR WADD 221100Z 29015KT 250V330 4000 RA FEW014CB BKN015 26/25 Q1006 TEMPO TL1200 4000 RA RMK CB IN APCH</description><pubDate>Fri, 23 Jan 2026 10:35:47 </pubDate></item></channel></rss>