<rss version="2.0"><channel><title>Aviation Weather METAR Data for WADD</title><link>https://aviationweather.gov/api/data/metar?ids=WADD&amp;hours=24</link><description>Latest METAR data for WADD</description><item><title>2026-07-08 19:46:55Z</title><link>https://aviationweather.gov/api/data/metar?ids=WADD&amp;hours=24</link><description>METAR WADD 081930Z 12015KT 9999 FEW017 26/22 Q1013 NOSIG
METAR WADD 081900Z 12014KT 9999 FEW017 26/23 Q1013 NOSIG
METAR WADD 081830Z 12014KT 9999 FEW017 26/23 Q1013 NOSIG
METAR WADD 081800Z 12016KT 9999 FEW017 26/22 Q1014 NOSIG
METAR WADD 081730Z 12013KT 9999 FEW017 26/23 Q1014 NOSIG
METAR WADD 081700Z 12013G23KT 9999 FEW017 26/22 Q1014 NOSIG
METAR WADD 081630Z 12014KT 9999 FEW017 26/22 Q1014 NOSIG
METAR WADD 081600Z 13016KT 9999 FEW017 26/22 Q1014 NOSIG
METAR WADD 081530Z 13015KT 9999 SCT016 26/23 Q1014 NOSIG
METAR WADD 081500Z 12012KT 9999 FEW015CB SCT015 26/23 Q1014 NOSIG
METAR WADD 081430Z 10005KT 9999 FEW015CB SCT015 26/23 Q1015 NOSIG RMK CB IN APCH
METAR WADD 081400Z 11008KT 9999 FEW017 26/22 Q1015 NOSIG
METAR WADD 081330Z 12009KT 9999 FEW017 26/22 Q1014 NOSIG
METAR WADD 081300Z 12010KT 9999 FEW017 26/22 Q1014 NOSIG
METAR WADD 081230Z 12011KT 9999 FEW017 26/22 Q1014 NOSIG
METAR WADD 081200Z 13012KT 9999 FEW017 27/22 Q1014 NOSIG
METAR WADD 081130Z 12010KT 9999 SCT016 27/22 Q1013 NOSIG
METAR WADD 081100Z 12012KT 9999 SCT016 27/22 Q1013 NOSIG
METAR WADD 081030Z 12013KT 9999 SCT016 27/22 Q1013 NOSIG
METAR WADD 081000Z 12013KT 9999 SCT016 27/22 Q1012 NOSIG
METAR WADD 080930Z 13013KT 9999 SCT016 28/23 Q1012 NOSIG
METAR WADD 080900Z 13014KT 9999 SCT016 28/22 Q1012 NOSIG
METAR WADD 080830Z COR 11013KT 9999 SCT016 28/23 Q1012 NOSIG
METAR WADD 080800Z 12014KT 9999 SCT017 28/23 Q1011 NOSIG
METAR WADD 080730Z 12014KT 9999 SCT017 29/23 Q1011 NOSIG
METAR WADD 080700Z 11014KT 9999 SCT017 29/22 Q1011 NOSIG
METAR WADD 080630Z 12015KT 9999 SCT017 29/22 Q1012 NOSIG
METAR WADD 080600Z 13016KT 9999 SCT017 29/23 Q1012 NOSIG
METAR WADD 080530Z 12017KT 9999 SCT017 29/23 Q1012 NOSIG
METAR WADD 080500Z 12017KT 9999 SCT017 29/23 Q1013 NOSIG
METAR WADD 080430Z 12016KT 9999 SCT017 29/23 Q1013 NOSIG
METAR WADD 080400Z 12016KT 9999 SCT017 29/23 Q1014 NOSIG
METAR WADD 080330Z 12017KT 9999 SCT017 29/23 Q1014 NOSIG
METAR WADD 080300Z 12017KT 9999 SCT017 29/23 Q1014 NOSIG
METAR WADD 080230Z 13019KT 9999 SCT017 29/23 Q1015 NOSIG
METAR WADD 080200Z 13018KT 9999 SCT016 28/23 Q1015 NOSIG
METAR WADD 080130Z 11015KT 9999 SCT016 28/23 Q1015 NOSIG
METAR WADD 080100Z 11015KT 9999 SCT016 28/23 Q1015 NOSIG
METAR WADD 080030Z 11013KT 9999 SCT016 27/23 Q1015 NOSIG
METAR WADD 080000Z 11012KT 9999 SCT016 27/23 Q1015 NOSIG
METAR WADD 072330Z 11011KT 9999 SCT016 27/22 Q1014 NOSIG
METAR WADD 072300Z 11011KT 9999 SCT016 26/23 Q1014 NOSIG
METAR WADD 072230Z 10012KT 9999 SCT016 26/22 Q1014 NOSIG
METAR WADD 072200Z 10012KT 9999 FEW017 26/23 Q1014 NOSIG
METAR WADD 072130Z 10011KT 9999 FEW017 26/22 Q1014 NOSIG
METAR WADD 072100Z 11011KT 9999 FEW017 26/22 Q1014 NOSIG
METAR WADD 072030Z 11011KT 9999 FEW017 26/23 Q1014 NOSIG
METAR WADD 072000Z 11011KT 9999 FEW017 26/22 Q1013 NOSIG</description><pubDate>Wed, 08 Jul 2026 19:46:55 </pubDate></item></channel></rss>