<rss version="2.0"><channel><title>Aviation Weather METAR Data for WADD</title><link>https://aviationweather.gov/api/data/metar?ids=WADD&amp;hours=24</link><description>Latest METAR data for WADD</description><item><title>2025-07-02 04:36:38Z</title><link>https://aviationweather.gov/api/data/metar?ids=WADD&amp;hours=24</link><description>WADD 020430Z 12013KT 9999 SCT016 29/26 Q1011 NOSIG
WADD 020400Z 12015KT 9999 BKN016 28/25 Q1012 NOSIG
WADD 020330Z 13016KT 9999 FEW014CB SCT015 28/25 Q1012 NOSIG
WADD 020300Z 12013KT 9999 SCT016 29/25 Q1012 NOSIG
WADD 020230Z 13016KT 9999 SCT016 28/25 Q1012 NOSIG
WADD 020200Z 12015KT 9999 SCT016 28/25 Q1013 NOSIG
WADD 020130Z 12014KT 9999 SCT016 28/25 Q1013 NOSIG
WADD 020100Z 11011KT 9999 SCT016 28/25 Q1012 NOSIG
WADD 020030Z 10011KT 9999 SCT016 27/25 Q1012 NOSIG
WADD 020000Z 10009KT 9999 BKN016 27/25 Q1012 NOSIG
WADD 012330Z 10010KT 9999 SCT016 26/25 Q1012 NOSIG
WADD 012300Z 10011KT 9999 SCT016 26/25 Q1012 NOSIG
WADD 012230Z 10009KT 9999 BKN015 26/25 Q1011 NOSIG
WADD 012200Z 10008KT 9999 SCT016 26/25 Q1011 NOSIG
WADD 012130Z 10009KT 9999 SCT016 26/25 Q1011 NOSIG
WADD 012100Z 10010KT 9999 SCT016 26/25 Q1011 NOSIG
WADD 012030Z 10009KT 9999 SCT016 26/25 Q1011 NOSIG
WADD 012000Z 10008KT 9999 SCT016 26/25 Q1011 NOSIG
WADD 011930Z 10008KT 9999 SCT016 26/25 Q1011 NOSIG
WADD 011900Z 09008KT 9999 SCT016 26/25 Q1011 NOSIG
WADD 011830Z 10009KT 9999 SCT016 26/25 Q1012 NOSIG
WADD 011800Z 11011KT 9999 SCT016 27/25 Q1012 NOSIG
WADD 011730Z 12011KT 9999 SCT016 27/25 Q1012 NOSIG
WADD 011700Z 12011KT 9999 SCT016 27/25 Q1012 NOSIG
WADD 011630Z 11011KT 9999 SCT016 27/25 Q1012 NOSIG
WADD 011600Z 11011KT 9999 SCT016 27/25 Q1012 NOSIG
WADD 011530Z 11009KT 9999 SCT016 27/25 Q1012 NOSIG
WADD 011500Z 10009KT 9999 FEW016 27/25 Q1012 NOSIG
WADD 011430Z 12010KT 9999 SCT016 27/25 Q1012 NOSIG
WADD 011400Z 11009KT 9999 SCT016 27/25 Q1013 NOSIG
WADD 011330Z 11007KT 9999 SCT016 27/25 Q1013 NOSIG
WADD 011300Z 11009KT 9999 FEW017 27/25 Q1012 NOSIG
WADD 011230Z 11011KT 9999 FEW017 27/24 Q1012 NOSIG
WADD 011200Z 12012KT 9999 FEW017 27/25 Q1012 NOSIG
WADD 011130Z 12011KT 9999 SCT016 27/25 Q1011 NOSIG
WADD 011100Z 12014KT 9999 SCT016 27/25 Q1011 NOSIG
WADD 011030Z 13013KT 9999 SCT016 27/25 Q1011 NOSIG
WADD 011000Z 12012KT 9999 SCT017 27/25 Q1010 NOSIG
WADD 010930Z 12016KT 9999 FEW017 28/25 Q1010 NOSIG
WADD 010900Z 12015KT 9999 FEW017 28/25 Q1010 NOSIG
WADD 010830Z 12014KT 9999 FEW017 28/25 Q1010 NOSIG
WADD 010800Z 11016KT 9999 FEW017 29/25 Q1010 NOSIG
WADD 010730Z 12016KT 9999 FEW017 29/25 Q1009 NOSIG
WADD 010700Z 12016KT 9999 FEW017 29/25 Q1009 NOSIG
WADD 010630Z 11016KT 9999 FEW017 29/25 Q1010 NOSIG
WADD 010600Z 12015KT 9999 SCT016 29/25 Q1010 NOSIG
WADD 010530Z 12017KT 9999 FEW017 29/25 Q1010 NOSIG
WADD 010500Z 11014KT 9999 FEW017 29/25 Q1011 NOSIG</description><pubDate>Wed, 02 Jul 2025 04:36:38 </pubDate></item></channel></rss>