<rss version="2.0"><channel><title>Aviation Weather METAR Data for WADD</title><link>https://aviationweather.gov/api/data/metar?ids=WADD&amp;hours=24</link><description>Latest METAR data for WADD</description><item><title>2025-08-08 03:53:51Z</title><link>https://aviationweather.gov/api/data/metar?ids=WADD&amp;hours=24</link><description>WADD 080330Z 10011KT 9999 FEW017 29/24 Q1013 NOSIG
WADD 080300Z 11009KT 9999 FEW017 29/24 Q1013 NOSIG
WADD 080230Z 11009KT 9999 FEW017 29/24 Q1013 NOSIG
WADD 080200Z 12008KT 080V140 9999 FEW016 28/24 Q1013 NOSIG
WADD 080130Z 10005KT 040V130 9999 SCT015 28/24 Q1014 NOSIG
WADD 080100Z 09005KT 040V130 9999 SCT015 28/24 Q1013 NOSIG
WADD 080030Z 12006KT 9999 SCT015 27/24 Q1013 NOSIG
WADD 080000Z VRB02KT 9999 SCT015 26/23 Q1013 NOSIG
WADD 072330Z 11004KT 9999 SCT015 26/24 Q1013 NOSIG
WADD 072300Z 12004KT 080V170 9999 SCT015 26/24 Q1012 NOSIG
WADD 072230Z 13004KT 9999 SCT015 26/23 Q1012 NOSIG
WADD 072200Z 13005KT 9999 FEW016 26/23 Q1012 NOSIG
WADD 072130Z 14005KT 9999 FEW016 26/23 Q1011 NOSIG
WADD 072100Z 12006KT 9999 FEW016 26/23 Q1011 NOSIG
WADD 072030Z 13006KT 9999 FEW016 26/24 Q1011 NOSIG
WADD 072000Z 13005KT 9999 FEW016 26/23 Q1011 NOSIG
WADD 071930Z 13005KT 9999 FEW016 26/24 Q1011 NOSIG
WADD 071900Z 13005KT 9999 FEW016 26/24 Q1011 NOSIG
WADD 071830Z 14005KT 120V180 9999 FEW016 26/23 Q1011 NOSIG
WADD 071800Z 13007KT 9999 FEW016 26/23 Q1011 NOSIG
WADD 071730Z 12006KT 9999 FEW016 26/23 Q1012 NOSIG
WADD 071700Z 11007KT 9999 FEW016 26/23 Q1012 NOSIG
WADD 071630Z 12007KT 9999 FEW016 26/24 Q1012 NOSIG
WADD 071600Z 12009KT 9999 FEW016 26/24 Q1012 NOSIG
WADD 071530Z 12010KT 9999 FEW016 26/24 Q1012 NOSIG
WADD 071500Z 12011KT 9999 FEW016 26/24 Q1013 NOSIG
WADD 071430Z 12011KT 9999 FEW016 26/24 Q1012 NOSIG
WADD 071400Z 12011KT 9999 FEW016 26/24 Q1012 NOSIG
WADD 071330Z 12012KT 9999 FEW016 27/24 Q1012 NOSIG
WADD 071300Z 12013KT 9999 FEW016 27/23 Q1012 NOSIG
WADD 071230Z 13011KT 9999 FEW017 27/24 Q1011 NOSIG
WADD 071200Z 13010KT 9999 FEW017 26/24 Q1011 NOSIG
WADD 071130Z 12011KT 9999 FEW017 26/24 Q1011 NOSIG
WADD 071100Z 12012KT 9999 FEW017 27/24 Q1010 NOSIG
WADD 071030Z 13012KT 9999 FEW017 27/24 Q1010 NOSIG
WADD 071000Z 12013KT 9999 FEW017 27/24 Q1010 NOSIG
WADD 070930Z 13013KT 9999 FEW017 27/23 Q1010 NOSIG
WADD 070900Z 13015KT 9999 FEW017 28/23 Q1009 NOSIG
WADD 070830Z 13014KT 9999 FEW017 28/23 Q1009 NOSIG
WADD 070800Z 13013KT 9999 FEW017 28/23 Q1009 NOSIG
WADD 070730Z 13012KT 9999 FEW017 28/23 Q1009 NOSIG
WADD 070700Z 11011KT 9999 FEW017 29/23 Q1009 NOSIG
WADD 070630Z 13012KT 9999 FEW017 29/23 Q1009 NOSIG
WADD 070600Z 11011KT 9999 FEW017 29/23 Q1010 NOSIG
WADD 070530Z 11010KT 9999 FEW017 29/22 Q1010 NOSIG
WADD 070500Z 11010KT 9999 FEW017 29/23 Q1011 NOSIG
WADD 070430Z 10009KT 070V130 9999 FEW017 29/23 Q1011 NOSIG
WADD 070400Z 11009KT 9999 FEW017 29/22 Q1011 NOSIG</description><pubDate>Fri, 08 Aug 2025 03:53:51 </pubDate></item></channel></rss>