<rss version="2.0"><channel><title>Aviation Weather METAR Data for WADD</title><link>https://aviationweather.gov/api/data/metar?ids=WADD&amp;hours=24</link><description>Latest METAR data for WADD</description><item><title>2026-03-04 22:41:22Z</title><link>https://aviationweather.gov/api/data/metar?ids=WADD&amp;hours=24</link><description>METAR WADD 042230Z 10004KT 9999 SCT016 24/23 Q1004 NOSIG
METAR WADD 042130Z VRB01KT 9999 SCT016 23/23 Q1005 NOSIG
METAR WADD 042030Z 03003KT 9999 SCT015 23/23 Q1004 NOSIG
METAR WADD 042000Z VRB01KT 9999 SCT015 23/22 Q1004 NOSIG
METAR WADD 041930Z VRB01KT 9000 BKN015 23/22 Q1004 RERA NOSIG
METAR WADD 041900Z VRB01KT 7000 -RA BKN014 23/22 Q1004 TEMPO TL2030 - RA
METAR WADD 041830Z VRB01KT 6000 -RA BKN014 23/22 Q1005 NOSIG
METAR WADD 041800Z 33003KT 6000 -RA BKN014 23/22 Q1006 NOSIG
METAR WADD 041730Z 31007KT 6000 -RA FEW014CB BKN014 24/23 Q1006 NOSIG
METAR WADD 041700Z 31008KT 5000 -RA FEW012CB BKN013 23/23 Q1007 TEMPO TL1800 7000 -RA RMK CB IN APCH
SPECI WADD 041641Z 32013G28KT 2500 RA FEW010CB BKN011 23/23 Q1008 TEMPO TL1800 4000 RA RMK CB IN APCH AND CLIMB-OUT
SPECI WADD 041632Z 30022KT 1600 +RA FEW010CB BKN010 24/24 Q1008 TEMPO TL1800 3000 RA RMK CB IN APCH AND CLIMB-OUT
METAR WADD 041630Z 30024G34KT 1000 +RA FEW010CB BKN010 24/24 Q1008 TEMPO TL1800 2000 RA RMK CB IN APCH AND CLIMB-OUT
SPECI WADD 041620Z 29025G35KT 1000 +RA FEW010CB BKN010 24/23 Q1009 TEMPO TL1800 2000 RA RMK CB IN APCH AND CLIMB-OUT
SPECI WADD 041614Z COR 30027G37KT 0400 +RA FEW010CB BKN010 26/23 Q1009 TEMPO TL1800 2000 RA RMK CB IN APCH AND CLIMB-OUT
SPECI WADD 041611Z 32020G35KT 1000 +RA FEW015CB BKN015 28/26 Q1007 TEMPO TL1800 3000 RA
SPECI WADD 041605Z 32008G32KT 9999 FEW015CB BKN015 28/26 Q1007 TEMPO FM1615 4000 RA
METAR WADD 041600Z 32008KT 9999 FEW015CB BKN015 28/26 Q1007 TEMPO FM1 620 4000 RA
METAR WADD 041530Z 32007KT 9999 SCT016 28/25 Q1007 NOSIG
METAR WADD 041500Z 32006KT 9999 SCT016 28/25 Q1007 NOSIG
METAR WADD 041430Z 31008KT 9999 SCT016 28/25 Q1007 NOSIG
METAR WADD 041400Z 29008KT 9999 FEW016CB SCT016 28/25 Q1007 NOSIG
METAR WADD 041330Z 31007KT 9999 FEW016CB SCT016 28/25 Q1007 RERA NOSI G
METAR WADD 041300Z 30011KT 250V320 7000 -RA FEW016CB SCT016 29/25 Q1006 TEMPO TL1400 -RA
METAR WADD 041230Z 26006KT 9999 FEW016CB SCT016 29/25 Q1006 NOSIG
METAR WADD 041200Z 30006KT 9999 FEW017 28/25 Q1006 NOSIG
METAR WADD 041130Z VRB02KT 9999 FEW017 28/26 Q1006 NOSIG
METAR WADD 041100Z 25004KT 9999 FEW017 29/26 Q1005 NOSIG
METAR WADD 041030Z 25004KT 9999 FEW017 29/26 Q1005 NOSIG
METAR WADD 041000Z 25005KT 9999 FEW017 30/26 Q1005 NOSIG
METAR WADD 040930Z 26007KT 9999 FEW017 30/26 Q1004 NOSIG
METAR WADD 040900Z 26007KT 9999 FEW017 31/26 Q1004 NOSIG
METAR WADD 040830Z 25010KT 9999 FEW017 31/26 Q1004 NOSIG
METAR WADD 040800Z 25010KT 9999 FEW017 32/25 Q1004 NOSIG
METAR WADD 040730Z 25009KT 9999 FEW017 32/25 Q1004 NOSIG
METAR WADD 040700Z 24010KT 9999 FEW017 32/24 Q1004 NOSIG
METAR WADD 040630Z 24010KT 9999 FEW017 32/26 Q1004 NOSIG
METAR WADD 040600Z 25009KT 9999 FEW017 32/26 Q1005 NOSIG
METAR WADD 040530Z 25010KT 9999 FEW017 31/26 Q1005 NOSIG
METAR WADD 040500Z 26008KT 9999 FEW017 31/26 Q1006 NOSIG
METAR WADD 040430Z 26009KT 220V290 9999 FEW017 32/25 Q1006 NOSIG
METAR WADD 040400Z 26008KT 9999 FEW017 32/25 Q1007 NOSIG
METAR WADD 040330Z 24007KT 9999 FEW017 32/26 Q1007 NOSIG
METAR WADD 040300Z 24006KT 200V270 9999 FEW017 30/26 Q1008 NOSIG
METAR WADD 040230Z 26006KT 9999 SCT017 30/27 Q1008 NOSIG
METAR WADD 040130Z 29006KT 9999 FEW017 31/27 Q1008 NOSIG
METAR WADD 040100Z 30005KT 270V340 9999 FEW017 30/27 Q1008 NOSIG
METAR WADD 040030Z VRB03KT 9999 FEW017 31/27 Q1008 NOSIG
METAR WADD 040000Z 03004KT 9999 FEW017 28/26 Q1008 NOSIG
METAR WADD 032330Z 01005KT 310V030 9999 FEW017 27/26 Q1008 NOSIG
METAR WADD 032300Z 01003KT 9999 FEW016 25/25 Q1007 NOSIG</description><pubDate>Wed, 04 Mar 2026 22:41:22 </pubDate></item></channel></rss>