<rss version="2.0"><channel><title>Aviation Weather METAR Data for WADD</title><link>https://aviationweather.gov/api/data/metar?ids=WADD&amp;hours=24</link><description>Latest METAR data for WADD</description><item><title>2026-05-13 01:24:49Z</title><link>https://aviationweather.gov/api/data/metar?ids=WADD&amp;hours=24</link><description>METAR WADD 130100Z 12015KT 9999 BKN015 29/26 Q1010 NOSIG
METAR WADD 130030Z 12015KT 9999 BKN016 29/26 Q1010 NOSIG
METAR WADD 130000Z 12013KT 9999 BKN015 29/26 Q1010 NOSIG
METAR WADD 122330Z 12012KT 9999 SCT017 28/26 Q1009 NOSIG
METAR WADD 122300Z 12011KT 9999 SCT016 28/26 Q1009 NOSIG
METAR WADD 122230Z 12010KT 9999 SCT016 28/26 Q1008 NOSIG
METAR WADD 122200Z 12012KT 9999 SCT016 28/26 Q1008 NOSIG
METAR WADD 122130Z 12010KT 9999 SCT016 28/26 Q1008 NOSIG
METAR WADD 122100Z 12012KT 9999 SCT016 28/26 Q1008 NOSIG
METAR WADD 122030Z 12011KT 9999 SCT016 28/26 Q1008 NOSIG
METAR WADD 122000Z 13011KT 9999 SCT016 28/26 Q1008 NOSIG
METAR WADD 121930Z 13013KT 9999 SCT016 28/26 Q1008 NOSIG
METAR WADD 121900Z 12012KT 9999 SCT016 28/26 Q1008 NOSIG
METAR WADD 121830Z 13012KT 9999 SCT016 28/26 Q1008 NOSIG
METAR WADD 121800Z 14012KT 9999 SCT016 28/26 Q1008 NOSIG
METAR WADD 121730Z 13011KT 9999 SCT016 28/26 Q1009 NOSIG
METAR WADD 121700Z 13014KT 9999 SCT016 28/26 Q1009 NOSIG
METAR WADD 121630Z 13013KT 9999 SCT016 28/26 Q1010 NOSIG
METAR WADD 121600Z 13012KT 9999 SCT016 28/26 Q1010 NOSIG
METAR WADD 121530Z 13012KT 9999 SCT016 28/26 Q1010 NOSIG
METAR WADD 121500Z 13011KT 9999 SCT016 28/26 Q1010 NOSIG
METAR WADD 121430Z 13013KT 9999 SCT016 28/26 Q1010 NOSIG
METAR WADD 121400Z 13014KT 9999 SCT016 28/26 Q1010 NOSIG
METAR WADD 121330Z 12014KT 9999 SCT016 28/26 Q1010 NOSIG
METAR WADD 121300Z 13014KT 9999 SCT016 29/26 Q1010 NOSIG
METAR WADD 121230Z 12016KT 9999 SCT016 29/26 Q1010 NOSIG
METAR WADD 121200Z 12016KT 9999 SCT016 29/26 Q1010 NOSIG
METAR WADD 121130Z 13016KT 9999 SCT016 29/26 Q1009 NOSIG
METAR WADD 121100Z 13014KT 9999 SCT016 29/26 Q1009 NOSIG
METAR WADD 121030Z 13015KT 9999 SCT016 29/26 Q1008 NOSIG
METAR WADD 121000Z 14015KT 9999 SCT016 29/26 Q1008 NOSIG
METAR WADD 120930Z 14016KT 9999 SCT016 29/26 Q1008 NOSIG
METAR WADD 120900Z 13013KT 9999 SCT016 30/26 Q1008 NOSIG
METAR WADD 120830Z 13016KT 9999 SCT017 30/26 Q1007 NOSIG
METAR WADD 120800Z 13015KT 9999 SCT017 30/26 Q1007 NOSIG
METAR WADD 120730Z 13015KT 9999 SCT017 30/26 Q1007 NOSIG
METAR WADD 120700Z 11015KT 9999 SCT017 31/25 Q1007 NOSIG
METAR WADD 120630Z 12015KT 9999 SCT017 31/25 Q1008 NOSIG
METAR WADD 120600Z 13016KT 9999 FEW017 31/26 Q1008 NOSIG
METAR WADD 120530Z 11015KT 9999 FEW017 31/26 Q1008 NOSIG
METAR WADD 120500Z 12014KT 9999 SCT016 31/25 Q1009 NOSIG
METAR WADD 120430Z 11014KT 9999 SCT016 31/25 Q1009 NOSIG
METAR WADD 120400Z 12015KT 9999 SCT016 31/26 Q1009 NOSIG
METAR WADD 120330Z 11015KT 9999 BKN016 30/26 Q1010 NOSIG
METAR WADD 120300Z 11016KT 9999 BKN016 30/26 Q1011 NOSIG
METAR WADD 120230Z 12013KT 9999 BKN016 30/26 Q1011 NOSIG
METAR WADD 120200Z 12016KT 9999 SCT016 30/26 Q1011 NOSIG
METAR WADD 120130Z 12014KT 9999 SCT016 30/26 Q1011 NOSIG</description><pubDate>Wed, 13 May 2026 01:24:49 </pubDate></item></channel></rss>