<rss version="2.0"><channel><title>Aviation Weather METAR Data for WADD</title><link>https://aviationweather.gov/api/data/metar?ids=WADD&amp;hours=24</link><description>Latest METAR data for WADD</description><item><title>2026-02-16 10:03:06Z</title><link>https://aviationweather.gov/api/data/metar?ids=WADD&amp;hours=24</link><description>METAR WADD 160930Z 25009KT 9999 SCT016 29/25 Q1005 NOSIG
METAR WADD 160900Z 24010KT 9999 FEW017 29/25 Q1005 NOSIG
METAR WADD 160830Z 25009KT 9999 FEW016 29/25 Q1005 NOSIG
METAR WADD 160800Z 25009KT 9999 FEW016 29/25 Q1005 NOSIG
METAR WADD 160730Z 25010KT 9999 FEW016 29/25 Q1005 NOSIG
METAR WADD 160700Z 25009KT 9999 FEW016 29/25 Q1006 NOSIG
METAR WADD 160630Z 26009KT 9999 FEW016 29/25 Q1005 NOSIG
METAR WADD 160600Z 25009KT 9999 FEW016 29/25 Q1005 NOSIG
METAR WADD 160530Z 26010KT 9999 SCT016 29/25 Q1006 NOSIG
METAR WADD 160500Z 26009KT 9999 SCT016 29/25 Q1007 NOSIG
METAR WADD 160430Z 26009KT 9999 SCT016 29/25 Q1007 NOSIG
METAR WADD 160400Z 26008KT 9999 SCT016 29/25 Q1008 NOSIG
METAR WADD 160330Z 26010KT 9999 SCT016 29/25 Q1008 NOSIG
METAR WADD 160300Z 29010KT 9999 SCT016 29/25 Q1008 NOSIG
METAR WADD 160230Z 27012KT 9999 SCT016 28/25 Q1008 NOSIG
METAR WADD 160200Z 29012KT 9999 BKN015 28/25 Q1009 NOSIG
METAR WADD 160130Z 27014KT 9999 BKN015 27/25 Q1009 NOSIG
METAR WADD 160100Z 27014KT 9999 SCT016 26/25 Q1009 RERA NOSIG
METAR WADD 160030Z 28015KT 6000 -RA FEW014CB BKN014 26/24 Q1008 TEMPO TL0200 -RA CB IN APCH
METAR WADD 160000Z 27020G30KT 0500 +RA FEW010CB BKN010 25/24 Q1008 TEMPO TL0100 2000 RA RMK CB IN APCH AND CLIMB-OUT
METAR WADD 152330Z VRB01KT 9999 FEW015CB SCT015 27/25 Q1008 NOSIG RMK CB IN CLIMB-OUT
METAR WADD 152300Z VRB02KT 9999 FEW015CB SCT015 26/24 Q1007 NOSIG RMK CB IN APCH AND CLIMB-OUT
METAR WADD 152230Z VRB02KT 9999 FEW016 26/24 Q1007 NOSIG
METAR WADD 152200Z 02001KT 9999 FEW016 26/24 Q1007 NOSIG
METAR WADD 152130Z 04002KT 9999 FEW016 26/25 Q1006 NOSIG
METAR WADD 152100Z 01002KT 9999 FEW016 26/24 Q1006 NOSIG
METAR WADD 152030Z 36003KT 9999 FEW016 26/25 Q1006 NOSIG
METAR WADD 152000Z 03004KT 9999 FEW016 26/25 Q1006 NOSIG
METAR WADD 151930Z 29006KT 9999 FEW016 27/25 Q1006 NOSIG
METAR WADD 151900Z 29005KT 9999 FEW016 27/25 Q1006 NOSIG
METAR WADD 151830Z 30005KT 9999 FEW016 27/25 Q1007 NOSIG
METAR WADD 151800Z 30006KT 9999 FEW016 27/25 Q1007 NOSIG
METAR WADD 151730Z 33004KT 9999 FEW015CB SCT015 27/25 Q1007 NOSIG
METAR WADD 151700Z 27006KT 9999 FEW015CB SCT015 27/25 Q1007 NOSIG
METAR WADD 151630Z 28005KT 9999 FEW015CB SCT015 27/25 Q1008 NOSIG RMK CB IN APCH
METAR WADD 151600Z 28008KT 9999 FEW015CB SCT015 27/25 Q1008 NOSIG RMK CB IN APCH AND CLIMB-OUT
METAR WADD 151530Z 27008KT 9999 FEW015CB SCT015 28/25 Q1008 RERA NOSIG RMK CB IN APCH AND CLIMB-OUT
SPECI WADD 151520Z 28009KT 8000 -RA FEW015CB SCT015 28/25 Q1008
METAR WADD 151500Z 27008KT 9999 FEW016 28/25 Q1008 NOSIG
METAR WADD 151430Z 27009KT 9999 FEW016 28/25 Q1008 NOSIG
METAR WADD 151400Z 27008KT 9999 FEW016 28/25 Q1008 NOSIG
METAR WADD 151330Z 27008KT 9999 FEW016 28/25 Q1008 NOSIG
METAR WADD 151300Z 26007KT 9999 FEW016 28/25 Q1007 NOSIG
METAR WADD 151230Z 26006KT 9999 FEW016 28/25 Q1007 NOSIG
METAR WADD 151200Z 26006KT 9999 FEW015CB FEW016 28/25 Q1007 NOSIG
METAR WADD 151130Z 26008KT 9999 FEW015CB FEW016 28/24 Q1007 NOSIG
METAR WADD 151100Z 26009KT 9999 FEW015CB FEW016 28/24 Q1007 NOSIG
METAR WADD 151030Z 25008KT 9999 FEW015CB FEW016 29/24 Q1006 NOSIG</description><pubDate>Mon, 16 Feb 2026 10:03:06 </pubDate></item></channel></rss>