<rss version="2.0"><channel><title>Aviation Weather METAR Data for WADD</title><link>https://aviationweather.gov/api/data/metar?ids=WADD&amp;hours=24</link><description>Latest METAR data for WADD</description><item><title>2026-07-24 09:57:34Z</title><link>https://aviationweather.gov/api/data/metar?ids=WADD&amp;hours=24</link><description>METAR WADD 240930Z 13014KT 9999 SCT016 27/21 Q1012 NOSIG
METAR WADD 240900Z 13015KT 9999 SCT016 27/21 Q1011 NOSIG
METAR WADD 240830Z 13017KT 9999 SCT016 27/21 Q1011 NOSIG
METAR WADD 240800Z 13014KT 9999 SCT016 28/21 Q1011 NOSIG
METAR WADD 240730Z 13013KT 100V160 9999 SCT016 28/20 Q1011 NOSIG
METAR WADD 240700Z 14016KT 9999 SCT016 28/20 Q1011 NOSIG
METAR WADD 240630Z 13016KT 9999 SCT016 28/21 Q1011 NOSIG
METAR WADD 240600Z 11015KT 9999 SCT016 29/20 Q1012 NOSIG
METAR WADD 240530Z 13017KT 9999 SCT015 29/21 Q1012 NOSIG
METAR WADD 240500Z 14017G24KT 9999 SCT015 28/21 Q1012 NOSIG
METAR WADD 240430Z 14017KT 9999 SCT015 28/20 Q1013 NOSIG
METAR WADD 240400Z 14016KT 9999 SCT015 29/20 Q1013 NOSIG
METAR WADD 240330Z 13016KT 9999 SCT015 28/20 Q1014 NOSIG
METAR WADD 240300Z 14016KT 9999 SCT015 28/21 Q1014 NOSIG
METAR WADD 240230Z 13015KT 9999 SCT016 28/20 Q1014 NOSIG
METAR WADD 240200Z 13014KT 9999 SCT016 29/20 Q1015 NOSIG
METAR WADD 240130Z 13013KT 9999 SCT016 28/20 Q1015 NOSIG
METAR WADD 240100Z 14015KT 9999 SCT016 27/20 Q1015 NOSIG
METAR WADD 240030Z 13013KT 9999 FEW017 27/20 Q1014 NOSIG
METAR WADD 240000Z 13010KT 9999 FEW017 26/20 Q1014 NOSIG
METAR WADD 232330Z 13009KT 9999 FEW017 26/20 Q1014 NOSIG
METAR WADD 232300Z 12008KT 9999 FEW017 25/20 Q1014 NOSIG
METAR WADD 232230Z 12009KT 9999 SCT017 25/20 Q1014 NOSIG
METAR WADD 232200Z 13009KT 9999 SCT017 25/20 Q1013 NOSIG
METAR WADD 232130Z 13010KT 9999 SCT017 25/20 Q1013 NOSIG
METAR WADD 232100Z 13010KT 9999 SCT017 25/20 Q1013 NOSIG
METAR WADD 232030Z 13012KT 9999 SCT017 25/20 Q1013 NOSIG
METAR WADD 232000Z 13012KT 9999 SCT017 25/20 Q1013 NOSIG
METAR WADD 231930Z 13012KT 9999 SCT017 25/20 Q1013 NOSIG
METAR WADD 231900Z 13011KT 9999 SCT017 25/21 Q1013 NOSIG
METAR WADD 231830Z 13010KT 9999 SCT017 25/21 Q1013 NOSIG
METAR WADD 231800Z 12014KT 9999 SCT017 25/20 Q1014 NOSIG
METAR WADD 231730Z 13015KT 9999 SCT017 25/21 Q1014 NOSIG
METAR WADD 231700Z 09013KT 9999 SCT017 25/20 Q1014 NOSIG
METAR WADD 231630Z 12010KT 9999 SCT017 25/21 Q1014 NOSIG
METAR WADD 231600Z 12012KT 9999 SCT017 26/20 Q1015 NOSIG
METAR WADD 231530Z 11012KT 9999 SCT017 25/21 Q1015 NOSIG
METAR WADD 231500Z 10009KT 9999 SCT017 25/20 Q1015 NOSIG
METAR WADD 231430Z 11010KT 9999 FEW017 25/21 Q1015 NOSIG
METAR WADD 231400Z 12010KT 9999 FEW017 25/21 Q1015 NOSIG
METAR WADD 231330Z 11009KT 9999 SCT016 25/21 Q1014 NOSIG
METAR WADD 231300Z 12010KT 9999 SCT016 25/21 Q1014 NOSIG
METAR WADD 231230Z 12012KT 9999 SCT016 26/21 Q1014 NOSIG
METAR WADD 231200Z 11013KT 9999 SCT016 26/21 Q1014 RERA NOSIG
METAR WADD 231130Z 13010KT 8000 -RA BKN016 26/21 Q1013 TEMPO TL1230 -RA
METAR WADD 231100Z 13011KT 9999 SCT017 26/20 Q1013 NOSIG
METAR WADD 231030Z 13012KT 9999 SCT017 26/20 Q1013 NOSIG
METAR WADD 231000Z 13012KT 9999 SCT017 27/21 Q1012 NOSIG</description><pubDate>Fri, 24 Jul 2026 09:57:34 </pubDate></item></channel></rss>