<rss version="2.0"><channel><title>Aviation Weather METAR Data for WADD</title><link>https://aviationweather.gov/api/data/metar?ids=WADD&amp;hours=24</link><description>Latest METAR data for WADD</description><item><title>2026-02-23 17:40:42Z</title><link>https://aviationweather.gov/api/data/metar?ids=WADD&amp;hours=24</link><description>METAR WADD 231730Z 26006KT 1800 +RA FEW014CB BKN014 25/25 Q1007 TEMPO TL1830 1800 +RA RMK CB IN APCH AND CLIMB-OUT
METAR WADD 231700Z 26013KT 1800 +RA FEW014CB BKN014 25/25 Q1007 TEMPO TL1800 1800 +RA RMK CB IN APCH AND CLIMB-OUT
METAR WADD 231630Z 25013KT 0800 +RA FEW014CB BKN014 24/24 Q1008 TEMPO TL1730 0800 +RA RMK CB IN APCH AND CLIMB-OUT
METAR WADD 231600Z 27009KT 230V310 0500 +RA FEW014CB BKN014 24/24 Q1008 TEMPO TL1700 0500 +RA RMK CB IN APCH AND CLIMB-OUT
METAR WADD 231530Z 26011KT 3000 RA FEW014CB BKN014 25/24 Q1008 TEMPO TL1630 3000 RA RMK CB IN APCH AND CLIMB-OUT
METAR WADD 231500Z 24009KT 4000 RA FEW014CB BKN014 24/24 Q1009 TEMPO TL1600 4000 RA RMK CB IN APCH AND CLIMB-OUT
METAR WADD 231430Z 26021G31KT 1400 +RA FEW014CB BKN014 24/24 Q1009 TE MPO TL1530 1400 +RA RMK CB IN APCH AND CLIMB-OUT
METAR WADD 231400Z 28012KT 8000 -RA FEW015CB BKN015 26/24 Q1008 TEMPO TL1500 8000 -RA RMK CB IN CLIMB-OUT
METAR WADD 231330Z 29015KT 8000 -RA FEW015CB BKN015 26/24 Q1008 TEMPO TL1430 8000 -RA
METAR WADD 231300Z 28022KT 6000 -RA FEW015CB BKN015 25/24 Q1008 TEMPO TL1400 6000 -RA RMK CB IN APCH
METAR WADD 231230Z 24013G23KT 7000 -RA FEW015CB BKN015 27/25 Q1007 TEMPO TL1330 7000 -RA RMK CB IN APCH AND CLIMB-OUT
METAR WADD 231200Z 27011KT 7000 -RA FEW015CB BKN015 26/25 TEMPO TL1300 7000 -RA
METAR WADD 231130Z 27012KT 7000 -RA FEW015CB BKN015 25/24 Q1007 TEMPO TL1230 7000 -RA RMK CB IN APCH
METAR WADD 231100Z 26017KT 5000 -RA FEW013CB BKN013 26/25 Q1007 TEMPO TL1200 5000 -RA RMK CB IN APCH AND CLIMB-OUT
METAR WADD 231030Z 32008KT 280V350 9999 FEW014CB BKN015 27/25 Q1006 NOSIG RMK CB IN CLIMB-OUT
METAR WADD 231000Z 27013KT 9999 FEW015CB BKN015 27/25 Q1006 NOSIG
METAR WADD 230930Z 27014KT 9999 FEW015CB BKN015 27/25 Q1006 NOSIG RMK CB IN APCH
METAR WADD 230900Z 30012KT 9999 FEW015CB BKN016 27/25 Q1005 RERA NOSIG RMK CB IN APCH
METAR WADD 230830Z 29015KT 8000 -RA FEW015CB BKN015 26/25 Q1005 TEMPO TL0930 8000 -RA RMK CB IN APCH
METAR WADD 230800Z 26018KT 2000 RA FEW013CB BKN013 26/25 Q1005 TEMPO TL0846 3000 RA RMK CB IN APCH AND CLIMB-OUT
METAR WADD 230730Z 31008KT 9999 FEW015CB BKN015 27/25 Q1005 NOSIG RMK CB IN CLIMB-OUT
METAR WADD 230700Z 32007KT 9999 SCT015 27/25 Q1005 RERA NOSIG
METAR WADD 230630Z 32008KT 8000 -RA BKN015 26/25 Q1006 TEMPO TL0730 -RA
METAR WADD 230600Z 31012KT 5000 -RA FEW015CB BKN015 26/25 Q1006 TEMPO TL0700 6000 -RA RMK CB IN APCH AND CLIMB-OUT
METAR WADD 230530Z 32013KT 7000 -RA FEW013CB BKN013 25/25 Q1006 TEMPO TL0630 7000 -RA RMK CB IN APCH AND CLIMB-OUT
METAR WADD 230500Z 29017G28KT 3000 +RA FEW013CB BKN013 25/24 Q1007 TEMPO TL0530 3000 +RA RMK CB IN APCH AND CLIMB-OUT
METAR WADD 230430Z 26015KT 7000 -RA FEW014CB BKN014 25/25 Q1007 TEMPO TL0600 7000 -RA RMK CB IN APCH AND CLIMB-OUT
METAR WADD 230400Z 31010KT 7000 -RA FEW014CB BKN014 27/25 Q1007 TEMPO TL0500 7000 -RA RMK CB IN APCH AND CLIMB-OUT
METAR WADD 230330Z 29013KT 7000 -RA FEW014CB BKN014 27/25 Q1007 TEMPO TL0500 7000 -RA RMK CB IN APCH AND CLIMB-OUT
METAR WADD 230300Z 30012KT 7000 -RA FEW014CB BKN014 26/26 Q1008 TEMPO TL0500 7000 -RA RMK CB IN APCH AND CLIMB-OUT
METAR WADD 230230Z 29013KT 260V320 9999 FEW014CB BKN014 27/25 Q1008 NOSIG RMK CB IN APCH AND CLIMB-OUT
METAR WADD 230200Z 26012KT 9999 FEW014CB BKN014 28/25 Q1008 RERA NOSIG RMK CB IN APCH AND CLIMB-OUT
METAR WADD 230130Z 25009KT 7000 -RA FEW014CB BKN014 27/25 Q1008 TEMPO TL0300 7000 -RA RMK CB IN APCH AND CLIMB-OUT
METAR WADD 230100Z 27008KT 240V310 7000 -RA FEW014CB BKN014 26/25 Q10 08 TEMPO TL0300 7000 -RA RMK CB IN APCH AND CLIMB-OUT
METAR WADD 230000Z 27005KT 200V320 6000 -RA FEW014CB BKN014 25/25 Q1007 TEMPO TL0100 -RA CB IN CLIMB-OUT
METAR WADD 222000Z 28012KT 9999 BKN015 25/24 Q1005 NOSIG
METAR WADD 221930Z 27012KT 9999 BKN015 26/24 Q1005 NOSIG
METAR WADD 221900Z 28015KT 9999 BKN015 26/24 Q1005 NOSIG
METAR WADD 221830Z COR 29018KT 9999 BKN015 26/25 Q1005 RERA NOSIG</description><pubDate>Mon, 23 Feb 2026 17:40:42 </pubDate></item></channel></rss>