<rss version="2.0"><channel><title>Aviation Weather METAR Data for WADD</title><link>https://aviationweather.gov/api/data/metar?ids=WADD&amp;hours=24</link><description>Latest METAR data for WADD</description><item><title>2025-09-23 07:40:55Z</title><link>https://aviationweather.gov/api/data/metar?ids=WADD&amp;hours=24</link><description>WADD 230730Z 25010KT 9999 FEW017 29/24 Q1008 NOSIG
METAR WADD 230700Z 25011KT 9999 FEW017 29/24 Q1008 NOSIG
 WADD 230630Z 26012KT 9999 FEW016 29/24 Q1009 NOSIG
 WADD 230600Z 26012KT 9999 FEW016 29/24 Q1009 NOSIG
METAR WADD 230530Z 26011KT 9999 FEW017 29/24 Q1009 NOSIG
METAR WADD 230500Z 26010KT 9999 FEW017 29/24 Q1010 NOSIG
METAR WADD 230430Z 26009KT 220V280 9999 FEW017 29/24 Q1010 NOSIG
METAR WADD 230400Z 26008KT 230V300 9999 FEW017 28/24 Q1011 NOSIG
METAR WADD 230330Z 26009KT 9999 FEW017 28/24 Q1011 NOSIG
METAR WADD 230300Z 26008KT 9999 FEW017 28/24 Q1011 NOSIG
METAR WADD 230230Z 26008KT 9999 FEW017 28/24 Q1012 NOSIG
METAR WADD 230200Z 25007KT 220V280 9999 FEW017 28/24 Q1012 NOSIG
METAR WADD 230130Z 28005KT 250V330 9999 FEW017 28/25 Q1012 NOSIG
 WADD 230100Z 32005KT 290V360 9999 FEW017 27/25 Q1012 NOSIG
METAR WADD 230030Z 33005KT 9999 FEW017 26/24 Q1012 NOSIG
 WADD 230000Z 35005KT 320V030 9999 FEW017 26/24 Q1012 NOSIG
METAR WADD 222330Z 36006KT 320V050 9999 FEW017 25/24 Q1012 NOSIG
METAR WADD 222300Z VRB01KT 9999 FEW017 24/24 Q1012 NOSIG
METAR WADD 222230Z VRB02KT 9999 FEW017 23/23 Q1012 NOSIG
METAR WADD 222200Z 15002KT 9999 FEW017 24/23 Q1011 NOSIG
METAR WADD 222130Z 10001KT 9999 FEW017 24/23 Q1011 NOSIG
 WADD 222100Z VRB01KT 9999 FEW017 24/24 Q1011 NOSIG
METAR WADD 222030Z 02003KT 9999 SCT017 24/23 Q1011 NOSIG
METAR WADD 222000Z VRB01KT 9999 FEW017 25/24 Q1011 NOSIG
METAR WADD 221930Z VRB01KT 9999 FEW017 24/24 Q1011 NOSIG
METAR WADD 221900Z VRB02KT 9999 FEW017 24/24 Q1011 NOSIG
METAR WADD 221830Z 25002KT 9999 FEW017 24/24 Q1011 NOSIG
METAR WADD 221800Z 24001KT 9999 FEW017 24/23 Q1011 NOSIG
METAR WADD 221730Z VRB01KT 9999 FEW017 25/24 Q1011 NOSIG
METAR WADD 221700Z 22002KT 9999 FEW017 25/24 Q1011 NOSIG
METAR WADD 221630Z VRB02KT 9999 FEW017 25/24 Q1011 NOSIG
METAR WADD 221600Z VRB01KT 9999 FEW017 25/24 Q1011 NOSIG
METAR WADD 221530Z VRB01KT 9999 FEW017 25/23 Q1012 NOSIG
METAR WADD 221500Z VRB01KT 9999 FEW017 26/24 Q1012 NOSIG
METAR WADD 221430Z VRB01KT 9999 FEW017 26/24 Q1012 NOSIG
METAR WADD 221400Z VRB02KT 9999 FEW017 26/24 Q1012 NOSIG
METAR WADD 221330Z 17003KT 9999 FEW017 26/24 Q1012 NOSIG
METAR WADD 221300Z VRB02KT 9999 FEW017 26/24 Q1011 NOSIG
METAR WADD 221230Z VRB01KT 9999 FEW017 26/24 Q1011 NOSIG
METAR WADD 221200Z VRB01KT 9999 FEW018 26/24 Q1011 NOSIG
METAR WADD 221130Z 14002KT 9999 FEW018 27/24 Q1011 NOSIG
METAR WADD 221100Z 14004KT 110V190 9999 FEW018 27/24 Q1010 NOSIG
METAR WADD 221030Z 16004KT 130V220 9999 SCT018 27/23 Q1010 NOSIG
METAR WADD 221000Z 17005KT 120V230 9999 FEW018 28/23 Q1010 NOSIG
METAR WADD 220930Z 17007KT 090V210 9999 FEW018 28/23 Q1009 NOSIG
METAR WADD 220900Z VRB06KT 9999 FEW018 29/24 Q1009 NOSIG
METAR WADD 220830Z 16008KT 130V210 9999 FEW018 29/23 Q1009 NOSIG
METAR WADD 220800Z 16005KT 100V250 9999 FEW018 30/23 Q1009 NOSIG</description><pubDate>Tue, 23 Sep 2025 07:40:55 </pubDate></item></channel></rss>