<rss version="2.0"><channel><title>Aviation Weather METAR Data for WADD</title><link>https://aviationweather.gov/api/data/metar?ids=WADD&amp;hours=24</link><description>Latest METAR data for WADD</description><item><title>2026-05-07 09:41:25Z</title><link>https://aviationweather.gov/api/data/metar?ids=WADD&amp;hours=24</link><description>METAR WADD 070930Z 13012KT 9999 SCT016 29/25 Q1008 NOSIG
METAR WADD 070900Z 14013KT 9999 SCT017 29/25 Q1008 NOSIG
METAR WADD 070830Z 13013KT 9999 SCT017 30/25 Q1008 NOSIG
METAR WADD 070800Z 13013KT 9999 FEW017 30/25 Q1008 NOSIG
METAR WADD 070730Z 13012KT 9999 FEW017 30/25 Q1008 NOSIG
METAR WADD 070700Z 12014KT 9999 FEW017 30/25 Q1008 NOSIG
METAR WADD 070630Z 11013KT 9999 FEW017 30/25 Q1008 NOSIG
METAR WADD 070600Z 10013KT 9999 FEW017 31/25 Q1009 NOSIG
METAR WADD 070530Z 12013KT 9999 FEW017 31/25 Q1009 NOSIG
METAR WADD 070500Z 11014KT 9999 FEW017 31/24 Q1009 NOSIG
METAR WADD 070430Z 12013KT 9999 FEW017 31/24 Q1009 NOSIG
METAR WADD 070400Z 11011KT 9999 FEW017 31/25 Q1010 NOSIG
METAR WADD 070330Z 11009KT 9999 FEW017 31/24 Q1010 NOSIG
METAR WADD 070300Z 11009KT 9999 FEW017 31/26 Q1011 NOSIG
METAR WADD 070230Z 12011KT 9999 FEW017 31/26 Q1011 NOSIG
METAR WADD 070200Z 11010KT 9999 SCT017 31/26 Q1011 NOSIG
METAR WADD 070130Z 11011KT 9999 SCT016 31/26 Q1011 NOSIG
METAR WADD 070100Z 11012KT 9999 SCT016 30/26 Q1011 NOSIG
METAR WADD 070030Z 12011KT 9999 SCT016 30/26 Q1010 NOSIG
METAR WADD 070000Z 12010KT 9999 SCT016 29/26 Q1010 NOSIG
METAR WADD 062330Z 12008KT 9999 FEW017 29/26 Q1010 NOSIG
METAR WADD 062300Z 12008KT 9999 FEW017 28/26 Q1010 NOSIG
METAR WADD 062230Z 11010KT 9999 FEW017 27/26 Q1009 NOSIG
METAR WADD 062200Z 12009KT 9999 FEW017 27/25 Q1009 NOSIG
METAR WADD 062130Z 12010KT 9999 FEW017 27/25 Q1009 NOSIG
METAR WADD 062100Z 12010KT 9999 FEW017 27/25 Q1009 NOSIG
METAR WADD 062030Z 12011KT 9999 FEW017 27/25 Q1009 NOSIG
METAR WADD 062000Z 12012KT 9999 FEW017 28/25 Q1009 NOSIG
METAR WADD 061930Z 11012KT 9999 FEW017 28/25 Q1009 NOSIG
METAR WADD 061900Z 12012KT 9999 FEW017 28/25 Q1009 NOSIG
METAR WADD 061830Z 11011KT 9999 FEW017 28/26 Q1009 NOSIG
METAR WADD 061800Z 12011KT 9999 FEW017 28/25 Q1009 NOSIG
METAR WADD 061730Z 12010KT 9999 FEW017 28/26 Q1009 NOSIG
METAR WADD 061700Z 12009KT 9999 FEW017 28/26 Q1009 NOSIG
METAR WADD 061630Z 13010KT 9999 FEW017 28/26 Q1010 NOSIG
METAR WADD 061600Z 13009KT 9999 FEW017 28/26 Q1010 NOSIG
METAR WADD 061530Z 13011KT 9999 FEW017 28/26 Q1010 NOSIG
METAR WADD 061500Z 13011KT 9999 FEW017 28/25 Q1010 NOSIG
METAR WADD 061430Z 13013KT 9999 FEW017 28/26 Q1010 NOSIG
METAR WADD 061400Z 14013KT 9999 FEW017 28/26 Q1010 NOSIG
METAR WADD 061330Z 13013KT 9999 FEW017 28/26 Q1010 NOSIG
METAR WADD 061300Z 13012KT 9999 FEW017 28/26 Q1010 NOSIG
METAR WADD 061230Z 13013KT 9999 FEW017 28/26 Q1010 NOSIG
METAR WADD 061200Z 13012KT 9999 FEW017 28/26 Q1010 NOSIG
METAR WADD 061130Z 13012KT 9999 FEW017 28/26 Q1009 NOSIG
METAR WADD 061100Z 12011KT 9999 FEW017 28/26 Q1009 NOSIG
METAR WADD 061030Z 12012KT 9999 FEW017 28/26 Q1008 NOSIG
METAR WADD 061000Z 13014KT 9999 FEW017 29/26 Q1008 NOSIG</description><pubDate>Thu, 07 May 2026 09:41:25 </pubDate></item></channel></rss>