<rss version="2.0"><channel><title>Aviation Weather METAR Data for WADD</title><link>https://aviationweather.gov/api/data/metar?ids=WADD</link><description>Latest METAR data for WADD</description><item><title>2024-12-30 15:23:53Z</title><link>https://aviationweather.gov/api/data/metar?ids=WADD</link><description>WADD 301500Z 23002KT 9999 SCT016 27/26 Q1009 NOSIG</description><pubDate>Mon, 30 Dec 2024 15:23:53 </pubDate></item></channel></rss>