<rss version="2.0"><channel><title>Aviation Weather METAR Data for WADD</title><link>https://aviationweather.gov/api/data/metar?ids=WADD&amp;hours=24</link><description>Latest METAR data for WADD</description><item><title>2026-06-16 23:06:28Z</title><link>https://aviationweather.gov/api/data/metar?ids=WADD&amp;hours=24</link><description>METAR WADD 162300Z 05004KT 9999 FEW017 24/22 Q1014 NOSIG
METAR WADD 162230Z 04005KT 9999 FEW016 24/23 Q1013 NOSIG
METAR WADD 162200Z 05005KT 9999 FEW017 24/23 Q1013 NOSIG
METAR WADD 162130Z 03003KT 9999 FEW017 24/23 Q1013 NOSIG
METAR WADD 162100Z 07005KT 9999 FEW017 25/23 Q1013 NOSIG
METAR WADD 162030Z 08005KT 9999 FEW017 25/24 Q1013 NOSIG
METAR WADD 162000Z 08005KT 9999 FEW017 25/23 Q1013 NOSIG
METAR WADD 161930Z 08005KT 9999 FEW017 25/24 Q1013 NOSIG
METAR WADD 161900Z 09006KT 9999 FEW017 26/24 Q1013 NOSIG
METAR WADD 161830Z 09007KT 9999 FEW017 26/24 Q1013 NOSIG
METAR WADD 161800Z 09006KT 9999 FEW017 26/24 Q1013 NOSIG
METAR WADD 161730Z 09006KT 9999 FEW017 26/24 Q1013 NOSIG
METAR WADD 161700Z 09007KT 9999 FEW017 26/24 Q1014 NOSIG
METAR WADD 161630Z 09007KT 9999 FEW017 26/25 Q1014 NOSIG
METAR WADD 161600Z 10006KT 9999 FEW017 26/24 Q1014 NOSIG
METAR WADD 161530Z 10005KT 9999 FEW017 26/25 Q1014 NOSIG
METAR WADD 161500Z 09006KT 9999 FEW017 26/24 Q1014 NOSIG
METAR WADD 161430Z 10007KT 9999 FEW017 27/24 Q1014 NOSIG
METAR WADD 161400Z 10007KT 9999 SCT017 27/24 Q1014 NOSIG
METAR WADD 161330Z 09009KT 9999 SCT017 27/25 Q1014 NOSIG
METAR WADD 161300Z 13005KT 9999 SCT017 27/25 Q1014 NOSIG
METAR WADD 161230Z 13006KT 9999 FEW017 27/25 Q1014 NOSIG
METAR WADD 161200Z 13007KT 9999 FEW017 27/25 Q1013 NOSIG
METAR WADD 161130Z 13007KT 9999 FEW017 27/25 Q1013 NOSIG
METAR WADD 161100Z 12007KT 9999 FEW017 27/25 Q1012 NOSIG
METAR WADD 161030Z 13008KT 9999 FEW017 27/24 Q1012 NOSIG
METAR WADD 161000Z 13010KT 9999 FEW017 28/25 Q1012 NOSIG
METAR WADD 160930Z 12010KT 9999 FEW017 28/24 Q1011 NOSIG
METAR WADD 160900Z 12012KT 9999 FEW017 29/24 Q1011 NOSIG
METAR WADD 160830Z 12011KT 9999 FEW017 29/25 Q1011 NOSIG
METAR WADD 160800Z 11010KT 9999 FEW017 29/25 Q1011 NOSIG
METAR WADD 160730Z 11012KT 9999 FEW017 29/24 Q1011 NOSIG
METAR WADD 160700Z 10010KT 9999 FEW017 30/24 Q1011 NOSIG
METAR WADD 160630Z 13010KT 9999 FEW017 30/24 Q1012 NOSIG
METAR WADD 160600Z 11009KT 9999 FEW017 30/24 Q1012 NOSIG
METAR WADD 160530Z 11009KT 080V140 9999 FEW017 30/24 Q1012 NOSIG
METAR WADD 160500Z 11009KT 9999 FEW017 30/24 Q1012 NOSIG
METAR WADD 160430Z 11010KT 9999 FEW017 30/24 Q1013 NOSIG
METAR WADD 160400Z 11008KT 9999 FEW017 30/24 Q1013 NOSIG
METAR WADD 160330Z 11009KT 9999 FEW017 30/24 Q1013 NOSIG
METAR WADD 160300Z 12009KT 9999 FEW017 30/24 Q1014 NOSIG
METAR WADD 160230Z 11008KT 9999 FEW017 30/24 Q1014 NOSIG
METAR WADD 160200Z 09008KT 9999 FEW017 30/24 Q1014 NOSIG
METAR WADD 160130Z 11007KT 070V130 9999 FEW017 30/24 Q1014 NOSIG
METAR WADD 160100Z 10006KT 060V130 9999 FEW017 29/24 Q1014 NOSIG
METAR WADD 160030Z 07005KT 050V120 9999 FEW017 29/24 Q1014 NOSIG
METAR WADD 160000Z 04007KT 9999 FEW017 27/23 Q1014 NOSIG
METAR WADD 152330Z 03008KT 9999 FEW017 26/22 Q1013 NOSIG</description><pubDate>Tue, 16 Jun 2026 23:06:28 </pubDate></item></channel></rss>