<rss version="2.0"><channel><title>Aviation Weather METAR Data for WADD</title><link>https://aviationweather.gov/api/data/metar?ids=WADD&amp;hours=24</link><description>Latest METAR data for WADD</description><item><title>2026-05-21 18:06:12Z</title><link>https://aviationweather.gov/api/data/metar?ids=WADD&amp;hours=24</link><description>METAR WADD 211730Z 11006KT 9999 SCT017 27/26 Q1010 NOSIG
METAR WADD 211700Z 11008KT 9999 SCT017 27/25 Q1010 NOSIG
METAR WADD 211630Z 12009KT 9999 SCT017 27/26 Q1011 NOSIG
METAR WADD 211600Z 13009KT 9999 SCT017 28/27 Q1011 NOSIG
METAR WADD 211530Z 13010KT 9999 SCT017 28/27 Q1011 NOSIG
METAR WADD 211500Z 13012KT 9999 SCT017 28/27 Q1011 NOSIG
METAR WADD 211430Z 13013KT 9999 SCT017 28/27 Q1011 NOSIG
METAR WADD 211400Z 13011KT 9999 SCT017 28/27 Q1011 NOSIG
METAR WADD 211330Z 13012KT 9999 SCT017 28/27 Q1011 NOSIG
METAR WADD 211300Z 12013KT 9999 SCT017 28/26 Q1011 NOSIG
METAR WADD 211230Z 13012KT 9999 SCT017 28/26 Q1010 NOSIG
METAR WADD 211200Z 14010KT 9999 SCT017 29/26 Q1010 NOSIG
METAR WADD 211130Z 13008KT 9999 FEW017 29/26 Q1010 NOSIG
METAR WADD 211100Z 12006KT 9999 FEW017 29/26 Q1010 NOSIG
METAR WADD 211030Z 13005KT 9999 FEW017 29/26 Q1009 NOSIG
METAR WADD 210930Z 10007KT 9999 SCT017 30/25 Q1009 NOSIG
METAR WADD 210900Z 11008KT 9999 SCT017 31/26 Q1009 NOSIG
METAR WADD 210830Z 11008KT 9999 SCT017 31/26 Q1008 NOSIG
METAR WADD 210800Z 12008KT 9999 SCT017 31/26 Q1008 NOSIG
METAR WADD 210730Z 11009KT 9999 SCT017 31/26 Q1008 NOSIG
METAR WADD 210700Z 11007KT 060V130 9999 SCT017 32/26 Q1008 NOSIG
METAR WADD 210630Z 11006KT 070V140 9999 FEW017 33/27 Q1008 NOSIG
METAR WADD 210600Z 11005KT 080V160 9999 FEW017 33/27 Q1009 NOSIG
METAR WADD 210530Z 11004KT 070V160 9999 FEW017 34/26 Q1009 NOSIG
METAR WADD 210500Z 12004KT 070V170 9999 FEW017 33/26 Q1009 NOSIG
METAR WADD 210430Z 26008KT 220V290 9999 FEW017 32/27 Q1009 NOSIG
METAR WADD 210400Z 27007KT 210V290 9999 FEW017 32/26 Q1010 NOSIG
METAR WADD 210330Z VRB03KT 9999 FEW017 33/27 Q1010 NOSIG
METAR WADD 210300Z 13004KT 080V170 9999 FEW017 32/26 Q1010 NOSIG
METAR WADD 210230Z 13005KT 090V160 9999 FEW017 31/26 Q1011 NOSIG
METAR WADD 210200Z 25004KT 190V300 9999 FEW017 31/27 Q1011 NOSIG
METAR WADD 210130Z 27007KT 230V300 9999 FEW017 30/27 Q1011 NOSIG
METAR WADD 210100Z 30005KT 280V340 9999 FEW017 30/26 Q1011 NOSIG
METAR WADD 210030Z 29004KT 9999 FEW017 30/26 Q1010 NOSIG
METAR WADD 210000Z 31003KT 9999 FEW017 29/26 Q1010 NOSIG
METAR WADD 202330Z 30003KT 8000 FEW017 28/26 Q1010 NOSIG
METAR WADD 202300Z 25003KT 6000 FEW017 26/25 Q1010 NOSIG
METAR WADD 202230Z VRB02KT 4000 BR FEW017 26/25 Q1009 TEMPO TL2330 BR
METAR WADD 202200Z VRB01KT 7000 FEW017 26/25 Q1009 NOSIG
METAR WADD 202130Z 01003KT 9999 FEW017 26/25 Q1009 NOSIG
METAR WADD 202100Z 03002KT 9999 FEW017 26/25 Q1009 NOSIG
METAR WADD 202030Z VRB01KT 9999 FEW017 26/25 Q1009 NOSIG
METAR WADD 202000Z 00000KT 9999 FEW017 26/25 Q1009 NOSIG
METAR WADD 201930Z 07003KT 9999 SCT017 26/25 Q1008 NOSIG
METAR WADD 201900Z 08004KT 9999 SCT017 26/25 Q1009 NOSIG
METAR WADD 201830Z 08004KT 9999 SCT017 27/25 Q1009 NOSIG</description><pubDate>Thu, 21 May 2026 18:06:12 </pubDate></item></channel></rss>