<rss version="2.0"><channel><title>Aviation Weather METAR Data for WADD</title><link>https://aviationweather.gov/api/data/metar?ids=WADD&amp;hours=24</link><description>Latest METAR data for WADD</description><item><title>2025-02-08 09:21:25Z</title><link>https://aviationweather.gov/api/data/metar?ids=WADD&amp;hours=24</link><description>WADD 080900Z 26014KT 9999 FEW015CB BKN016 30/27 Q1004 NOSIG
WADD 080830Z 27015KT 9999 FEW015CB BKN015 29/27 Q1004 NOSIG
WADD 080800Z 26013KT 9999 FEW015CB SCT016 30/27 Q1004 NOSIG
WADD 080730Z 26013KT 9999 BKN016 30/27 Q1005 NOSIG
WADD 080700Z 26015KT 9999 SCT016 31/27 Q1005 NOSIG
WADD 080630Z 26015KT 9999 SCT016 30/28 Q1005 NOSIG
WADD 080600Z 27018G27KT 9000 -RA FEW015CB SCT016 28/27 Q1005 TEMPO TL0700 -RA RMK CB IN APCH
WADD 080530Z 26015KT 9999 FEW015CB SCT016 31/27 Q1006 NOSIG
WADD 080500Z 26016KT 9999 FEW015CB SCT016 31/27 Q1006 NOSIG
WADD 080430Z 27016KT 9999 FEW015CB BKN016 31/27 Q1006 NOSIG
WADD 080400Z 28015KT 9999 FEW015CB BKN016 30/27 Q1007 NOSIG
WADD 080330Z 29014KT 9999 FEW015CB BKN016 31/27 Q1007 NOSIG
WADD 080300Z 28016KT 9999 FEW015CB BKN016 30/27 Q1007 NOSIG
WADD 080230Z 28016KT 9999 BKN016 30/27 Q1007 NOSIG
WADD 080200Z 28016KT 9999 FEW015CB SCT016 30/27 Q1007 NOSIG
WADD 080130Z 28016KT 9999 FEW014CB BKN015 30/27 Q1008 NOSIG
WADD 080100Z 28014KT 9999 FEW014CB SCT015 29/27 Q1008 RERA NOSIG
WADD 080030Z 28018KT 9999 FEW014CB BKN015 28/26 Q1008 NOSIG
WADD 080000Z 27013KT 240V300 6000 -RA FEW014CB BKN015 28/26 Q1008 TEMPO TL0100 6000 -RA
WADD 072330Z 25010KT 9999 FEW015CB BKN016 29/26 Q1008 NOSIG
WADD 072300Z 25009KT 9999 FEW016CB BKN016 29/26 Q1007 NOSIG
WADD 072230Z 25010KT 9999 FEW016CB BKN016 29/26 Q1007 NOSIG
WADD 072200Z 25009KT 9999 FEW016CB BKN016 29/26 Q1007 NOSIG
WADD 072130Z 26011KT 9999 FEW016CB BKN016 29/26 Q1006 NOSIG
WADD 072100Z 25008KT 9999 FEW016CB SCT016 29/26 Q1006 NOSIG
WADD 072030Z 25010KT 9999 FEW016CB SCT016 29/26 Q1006 NOSIG
WADD 072000Z 25011KT 9999 SCT016 29/26 Q1006 NOSIG
WADD 071930Z 26011KT 9999 SCT016 29/26 Q1006 NOSIG
WADD 071900Z 26013KT 9999 FEW016CB BKN016 28/26 Q1006 NOSIG
WADD 071830Z 26011KT 9999 few016cb BKN016 28/26 Q1006 RERA NOSIG
WADD 071800Z 24009KT 5000 RA FEW016CB BKN016 29/26 Q1006 TEMPO TL1900 5000 RA
WADD 071730Z 26011KT 9999 SCT017 29/26 Q1007 NOSIG
WADD 071700Z 27013KT 9999 SCT017 29/25 Q1007 NOSIG
WADD 071630Z 27012KT 9999 SCT017 29/25 Q1007 NOSIG
WADD 071600Z 27010KT 9999 SCT017 29/26 Q1008 NOSIG
WADD 071530Z 27009KT 9999 FEW017 29/26 Q1008 NOSIG
WADD 071500Z 27010KT 9999 SCT017 29/26 Q1009 NOSIG
WADD 071430Z 27008KT 9999 SCT017 29/26 Q1009 NOSIG
WADD 071400Z 27008KT 9999 SCT017 29/26 Q1009 NOSIG
WADD 071330Z 26006KT 9999 SCT017 29/26 Q1009 NOSIG
WADD 071300Z 26006KT 9999 SCT017 29/26 Q1008 NOSIG
WADD 071230Z 24005KT 9999 FEW017 29/26 Q1008 NOSIG
WADD 071200Z 23004KT 9999 FEW017 29/26 Q1008 NOSIG
WADD 071130Z 24005KT 200V270 9999 FEW017 29/26 Q1007 NOSIG
WADD 071100Z 26007KT 9999 FEW017 29/26 Q1007 NOSIG
WADD 071030Z 25006KT 9999 FEW017 29/26 Q1006 NOSIG
WADD 071000Z 25008KT 9999 FEW017 30/26 Q1006 NOSIG
WADD 070930Z 26007KT 9999 FEW017 30/26 Q1006 NOSIG</description><pubDate>Sat, 08 Feb 2025 09:21:25 </pubDate></item></channel></rss>