<rss version="2.0"><channel><title>Aviation Weather METAR Data for WADD</title><link>https://aviationweather.gov/api/data/metar?ids=WADD</link><description>Latest METAR data for WADD</description><item><title>2024-12-30 20:40:11Z</title><link>https://aviationweather.gov/api/data/metar?ids=WADD</link><description>WADD 302000Z VRB02KT 9999 SCT016 26/25 Q1007 NOSIG</description><pubDate>Mon, 30 Dec 2024 20:40:11 </pubDate></item></channel></rss>