<rss version="2.0"><channel><title>Aviation Weather METAR Data for WADD</title><link>https://aviationweather.gov/api/data/metar?ids=WADD&amp;hours=24</link><description>Latest METAR data for WADD</description><item><title>2025-06-16 12:57:19Z</title><link>https://aviationweather.gov/api/data/metar?ids=WADD&amp;hours=24</link><description>WADD 161230Z 12011KT 9999 FEW017 28/25 Q1011 NOSIG
WADD 161200Z 12011KT 9999 FEW017 28/25 Q1010 NOSIG
WADD 161130Z 12013KT 9999 FEW017 28/25 Q1010 NOSIG
WADD 161100Z 12012KT 9999 FEW017 28/25 Q1010 NOSIG
WADD 161030Z 13015KT 9999 FEW017 28/25 Q1010 NOSIG
WADD 161000Z 12015KT 9999 FEW017 28/26 Q1009 NOSIG
WADD 160930Z 13016KT 9999 FEW016 28/26 Q1009 NOSIG
WADD 160900Z 13018KT 9999 FEW016 29/26 Q1009 NOSIG
WADD 160830Z 13018KT 9999 FEW016 29/26 Q1009 NOSIG
WADD 160800Z 12017KT 9999 FEW016 29/26 Q1009 NOSIG
WADD 160730Z 12018KT 9999 FEW016 29/26 Q1009 NOSIG
WADD 160700Z 12018KT 9999 FEW016 29/26 Q1009 NOSIG
WADD 160630Z 12018KT 9999 FEW016 30/26 Q1009 NOSIG
WADD 160600Z 12016KT 9999 SCT016 29/26 Q1009 NOSIG
WADD 160530Z 11014KT 9999 SCT017 30/26 Q1010 NOSIG
WADD 160500Z 12014KT 9999 FEW017 30/26 Q1010 NOSIG
WADD 160430Z 11015KT 9999 SCT017 30/26 Q1010 NOSIG
WADD 160400Z 10013KT 9999 SCT017 29/26 Q1011 NOSIG
WADD 160330Z 12013KT 9999 FEW017 30/25 Q1011 NOSIG
WADD 160300Z 11013KT 9999 FEW017 30/25 Q1011 NOSIG
WADD 160230Z 10012KT 9999 SCT016 29/26 Q1012 NOSIG
WADD 160200Z 11015KT 9999 SCT016 29/26 Q1012 NOSIG
WADD 160130Z 11014KT 9999 SCT016 29/26 Q1012 NOSIG
WADD 160100Z 11015KT 9999 SCT016 29/26 Q1012 NOSIG
WADD 160030Z 10013KT 9999 SCT016 28/26 Q1012 NOSIG
WADD 160000Z 11013KT 9999 SCT016 28/25 Q1012 NOSIG
WADD 152330Z 11015KT 9999 SCT017 28/26 Q1011 NOSIG
WADD 152300Z 11012KT 9999 FEW017 28/25 Q1011 NOSIG
WADD 152230Z 12013KT 9999 SCT016 28/25 Q1011 NOSIG
WADD 152200Z 11014KT 9999 FEW017 28/25 Q1011 NOSIG
WADD 152130Z 12012KT 9999 FEW017 28/26 Q1011 NOSIG
WADD 152100Z 11012KT 9999 FEW017 28/25 Q1010 NOSIG
WADD 152030Z 12013KT 9999 FEW017 28/26 Q1010 NOSIG
WADD 152000Z 12013KT 9999 FEW017 28/25 Q1010 NOSIG
WADD 151930Z 12015KT 9999 FEW017 28/25 Q1010 NOSIG
WADD 151900Z 11014KT 9999 FEW017 28/26 Q1010 NOSIG
WADD 151830Z 12014KT 9999 FEW017 28/25 Q1011 NOSIG
WADD 151800Z 12013KT 9999 FEW017 28/26 Q1011 NOSIG
WADD 151730Z 11011KT 9999 FEW017 28/26 Q1011 NOSIG
WADD 151700Z 11012KT 9999 FEW017 28/26 Q1011 NOSIG
WADD 151630Z 11012KT 9999 FEW017 28/26 Q1012 NOSIG
WADD 151600Z 11013KT 9999 SCT016 28/26 Q1012 NOSIG
WADD 151530Z 12012KT 9999 SCT016 28/26 Q1012 NOSIG
WADD 151500Z 12012KT 9999 SCT016 28/26 Q1012 NOSIG
WADD 151430Z 12012KT 9999 FEW017 28/26 Q1012 NOSIG
WADD 151400Z 12013KT 9999 SCT016 28/26 Q1012 NOSIG
WADD 151330Z 12011KT 9999 SCT016 28/26 Q1011 NOSIG
WADD 151300Z 12011KT 9999 SCT016 28/26 Q1011 NOSIG</description><pubDate>Mon, 16 Jun 2025 12:57:19 </pubDate></item></channel></rss>