<rss version="2.0"><channel><title>Aviation Weather METAR Data for WADD</title><link>https://aviationweather.gov/api/data/metar?ids=WADD&amp;hours=24</link><description>Latest METAR data for WADD</description><item><title>2026-06-01 00:12:10Z</title><link>https://aviationweather.gov/api/data/metar?ids=WADD&amp;hours=24</link><description>METAR WADD 010000Z 06004KT 9999 FEW017 27/21 Q1014 NOSIG
METAR WADD 312330Z VRB02KT 9999 FEW017 26/21 Q1014 NOSIG
METAR WADD 312300Z VRB02KT 9999 FEW017 23/20 Q1013 NOSIG
METAR WADD 312230Z VRB01KT 9999 FEW017 23/20 Q1013 NOSIG
METAR WADD 312200Z 02005KT 9999 FEW017 23/20 Q1013 NOSIG
METAR WADD 312130Z 03006KT 9999 FEW017 23/20 Q1012 NOSIG
METAR WADD 312100Z 03006KT 9999 FEW017 23/21 Q1012 NOSIG
METAR WADD 312030Z 03006KT 9999 FEW017 23/21 Q1012 NOSIG
METAR WADD 312000Z 03007KT 9999 FEW017 24/21 Q1012 NOSIG
METAR WADD 311930Z 05006KT 9999 FEW017 24/22 Q1012 NOSIG
METAR WADD 311900Z 06005KT 9999 FEW017 24/22 Q1012 NOSIG
METAR WADD 311830Z 05005KT 9999 FEW017 24/22 Q1012 NOSIG
METAR WADD 311800Z 06005KT 9999 FEW017 24/21 Q1012 NOSIG
METAR WADD 311730Z 04004KT 9999 FEW017 25/22 Q1013 NOSIG
METAR WADD 311700Z 03004KT 9999 FEW017 25/22 Q1013 NOSIG
METAR WADD 311630Z 04006KT 9999 FEW017 26/22 Q1013 NOSIG
METAR WADD 311600Z 06007KT 9999 FEW017 26/23 Q1013 NOSIG
METAR WADD 311530Z 10007KT 9999 FEW017 26/22 Q1013 NOSIG
METAR WADD 311500Z 11006KT 9999 FEW017 27/23 Q1013 NOSIG
METAR WADD 311430Z 11006KT 9999 FEW017 26/23 Q1013 NOSIG
METAR WADD 311400Z 12005KT 9999 FEW017 27/23 Q1013 NOSIG
METAR WADD 311330Z 12006KT 9999 FEW017 27/23 Q1013 NOSIG
METAR WADD 311300Z 11005KT 9999 FEW017 26/23 Q1013 NOSIG
METAR WADD 311230Z 11006KT 9999 FEW017 27/23 Q1012 NOSIG
METAR WADD 311200Z 12006KT 9999 FEW017 27/23 Q1012 NOSIG
METAR WADD 311130Z 12007KT 9999 FEW017 27/23 Q1012 NOSIG
METAR WADD 311100Z 12008KT 9999 FEW018 27/23 Q1011 NOSIG
METAR WADD 311030Z 12008KT 9999 FEW018 27/22 Q1011 NOSIG
METAR WADD 311000Z 13010KT 9999 FEW018 28/22 Q1011 NOSIG
METAR WADD 310930Z 13011KT 9999 FEW018 28/21 Q1010 NOSIG
METAR WADD 310900Z 13011KT 9999 FEW018 29/21 Q1010 NOSIG
METAR WADD 310830Z 14011KT 9999 FEW018 29/21 Q1010 NOSIG
METAR WADD 310800Z 12009KT 9999 FEW018 29/21 Q1010 NOSIG
METAR WADD 310730Z 11010KT 9999 FEW017 29/21 Q1010 NOSIG
METAR WADD 310700Z 11010KT 9999 FEW017 29/21 Q1010 NOSIG
METAR WADD 310630Z 10009KT 9999 FEW017 30/21 Q1010 NOSIG
METAR WADD 310600Z 10009KT 9999 FEW017 30/21 Q1011 NOSIG
METAR WADD 310500Z 10011KT 9999 FEW017 30/21 Q1011 NOSIG
METAR WADD 310430Z 10011KT 9999 FEW017 30/21 Q1012 NOSIG
METAR WADD 310400Z COR 10011KT NCD 30/21 Q1012 NOSIG
METAR WADD 310330Z 11009KT 9999 FEW017 30/21 Q1013 NOSIG
METAR WADD 310300Z 10009KT 9999 FEW017 30/22 Q1013 NOSIG
METAR WADD 310230Z 12007KT 080V140 9999 FEW017 30/21 Q1013 NOSIG
METAR WADD 310200Z 10005KT 9999 FEW017 30/22 Q1014 NOSIG
METAR WADD 310130Z VRB02KT 9999 FEW017 28/22 Q1014 NOSIG
METAR WADD 310100Z VRB02KT 9999 FEW017 28/22 Q1014 NOSIG
METAR WADD 310030Z 19002KT 9999 FEW017 28/21 Q1013 NOSIG</description><pubDate>Mon, 01 Jun 2026 00:12:10 </pubDate></item></channel></rss>