<rss version="2.0"><channel><title>Aviation Weather METAR Data for WADD</title><link>https://aviationweather.gov/api/data/metar?ids=WADD&amp;hours=24</link><description>Latest METAR data for WADD</description><item><title>2026-02-02 17:50:04Z</title><link>https://aviationweather.gov/api/data/metar?ids=WADD&amp;hours=24</link><description>METAR WADD 021730Z 28012KT 9999 FEW015CB BKN016 26/24 Q1011 NOSIG
METAR WADD 021700Z 29014KT 9999 FEW015CB BKN016 27/24 Q1011 NOSIG
METAR WADD 021630Z 30010KT 9999 FEW015CB SCT016 27/24 Q1011 NOSIG
METAR WADD 021600Z 29013KT 9999 FEW015CB SCT016 27/24 Q1011 RERA NOSI G
METAR WADD 021530Z 28016KT 7000 -RA FEW015CB BKN016 27/25 Q1011 TEMPO TL1630 -RA
METAR WADD 021500Z 26011KT 9999 FEW015CB SCT016 27/24 Q1011 NOSIG
METAR WADD 021430Z 27011KT 9999 FEW015CB SCT016 28/25 Q1011 NOSIG
METAR WADD 021400Z 26011KT 9999 FEW015CB SCT016 28/25 Q1011 NOSIG
METAR WADD 021330Z 26010KT 9999 FEW015CB SCT016 28/25 Q1011 RERA NOSI G
METAR WADD 021300Z 25008KT 7000 -RA FEW015CB BKN016 28/26 Q1011 TEMPO TL1400 -RA
METAR WADD 021230Z VRB07KT 9999 BKN016 28/26 Q1010 RERA NOSIG
METAR WADD 021200Z 26009KT 9999 SCT016 28/25 Q1010 NOSIG
METAR WADD 021130Z 27011KT 9999 SCT016 28/25 Q1010 NOSIG
METAR WADD 021100Z 26010KT 9999 SCT016 28/25 Q1010 NOSIG
METAR WADD 021030Z 26010KT 9999 SCT016 29/25 Q1009 NOSIG
METAR WADD 021000Z 25010KT 9999 SCT016 29/25 Q1009 NOSIG
METAR WADD 020930Z 25010KT 9999 SCT016 29/25 Q1008 NOSIG
METAR WADD 020900Z 25012KT 9999 SCT016 30/25 Q1008 NOSIG
METAR WADD 020830Z 26014KT 9999 FEW017 30/25 Q1008 NOSIG
METAR WADD 020800Z 26013KT 9999 FEW016 30/25 Q1008 NOSIG
METAR WADD 020730Z 25013KT 9999 FEW016 30/26 Q1008 NOSIG
METAR WADD 020700Z 25013KT 9999 SCT016 31/25 Q1009 NOSIG
METAR WADD 020630Z 26015KT 9999 SCT016 31/25 Q1009 NOSIG
METAR WADD 020600Z 26013KT 9999 FEW015CB SCT016 31/25 Q1009 NOSIG
METAR WADD 020530Z 26014KT 9999 FEW015CB SCT016 31/25 Q1009 NOSIG
METAR WADD 020500Z 26015KT 9999 FEW015CB SCT016 31/25 Q1009 NOSIG
METAR WADD 020430Z 28012KT 9999 FEW015CB SCT016 30/25 Q1010 NOSIG
METAR WADD 020400Z 29012KT 9999 FEW015CB SCT016 30/25 Q1010 NOSIG
METAR WADD 020330Z 27014KT 9999 FEW015CB BKN016 31/26 Q1010 NOSIG RMK CB IN CLIMB-OUT
METAR WADD 020300Z 28014KT 9999 SCT016 31/25 Q1011 NOSIG
METAR WADD 020230Z 29014KT 9999 SCT016 30/25 Q1011 NOSIG
METAR WADD 020200Z 28016KT 9999 SCT016 30/25 Q1011 NOSIG
METAR WADD 020130Z 27015KT 9999 FEW015CB SCT016 29/25 Q1011 NOSIG
METAR WADD 020100Z 26012KT 9999 FEW015CB SCT016 29/24 Q1011 NOSIG
METAR WADD 020030Z 28015KT 9999 FEW015CB BKN016 28/24 Q1011 NOSIG
METAR WADD 020000Z 29014KT 9999 FEW015CB SCT016 28/24 Q1011 NOSIG
METAR WADD 012330Z 28014KT 9999 FEW016 28/24 Q1011 NOSIG
METAR WADD 012300Z 27014KT 9999 FEW016 27/24 Q1010 NOSIG
METAR WADD 012230Z 28014KT 9999 FEW016 27/24 Q1010 NOSIG
METAR WADD 012200Z 28012KT 9999 FEW016 27/24 Q1010 NOSIG
METAR WADD 012130Z 28013KT 9999 SCT016 27/24 Q1010 NOSIG
METAR WADD 012100Z 27014KT 9999 SCT016 27/23 Q1009 NOSIG
METAR WADD 012030Z 28012KT 9999 SCT016 26/24 Q1009 NOSIG
METAR WADD 012000Z 28017KT 9999 SCT016 26/24 Q1009 NOSIG
METAR WADD 011930Z 28015KT 9999 SCT016 26/24 Q1009 NOSIG
METAR WADD 011900Z 27016KT 9999 SCT016 27/25 Q1009 NOSIG
METAR WADD 011830Z 28015KT 9999 FEW014CB SCT015 27/24 Q1010 NOSIG
METAR WADD 011800Z 29016KT 9999 FEW014CB SCT015 26/25 Q1010 NOSIG</description><pubDate>Mon, 02 Feb 2026 17:50:04 </pubDate></item></channel></rss>