<rss version="2.0"><channel><title>Aviation Weather METAR Data for WADD</title><link>https://aviationweather.gov/api/data/metar?ids=WADD&amp;hours=24</link><description>Latest METAR data for WADD</description><item><title>2025-03-01 14:22:19Z</title><link>https://aviationweather.gov/api/data/metar?ids=WADD&amp;hours=24</link><description>WADD 011400Z 10005KT 9999 SCT016 29/28 Q1009 NOSIG
WADD 011330Z 10005KT 9999 FEW017 28/27 Q1008 NOSIG
WADD 011300Z 11007KT 9999 FEW017 29/28 Q1008 NOSIG
WADD 011230Z 12007KT 9999 FEW017 29/28 Q1008 NOSIG
WADD 011200Z 12008KT 9999 FEW017 29/28 Q1007 NOSIG
WADD 011130Z 13007KT 9999 FEW017 29/28 Q1007 NOSIG
WADD 011100Z 13008KT 9999 FEW017 30/28 Q1007 NOSIG
WADD 011030Z 14010KT 9999 FEW017 30/28 Q1007 NOSIG
WADD 011000Z 14010KT 9999 FEW017 30/28 Q1007 NOSIG
WADD 010930Z 13010KT 9999 FEW017 31/27 Q1006 NOSIG
WADD 010900Z 14010KT 9999 FEW017 31/27 Q1006 NOSIG
WADD 010830Z 15010KT 9999 FEW017 31/27 Q1006 NOSIG
WADD 010800Z 14012KT 9999 FEW017 32/27 Q1006 NOSIG
WADD 010730Z 11009KT 9999 FEW017 32/27 Q1006 NOSIG
WADD 010700Z 11009KT 9999 FEW017 32/27 Q1007 NOSIG
WADD 010630Z 11010KT 9999 FEW017 32/27 Q1007 NOSIG
WADD 010600Z 10010KT 9999 FEW017 32/27 Q1008 NOSIG
WADD 010530Z 12009KT 9999 FEW017 32/27 Q1008 NOSIG
WADD 010500Z 10008KT 070V130 9999 FEW017 32/27 Q1009 NOSIG
WADD 010430Z 12009KT 9999 FEW017 31/27 Q1009 NOSIG
WADD 010400Z 12008KT 9999 FEW017 31/27 Q1010 NOSIG
WADD 010330Z 10008KT 9999 FEW016 31/27 Q1010 NOSIG
WADD 010300Z 10007KT 060V130 9999 FEW016 31/28 Q1011 NOSIG
WADD 010230Z 11006KT 9999 FEW016 30/27 Q1011 NOSIG
WADD 010200Z 10005KT 9999 FEW016 30/27 Q1011 NOSIG
WADD 010130Z 35003KT 9999 SCT016 29/27 Q1012 NOSIG
WADD 010100Z VRB02KT 9999 SCT016 29/27 Q1012 NOSIG
WADD 010030Z VRB02KT 9999 FEW017 28/27 Q1012 NOSIG
WADD 010000Z VRB01KT 9999 FEW017 28/27 Q1011 NOSIG
WADD 282330Z VRB01KT 9999 FEW017 27/27 Q1011 NOSIG
WADD 282300Z VRB01KT 9999 FEW017 26/26 Q1011 NOSIG
WADD 282230Z 02004KT 9999 FEW017 26/26 Q1010 NOSIG
WADD 282200Z 09003KT 9999 FEW017 26/26 Q1010 NOSIG
WADD 282130Z 02003KT 9999 SCT016 26/26 Q1010 NOSIG
WADD 282100Z 06002KT 9999 SCT016 26/26 Q1010 NOSIG
WADD 282030Z 13005KT 080V150 9999 SCT016 26/26 Q1010 NOSIG
WADD 282000Z 06002KT 9999 SCT016 26/26 Q1010 NOSIG
WADD 281930Z 16005KT 8000 FEW015CB SCT016 27/27 Q1010 NOSIG
WADD 281900Z 12006KT 8000 FEW015CB SCT016 27/27 Q1011 NOSIG
WADD 281830Z 14004KT 8000 FEW015CB SCT016 27/26 Q1010 RERA NOSIG
WADD 281800Z 03007KT 4000 RA FEW014CB BKN015 25/25 Q1011 TEMPO TL1830 4000 RA RMK CB IN APCH
WADD 281730Z 10007KT 3000 RA FEW014CB BKN015 28/27 Q1011 TEMPO TL1830 3000 RA RMK CB IN CLIMB-OUT
WADD 281700Z 10002KT 8000 FEW015CB SCT016 28/27 Q1011 TEMPO FM1730 4000 RA RMK CB IN CLIMB OUT
WADD 281630Z VRB01KT 9999 FEW017 28/27 Q1011 NOSIG
WADD 281600Z VRB01KT 9999 FEW017 28/27 Q1011 NOSIG
WADD 281530Z 13004KT 9999 FEW017 28/27 Q1012 NOSIG
WADD 281500Z 12003KT 9999 FEW017 28/27 Q1012 NOSIG
WADD 281430Z 11004KT 9999 FEW017 28/27 NOSIG</description><pubDate>Sat, 01 Mar 2025 14:22:19 </pubDate></item></channel></rss>