<rss version="2.0"><channel><title>Aviation Weather METAR Data for WADD</title><link>https://aviationweather.gov/api/data/metar?ids=WADD&amp;hours=24</link><description>Latest METAR data for WADD</description><item><title>2025-09-13 01:48:33Z</title><link>https://aviationweather.gov/api/data/metar?ids=WADD&amp;hours=24</link><description>METAR WADD 130130Z 11007KT 9999 FEW017 29/24 Q1013 NOSIG
METAR WADD 130100Z VRB02KT 9999 FEW017 27/24 Q1013 NOSIG
METAR WADD 130030Z 22003KT 9999 FEW017 27/25 Q1013 NOSIG
METAR WADD 130000Z VRB02KT 9999 FEW017 27/25 Q1013 NOSIG
METAR WADD 122330Z 16002KT 9999 FEW017 26/25 Q1013 NOSIG
METAR WADD 122300Z 15003KT 9999 FEW017 25/25 Q1012 NOSIG
METAR WADD 122230Z 14001KT 9999 FEW017 25/25 Q1012 NOSIG
METAR WADD 122200Z 17003KT 9999 FEW017 25/25 Q1012 NOSIG
METAR WADD 122130Z VRB02KT 9999 FEW017 25/25 Q1012 NOSIG
METAR WADD 122100Z 01001KT 9999 FEW017 25/25 Q1012 NOSIG
METAR WADD 122030Z 01002KT 9999 FEW017 25/24 Q1011 NOSIG
METAR WADD 122000Z 09002KT 9999 FEW017 25/24 Q1011 NOSIG
METAR WADD 121930Z 09001KT 9999 FEW018 25/24 Q1011 NOSIG
METAR WADD 121900Z 12003KT 9999 FEW017 25/24 Q1011 NOSIG
METAR WADD 121830Z VRB01KT 9999 FEW017 25/24 Q1012 NOSIG
METAR WADD 121800Z VRB02KT 9999 FEW017 26/25 Q1012 NOSIG
METAR WADD 121730Z 13003KT 9999 FEW017 26/25 Q1012 NOSIG
METAR WADD 121700Z 16003KT 9999 FEW017 26/25 Q1012 NOSIG
METAR WADD 121630Z 18004KT 9999 FEW017 26/25 Q1012 NOSIG
METAR WADD 121600Z 21003KT 9999 FEW017 26/25 Q1012 NOSIG
METAR WADD 121530Z 18002KT 9999 FEW017 26/25 Q1013 NOSIG
METAR WADD 121500Z 20003KT 9999 FEW017 26/25 Q1013 NOSIG
METAR WADD 121430Z 16003KT 9999 FEW017 26/25 Q1013 NOSIG
METAR WADD 121400Z 16004KT 9999 FEW017 26/25 Q1013 NOSIG
METAR WADD 121330Z 15005KT 9999 FEW017 26/25 Q1013 NOSIG
METAR WADD 121300Z 15006KT 9999 FEW017 26/25 Q1012 NOSIG
 WADD 121230Z 15010KT 9999 FEW017 26/24 Q1012 NOSIG
METAR WADD 121200Z 16012KT 9999 FEW017 27/25 Q1012 NOSIG
 WADD 121130Z 16011KT 9999 FEW017 27/25 Q1011 NOSIG
METAR WADD 121100Z 16010KT 9999 FEW017 27/25 Q1011 NOSIG
 WADD 121030Z 15009KT 9999 FEW017 27/24 Q1011 NOSIG
METAR WADD 121000Z 15008KT 9999 FEW017 27/25 Q1010 NOSIG
 WADD 120930Z 15010KT 9999 FEW017 28/25 Q1010 NOSIG
 WADD 120900Z 16010KT 9999 FEW017 28/25 Q1010 NOSIG
METAR WADD 120830Z 16010KT 9999 FEW017 29/24 Q1010 NOSIG
METAR WADD 120800Z 16009KT 9999 FEW017 29/24 Q1009 NOSIG
METAR WADD 120730Z 15009KT 9999 FEW017 30/24 Q1009 NOSIG
METAR WADD 120700Z 13009KT 9999 FEW017 30/24 Q1010 NOSIG
METAR WADD 120630Z 15008KT 9999 FEW017 29/24 Q1010 NOSIG
METAR WADD 120600Z 14011KT 9999 FEW017 30/24 Q1010 NOSIG
METAR WADD 120530Z 11010KT 9999 FEW017 30/24 Q1010 NOSIG
METAR WADD 120500Z 10010KT 9999 FEW017 29/24 Q1011 NOSIG
METAR WADD 120430Z 10011KT 9999 SCT017 30/24 Q1011 NOSIG
METAR WADD 120400Z 14009KT 9999 SCT017 28/24 Q1012 NOSIG
METAR WADD 120330Z 15009KT 9999 SCT017 28/24 Q1012 NOSIG
METAR WADD 120300Z 14009KT 9999 SCT017 29/25 Q1012 NOSIG
METAR WADD 120230Z 11009KT 9999 FEW017 29/24 Q1013 NOSIG
METAR WADD 120200Z 12010KT 9999 FEW017 28/24 Q1013 NOSIG</description><pubDate>Sat, 13 Sep 2025 01:48:33 </pubDate></item></channel></rss>