<rss version="2.0"><channel><title>Aviation Weather METAR Data for WADD</title><link>https://aviationweather.gov/api/data/metar?ids=WADD&amp;hours=24</link><description>Latest METAR data for WADD</description><item><title>2026-07-06 18:26:49Z</title><link>https://aviationweather.gov/api/data/metar?ids=WADD&amp;hours=24</link><description>METAR WADD 061800Z 08008KT 9999 FEW017 25/23 Q1013 NOSIG
METAR WADD 061730Z 10007KT 9999 FEW017 26/23 Q1013 NOSIG
METAR WADD 061700Z 09010KT 9999 FEW017 26/23 Q1014 NOSIG
METAR WADD 061630Z 10010KT 9999 SCT017 26/23 Q1014 NOSIG
METAR WADD 061600Z 09010KT 9999 SCT017 26/24 Q1014 NOSIG
METAR WADD 061530Z 12008KT 9999 SCT017 26/24 Q1014 NOSIG
METAR WADD 061500Z 12008KT 9999 SCT017 26/24 Q1014 NOSIG
METAR WADD 061430Z 11007KT 9999 SCT017 26/24 Q1014 NOSIG
METAR WADD 061400Z 09007KT 9999 SCT017 26/24 Q1014 NOSIG
METAR WADD 061330Z 09010KT 9999 SCT017 27/24 Q1014 NOSIG
METAR WADD 061300Z 12008KT 9999 SCT017 27/24 Q1014 NOSIG
METAR WADD 061230Z 12009KT 9999 SCT017 27/24 Q1014 NOSIG
METAR WADD 061200Z 12008KT 9999 SCT017 27/24 Q1014 NOSIG
METAR WADD 061130Z 12010KT 9999 FEW017 27/24 Q1013 NOSIG
METAR WADD 061100Z 13010KT 9999 FEW017 27/24 Q1013 NOSIG
METAR WADD 061030Z 12010KT 9999 FEW017 27/24 Q1013 NOSIG
METAR WADD 061000Z 13013KT 9999 FEW017 28/24 Q1013 NOSIG
METAR WADD 060930Z 13015KT 9999 FEW017 28/24 Q1012 NOSIG
METAR WADD 060900Z 13015KT 9999 FEW017 29/23 Q1012 NOSIG
METAR WADD 060830Z 13017KT 9999 FEW017 29/23 Q1012 NOSIG
METAR WADD 060800Z 12016KT 9999 FEW017 29/24 Q1012 NOSIG
METAR WADD 060730Z 12015KT 9999 FEW017 29/23 Q1012 NOSIG
METAR WADD 060700Z 11014KT 9999 FEW017 29/24 Q1012 NOSIG
METAR WADD 060630Z 12016KT 9999 FEW017 29/24 Q1012 NOSIG
METAR WADD 060600Z 12016KT 9999 FEW017 29/24 Q1012 NOSIG
METAR WADD 060530Z 11016KT 9999 FEW017 29/23 Q1013 NOSIG
METAR WADD 060500Z 12016KT 9999 FEW017 29/24 Q1013 NOSIG
METAR WADD 060430Z 12015KT 9999 FEW017 30/25 Q1013 NOSIG
METAR WADD 060400Z 11015KT 9999 SCT016 30/25 Q1013 NOSIG
METAR WADD 060330Z 12012KT 9999 SCT016 30/25 Q1013 NOSIG
METAR WADD 060300Z 11012KT 9999 SCT017 30/25 Q1014 NOSIG
METAR WADD 060230Z 10012KT 9999 FEW017 30/25 Q1014 NOSIG
METAR WADD 060200Z 10010KT 9999 FEW017 29/24 Q1014 NOSIG
METAR WADD 060130Z 11011KT 9999 FEW017 29/24 Q1014 NOSIG
METAR WADD 060100Z 10010KT 9999 FEW017 28/25 Q1015 NOSIG
METAR WADD 060030Z COR 11010KT SCT012 BKN019 28/24 Q1015 NOSIG
METAR WADD 060000Z 12010KT 9999 FEW017 28/24 Q1014 NOSIG
METAR WADD 052330Z 12009KT 9999 FEW017 27/24 Q1014 NOSIG
METAR WADD 052300Z 11007KT 9999 SCT015 26/24 Q1014 NOSIG
METAR WADD 052230Z 09006KT 9999 FEW016 26/24 Q1014 NOSIG
METAR WADD 052200Z 11009KT 9999 FEW016 26/24 Q1014 NOSIG
METAR WADD 052130Z 12009KT 9999 FEW016 26/24 Q1014 NOSIG
METAR WADD 052100Z 12008KT 9999 FEW016 26/24 Q1013 NOSIG
METAR WADD 052030Z 12009KT 9999 FEW016 26/24 Q1013 NOSIG
METAR WADD 052000Z 12009KT 9999 FEW016 26/24 Q1013 NOSIG
METAR WADD 051930Z 11007KT 9999 FEW016 26/25 Q1013 NOSIG
METAR WADD 051900Z 11007KT 9999 FEW016 26/24 Q1013 NOSIG
METAR WADD 051830Z 12006KT 9999 FEW016 26/24 Q1013 NOSIG</description><pubDate>Mon, 06 Jul 2026 18:26:49 </pubDate></item></channel></rss>