<rss version="2.0"><channel><title>Aviation Weather METAR Data for WADD</title><link>https://aviationweather.gov/api/data/metar?ids=WADD&amp;hours=24</link><description>Latest METAR data for WADD</description><item><title>2025-11-22 03:10:25Z</title><link>https://aviationweather.gov/api/data/metar?ids=WADD&amp;hours=24</link><description>METAR WADD 220300Z 13005KT 9999 SCT016 31/26 Q1008 NOSIG
METAR WADD 220230Z 13006KT 9999 SCT016 30/26 Q1009 NOSIG
METAR WADD 220200Z 11007KT 9999 FEW015CB SCT016 30/25 Q1009 NOSIG
METAR WADD 220130Z 12006KT 070V140 9999 FEW015CB SCT016 30/26 Q1009 N OSIG
METAR WADD 220100Z 10005KT 070V140 9999 SCT016 30/26 Q1009 NOSIG
METAR WADD 220030Z VRB03KT 9999 FEW017 30/26 Q1009 NOSIG
METAR WADD 220000Z 10003KT 9999 FEW017 29/26 Q1009 NOSIG
METAR WADD 212330Z 13004KT 9999 FEW017 28/25 Q1008 NOSIG
METAR WADD 212300Z VRB02KT 9999 FEW017 27/25 Q1008 NOSIG
METAR WADD 212230Z 01003KT 9999 FEW017 27/25 Q1008 NOSIG
METAR WADD 212200Z 07003KT 9999 FEW017 26/24 Q1008 NOSIG
METAR WADD 212130Z 03003KT 9999 FEW017 26/25 Q1007 NOSIG
METAR WADD 212100Z 05003KT 9999 FEW017 26/25 Q1007 NOSIG
METAR WADD 212030Z 04002KT 9999 FEW017 26/25 Q1007 NOSIG
METAR WADD 212000Z 06003KT 9999 SCT017 26/25 Q1007 NOSIG
METAR WADD 211930Z VRB02KT 9999 SCT017 27/25 Q1007 NOSIG
METAR WADD 211900Z 04004KT 9999 SCT017 27/25 Q1007 NOSIG
METAR WADD 211830Z 05003KT 9999 FEW017 27/25 Q1007 NOSIG
METAR WADD 211800Z 05002KT 9999 FEW017 28/25 Q1007 NOSIG
METAR WADD 211730Z 09003KT 9999 FEW017 28/25 Q1008 NOSIG
METAR WADD 211700Z 05004KT 9999 FEW017 28/25 Q1008 NOSIG
METAR WADD 211630Z 04006KT 9999 FEW016CB FEW017 28/25 Q1008 NOSIG
METAR WADD 211600Z 04005KT 9999 FEW016CB FEW017 28/25 Q1009 NOSIG
METAR WADD 211530Z 06007KT 9999 FEW017 28/25 Q1009 NOSIG
METAR WADD 211500Z 06008KT 9999 FEW017 28/25 Q1009 NOSIG
METAR WADD 211430Z 07007KT 030V110 9999 FEW017 28/26 Q1009 NOSIG
METAR WADD 211400Z 08007KT 9999 FEW017 28/26 Q1009 NOSIG
METAR WADD 211330Z 09006KT 9999 FEW017 28/25 Q1009 NOSIG
METAR WADD 211300Z 10007KT 9999 SCT016 29/26 Q1009 NOSIG
METAR WADD 211230Z 10006KT 9999 SCT016 29/26 Q1008 NOSIG
METAR WADD 211200Z 13006KT 9999 SCT016 29/26 Q1008 NOSIG
METAR WADD 211130Z 13007KT 9999 SCT016 29/26 Q1009 NOSIG
METAR WADD 211100Z 12005KT 9999 SCT016 29/26 Q1008 NOSIG
METAR WADD 211030Z 12006KT 9999 SCT016 29/26 Q1008 NOSIG
METAR WADD 211000Z 13006KT 9999 SCT016 30/26 Q1008 NOSIG
METAR WADD 210930Z 12007KT 9999 SCT016 30/26 Q1007 NOSIG
METAR WADD 210900Z 13009KT 9999 SCT016 30/26 Q1007 NOSIG
METAR WADD 210830Z 11009KT 9999 SCT016 30/25 Q1007 NOSIG
METAR WADD 210800Z 16009KT 9999 SCT016 31/26 Q1007 NOSIG
METAR WADD 210730Z 15010KT 9999 SCT016 31/26 Q1007 NOSIG
METAR WADD 210700Z 15010KT 9999 SCT016 31/26 Q1007 NOSIG
METAR WADD 210630Z 16010KT 9999 SCT016 31/26 Q1007 NOSIG
METAR WADD 210600Z 17011KT 9999 SCT016 31/26 Q1007 NOSIG
METAR WADD 210530Z 16009KT 9999 SCT016 31/26 Q1008 NOSIG
METAR WADD 210500Z 12007KT 9999 SCT016 31/26 Q1008 NOSIG
METAR WADD 210430Z 19006KT 9999 FEW017 32/26 Q1008 NOSIG
METAR WADD 210400Z 20004KT 9999 FEW017 31/26 Q1009 NOSIG
METAR WADD 210330Z 15006KT 9999 FEW017 31/26 Q1009 NOSIG</description><pubDate>Sat, 22 Nov 2025 03:10:25 </pubDate></item></channel></rss>