<rss version="2.0"><channel><title>Aviation Weather METAR Data for WADD</title><link>https://aviationweather.gov/api/data/metar?ids=WADD&amp;hours=24</link><description>Latest METAR data for WADD</description><item><title>2025-12-28 09:28:48Z</title><link>https://aviationweather.gov/api/data/metar?ids=WADD&amp;hours=24</link><description>METAR WADD 280900Z 25008KT 9999 SCT015 30/25 Q1006 NOSIG
METAR WADD 280830Z 24010KT 9999 BKN015 30/26 Q1006 NOSIG
METAR WADD 280800Z 25010G20KT 9999 BKN015 30/26 Q1006 NOSIG
METAR WADD 280730Z 25010KT 9999 BKN015 30/26 Q1006 NOSIG
METAR WADD 280700Z 26011KT 9999 SCT015 31/26 Q1006 NOSIG
METAR WADD 280630Z 24010KT 9999 SCT015 31/26 Q1006 NOSIG
METAR WADD 280600Z 26011KT 9999 SCT015 31/26 Q1006 NOSIG
METAR WADD 280530Z 26012KT 9999 SCT015 31/26 Q1007 NOSIG
METAR WADD 280500Z 27013KT 9999 FEW014CB SCT015 31/26 Q1007 NOSIG
METAR WADD 280430Z 26011KT 9999 FEW014CB BKN015 31/26 Q1007 NOSIG
METAR WADD 280400Z 26011KT 9999 FEW014CB BKN015 31/26 Q1008 NOSIG
METAR WADD 280330Z 26011KT 9999 FEW014CB BKN015 30/26 Q1008 NOSIG
METAR WADD 280300Z 26010KT 9999 FEW014CB BKN015 30/26 Q1008 NOSIG
METAR WADD 280230Z 26010KT 9999 FEW014CB BKN015 30/26 Q1008 NOSIG
METAR WADD 280200Z 26009KT 220V280 9999 FEW014CB BKN015 29/26 Q1009 R ERA NOSIG
METAR WADD 280130Z 28011KT 6000 -RA FEW014CB BKN015 29/27 Q1009 TEMPO TL0230 6000 -RA
METAR WADD 280100Z 28013KT 2500 RA FEW014CB BKN015 27/26 Q1009 TEMPO TL0200 2500 RA
METAR WADD 280030Z 28011KT 4000 RA FEW014CB BKN015 27/26 Q1009 TEMPO TL0130 4000 RA RMK CB IN APCH
METAR WADD 280000Z 29011KT 5000 -RA FEW014CB BKN015 28/26 Q1008 TEMPO TL0100 -RA
METAR WADD 272330Z 27009KT 6000 -RA FEW014CB BKN015 28/26 Q1008 TEMPO TL2430 -RA
METAR WADD 272300Z 29011KT 6000 -RA FEW014CB BKN015 28/26 Q1008 TEMPO TL2400 -RA RMK CB IN APCH
METAR WADD 272230Z 29010KT 6000 -RA FEW013CB BKN014 27/26 Q1008 TEMPO TL2330 -RA RMK CB IN APCH AND CLIMB-OUT
METAR WADD 272200Z 30008KT 9999 FEW014CB BKN015 27/25 Q1007 NOSIG
METAR WADD 272130Z 29011KT 9999 FEW015CB BKN016 27/25 Q1007 RERA NOSI G
METAR WADD 272100Z 29012KT 7000 -RA FEW015CB BKN016 27/26 Q1007 TEMPO TL2200 -RA
METAR WADD 272030Z 29011KT 250V320 7000 -RA FEW015CB BKN016 26/26 Q1007 TEMPO TL2130 -RA
METAR WADD 272000Z 29006G17KT 6000 -RA FEW015CB BKN016 26/25 Q1006 TE MPO TL2100 -RA
METAR WADD 271930Z 25011KT 4000 RA FEW015CB BKN016 26/25 Q1007 TEMPO TL2030 4000 RA RMK CB IN APCH AND CLIMB-OUT
METAR WADD 271900Z 28010KT 9999 FEW015CB BKN016 28/26 Q1006 NOSIG
METAR WADD 271830Z 28013KT 9999 FEW015CB BKN016 28/26 Q1007 RERA NOSI G
METAR WADD 271800Z 27011KT 6000 -RA FEW015CB BKN016 27/26 Q1007 TEMPO TL1900 -RA RMK CB IN APCH
METAR WADD 271730Z 28010KT 9999 FEW015CB SCT016 28/25 Q1007 NOSIG
METAR WADD 271700Z 28013KT 9999 FEW015CB SCT016 28/26 Q1007 NOSIG
METAR WADD 271630Z 28011KT 9999 FEW015CB SCT016 28/25 Q1008 NOSIG
METAR WADD 271600Z 28014KT 9999 FEW015CB BKN016 28/26 Q1008 NOSIG
METAR WADD 271530Z 28015KT 9999 FEW015CB BKN016 28/26 Q1008 RERA NOSI G
METAR WADD 271500Z 28013KT 8000 -RA FEW015CB BKN016 28/26 Q1008 TEMPO TL1600 -RA
METAR WADD 271430Z 28013KT 9999 BKN016 28/26 Q1008 RERA NOSIG
METAR WADD 271400Z 28015KT 9999 SCT016 28/26 Q1008 NOSIG
METAR WADD 271330Z 28014KT 9999 SCT016 28/26 Q1008 NOSIG
METAR WADD 271300Z 28013KT 9999 SCT016 28/26 Q1008 NOSIG
METAR WADD 271230Z 27015KT 9999 BKN016 28/26 Q1008 NOSIG
METAR WADD 271200Z 26012KT 9999 BKN016 29/26 Q1008 NOSIG
METAR WADD 271130Z 26011KT 9999 BKN015 28/26 Q1008 NOSIG
METAR WADD 271100Z 26012KT 9999 BKN015 28/26 Q1007 NOSIG
METAR WADD 271030Z 26012KT 9999 BKN015 28/26 Q1007 NOSIG
METAR WADD 271000Z 27011KT 7000 FEW014CB BKN015 28/26 Q1007 NOSIG
METAR WADD 270930Z 26006KT 7000 FEW013CB BKN014 28/26 Q1006 NOSIG</description><pubDate>Sun, 28 Dec 2025 09:28:48 </pubDate></item></channel></rss>