<rss version="2.0"><channel><title>Aviation Weather METAR Data for WADD</title><link>https://aviationweather.gov/api/data/metar?ids=WADD&amp;hours=24</link><description>Latest METAR data for WADD</description><item><title>2025-08-15 18:39:34Z</title><link>https://aviationweather.gov/api/data/metar?ids=WADD&amp;hours=24</link><description>WADD 151800Z 14014KT 7000 -RA FEW015CB SCT016 26/24 Q1011 TEMPO TL1900 -RA
WADD 151730Z 12009KT 9999 FEW015CB SCT016 26/24 Q1012 NOSIG
WADD 151700Z 12009KT 9999 FEW015CB SCT016 26/24 Q1012 NOSIG
WADD 151630Z 11006KT 9999 FEW015CB SCT017 26/24 Q1012 NOSIG
WADD 151600Z 12007KT 9999 FEW017 25/24 Q1012 NOSIG
WADD 151530Z 12005KT 9999 SCT017 25/24 Q1012 NOSIG
WADD 151500Z 11004KT 9999 FEW017 25/24 Q1012 NOSIG
WADD 151430Z 11004KT 9999 FEW017 25/24 Q1012 NOSIG
WADD 151400Z 09006KT 9999 FEW017 25/24 Q1012 NOSIG
WADD 151330Z 10005KT 9999 FEW017 25/24 Q1012 NOSIG
WADD 151300Z 10004KT 9999 FEW017 25/24 Q1012 NOSIG
WADD 151230Z 12007KT 9999 FEW017 26/24 Q1011 NOSIG
WADD 151200Z 12008KT 9999 FEW017 26/24 Q1011 NOSIG
WADD 151130Z 11009KT 9999 FEW017 26/24 Q1010 NOSIG
WADD 151100Z 11009KT 9999 FEW017 26/24 Q1010 NOSIG
WADD 151030Z 12012KT 9999 FEW017 26/24 Q1010 NOSIG
WADD 151000Z 13015KT 9999 FEW016 27/23 Q1009 NOSIG
WADD 150930Z 13016G23KT 9999 FEW017 27/23 Q1009 NOSIG
WADD 150900Z 13015KT 9999 FEW016 27/24 Q1009 NOSIG
WADD 150830Z 12019KT 9999 FEW016 27/23 Q1009 NOSIG
WADD 150800Z 13018KT 9999 FEW016 28/23 Q1009 NOSIG
WADD 150730Z 12019KT 9999 FEW016 28/23 Q1009 NOSIG
WADD 150700Z 13017KT 9999 FEW016 28/23 Q1009 NOSIG
WADD 150430Z 11016KT 9999 BKN016 28/24 Q1011 NOSIG
WADD 150400Z 13010KT 9999 FEW015CB BKN016 26/25 Q1011 RERA NOSIG
WADD 150330Z 10012KT 3000 RA FEW015CB BKN016 26/24 Q1012 TEMPO TL0419 2500 RA RMK CB IN APCH
WADD 150300Z 13014KT 9999 FEW015CB BKN016 27/24 Q1012 NOSIG
WADD 150230Z 12016KT 9999 FEW015CB BKN016 27/24 Q1012 NOSIG
WADD 150200Z 12016KT 9999 FEW015CB BKN016 27/23 Q1012 RERA NOSIG
WADD 150130Z 13017KT 8000 -RA FEW015CB BKN016 27/23 Q1012 TEMPO TL0230 -RA
WADD 150100Z 14017KT 9999 FEW015CB BKN016 27/23 Q1013 NOSIG
WADD 150030Z 13015KT 9999 FEW015CB BKN016 26/23 Q1012 NOSIG
WADD 150000Z 13012KT 9999 FEW015CB BKN016 26/23 Q1012 NOSIG
WADD 142330Z 13010KT 9999 BKN016 26/23 Q1012 NOSIG
WADD 142300Z 13008KT 9999 SCT016 25/23 Q1012 NOSIG
WADD 142230Z 13009KT 9999 SCT016 25/23 Q1011 NOSIG
WADD 142200Z 12011KT 9999 FEW017 25/23 Q1011 NOSIG
WADD 142130Z 11008KT 9999 FEW017 25/23 Q1011 NOSIG
WADD 142100Z 11008KT 9999 FEW017 25/23 Q1011 NOSIG
WADD 142030Z 11008KT 9999 FEW017 26/23 Q1011 NOSIG
WADD 142000Z 12009KT 9999 FEW017 26/23 Q1011 NOSIG
WADD 141930Z 13009KT 9999 FEW017 26/23 Q1011 NOSIG
WADD 141900Z 13011KT 9999 FEW017 25/22 Q1011 NOSIG</description><pubDate>Fri, 15 Aug 2025 18:39:34 </pubDate></item></channel></rss>