<rss version="2.0"><channel><title>Aviation Weather METAR Data for WADD</title><link>https://aviationweather.gov/api/data/metar?ids=WADD&amp;hours=24</link><description>Latest METAR data for WADD</description><item><title>2025-12-29 20:32:54Z</title><link>https://aviationweather.gov/api/data/metar?ids=WADD&amp;hours=24</link><description>METAR WADD 292000Z 23004KT 160V270 9999 SCT016 28/25 Q1007 NOSIG
METAR WADD 291930Z 25006KT 9999 SCT016 28/24 Q1006 NOSIG
METAR WADD 291900Z 23004KT 200V280 9999 SCT016 28/25 Q1007 NOSIG
METAR WADD 291830Z 22004KT 170V260 9999 SCT016 28/25 Q1007 NOSIG
METAR WADD 291800Z 23003KT 9999 SCT016 28/25 Q1007 NOSIG
METAR WADD 291730Z 23003KT 9999 SCT016 28/25 Q1007 NOSIG
METAR WADD 291700Z 23005KT 190V260 9999 SCT016 28/25 Q1007 NOSIG
METAR WADD 291630Z 23005KT 9999 SCT016 28/25 Q1008 NOSIG
METAR WADD 291600Z 23004KT 9999 SCT016 28/25 Q1008 NOSIG
METAR WADD 291530Z 22004KT 190V250 9999 SCT017 28/24 Q1009 NOSIG
METAR WADD 291500Z 23004KT 200V270 9999 SCT017 28/25 Q1009 NOSIG
METAR WADD 291430Z 24005KT 9999 SCT017 28/24 Q1009 NOSIG
METAR WADD 291400Z 22004KT 190V250 9999 SCT017 28/24 Q1009 NOSIG
METAR WADD 291330Z 23004KT 200V260 9999 SCT017 28/25 Q1009 NOSIG
METAR WADD 291300Z 23005KT 180V260 9999 SCT017 29/25 Q1009 NOSIG
METAR WADD 291230Z 23006KT 190V260 9999 SCT017 29/25 Q1009 NOSIG
METAR WADD 291200Z 23006KT 9999 SCT017 29/25 Q1008 NOSIG
METAR WADD 291130Z 23006KT 190V300 9999 SCT017 29/25 Q1008 NOSIG
METAR WADD 291100Z 24007KT 9999 SCT017 29/25 Q1008 NOSIG
METAR WADD 291030Z 25008KT 9999 SCT017 29/25 Q1007 NOSIG
METAR WADD 291000Z 25008KT 9999 SCT017 29/25 Q1007 NOSIG
METAR WADD 290930Z 26011KT 9999 SCT017 29/25 Q1007 NOSIG
METAR WADD 290900Z 25010KT 9999 SCT017 30/26 Q1006 NOSIG
METAR WADD 290830Z 25010KT 210V280 9999 SCT017 30/25 Q1006 NOSIG
METAR WADD 290800Z 25010KT 9999 FEW017 30/25 Q1006 NOSIG
METAR WADD 290730Z 25011KT 9999 FEW017 30/26 Q1006 NOSIG
METAR WADD 290700Z 25010KT 9999 FEW017 30/25 Q1006 NOSIG
METAR WADD 290630Z 26012KT 9999 FEW017 31/26 Q1006 NOSIG
METAR WADD 290600Z 27014KT 9999 FEW017 31/25 Q1007 NOSIG
METAR WADD 290530Z 25013KT 9999 FEW017 31/25 Q1007 NOSIG
METAR WADD 290500Z 26012KT 9999 FEW017 31/25 Q1007 NOSIG
METAR WADD 290430Z 26013KT 9999 FEW017 31/25 Q1008 NOSIG
METAR WADD 290400Z 26012KT 9999 FEW017 31/25 Q1008 NOSIG
SPECI WADD 290330Z 26013KT 9999 FEW017 31/24 Q1008 NOSIG
METAR WADD 290300Z 27012KT 9999 FEW017 30/25 Q1008 NOSIG
METAR WADD 290230Z 27013KT 9999 FEW017 30/25 Q1009 NOSIG
METAR WADD 290200Z 26012KT 9999 FEW017 30/25 Q1009 NOSIG
METAR WADD 290130Z 27012KT 9999 SCT016 30/25 Q1009 NOSIG
METAR WADD 290100Z 27012KT 9999 SCT016 30/25 Q1009 NOSIG
METAR WADD 290030Z 26011KT 9999 SCT016 29/25 Q1009 NOSIG
METAR WADD 290000Z 26010KT 9999 SCT016 29/24 Q1008 NOSIG
METAR WADD 282330Z 26011KT 9999 SCT016 29/24 Q1008 NOSIG
METAR WADD 282300Z 26010KT 9999 BKN015 28/24 Q1008 NOSIG
METAR WADD 282230Z 26011KT 9999 SCT015 28/23 Q1008 NOSIG
METAR WADD 282200Z 26010KT 9999 FEW016 28/24 Q1008 NOSIG
METAR WADD 282130Z 26011KT 9999 FEW016 28/24 Q1007 NOSIG
METAR WADD 282100Z 26012KT 9999 FEW016 28/24 Q1007 NOSIG</description><pubDate>Mon, 29 Dec 2025 20:32:54 </pubDate></item></channel></rss>