<rss version="2.0"><channel><title>Aviation Weather METAR Data for WADD</title><link>https://aviationweather.gov/api/data/metar?ids=WADD&amp;hours=24</link><description>Latest METAR data for WADD</description><item><title>2025-10-12 18:32:29Z</title><link>https://aviationweather.gov/api/data/metar?ids=WADD&amp;hours=24</link><description>METAR WADD 121800Z 15005KT 9999 FEW017 28/27 Q1010 NOSIG
METAR WADD 121730Z 14005KT 9999 FEW017 28/27 Q1010 NOSIG
METAR WADD 121700Z 14007KT 9999 FEW017 28/27 Q1010 NOSIG
METAR WADD 121630Z 14007KT 9999 FEW017 28/27 Q1010 NOSIG
METAR WADD 121600Z 13007KT 9999 FEW017 28/27 Q1011 NOSIG
METAR WADD 121530Z 13007KT 9999 FEW017 28/27 Q1011 NOSIG
METAR WADD 121500Z 13006KT 9999 FEW017 28/27 Q1011 NOSIG
METAR WADD 121430Z 13006KT 9999 FEW017 28/27 Q1011 NOSIG
METAR WADD 121400Z 12006KT 9999 FEW017 28/27 Q1011 NOSIG
METAR WADD 121330Z 12007KT 9999 FEW017 28/27 Q1011 NOSIG
METAR WADD 121300Z 12008KT 9999 FEW017 28/27 Q1011 NOSIG
METAR WADD 121230Z 12008KT 9999 FEW016 28/27 Q1011 NOSIG
METAR WADD 121200Z 12008KT 9999 FEW016 29/27 Q1011 NOSIG
METAR WADD 121130Z 12009KT 9999 FEW016 29/27 Q1010 NOSIG
 WADD 121100Z 13011KT 9999 FEW016 29/27 Q1010 NOSIG
METAR WADD 121030Z 13013KT 9999 FEW016 29/26 Q1010 NOSIG
METAR WADD 121000Z 13016KT 9999 FEW016 29/27 Q1009 NOSIG
METAR WADD 120930Z 14016KT 9999 FEW017 30/27 Q1009 NOSIG
METAR WADD 120900Z 14016KT 9999 FEW017 30/27 Q1009 NOSIG
METAR WADD 120830Z 14016KT 9999 FEW017 31/26 Q1008 NOSIG
METAR WADD 120800Z 13016KT 9999 FEW017 31/26 Q1008 NOSIG
METAR WADD 120730Z 14018KT 9999 FEW017 31/26 Q1008 NOSIG
METAR WADD 120700Z 14017KT 9999 FEW017 31/27 Q1008 NOSIG
METAR WADD 120630Z 14015KT 9999 FEW017 31/27 Q1008 NOSIG
METAR WADD 120600Z 14016KT 9999 FEW017 31/27 Q1008 NOSIG
METAR WADD 120530Z 13012KT 9999 FEW017 31/27 Q1009 NOSIG
METAR WADD 120500Z 13012KT 9999 FEW017 31/27 Q1009 NOSIG
METAR WADD 120430Z 13011KT 9999 FEW017 31/27 Q1009 NOSIG
METAR WADD 120400Z 12011KT 9999 FEW017 31/26 Q1010 NOSIG
 WADD 120330Z 11011KT 9999 FEW017 31/27 Q1010 NOSIG
 WADD 120300Z 11011KT 9999 FEW017 31/27 Q1011 NOSIG
METAR WADD 120230Z 10011KT 9999 FEW016 30/27 Q1011 NOSIG
METAR WADD 120200Z 11010KT 9999 FEW016 29/26 Q1012 NOSIG
METAR WADD 120130Z 11008KT 080V140 9999 FEW016 29/26 Q1012 NOSIG
METAR WADD 120100Z 08005KT 9999 FEW016 29/27 Q1012 NOSIG
METAR WADD 120030Z 08006KT 9999 FEW016 28/26 Q1012 NOSIG
METAR WADD 120000Z 12004KT 9999 SCT016 27/26 Q1012 NOSIG
METAR WADD 112330Z 09005KT 060V130 9999 FEW016 27/26 Q1012 NOSIG
METAR WADD 112300Z 03002KT 9999 SCT016 26/26 Q1012 NOSIG
METAR WADD 112230Z VRB01KT 9999 SCT016 26/26 Q1011 NOSIG
METAR WADD 112200Z 11002KT 9999 SCT016 26/26 Q1011 RETS NOSIG
METAR WADD 112130Z 13005KT 9999 TS FEW015CB SCT016 26/26 Q1011 TEMPO TL2230 TS
METAR WADD 112100Z 08003KT 9999 TS FEW015CB SCT016 25/25 Q1011 TEMPO TL2130 TS
METAR WADD 112030Z 12003KT 9999 TS FEW015CB SCT016 26/25 Q1011 TEMPO TL2130 TS
METAR WADD 112000Z 15006KT 9999 TS FEW015CB SCT016 26/25 Q1011 TEMPO TL2100 TS
METAR WADD 111930Z 18004KT 9999 TS FEW015CB SCT016 27/26 Q1011 TEMPO TL2030 TS
METAR WADD 111900Z VRB02KT 9999 TS FEW015CB SCT016 26/26 Q1010 TEMPO TL2000 TS</description><pubDate>Sun, 12 Oct 2025 18:32:29 </pubDate></item></channel></rss>