<rss version="2.0"><channel><title>Aviation Weather METAR Data for WADD</title><link>https://aviationweather.gov/api/data/metar?ids=WADD&amp;hours=24</link><description>Latest METAR data for WADD</description><item><title>2025-02-27 15:26:49Z</title><link>https://aviationweather.gov/api/data/metar?ids=WADD&amp;hours=24</link><description>WADD 271500Z 36005KT 340V070 9999 FEW017 28/26 Q1011 NOSIG
WADD 271430Z 02006KT 340V050 9999 FEW017 28/26 Q1011 NOSIG
WADD 271400Z 04005KT 020V110 9999 FEW017 28/27 Q1011 NOSIG
WADD 271330Z 11004KT 9999 FEW017 28/27 Q1011 NOSIG
WADD 271300Z 13006KT 9999 FEW017 29/27 Q1010 NOSIG
WADD 271230Z 12005KT 9999 FEW016 29/27 Q1010 NOSIG
WADD 271200Z 12006KT 9999 FEW016 29/27 Q1010 NOSIG
WADD 271130Z 14006KT 9999 FEW015 29/27 Q1009 NOSIG
WADD 271100Z 15007KT 9999 FEW014 30/27 Q1009 NOSIG
WADD 271030Z 15009KT 9999 FEW014 30/27 Q1009 NOSIG
WADD 271000Z 15008KT 9999 FEW016 30/27 Q1008 NOSIG
WADD 270930Z 15009KT 9999 FEW016 31/27 Q1008 NOSIG
WADD 270900Z 15008KT 9999 FEW016 31/27 Q1008 NOSIG
WADD 270830Z 13006KT 100V170 9999 FEW016 31/25 Q1008 NOSIG
WADD 270800Z 11007KT 080V140 9999 FEW016 31/25 Q1008 NOSIG
WADD 270730Z 12005KT 090V160 9999 FEW016 31/25 Q1008 NOSIG
WADD 270700Z 13006KT 070V190 9999 FEW016 32/25 Q1008 NOSIG
WADD 270630Z 12006KT 070V180 9999 FEW016 31/26 Q1008 NOSIG
WADD 270600Z 10006KT 050V150 9999 SCT015 31/25 Q1009 NOSIG
WADD 270530Z VRB04KT 9999 SCT016 31/26 Q1010 NOSIG
WADD 270500Z 14004KT 080V200 9999 SCT017 31/25 Q1010 NOSIG
WADD 270430Z 07005KT 030V130 9999 SCT017 31/26 Q1011 NOSIG
WADD 270400Z VRB03KT 9999 SCT017 30/26 Q1011 NOSIG
WADD 270330Z 23004KT 9999 BKN016 27/26 Q1012 RERA NOSIG
WADD 270300Z 23004KT 160V270 8000 -RA BKN016 29/25 Q1012 TEMPO TL0400 -RA
WADD 270230Z 31005KT 270V330 9999 SCT017 30/27 Q1012 NOSIG
WADD 270200Z 32005KT 300V020 9999 SCT017 29/27 Q1012 NOSIG
WADD 270130Z 29004KT 230V360 9999 SCT017 29/27 Q1012 NOSIG
WADD 270100Z VRB02KT 9999 FEW017 28/27 Q1012 NOSIG
WADD 270030Z 02005KT 360V060 9999 SCT016 27/26 Q1012 NOSIG
WADD 270000Z 01007KT 9999 SCT016 27/26 Q1011 NOSIG
WADD 262330Z 05008KT 010V090 9999 FEW015CB BKN015 26/26 Q1012 RERA NOSIG
WADD 262300Z 11005KT 070V140 8000 -RA FEW014CB BKN015 26/24 Q1012 TEMPO TL2400 -RA RMK CB IN APCH
WADD 262230Z VRB04KT 9999 FEW015CB SCT016 25/24 Q1011 NOSIG
WADD 262200Z VRB02KT 9999 FEW015CB SCT016 25/24 Q1011 NOSIG
WADD 262130Z VRB03KT 9999 SCT016 25/24 Q1011 NOSIG
WADD 262100Z 02003KT 9999 SCT016 25/23 Q1011 NOSIG
WADD 262030Z VRB02KT 9999 SCT016 25/24 Q1010 NOSIG
WADD 262000Z 01003KT 9999 SCT016 25/24 Q1010 NOSIG
WADD 261930Z 04002KT 9999 FEW017 25/25 Q1010 NOSIG
WADD 261900Z VRB01KT 9999 FEW017 25/24 Q1010 NOSIG
WADD 261830Z 10002KT 9999 FEW017 26/24 Q1011 NOSIG
WADD 261800Z VRB01KT 9999 FEW017 26/24 Q1011 NOSIG
WADD 261730Z VRB01KT 9999 FEW017 26/25 Q1011 NOSIG
WADD 261700Z VRB02KT 9999 FEW017 26/24 Q1011 NOSIG
WADD 261630Z VRB02KT 9999 FEW017 26/24 Q1011 NOSIG
WADD 261600Z VRB03KT 9999 FEW017 27/24 Q1012 NOSIG
WADD 261530Z VRB02KT 9999 SCT016 26/24 Q1012 NOSIG</description><pubDate>Thu, 27 Feb 2025 15:26:49 </pubDate></item></channel></rss>