<rss version="2.0"><channel><title>Aviation Weather METAR Data for WADD</title><link>https://aviationweather.gov/api/data/metar?ids=WADD&amp;hours=24</link><description>Latest METAR data for WADD</description><item><title>2026-04-13 18:11:32Z</title><link>https://aviationweather.gov/api/data/metar?ids=WADD&amp;hours=24</link><description>METAR WADD 131800Z 12011KT 9999 FEW017 28/25 Q1010 NOSIG
METAR WADD 131730Z 11011KT 9999 FEW017 28/25 Q1011 NOSIG
METAR WADD 131700Z 10011KT 9999 FEW017 28/25 Q1011 NOSIG
METAR WADD 131630Z 10009KT 9999 FEW017 29/26 Q1011 NOSIG
METAR WADD 131600Z 11011KT 9999 FEW017 29/26 Q1011 NOSIG
METAR WADD 131530Z 11012KT 9999 FEW017 29/25 Q1012 NOSIG
METAR WADD 131500Z 12014KT 9999 FEW017 29/25 Q1011 NOSIG
METAR WADD 131430Z 11014KT 9999 FEW017 29/24 Q1012 NOSIG
METAR WADD 131400Z 11014KT 9999 FEW017 29/24 Q1011 NOSIG
METAR WADD 131330Z 11013KT 9999 FEW017 29/24 Q1011 NOSIG
METAR WADD 131300Z 12015KT 9999 FEW017 29/24 Q1011 NOSIG
METAR WADD 131230Z 12015KT 9999 FEW017 29/24 Q1011 NOSIG
METAR WADD 131200Z 12014KT 9999 FEW017 29/25 Q1010 NOSIG
METAR WADD 131130Z 12012KT 9999 FEW017 29/25 Q1010 NOSIG
METAR WADD 131100Z 12014KT 9999 FEW017 29/25 Q1010 NOSIG
METAR WADD 131030Z 12012KT 9999 FEW017 29/25 Q1010 NOSIG
METAR WADD 131000Z 12014KT 9999 FEW017 30/25 Q1009 NOSIG
METAR WADD 130930Z 13016KT 9999 FEW017 30/25 Q1009 NOSIG
METAR WADD 130900Z 12016KT 9999 FEW017 30/26 Q1009 NOSIG
METAR WADD 130830Z 12015KT 9999 FEW017 31/25 Q1009 NOSIG
METAR WADD 130800Z 13016KT 9999 FEW017 31/25 Q1009 NOSIG
METAR WADD 130730Z 12016KT 9999 FEW017 31/26 Q1009 NOSIG
METAR WADD 130700Z 12018KT 9999 FEW017 31/25 Q1009 NOSIG
METAR WADD 130630Z 12015KT 9999 FEW017 31/26 Q1009 NOSIG
METAR WADD 130600Z 12017KT 9999 FEW016 31/26 Q1009 NOSIG
METAR WADD 130530Z 13016KT 9999 FEW016 31/26 Q1010 NOSIG
METAR WADD 130500Z 12014KT 9999 FEW016 32/26 Q1010 NOSIG
METAR WADD 130430Z 12014KT 9999 FEW016 32/26 Q1011 NOSIG
METAR WADD 130400Z 12014KT 9999 FEW016 32/26 Q1011 NOSIG
METAR WADD 130330Z 12013KT 9999 FEW016 32/26 Q1012 NOSIG
METAR WADD 130300Z 12014KT 9999 FEW016 31/26 Q1012 NOSIG
METAR WADD 130230Z 11012KT 9999 SCT016 31/25 Q1013 NOSIG
METAR WADD 130200Z 11011KT 9999 SCT016 31/26 Q1013 NOSIG
METAR WADD 130130Z 11009KT 9999 SCT016 30/26 Q1013 NOSIG
METAR WADD 130100Z 10008KT 9999 SCT016 31/26 Q1013 NOSIG
METAR WADD 130030Z 07005KT 040V120 9999 SCT016 30/26 Q1013 NOSIG
METAR WADD 130000Z 01005KT 9999 SCT016 29/25 Q1012 NOSIG
METAR WADD 122330Z 04005KT 9999 SCT016 28/25 Q1012 NOSIG
METAR WADD 122300Z 07004KT 9999 SCT016 26/25 Q1012 NOSIG
METAR WADD 122230Z 09004KT 9999 FEW015CB SCT016 26/24 Q1011 RERA NOSI G
SPECI WADD 122207Z 06004KT 8000 -RA FEW015CB SCT016 26/23 Q1011 TEMPO TL2307 -RA RMK CB IN CLIMB-OUT
METAR WADD 122200Z 06004KT 9999 FEW015CB SCT016 26/23 Q1011 NOSIG
METAR WADD 122130Z VRB02KT 9999 FEW016 26/23 Q1011 NOSIG
METAR WADD 122100Z 03003KT 9999 FEW016 26/23 Q1011 NOSIG
METAR WADD 122030Z 00000KT 9999 FEW016 26/23 Q1011 NOSIG
METAR WADD 122000Z VRB01KT 9999 FEW016 26/23 Q1011 NOSIG
METAR WADD 121930Z 13002KT 9999 FEW016 27/24 Q1011 NOSIG
METAR WADD 121900Z VRB01KT 9999 FEW016 26/23 Q1011 NOSIG
METAR WADD 121830Z 03003KT 9999 FEW016 26/23 Q1011 NOSIG</description><pubDate>Mon, 13 Apr 2026 18:11:32 </pubDate></item></channel></rss>