<rss version="2.0"><channel><title>Aviation Weather METAR Data for WADD</title><link>https://aviationweather.gov/api/data/metar?ids=WADD&amp;hours=24</link><description>Latest METAR data for WADD</description><item><title>2026-05-20 17:40:31Z</title><link>https://aviationweather.gov/api/data/metar?ids=WADD&amp;hours=24</link><description>METAR WADD 201730Z 07006KT 9999 SCT017 27/26 Q1009 NOSIG
METAR WADD 201700Z 11007KT 9999 SCT017 27/26 Q1009 NOSIG
METAR WADD 201630Z 11008KT 9999 FEW017 27/26 Q1010 NOSIG
METAR WADD 201600Z 11008KT 9999 FEW017 28/26 Q1010 NOSIG
METAR WADD 201530Z 11009KT 9999 FEW017 28/26 Q1010 NOSIG
METAR WADD 201500Z 11010KT 9999 SCT017 28/26 Q1010 NOSIG
METAR WADD 201430Z 11008KT 9999 SCT017 28/26 Q1010 NOSIG
METAR WADD 201400Z 12008KT 9999 SCT017 28/26 Q1010 NOSIG
METAR WADD 201330Z 12008KT 9999 FEW017 28/26 Q1010 NOSIG
METAR WADD 201300Z 12008KT 9999 FEW017 28/26 Q1010 NOSIG
METAR WADD 201230Z 12010KT 9999 FEW017 28/26 Q1009 NOSIG
METAR WADD 201200Z 13011KT 9999 FEW017 28/26 Q1009 NOSIG
METAR WADD 201100Z 13009KT 9999 SCT017 28/26 Q1009 NOSIG
METAR WADD 201030Z 11007KT 9999 SCT016 28/26 Q1008 NOSIG
METAR WADD 201000Z 12007KT 9999 FEW015CB SCT016 29/26 Q1008 NOSIG
METAR WADD 200930Z 12009KT 9999 FEW015CB FEW016 29/26 Q1008 NOSIG
METAR WADD 200900Z 12011KT 9999 FEW015CB FEW016 30/26 Q1007 NOSIG
METAR WADD 200830Z 11011KT 9999 FEW015CB FEW016 30/25 Q1007 NOSIG
METAR WADD 200800Z 15010KT 9999 FEW017 30/26 Q1007 NOSIG
METAR WADD 200730Z 15010KT 9999 FEW017 31/26 Q1007 NOSIG
METAR WADD 200700Z 13008KT 9999 FEW017 32/26 Q1007 NOSIG
METAR WADD 200630Z 11009KT 9999 FEW017 31/26 Q1007 NOSIG
METAR WADD 200600Z 10008KT 9999 FEW017 31/26 Q1008 NOSIG
METAR WADD 200530Z 12007KT 9999 FEW017 31/26 Q1008 NOSIG
METAR WADD 200500Z 12009KT 9999 FEW017 31/26 Q1008 NOSIG
METAR WADD 200430Z 11010KT 9999 FEW017 31/26 Q1009 NOSIG
METAR WADD 200400Z 11009KT 9999 FEW017 31/25 Q1009 NOSIG
METAR WADD 200330Z 12008KT 9999 FEW017 31/25 Q1009 NOSIG
METAR WADD 200300Z 12009KT 9999 FEW017 31/26 Q1009 NOSIG
METAR WADD 200230Z 12007KT 9999 FEW017 31/26 Q1010 NOSIG
METAR WADD 200200Z 11006KT 9999 FEW017 32/26 Q1010 NOSIG
METAR WADD 200130Z VRB02KT 9999 FEW017 32/27 Q1010 NOSIG
METAR WADD 200100Z VRB02KT 9999 FEW017 31/26 Q1010 NOSIG
METAR WADD 200030Z VRB03KT 9999 FEW017 30/26 Q1010 NOSIG
METAR WADD 200000Z 14002KT 9999 FEW017 29/26 Q1010 NOSIG
METAR WADD 192330Z 13002KT 9999 FEW017 28/26 Q1009 NOSIG
METAR WADD 192300Z 11001KT 8000 FEW017 26/25 Q1009 NOSIG
METAR WADD 192230Z 00000KT 9999 FEW017 25/24 Q1009 NOSIG
METAR WADD 192200Z 35002KT 9999 FEW017 25/24 Q1009 NOSIG
METAR WADD 192130Z 02003KT 9999 FEW017 25/24 Q1009 NOSIG
METAR WADD 192100Z 05002KT 9999 FEW017 25/24 Q1009 NOSIG
METAR WADD 192030Z 06003KT 9999 FEW017 26/25 Q1008 NOSIG
METAR WADD 192000Z VRB01KT 9999 FEW017 26/25 Q1008 NOSIG
METAR WADD 191930Z 35002KT 9999 FEW017 26/25 Q1008 NOSIG
METAR WADD 191900Z 35001KT 9999 FEW017 26/25 Q1009 NOSIG
METAR WADD 191830Z VRB01KT 9999 FEW017 26/25 Q1009 NOSIG
METAR WADD 191800Z 17002KT 9999 FEW017 27/25 Q1009 NOSIG</description><pubDate>Wed, 20 May 2026 17:40:31 </pubDate></item></channel></rss>