<rss version="2.0"><channel><title>Aviation Weather METAR Data for WADD</title><link>https://aviationweather.gov/api/data/metar?ids=WADD&amp;hours=24</link><description>Latest METAR data for WADD</description><item><title>2025-04-14 23:41:26Z</title><link>https://aviationweather.gov/api/data/metar?ids=WADD&amp;hours=24</link><description>WADD 142330Z VRB02KT 9999 FEW017 27/26 Q1010 NOSIG
WADD 142300Z VRB02KT 9999 FEW017 25/25 Q1009 NOSIG
WADD 142230Z 02004KT 9999 FEW017 25/25 Q1009 NOSIG
WADD 142200Z 03005KT 9999 FEW017 25/25 Q1009 NOSIG
WADD 142130Z 01004KT 9999 FEW017 25/25 Q1008 NOSIG
WADD 142100Z 01005KT 9999 FEW017 25/25 Q1008 NOSIG
WADD 142030Z 03004KT 9999 FEW017 25/25 Q1008 NOSIG
WADD 142000Z 07004KT 9999 FEW017 25/25 Q1008 NOSIG
WADD 141930Z 07003KT 9999 FEW017 26/26 Q1008 NOSIG
WADD 141900Z 10002KT 9999 FEW017 26/26 Q1009 NOSIG
WADD 141830Z VRB01KT 9999 FEW017 27/26 Q1009 NOSIG
WADD 141800Z VRB02KT 9999 FEW017 26/26 Q1009 NOSIG
WADD 141730Z 16004KT 9999 FEW017 28/27 Q1009 NOSIG
WADD 141700Z 15003KT 9999 FEW017 28/27 Q1010 NOSIG
WADD 141630Z 16003KT 9999 FEW017 28/27 Q1010 NOSIG
WADD 141600Z VRB02KT 9999 FEW017 28/27 Q1010 NOSIG
WADD 141530Z VRB02KT 9999 FEW017 27/26 Q1010 NOSIG
WADD 141500Z VRB02KT 9999 FEW017 27/26 Q1010 NOSIG
WADD 141430Z 07003KT 9999 FEW017 27/26 Q1010 NOSIG
WADD 141400Z 10003KT 9999 FEW017 27/26 Q1010 NOSIG
WADD 141330Z 09002KT 9999 FEW017 28/26 Q1010 NOSIG
WADD 141300Z 10002KT 9999 FEW017 27/26 Q1010 NOSIG
WADD 141230Z 12002KT 9999 FEW017 28/26 Q1009 NOSIG
WADD 141200Z 10003KT 9999 FEW017 28/26 Q1009 NOSIG
WADD 141130Z 17004KT 9999 FEW016 29/27 Q1009 NOSIG
WADD 141100Z 16005KT 9999 SCT016 29/27 Q1008 NOSIG
WADD 141030Z 15007KT 9999 FEW015CB SCT016 29/27 Q1008 NOSIG
WADD 141000Z 18008KT 9999 FEW015CB SCT016 29/27 Q1008 NOSIG
WADD 140930Z 19008KT 9999 FEW015CB SCT016 30/27 Q1007 NOSIG
WADD 140900Z 19010KT 9999 FEW015CB SCT016 30/27 Q1007 NOSIG
WADD 140830Z 20010KT 9999 FEW015CB SCT016 31/28 Q1007 NOSIG
WADD 140800Z 22003KT 9999 FEW015CB SCT016 31/27 Q1007 NOSIG
WADD 140730Z 26005KT 210V290 9999 FEW015CB SCT016 31/28 Q1007 NOSIG
WADD 140700Z 24003KT 9999 SCT016 31/28 Q1007 NOSIG
WADD 140630Z 15005KT 9999 SCT016 31/28 Q1007 NOSIG
WADD 140600Z 19005KT 9999 SCT016 30/27 Q1008 NOSIG
WADD 140530Z 18005KT 9999 SCT017 30/28 Q1008 RERA NOSIG
WADD 140500Z 13008KT 8000 -RA FEW014CB SCT015 29/26 Q1009 TEMPO TL0600 -RA
WADD 140430Z 23007KT 8000 -RA FEW014CB BKN015 30/28 Q1009 TEMPO TL0530 5000 RA
WADD 140400Z 25005KT 9999 SCT017 31/27 Q1009 NOSIG
WADD 140330Z 20004KT 9999 SCT017 30/28 Q1010 NOSIG
WADD 140300Z 14005KT 9999 FEW014CB SCT015 30/27 Q1010 NOSIG
WADD 140230Z 10006KT 9999 FEW014CB SCT015 30/27 Q1011 NOSIG
WADD 140200Z 34004KT 300V030 9999 FEW014CB SCT015 29/27 Q1011 NOSIG
WADD 140130Z 34006KT 320V030 9999 FEW014CB SCT015 29/27 Q1011 NOSIG
WADD 140100Z 35005KT 330V030 9999 FEW014CB BKN015 28/27 Q1011 NOSIG
WADD 140030Z 34005KT 320V020 9999 FEW014CB BKN015 27/27 Q1011 RERA NOSIG
WADD 140000Z 07005KT 8000 -RA FEW014CB BKN015 27/26 Q1010 TEMPO TL0100 -RA</description><pubDate>Mon, 14 Apr 2025 23:41:26 </pubDate></item></channel></rss>