<rss version="2.0"><channel><title>Aviation Weather METAR Data for WADD</title><link>https://aviationweather.gov/api/data/metar?ids=WADD&amp;hours=24</link><description>Latest METAR data for WADD</description><item><title>2026-04-06 11:54:27Z</title><link>https://aviationweather.gov/api/data/metar?ids=WADD&amp;hours=24</link><description>METAR WADD 061130Z 12007KT 9999 SCT016 28/26 Q1010 NOSIG
METAR WADD 061100Z 12008KT 9999 SCT016 28/25 Q1009 NOSIG
METAR WADD 061030Z 11009KT 9999 SCT016 28/26 Q1009 NOSIG
METAR WADD 061000Z 11009KT 9999 SCT016 29/26 Q1009 NOSIG
METAR WADD 060930Z 12009KT 9999 BKN016 29/27 Q1009 NOSIG
METAR WADD 060900Z 10009KT 9999 BKN016 29/26 Q1009 NOSIG
METAR WADD 060830Z 10008KT 9999 BKN016 29/26 Q1008 NOSIG
METAR WADD 060800Z 13008KT 9999 BKN016 30/26 Q1008 NOSIG
METAR WADD 060730Z 11009KT 9999 FEW015CB BKN016 30/26 Q1008 NOSIG
METAR WADD 060700Z 10008KT 9999 FEW015CB BKN016 30/26 Q1008 RETS NOSI G
METAR WADD 060630Z 10010KT 9999 TS FEW015CB BKN016 30/26 Q1009 TEMPO TL0730 TS
SPECI WADD 060621Z COR 15008KT 9999 TS FEW015CB BKN016 32/26 Q1008 TEMPO TL0721 TS
METAR WADD 060600Z 15008KT 9999 FEW016CB FEW017 32/26 Q1008 NOSIG
METAR WADD 060530Z 15007KT 9999 FEW017 32/26 Q1008 NOSIG
METAR WADD 060500Z 14008KT 9999 FEW017 32/26 Q1009 NOSIG
METAR WADD 060430Z 15009KT 9999 FEW017 32/26 Q1009 NOSIG
METAR WADD 060400Z 11008KT 9999 FEW017 32/26 Q1010 NOSIG
METAR WADD 060330Z 12009KT 9999 FEW017 32/26 Q1010 NOSIG
METAR WADD 060300Z 12009KT 9999 FEW017 32/26 Q1011 NOSIG
METAR WADD 060230Z 10011KT 9999 FEW017 31/26 Q1011 NOSIG
METAR WADD 060200Z 12008KT 9999 FEW017 32/26 Q1011 NOSIG
METAR WADD 060130Z 14006KT 100V160 9999 FEW017 32/26 Q1011 NOSIG
METAR WADD 060100Z 13004KT 090V160 9999 FEW017 32/26 Q1011 NOSIG
METAR WADD 060030Z 11004KT 070V130 9999 FEW017 31/26 Q1011 NOSIG
METAR WADD 060000Z 07006KT 9999 FEW017 29/26 Q1010 NOSIG
METAR WADD 052330Z VRB02KT 9999 FEW017 28/26 Q1010 NOSIG
METAR WADD 052300Z 16006KT 9999 FEW016 27/26 Q1010 NOSIG
METAR WADD 052230Z 14005KT 9999 SCT016 27/25 Q1010 NOSIG
METAR WADD 052200Z VRB02KT 9999 SCT016 26/25 Q1009 NOSIG
METAR WADD 052130Z 36002KT 9999 SCT016 26/25 Q1009 NOSIG
METAR WADD 052100Z 01004KT 9999 SCT016 26/25 Q1009 NOSIG
METAR WADD 052030Z 01002KT 9999 SCT016 26/25 Q1009 NOSIG
METAR WADD 052000Z VRB02KT 9999 SCT016 26/25 Q1009 NOSIG
METAR WADD 051930Z 08004KT 9999 SCT016 27/25 Q1009 NOSIG
METAR WADD 051900Z 11002KT 9999 SCT016 27/25 Q1009 NOSIG
METAR WADD 051830Z 09003KT 9999 SCT016 27/25 Q1009 NOSIG
METAR WADD 051800Z 04004KT 9999 SCT016 27/25 Q1009 NOSIG
METAR WADD 051730Z 03004KT 9999 SCT016 27/24 Q1010 NOSIG
METAR WADD 051700Z 02006KT 9999 SCT016 28/25 Q1010 NOSIG
METAR WADD 051630Z 04005KT 9999 SCT016 27/25 Q1010 NOSIG
METAR WADD 051600Z 10004KT 9999 SCT016 27/25 Q1010 NOSIG
METAR WADD 051530Z 08007KT 9999 SCT016 27/25 Q1011 NOSIG
METAR WADD 051500Z 09007KT 9999 FEW015CB SCT016 28/25 Q1011 NOSIG
METAR WADD 051300Z 11007KT 9999 FEW015CB SCT016 28/27 Q1010 NOSIG
METAR WADD 051230Z 10006KT 9999 FEW015CB SCT016 28/26 Q1010 NOSIG
METAR WADD 051200Z 11007KT 9999 FEW015CB SCT016 28/26 Q1009 NOSIG</description><pubDate>Mon, 06 Apr 2026 11:54:27 </pubDate></item></channel></rss>