<rss version="2.0"><channel><title>Aviation Weather METAR Data for WADD</title><link>https://aviationweather.gov/api/data/metar?ids=WADD&amp;hours=24</link><description>Latest METAR data for WADD</description><item><title>2026-03-31 18:33:05Z</title><link>https://aviationweather.gov/api/data/metar?ids=WADD&amp;hours=24</link><description>METAR WADD 311800Z 08008KT 9999 SCT016 27/25 Q1010 NOSIG
METAR WADD 311730Z 08009KT 9999 SCT016 28/25 Q1011 NOSIG
METAR WADD 311700Z 11010KT 9999 FEW017 28/25 Q1011 NOSIG
METAR WADD 311630Z 13012KT 9999 FEW017 28/26 Q1011 NOSIG
METAR WADD 311600Z 13009KT 9999 FEW017 28/26 Q1011 NOSIG
METAR WADD 311530Z 13010KT 9999 FEW017 28/26 Q1011 NOSIG
METAR WADD 311500Z 10007KT 9999 FEW017 28/26 Q1011 NOSIG
METAR WADD 311430Z 10008KT 9999 FEW017 28/25 Q1011 NOSIG
METAR WADD 311400Z 10010KT 9999 FEW017 28/25 Q1011 NOSIG
METAR WADD 311330Z 11010KT 9999 FEW017 28/25 Q1011 NOSIG
METAR WADD 311300Z 10010KT 9999 FEW017 28/25 Q1011 NOSIG
METAR WADD 311230Z 11011KT 9999 FEW017 29/25 Q1011 NOSIG
METAR WADD 311200Z 11013KT 9999 FEW017 29/25 Q1010 NOSIG
METAR WADD 311130Z 11013KT 9999 FEW017 29/26 Q1010 NOSIG
METAR WADD 311100Z 12012KT 9999 FEW017 29/26 Q1010 NOSIG
METAR WADD 311030Z 12012KT 9999 FEW017 29/25 Q1010 NOSIG
METAR WADD 311000Z 12014KT 9999 FEW017 29/26 Q1009 NOSIG
METAR WADD 310930Z 12015KT 9999 FEW017 30/26 Q1009 NOSIG
METAR WADD 310900Z 13016KT 9999 FEW017 30/26 Q1008 NOSIG
METAR WADD 310830Z 12014KT 9999 FEW017 31/25 Q1008 NOSIG
METAR WADD 310800Z 11015KT 9999 FEW017 31/25 Q1009 NOSIG
METAR WADD 310730Z 13016KT 9999 FEW017 31/25 Q1008 NOSIG
METAR WADD 310700Z 12015KT 9999 FEW017 31/24 Q1009 NOSIG
METAR WADD 310630Z 12017KT 9999 FEW017 31/25 Q1009 NOSIG
METAR WADD 310600Z 12015KT 9999 FEW017 31/25 Q1009 NOSIG
METAR WADD 310530Z 11014KT 9999 FEW017 31/25 Q1009 NOSIG
METAR WADD 310500Z 12014KT 9999 FEW017 32/25 Q1010 NOSIG
METAR WADD 310430Z 11012KT 9999 FEW017 32/25 Q1011 NOSIG
METAR WADD 310400Z 12013KT 9999 FEW017 32/25 Q1011 NOSIG
METAR WADD 310330Z 11011KT 9999 FEW017 32/25 Q1011 NOSIG
METAR WADD 310300Z 11010KT 9999 FEW017 31/25 Q1011 NOSIG
METAR WADD 310230Z 12009KT 9999 FEW017 32/26 Q1012 NOSIG
METAR WADD 310200Z 12009KT 9999 FEW017 31/25 Q1012 NOSIG
METAR WADD 310130Z 11007KT 9999 FEW017 31/25 Q1012 NOSIG
METAR WADD 310100Z 11008KT 9999 FEW017 31/25 Q1012 NOSIG
METAR WADD 310030Z 10006KT 9999 FEW017 31/25 Q1011 NOSIG
METAR WADD 310000Z 11004KT 070V150 9999 SCT016 29/25 Q1011 NOSIG
METAR WADD 302330Z 36005KT 330V040 9999 SCT016 28/25 Q1011 NOSIG
METAR WADD 302300Z 01004KT 9999 SCT016 27/25 Q1011 NOSIG
METAR WADD 302230Z 03004KT 9999 SCT016 26/25 Q1010 NOSIG
METAR WADD 302200Z 07004KT 9999 SCT016 26/25 Q1010 NOSIG
METAR WADD 302130Z 07004KT 9999 SCT016 26/25 Q1010 NOSIG
METAR WADD 302100Z 05004KT 9999 SCT016 27/25 Q1010 NOSIG
METAR WADD 302030Z 04005KT 9999 SCT016 27/25 Q1010 NOSIG
METAR WADD 302000Z 07004KT 9999 SCT016 26/25 Q1010 NOSIG
METAR WADD 301930Z 07006KT 9999 SCT016 27/25 Q1010 NOSIG
METAR WADD 301900Z 07006KT 9999 SCT016 27/25 Q1010 NOSIG</description><pubDate>Tue, 31 Mar 2026 18:33:05 </pubDate></item></channel></rss>