<rss version="2.0"><channel><title>Aviation Weather METAR Data for WADD</title><link>https://aviationweather.gov/api/data/metar?ids=WADD&amp;hours=24</link><description>Latest METAR data for WADD</description><item><title>2026-02-12 20:45:18Z</title><link>https://aviationweather.gov/api/data/metar?ids=WADD&amp;hours=24</link><description>METAR WADD 122030Z 28015KT 8000 BKN015 26/24 Q1007 NOSIG
METAR WADD 122000Z 28015KT 8000 BKN015 26/24 Q1007 RERA NOSIG
METAR WADD 121930Z 28014KT 8000 -RA BKN015 25/24 Q1007 NOSIG
METAR WADD 121900Z 28013KT 8000 -RA BKN015 25/24 Q1008 NOSIG
METAR WADD 121830Z 28016KT 8000 -RA BKN015 25/24 Q1008 NOSIG
METAR WADD 121800Z 29016KT 8000 -RA BKN015 25/24 Q1008 NOSIG
METAR WADD 121730Z 29018KT 8000 -RA BKN015 25/24 Q1008 NOSIG
METAR WADD 121700Z 29013KT 8000 -RA FEW014CB BKN015 26/25 Q1008 NOSIG
METAR WADD 121600Z 29015KT 6000 -RA FEW014CB BKN015 25/24 Q1009 NOSIG
METAR WADD 121530Z 29019KT 6000 -RA FEW014CB BKN015 25/24 Q1010 NOSIG
METAR WADD 121500Z 30011KT 5000 -RA FEW014CB BKN015 26/24 Q1010 TEMPO TL1600 5000 -RA RMK CB IN CLIMB-OUT
METAR WADD 121430Z 32009KT 7000 -RA FEW014CB BKN015 26/24 Q1010 TEMPO TL1600 7000 -RA RMK CB IN APCH
METAR WADD 121400Z 32010KT 5000 -RA FEW014CB BKN015 26/24 Q1010 TEMPO TL1500 5000 -RA RMK CB IN APCH
METAR WADD 121330Z 31013KT 5000 -RA FEW014CB BKN015 26/24 Q1010 TEMPO TL1430 5000 -RA RMK CB IN APCH
METAR WADD 121300Z 31016KT 5000 -RA FEW014CB BKN015 26/25 Q1010 TEMPO TL1430 5000 -RA RMK CB IN APCH
METAR WADD 121230Z 31007KT 6000 -RA FEW014CB BKN015 26/25 Q1009 TEMPO TL1330 6000 -RA RMK CB IN APCH
METAR WADD 121200Z 28014KT 250V320 4000 RA FEW014CB BKN015 26/25 Q1009 TEMPO TL1300 4000 RA RMK CB IN APCH
METAR WADD 121130Z 32013KT 1200 RA FEW014CB BKN014 27/25 Q1008 TEMPO TL1230 1200 RA RMK CB IN APCH
METAR WADD 121100Z 29006KT 8000 -RA FEW015CB BKN015 27/25 Q1008 TEMPO TL1200 8000 -RA RMK CB IN CLIMB-OUT
METAR WADD 121030Z 27011KT 8000 -RA FEW015CB BKN015 26/25 Q1008 TEMPO TL1130 8000 -RA RMK CB IN APCH
METAR WADD 121000Z 25008KT 9999 FEW015CB BKN015 28/25 Q1007 NOSIG RMK CB IN CLIMB OUT AND APCH
METAR WADD 120930Z 26009KT 9999 FEW015CB BKN015 28/25 Q1007 NOSIG
METAR WADD 120900Z 26011KT 9999 FEW015CB SCT016 28/25 Q1006 NOSIG
METAR WADD 120830Z COR 26011KT 9999 FEW015CB SCT016 29/25 Q1006 NOSIG
METAR WADD 120800Z 26010KT 9999 SCT016 29/25 Q1007 NOSIG
METAR WADD 120730Z 26012KT 9999 SCT016 29/25 Q1007 NOSIG
METAR WADD 120700Z 26012KT 9999 SCT016 30/25 Q1007 NOSIG
METAR WADD 120630Z 27013KT 9999 SCT016 30/25 Q1007 NOSIG
METAR WADD 120600Z 26010KT 9999 SCT016 30/26 Q1007 NOSIG
METAR WADD 120530Z 25011KT 9999 SCT016 30/25 Q1008 NOSIG
METAR WADD 120500Z 26010KT 9999 SCT016 30/25 Q1008 NOSIG
METAR WADD 120430Z 26011KT 9999 SCT016 30/25 Q1008 NOSIG
METAR WADD 120400Z 28011KT 9999 FEW016 30/26 Q1009 NOSIG
METAR WADD 120330Z 28011KT 9999 FEW016 30/26 Q1009 NOSIG
METAR WADD 120300Z 28008KT 9999 FEW016 29/26 Q1010 NOSIG
METAR WADD 120230Z 26006KT 210V280 9999 FEW016 29/25 Q1010 NOSIG
METAR WADD 120200Z 25007KT 9999 FEW016CB SCT016 26/25 Q1010 RERA NOSI G
METAR WADD 120130Z 26015KT 5000 -RA FEW014CB BKN014 26/25 Q1011 TEMPO TL0230 5000 -RA RMK CB IN APCH
METAR WADD 120100Z 31009KT 9999 FEW016CB SCT016 29/25 Q1010 NOSIG
METAR WADD 120030Z 32008KT 9999 FEW016CB SCT016 28/25 Q1010 NOSIG
METAR WADD 120000Z 32008KT 9999 FEW016CB BKN016 27/25 Q1010 NOSIG
METAR WADD 112330Z 31006KT 270V340 9999 BKN016 27/25 Q1009 NOSIG
METAR WADD 112300Z 28007KT 9999 SCT016 27/24 Q1009 NOSIG
METAR WADD 112230Z 27007KT 9999 SCT016 26/24 Q1009 NOSIG
METAR WADD 112200Z 26007KT 9999 SCT016 27/25 Q1009 NOSIG
METAR WADD 112130Z 28008KT 9999 SCT016 OVC110 27/25 Q1009 NOSIG
METAR WADD 112100Z 29007KT 9999 SCT016 27/25 Q1008 NOSIG</description><pubDate>Thu, 12 Feb 2026 20:45:18 </pubDate></item></channel></rss>