<rss version="2.0"><channel><title>Aviation Weather METAR Data for WADD</title><link>https://aviationweather.gov/api/data/metar?ids=WADD&amp;hours=24</link><description>Latest METAR data for WADD</description><item><title>2025-12-03 19:24:38Z</title><link>https://aviationweather.gov/api/data/metar?ids=WADD&amp;hours=24</link><description>METAR WADD 031900Z 14002KT 9999 SCT017 26/25 Q1009 NOSIG
METAR WADD 031830Z 14003KT 9999 FEW015CB SCT016 26/25 Q1009 NOSIG
METAR WADD 031800Z VRB01KT 9999 FEW015CB SCT016 26/24 Q1009 NOSIG
METAR WADD 031730Z 36003KT 9999 FEW015CB SCT016 26/24 Q1010 NOSIG
METAR WADD 031700Z 01004KT 320V040 9999 FEW015CB SCT016 27/25 Q1010 N OSIG
METAR WADD 031630Z 34004KT 9999 FEW015CB SCT016 26/24 Q1010 NOSIG
METAR WADD 031600Z 01003KT 9999 FEW015CB SCT016 27/25 Q1011 NOSIG
METAR WADD 031530Z VRB01KT 9999 FEW015CB SCT016 26/25 Q1011 NOSIG
METAR WADD 031500Z VRB02KT 9999 FEW015CB SCT016 27/25 Q1011 NOSIG
METAR WADD 031430Z 01004KT 9999 SCT016 27/24 Q1011 NOSIG
METAR WADD 031400Z 01004KT 320V040 9999 SCT016 27/24 Q1011 NOSIG
METAR WADD 031330Z 02004KT 9999 SCT016 26/25 Q1011 NOSIG
METAR WADD 031300Z VRB01KT 9999 SCT016 27/25 Q1011 NOSIG
METAR WADD 031230Z VRB02KT 9999 FEW015CB SCT016 27/25 Q1011 NOSIG
METAR WADD 031200Z VRB03KT 9999 FEW015CB SCT016 26/25 Q1010 RERA NOSI G
METAR WADD 031130Z 01006KT 350V060 9999 FEW014CB BKN015 27/26 Q1010 N OSIG
METAR WADD 031100Z VRB03KT 9999 FEW015CB SCT016 27/24 Q1010 NOSIG
METAR WADD 031030Z 31006KT 9999 FEW014CB BKN015 27/26 Q1009 NOSIG
METAR WADD 031000Z VRB02KT 9999 FEW014CB SCT015 27/25 Q1009 NOSIG
METAR WADD 030930Z 33003KT 9999 FEW014CB SCT015 27/25 Q1009 RERA NOSI G
METAR WADD 030900Z 28009KT 8000 -RA FEW014CB BKN014 27/24 Q1009 RETS TEMPO TL1000 8000 -RA
METAR WADD 030830Z 34006KT 310V030 7000 -TSRA FEW014CB BKN014 28/24 Q1008 TEMPO TL0930 7000 -TSRA
METAR WADD 030800Z 36007KT 310V030 9999 TS FEW015CB BKN015 27/24 Q100 8 NOSIG
METAR WADD 030730Z VRB12G17KT 9999 TS FEW015CB SCT015 30/25 Q1008 NOS IG
METAR WADD 030700Z 25009KT 9999 FEW015CB SCT016 30/26 Q1008 RETS NOSI G
METAR WADD 030630Z 24006KT 130V280 9999 TS FEW015CB SCT016 31/26 Q100 8 NOSIG
METAR WADD 030600Z 27005KT 220V020 9999 FEW015CB SCT016 32/26 Q1009 N OSIG
METAR WADD 030530Z VRB03KT 9999 BKN016 30/26 Q1009 NOSIG
METAR WADD 030500Z 26006KT 9999 SCT016 31/26 Q1009 NOSIG
METAR WADD 030430Z VRB03KT 9999 SCT016 31/26 Q1010 NOSIG
METAR WADD 030400Z VRB02KT 9999 SCT016 30/26 Q1010 NOSIG
METAR WADD 030330Z 22004KT 170V260 9999 FEW015CB BKN016 29/26 Q1011 N OSIG
METAR WADD 030300Z 25003KT 9000 -RA FEW015CB BKN016 28/26 Q1011 TEMPO TL0400 -RA
METAR WADD 030230Z 29003KT 9999 FEW015CB BKN016 29/25 Q1011 NOSIG
METAR WADD 030200Z 01003KT 9999 FEW015CB BKN016 29/26 Q1011 NOSIG
METAR WADD 030130Z 30003KT 9999 FEW015CB BKN016 29/25 Q1011 NOSIG
METAR WADD 030100Z VRB02KT 9999 FEW015CB SCT016 29/25 Q1011 NOSIG
METAR WADD 030030Z VRB02KT 9999 SCT016 29/26 Q1011 NOSIG
METAR WADD 030000Z 33003KT 9999 FEW017 28/26 Q1010 NOSIG
METAR WADD 022330Z 35004KT 300V020 9999 SCT016 27/26 Q1010 NOSIG
METAR WADD 022300Z 36003KT 9999 BKN016 27/26 Q1010 NOSIG
METAR WADD 022230Z 01004KT 9999 BKN016 26/25 Q1010 NOSIG
METAR WADD 022200Z 03004KT 9999 FEW015CB BKN016 26/25 Q1009 NOSIG RMK CB IN CLIMB-OUT
METAR WADD 022130Z 09004KT 060V130 9999 FEW015CB BKN016 26/25 Q1009 N OSIG RMK CB IN APCH
METAR WADD 022100Z VRB02KT 9999 FEW015CB BKN016 26/25 Q1009 NOSIG RMK CB IN CLIMB-OUT
METAR WADD 022030Z VRB02KT 9999 FEW015CB BKN016 26/25 Q1009 NOSIG RMK CB IN CLIMB-OUT
METAR WADD 022000Z VRB02KT 9999 FEW015CB BKN016 26/24 Q1009 NOSIG
METAR WADD 021930Z VRB01KT 9999 BKN016 26/24 Q1009 NOSIG</description><pubDate>Wed, 03 Dec 2025 19:24:38 </pubDate></item></channel></rss>