<rss version="2.0"><channel><title>Aviation Weather METAR Data for WADD</title><link>https://aviationweather.gov/api/data/metar?ids=WADD&amp;hours=24</link><description>Latest METAR data for WADD</description><item><title>2025-09-15 22:23:03Z</title><link>https://aviationweather.gov/api/data/metar?ids=WADD&amp;hours=24</link><description>METAR WADD 152200Z 13005KT 9999 FEW015CB BKN016 26/25 Q1012 NOSIG
METAR WADD 152130Z 12006KT 9999 FEW015CB BKN016 26/25 Q1011 NOSIG
METAR WADD 152100Z 12006KT 9999 FEW015CB BKN016 26/25 Q1011 RERA NOSIG
METAR WADD 152030Z 11003KT 8000 -RA FEW015CB BKN016 25/25 Q1011 TEMPO TL2130 -RA
METAR WADD 152000Z 13006KT 8000 -RA FEW015CB BKN016 26/25 Q1011 TEMPO TL2130 -RA
METAR WADD 151930Z 14006KT 9999 SCT016 26/25 Q1011 NOSIG
METAR WADD 151900Z 12007KT 9999 SCT016 26/24 Q1011 NOSIG
METAR WADD 151830Z 10008KT 9999 SCT016 26/24 Q1011 NOSIG
METAR WADD 151800Z 09006KT 9999 SCT016 26/24 Q1011 NOSIG
METAR WADD 151730Z 09006KT 9999 SCT016 26/24 Q1011 NOSIG
METAR WADD 151700Z 12007KT 9999 SCT016 26/25 Q1012 NOSIG
METAR WADD 151630Z 12006KT 9999 SCT016 26/25 Q1012 NOSIG
METAR WADD 151600Z 11006KT 9999 SCT016 26/25 Q1012 NOSIG
METAR WADD 151530Z 12006KT 9999 SCT016 26/25 Q1012 NOSIG
METAR WADD 151500Z 12007KT 9999 SCT016 26/25 Q1012 NOSIG
METAR WADD 151430Z 11007KT 9999 SCT016 26/25 Q1012 NOSIG
METAR WADD 151400Z 12008KT 9999 SCT016 26/25 Q1012 NOSIG
METAR WADD 151330Z 11008KT 9999 SCT01627/25 Q1012 NOSIG
METAR WADD 151300Z 10008KT 9999 SCT016 27/25 Q1012 NOSIG
METAR WADD 151230Z 11010KT 9999 SCT016 27/25 Q1012 NOSIG
METAR WADD 151200Z 11011KT 9999 SCT016 27/25 Q1012 NOSIG
METAR WADD 151130Z 12010KT 9999 SCT016 27/25 Q1011 NOSIG
METAR WADD 151100Z 12009KT 9999 SCT016 27/25 Q1011 NOSIG
METAR WADD 151030Z 12011KT 9999 SCT016 27/25 Q1011 NOSIG
METAR WADD 151000Z 12011KT 9999 SCT016 27/25 Q1010 NOSIG
METAR WADD 150930Z 12014KT 9999 SCT016 28/25 Q1010 NOSIG
METAR WADD 150900Z 12015KT 9999 SCT016 28/25 Q1010 NOSIG
METAR WADD 150830Z 12014KT 9999 SCT016 28/25 Q1010 NOSIG
METAR WADD 150800Z 12014KT 9999 SCT016 29/24 Q1010 NOSIG
METAR WADD 150730Z 12013KT 9999 SCT016 29/24 Q1010 NOSIG
METAR WADD 150700Z 12015KT 9999 SCT016 28/24 Q1010 NOSIG
METAR WADD 150630Z 12016KT 9999 BKN016 28/25 Q1011 NOSIG
METAR WADD 150600Z 12013KT 9999 BKN016 28/25 Q1011 NOSIG
METAR WADD 150530Z 12015KT 9999 BKN016 28/24 Q1011 NOSIG
METAR WADD 150500Z 13013KT 9999 BKN016 28/25 Q1011 NOSIG
METAR WADD 150430Z 13013KT 9999 BKN016 28/25 Q1012 NOSIG
METAR WADD 150400Z 13013KT 9999 FEW015CB BKN016 28/25 Q1012 NOSIG
METAR WADD 150330Z 14015KT 9999 FEW015CB BKN016 28/25 Q1013 NOSIG
METAR WADD 150300Z 14015KT 9999 FEW016CB BKN016 28/25 Q1013 NOSIG
METAR WADD 150230Z 14015KT 9999 FEW016CB BKN016 28/25 Q1014 NOSIG
METAR WADD 150200Z 14018KT 9999 FEW015CB BKN016 28/25 Q1013 RETS NOSIG
METAR WADD 150130Z 14015KT 9999TS FEW015CB BKN015 27/25 Q1014 NOSIG
METAR WADD 150100Z 14017KT 9999 TS FEW015CB BKN015 28/25 Q1013 TEMPO TL0200 TS
METAR WADD 150030Z 14014KT 9999 FEW015CB BKN015 27/25 Q1013 NOSIG
METAR WADD 150000Z 14013KT 9999 FEW015CB BKN015 27/25 Q1013 NOSIG RMK CB IN CLIMB-OUT
METAR WADD 142330Z 13012KT 9999 FEW015CB BKN016 27/25 Q1013 RERA NOSIG
METAR WADD 142300Z 14011KT 8000 -RA FEW015CB BKN015 27/25 Q1013 TEMPO TL0000 8000 -RA
METAR WADD 142230Z 14009KT 9999 BKN016 26/25 Q1012 NOSIG</description><pubDate>Mon, 15 Sep 2025 22:23:03 </pubDate></item></channel></rss>