<rss version="2.0"><channel><title>Aviation Weather METAR Data for WADD</title><link>https://aviationweather.gov/api/data/metar?ids=WADD&amp;hours=24</link><description>Latest METAR data for WADD</description><item><title>2025-01-03 12:45:52Z</title><link>https://aviationweather.gov/api/data/metar?ids=WADD&amp;hours=24</link><description>WADD 031230Z VRB01KT 9999 FEW015CB BKN015 26/25 Q1009 RERA NOSIG
WADD 031200Z 25004KT 210V270 8000 -RA FEW015CB BKN015 26/25 Q1009 TEMPO TL1300 -RA RMK CB IN CLIMB-OUT
WADD 031130Z 25004KT 8000 -RA FEW015CB BKN016 26/25 Q1008 TEMPO TL1230 -RA
WADD 031100Z 24005KT 9999 BKN016 27/25 Q1008 RERA NOSIG
WADD 031030Z 24005KT 8000 -RA BKN015 27/25 Q1008 TEMPO TL1130 -RA
WADD 031000Z 24005KT 9999 BKN016 27/25 Q1008 RERA NOSIG
WADD 030930Z 23005KT 200V270 8000 -RA FEW015CB BKN016 28/25 Q1008 TEMPO TL1030 -RA
WADD 030900Z 24007KT 7000 -RA FEW015CB BKN016 27/25 Q1007 TEMPO TL1000 -RA
WADD 030830Z 24007KT 9999 BKN016 28/25 Q1007 NOSIG
WADD 030800Z 24007KT 9999 BKN016 28/25 Q1007 NOSIG
WADD 030730Z 25009KT 9999 SCT016 28/25 Q1007 NOSIG
WADD 030700Z 26009KT 9999 SCT016 29/26 Q1007 NOSIG
WADD 030630Z 25008KT 210V270 9999 SCT016 28/26 Q1008 NOSIG
WADD 030600Z 26009KT 9999 SCT016 28/25 Q1008 NOSIG
WADD 030530Z 26009KT 9999 SCT016 28/25 Q1009 NOSIG
WADD 030500Z 26011KT 9999 SCT016 29/25 Q1009 NOSIG
WADD 030430Z 26013KT 9999 SCT016 28/26 Q1009 NOSIG
WADD 030400Z 26011KT 9999 BKN016 28/25 Q1009 NOSIG
WADD 030330Z 26010KT 9999 BKN016 28/25 Q1009 NOSIG
WADD 030300Z 28010KT 9999 BKN015 27/26 Q1010 NOSIG
WADD 030230Z 30007KT 9999 BKN016 26/25 Q1010 RERA NOSIG
WADD 030200Z 31009KT 8000 -RA BKN016 26/25 Q1010 TEMPO TL0300 -RA
WADD 030130Z 28013KT 5000 RA FEW015CB BKN016 26/25 Q1010 TEMPO TL0230 5000 RA RMK CB IN CLIMB-OUT
WADD 030100Z 28003KT 9999 FEW016CB BKN016 27/25 Q1010 NOSIG RMK CB IN CLIMB-OUT
WADD 030030Z 25008G15KT 8000 -RA FEW016CB BKN016 25/23 Q1009 TEMPO TL0130 -RA
WADD 030000Z 30006KT 9999 FEW015CB SCT016 FEW160 27/26 Q1009 NOSIG
WADD 022330Z 32004KT 9999 SCT016 27/25 Q1009 NOSIG
WADD 022300Z 33003KT 9999 FEW016 26/25 Q1009 NOSIG
WADD 022230Z 35003KT 9999 SCT016 26/25 Q1009 NOSIG
WADD 022200Z 32003KT 9999 SCT016 25/24 Q1008 NOSIG
WADD 022130Z 34002KT 9999 SCT016 25/25 Q1008 NOSIG
WADD 022100Z 32003KT 9999 SCT016 25/25 Q1008 NOSIG
WADD 022030Z 32006KT 9999 BKN016 26/25 Q1008 NOSIG
WADD 022000Z VRB01KT 9999 BKN016 25/25 Q1008 NOSIG
WADD 021930Z 34003KT 9999 FEW015CB BKN016 25/25 Q1008 NOSIG
WADD 021900Z 33005KT 9999 FEW015CB BKN016 26/25 Q1008 RERA NOSIG
WADD 021830Z 33004KT 8000 -RA FEW015CB BKN016 25/25 Q1008 TEMPO TL2930 8000 -RA
WADD 021800Z 36004KT 330V030 9999 SCT016 26/25 Q1008 NOSIG
WADD 021730Z 36004KT 310V020 9999 SCT017 26/25 Q1009 NOSIG
WADD 021700Z 34005KT 290V360 9999 SCT017 26/25 Q1009 NOSIG
WADD 021630Z 01003KT 9999 SCT017 26/25 Q1009 NOSIG
WADD 021600Z VRB01KT 9999 SCT17 25/25 Q1009 NOSIG
WADD 021530Z VRB02KT 9999 SCT016 25/25 Q1010 NOSIG
WADD 021500Z 17002KT 9999 SCT016 25/25 Q1010 NOSIG
WADD 021430Z 10002KT 9999 SCT016 25/25 Q1010 NOSIG
WADD 021400Z VRB01KT 9999 SCT016 25/25 Q1010 NOSIG
WADD 021330Z VRB01KT 9999 SCT016 25/25 Q1010 NOSIG
WADD 021300Z VRB01KT 9999 SCT016 25/25 Q1010 NOSIG</description><pubDate>Fri, 03 Jan 2025 12:45:52 </pubDate></item></channel></rss>