<rss version="2.0"><channel><title>Aviation Weather METAR Data for WADD</title><link>https://aviationweather.gov/api/data/metar?ids=WADD&amp;hours=24</link><description>Latest METAR data for WADD</description><item><title>2025-12-25 09:46:36Z</title><link>https://aviationweather.gov/api/data/metar?ids=WADD&amp;hours=24</link><description>METAR WADD 250930Z 26012KT 9999 FEW017 30/25 Q1005 NOSIG
METAR WADD 250900Z 26013KT 9999 FEW017 31/25 Q1005 NOSIG
METAR WADD 250830Z 26013KT 9999 FEW017 31/26 Q1005 NOSIG
METAR WADD 250800Z 26014KT 9999 FEW017 31/26 Q1004 NOSIG
METAR WADD 250730Z 26013KT 9999 FEW017 31/26 Q1004 NOSIG
METAR WADD 250700Z 26014KT 9999 FEW017 31/26 Q1004 NOSIG
SPECI WADD 250630Z 26010KT 9999 FEW017 31/26 Q1005 NOSIG
METAR WADD 250600Z 27014KT 9999 FEW017 31/26 Q1005 NOSIG
METAR WADD 250530Z 26014KT 9999 FEW017 31/26 Q1005 NOSIG
METAR WADD 250500Z 26013KT 9999 FEW017 31/27 Q1006 NOSIG
METAR WADD 250430Z 26013KT 9999 FEW017 31/26 Q1006 NOSIG
METAR WADD 250400Z 27012KT 9999 FEW017 31/27 Q1006 NOSIG
METAR WADD 250330Z 27012KT 9999 FEW017 31/27 Q1006 NOSIG
METAR WADD 250300Z 26012KT 9999 FEW017 31/27 Q1006 NOSIG
METAR WADD 250230Z 28013KT 9999 FEW017 31/27 Q1007 NOSIG
METAR WADD 250200Z 27013KT 9999 FEW016 29/26 Q1007 NOSIG
METAR WADD 250130Z 28014KT 9999 SCT016 29/27 Q1007 NOSIG
SPECI WADD 250114Z 29013KT 8000 FEW015CB SCT016 29/27 Q1007 RERA NOSIG RMK CB IN APCH
METAR WADD 250100Z 28013KT 8000 -RA FEW015CB SCT016 29/27 Q1007 TEMPO TL0130 8000 -RA RMK CB IN APCH
METAR WADD 250030Z 27010KT 6000 -RA FEW015CB SCT016 30/26 Q1007 TEMPO TL0100 6000 -RA RMK CB IN CLIMB-OUT
SPECI WADD 250014Z 27013KT 8000 VCSH FEW015CB SCT016 29/25 Q1007 NOSIG RMK CB IN CLIMB-OUT
METAR WADD 250000Z 27013KT 9999 SCT016 29/25 Q1007 NOSIG
METAR WADD 242330Z 27010KT 9999 SCT016 29/26 Q1007 NOSIG
METAR WADD 242300Z 26010KT 9999 SCT016 29/26 Q1007 NOSIG
METAR WADD 242230Z 26009KT 9999 SCT016 28/26 Q1007 NOSIG
METAR WADD 242200Z 28009KT 9999 BKN016 27/25 Q1006 NOSIG
METAR WADD 242130Z 27009KT 9999 SCT016 28/26 Q1006 NOSIG
METAR WADD 242100Z 26008KT 9999 SCT016 28/25 Q1006 NOSIG
METAR WADD 242030Z 26008KT 9999 SCT016 28/25 Q1005 NOSIG
METAR WADD 242000Z 26010KT 9999 SCT016 28/25 Q1005 NOSIG
METAR WADD 241930Z 26010KT 9999 SCT016 28/25 Q1005 NOSIG
METAR WADD 241900Z 26011KT 9999 SCT016 29/25 Q1006 NOSIG
METAR WADD 241830Z 26011KT 9999 SCT016 29/25 Q1006 NOSIG
METAR WADD 241800Z 26009KT 9999 SCT016 28/25 Q1006 NOSIG
METAR WADD 241730Z 27011KT 9999 SCT016 28/25 Q1006 NOSIG
METAR WADD 241700Z 26010KT 9999 SCT017 28/25 Q1006 NOSIG
METAR WADD 241630Z 26011KT 9999 SCT017 29/25 Q1007 NOSIG
METAR WADD 241600Z 26009KT 9999 SCT017 29/25 Q1007 NOSIG
METAR WADD 241530Z 26009KT 9999 SCT017 29/25 Q1007 NOSIG
METAR WADD 241500Z 26009KT 9999 SCT017 28/25 Q1008 NOSIG
METAR WADD 241430Z 26008KT 9999 SCT017 29/25 Q1008 NOSIG
METAR WADD 241400Z 25010KT 9999 SCT017 29/25 Q1008 NOSIG
METAR WADD 241330Z 26011KT 9999 SCT017 29/25 Q1008 NOSIG
METAR WADD 241300Z 26011KT 9999 SCT017 29/25 Q1007 NOSIG
METAR WADD 241230Z 26011KT 9999 SCT017 29/25 Q1007 NOSIG
METAR WADD 241200Z 26010KT 9999 SCT017 29/25 Q1007 NOSIG
METAR WADD 241130Z 26010KT 9999 SCT016 29/25 Q1007 NOSIG
METAR WADD 241100Z 26009KT 9999 SCT016 29/25 Q1006 NOSIG
METAR WADD 241030Z 26011KT 9999 SCT016 29/25 Q1006 NOSIG
METAR WADD 241000Z 26009KT 9999 SCT016 29/25 Q1006 NOSIG</description><pubDate>Thu, 25 Dec 2025 09:46:36 </pubDate></item></channel></rss>