<rss version="2.0"><channel><title>Aviation Weather METAR Data for WADD</title><link>https://aviationweather.gov/api/data/metar?ids=WADD&amp;hours=24</link><description>Latest METAR data for WADD</description><item><title>2026-06-20 04:25:11Z</title><link>https://aviationweather.gov/api/data/metar?ids=WADD&amp;hours=24</link><description>METAR WADD 200400Z 11014KT 9999 SCT016 30/25 Q1013 NOSIG
METAR WADD 200330Z 11014KT 9999 SCT016 29/24 Q1013 NOSIG
METAR WADD 200300Z 10012KT 9999 SCT016 29/24 Q1013 NOSIG
METAR WADD 200230Z 08012KT 9999 SCT016 30/25 Q1013 NOSIG
METAR WADD 200200Z 10009KT 9999 SCT016 29/25 Q1014 NOSIG
METAR WADD 200130Z 11010KT 9999 BKN016 28/25 Q1014 NOSIG
METAR WADD 200100Z 10007KT 9999 SCT016 28/25 Q1014 NOSIG
METAR WADD 200030Z 11009KT 9999 SCT016 28/25 Q1014 NOSIG
METAR WADD 200000Z 11009KT 9999 SCT016 27/25 Q1013 NOSIG
METAR WADD 192330Z 11008KT 9999 BKN016 27/25 Q1013 RERA NOSIG
METAR WADD 192300Z 09009KT 5000 -RA FEW015CB BKN016 26/25 Q1013 NOSIG RMK CB IN APCH
METAR WADD 192230Z 09010KT 8000 FEW015CB BKN016 26/25 Q1013 RERA NOSIG RMK CB IN APCH AND CLIMB-OUT
SPECI WADD 192205Z 10013KT 6000 -RA FEW015CB BKN016 27/25 Q1012 NOSIG
METAR WADD 192200Z 12013KT 9999 FEW016CB SCT016 27/25 Q1012 NOSIG
METAR WADD 192130Z 12009KT 9999 SCT016 27/25 Q1012 NOSIG
METAR WADD 192100Z 12009KT 9999 SCT016 27/25 Q1012 NOSIG
METAR WADD 192030Z 11011KT 9999 SCT016 27/25 Q1012 NOSIG
METAR WADD 192000Z 11011KT 9999 SCT016 27/25 Q1012 NOSIG
METAR WADD 191930Z 11011KT 9999 SCT016 27/24 Q1012 NOSIG
METAR WADD 191900Z 11013KT 9999 SCT016 27/24 Q1012 NOSIG
METAR WADD 191830Z 10010KT 9999 FEW016CB SCT016 27/25 Q1013 NOSIG
METAR WADD 191800Z 10010KT 9999 FEW016CB SCT016 27/25 Q1013 NOSIG
METAR WADD 191730Z 11011KT 9999 FEW016CB SCT016 27/25 Q1013 NOSIG
METAR WADD 191700Z 11011KT 9999 FEW016CB SCT016 27/25 Q1013 NOSIG
METAR WADD 191630Z 11011KT 9999 FEW016CB SCT016 27/25 Q1013 NOSIG
METAR WADD 191600Z 11011KT 9999 FEW016CB SCT016 27/25 Q1013 NOSIG
METAR WADD 191530Z 10011KT 9999 FEW016CB SCT016 27/24 Q1013 NOSIG
METAR WADD 191500Z 12013KT 9999 FEW016CB SCT016 27/25 Q1013 NOSIG
METAR WADD 191430Z 13013KT 9999 SCT016 27/25 Q1013 NOSIG
METAR WADD 191400Z 12009KT 9999 SCT016 27/25 Q1013 NOSIG
METAR WADD 191330Z 11008KT 9999 SCT016 27/25 Q1013 NOSIG
METAR WADD 191300Z 11010KT 9999 SCT016 27/25 Q1013 NOSIG
METAR WADD 191230Z 12014KT 9999 BKN016 27/24 Q1012 NOSIG
METAR WADD 191200Z 13010KT 9999 BKN016 27/25 Q1012 NOSIG
METAR WADD 191130Z 13010KT 9999 SCT016 27/25 Q1012 NOSIG
METAR WADD 191100Z 14013KT 9999 SCT016 27/25 Q1012 NOSIG
METAR WADD 191030Z 13012KT 9999 SCT016 27/25 Q1011 NOSIG
METAR WADD 191000Z 13012KT 9999 SCT016 27/25 Q1011 NOSIG
METAR WADD 190930Z 13014KT 9999 SCT016 27/25 Q1011 NOSIG
METAR WADD 190900Z 13013KT 9999 SCT016 28/25 Q1011 NOSIG
METAR WADD 190830Z 13014KT 9999 SCT016 28/25 Q1011 NOSIG
METAR WADD 190800Z 14015KT 9999 SCT016 28/24 Q1011 NOSIG
METAR WADD 190730Z 12013KT 9999 SCT016 29/25 Q1011 NOSIG
METAR WADD 190700Z 14012KT 9999 SCT016 28/25 Q1011 NOSIG
METAR WADD 190630Z 13013KT 9999 SCT016 28/25 Q1011 NOSIG
METAR WADD 190600Z 13013KT 9999 SCT016 29/25 Q1011 NOSIG
METAR WADD 190530Z 12012KT 9999 SCT017 29/24 Q1012 NOSIG
METAR WADD 190500Z 11013KT 9999 SCT017 30/24 Q1012 NOSIG
METAR WADD 190430Z 11010KT 9999 SCT017 30/25 Q1012 NOSIG</description><pubDate>Sat, 20 Jun 2026 04:25:11 </pubDate></item></channel></rss>