<rss version="2.0"><channel><title>Aviation Weather METAR Data for WADD</title><link>https://aviationweather.gov/api/data/metar?ids=WADD&amp;hours=24</link><description>Latest METAR data for WADD</description><item><title>2026-03-14 14:39:21Z</title><link>https://aviationweather.gov/api/data/metar?ids=WADD&amp;hours=24</link><description>METAR WADD 141430Z 34005KT 290V030 9999 FEW016 28/25 Q1011 NOSIG
METAR WADD 141400Z 34005KT 300V010 9999 FEW016 28/25 Q1011 NOSIG
METAR WADD 141330Z 32007KT 9999 SCT016 28/25 Q1011 NOSIG
METAR WADD 141300Z 30007KT 9999 SCT016 28/26 Q1010 NOSIG
METAR WADD 141230Z 28009KT 9999 SCT016 28/26 Q1010 NOSIG
METAR WADD 141200Z 27010KT 9999 SCT016 28/26 Q1009 NOSIG
METAR WADD 141130Z 27010KT 9999 SCT016 28/26 Q1009 NOSIG
METAR WADD 141100Z 25008KT 9999 SCT016 28/26 Q1009 NOSIG
METAR WADD 141030Z 25008KT 9999 FEW015CB FEW016 29/26 Q1008 NOSIG
METAR WADD 141000Z 25007KT 9999 FEW015CB SCT016 29/26 Q1008 NOSIG
METAR WADD 140930Z 25008KT 9999 FEW015CB SCT016 30/26 Q1008 NOSIG
METAR WADD 140900Z 25007KT 9999 SCT016 30/27 Q1008 NOSIG
METAR WADD 140830Z 26011KT 9999 SCT016 30/26 Q1008 NOSIG
METAR WADD 140800Z 26010KT 9999 FEW016 32/26 Q1008 NOSIG
METAR WADD 140730Z 25010KT 9999 FEW016 32/27 Q1008 NOSIG
METAR WADD 140700Z 25010KT 9999 FEW016 32/27 Q1007 NOSIG
METAR WADD 140630Z 26012KT 9999 FEW016 31/26 Q1007 NOSIG
METAR WADD 140600Z 25011KT 9999 FEW016 31/27 Q1007 NOSIG
METAR WADD 140530Z 27010KT 9999 FEW016 32/27 Q1008 NOSIG
METAR WADD 140500Z 26010KT 230V290 9999 FEW016 31/27 Q1009 NOSIG
METAR WADD 140430Z 27010KT 240V300 9999 FEW016 31/27 Q1009 NOSIG
METAR WADD 140400Z 27010KT 9999 FEW016 31/26 Q1009 NOSIG
METAR WADD 140330Z 30012KT 9999 SCT016 31/27 Q1010 NOSIG
METAR WADD 140300Z 29011KT 9999 FEW015CB SCT016 31/26 Q1010 NOSIG
METAR WADD 140230Z 29011KT 9999 FEW015CB SCT016 31/27 Q1010 NOSIG
METAR WADD 140200Z 29010KT 9999 SCT016 30/26 Q1010 NOSIG
METAR WADD 140130Z 28011KT 9999 SCT016 29/25 Q1010 NOSIG
METAR WADD 140100Z 29012KT 9999 SCT016 30/26 Q1010 NOSIG
METAR WADD 140030Z 29012KT 9999 SCT016 29/26 Q1010 NOSIG
METAR WADD 140000Z 29012KT 9999 SCT016 29/26 Q1010 NOSIG
METAR WADD 132330Z 28012KT 9999 FEW015CB BKN016 28/26 Q1009 NOSIG
METAR WADD 132300Z 27009KT 230V290 9999 FEW015CB BKN016 27/26 Q1009 N OSIG
METAR WADD 132230Z 22007G16KT 9999 FEW015CB BKN016 26/25 Q1009 NOSIG
METAR WADD 132200Z 28010KT 9999 BKN016 26/26 Q1009 NOSIG
METAR WADD 132130Z 28009KT 9999 SCT016 26/26 Q1008 NOSIG
METAR WADD 132100Z 28012KT 9999 SCT016 27/26 Q1008 NOSIG
METAR WADD 132030Z 28010KT 9999 BKN016 27/26 Q1008 NOSIG
METAR WADD 132000Z 29009KT 9999 BKN016 26/26 Q1007 RERA NOSIG
METAR WADD 131930Z 29015G25KT 6000 -RA BKN015 26/24 Q1008 TEMPO TL2030 -RA
METAR WADD 131900Z 29012KT 9999 BKN016 27/26 Q1008 RERA NOSIG
METAR WADD 131830Z 28008KT 6000 -RA BKN015 26/26 Q1008 TEMPO TL1930 -RA
METAR WADD 131800Z 28013KT 6000 -RA BKN015 27/26 Q1008 TEMPO TL1900 - RA
METAR WADD 131730Z 28011KT 9999 BKN016 27/26 Q1008 RERA NOSIG
SPECI WADD 131707Z 28013KT 6000 -RA BKN015 28/26 Q1008 TEMPO TL1830 -RA
SPECI WADD 131702Z 28013KT 6000 -RA BKN015 28/26 Q1008 TEMPO TL1830 -RA
METAR WADD 131700Z 27010KT 9999 SCT016 28/26 Q1008 NOSIG
METAR WADD 131630Z 28012KT 9999 SCT016 28/26 Q1008 NOSIG
METAR WADD 131600Z 27012KT 9999 SCT016 28/26 Q1009 NOSIG
METAR WADD 131530Z 27012KT 9999 SCT016 28/25 Q1009 RETS NOSIG
METAR WADD 131500Z 28010KT 9999 TS FEW015CB SCT016 27/26 Q1009 TEMPO TL1600 TS</description><pubDate>Sat, 14 Mar 2026 14:39:21 </pubDate></item></channel></rss>