<rss version="2.0"><channel><title>Aviation Weather METAR Data for WADD</title><link>https://aviationweather.gov/api/data/metar?ids=WADD&amp;hours=24</link><description>Latest METAR data for WADD</description><item><title>2026-05-30 10:08:14Z</title><link>https://aviationweather.gov/api/data/metar?ids=WADD&amp;hours=24</link><description>METAR WADD 301000Z 12012KT 9999 FEW017 27/23 Q1010 NOSIG
METAR WADD 300930Z 12013KT 9999 FEW017 28/23 Q1010 NOSIG
METAR WADD 300900Z 11013KT 9999 FEW017 28/22 Q1010 NOSIG
METAR WADD 300830Z 13015KT 9999 FEW017 29/21 Q1010 NOSIG
METAR WADD 300800Z 12012KT 9999 FEW017 29/22 Q1010 NOSIG
METAR WADD 300730Z 12013KT 9999 FEW017 29/23 Q1010 NOSIG
METAR WADD 300700Z 11011KT 9999 FEW017 29/22 Q1010 NOSIG
METAR WADD 300630Z 11009KT 9999 FEW017 30/22 Q1011 NOSIG
METAR WADD 300600Z 11011KT 9999 FEW017 30/21 Q1011 NOSIG
METAR WADD 300530Z 11009KT 9999 FEW017 30/21 Q1011 NOSIG
METAR WADD 300500Z 11010KT 9999 FEW017 30/21 Q1012 NOSIG
METAR WADD 300430Z 11010KT 9999 FEW017 30/21 Q1012 NOSIG
METAR WADD 300400Z 11010KT 9999 FEW017 30/20 Q1013 NOSIG
METAR WADD 300330Z 10009KT 9999 FEW017 30/20 Q1013 NOSIG
METAR WADD 300300Z 11008KT 9999 FEW017 30/21 Q1014 NOSIG
METAR WADD 300230Z 10008KT 9999 FEW017 30/20 Q1014 NOSIG
METAR WADD 300200Z 12004KT 070V160 9999 FEW017 31/21 Q1014 NOSIG
METAR WADD 300130Z 10006KT 9999 FEW017 30/21 Q1014 NOSIG
METAR WADD 300100Z 06005KT 020V100 9999 FEW017 29/20 Q1014 NOSIG
METAR WADD 300030Z 04004KT 9999 FEW017 29/20 Q1014 NOSIG
METAR WADD 300000Z VRB01KT 9999 FEW017 27/21 Q1013 NOSIG
METAR WADD 292330Z VRB02KT 9999 FEW017 25/20 Q1013 NOSIG
METAR WADD 292300Z VRB01KT 9999 FEW017 23/19 Q1013 NOSIG
METAR WADD 292230Z VRB02KT 9999 FEW017 22/19 Q1012 NOSIG
METAR WADD 292200Z 08002KT 9999 FEW017 22/19 Q1012 NOSIG
METAR WADD 292130Z 09002KT 9999 FEW017 22/19 Q1012 NOSIG
METAR WADD 292100Z 08002KT 9999 FEW017 22/19 Q1012 NOSIG
METAR WADD 292030Z VRB02KT 9999 FEW017 22/19 Q1012 NOSIG
METAR WADD 292000Z VRB02KT 9999 FEW017 22/19 Q1012 NOSIG
METAR WADD 291930Z 05002KT 9999 FEW017 23/19 Q1012 NOSIG
METAR WADD 291900Z VRB02KT 9999 FEW017 23/19 Q1012 NOSIG
METAR WADD 291830Z VRB02KT 9999 FEW017 23/19 Q1012 NOSIG
METAR WADD 291800Z VRB02KT 9999 FEW017 23/19 Q1012 NOSIG
METAR WADD 291730Z 03004KT 9999 FEW017 23/20 Q1012 NOSIG
METAR WADD 291700Z 02005KT 360V060 9999 FEW017 24/20 Q1012 NOSIG
METAR WADD 291630Z 03003KT 9999 FEW017 24/20 Q1012 NOSIG
METAR WADD 291600Z 01005KT 350V120 9999 FEW017 24/20 Q1013 NOSIG
METAR WADD 291530Z 36006KT 9999 FEW017 24/20 Q1013 NOSIG
METAR WADD 291500Z 01005KT 9999 FEW017 25/20 Q1012 NOSIG
METAR WADD 291430Z 01005KT 340V080 9999 FEW017 25/21 Q1012 NOSIG
METAR WADD 291400Z 15003KT 9999 FEW017 26/21 Q1012 NOSIG
METAR WADD 291330Z 12004KT 9999 FEW017 26/21 Q1012 NOSIG
METAR WADD 291300Z 12006KT 9999 FEW017 26/21 Q1012 NOSIG
METAR WADD 291230Z 13007KT 9999 FEW017 26/21 Q1011 NOSIG
METAR WADD 291200Z 12005KT 9999 FEW017 26/21 Q1011 NOSIG
METAR WADD 291130Z 13006KT 9999 FEW017 26/21 Q1011 NOSIG
METAR WADD 291100Z 13006KT 9999 FEW017 27/21 Q1011 NOSIG
METAR WADD 291030Z 12006KT 9999 FEW017 27/21 Q1010 NOSIG</description><pubDate>Sat, 30 May 2026 10:08:14 </pubDate></item></channel></rss>