<rss version="2.0"><channel><title>Aviation Weather METAR Data for WADD</title><link>https://aviationweather.gov/api/data/metar?ids=WADD&amp;hours=24</link><description>Latest METAR data for WADD</description><item><title>2025-06-20 19:21:18Z</title><link>https://aviationweather.gov/api/data/metar?ids=WADD&amp;hours=24</link><description>WADD 201900Z 11005KT 9999 FEW017 27/26 Q1011 NOSIG
WADD 201830Z 13008KT 9999 FEW017 27/26 Q1011 NOSIG
WADD 201800Z 13007KT 9999 FEW017 27/26 Q1011 NOSIG
WADD 201730Z 12006KT 9999 FEW017 27/26 Q1011 NOSIG
WADD 201700Z 13007KT 9999 FEW017 27/26 Q1011 NOSIG
WADD 201630Z 14008KT 9999 FEW017 27/26 Q1012 NOSIG
WADD 201600Z 13007KT 9999 FEW017 28/26 Q1012 NOSIG
WADD 201530Z 14007KT 9999 FEW017 28/26 Q1012 NOSIG
WADD 201500Z 13007KT 9999 FEW017 28/26 Q1012 NOSIG
WADD 201430Z 13007KT 9999 FEW017 28/26 Q1012 NOSIG
WADD 201400Z 12010KT 9999 FEW017 28/25 Q1012 NOSIG
WADD 201330Z 12009KT 9999 FEW017 28/26 Q1012 NOSIG
WADD 201300Z 12009KT 9999 FEW017 28/25 Q1012 NOSIG
WADD 201230Z 11007KT 9999 FEW017 28/25 Q1012 NOSIG
WADD 201200Z 13008KT 9999 FEW017 28/26 Q1012 NOSIG
WADD 201130Z 12007KT 9999 FEW017 28/26 Q1011 NOSIG
WADD 201100Z 12009KT 9999 FEW017 28/26 Q1011 NOSIG
WADD 201030Z 13010KT 9999 FEW017 28/26 Q1011 NOSIG
WADD 201000Z 11009KT 9999 FEW017 28/26 Q1011 NOSIG
WADD 200930Z 11007KT 9999 FEW017 28/26 Q1010 NOSIG
WADD 200900Z 12009KT 9999 FEW017 28/26 Q1010 NOSIG
WADD 200830Z 12011KT 9999 FEW017 28/26 Q1010 NOSIG
WADD 200800Z 13011KT 9999 FEW017 29/25 Q1010 NOSIG
WADD 200700Z 11008KT 9999 FEW016 29/25 Q1010 NOSIG
WADD 200630Z 12009KT 9999 SCT016 29/26 Q1010 NOSIG
WADD 200600Z 11009KT 9999 SCT016 29/26 Q1011 NOSIG
WADD 200530Z 12010KT 9999 FEW016 29/26 Q1011 NOSIG
WADD 200500Z 10009KT 9999 FEW016 29/26 Q1011
WADD 200430Z 11008KT 9999 SCT016 29/26 Q1012 NOSIG
WADD 200400Z 11006KT 070V130 9999 SCT016 29/26 Q1012 NOSIG
WADD 200330Z 13004KT 9999 SCT016 29/25 Q1013 NOSIG
WADD 200300Z 10004KT 060V120 9999 SCT016 29/25 Q1013 NOSIG
WADD 200230Z 15004KT 110V180 9999 FEW016 28/25 Q1013 NOSIG
WADD 200200Z 21003KT 9999 FEW016 28/25 Q1013 NOSIG
WADD 200130Z 06003KT 9999 FEW016 28/25 Q1013 NOSIG
WADD 200100Z 03004KT 330V090 9999 FEW016 27/24 Q1013 NOSIG
WADD 200030Z VRB01KT 9999 FEW016 27/25 Q1013 NOSIG
WADD 200000Z 02003KT 9999 SCT016 26/24 Q1012 NOSIG
WADD 192330Z 10003KT 9999 SCT016 26/24 Q1012 NOSIG
WADD 192300Z 12004KT 050V150 9999 SCT016 26/24 Q1012 NOSIG
WADD 192230Z 13005KT 9999 FEW015CB SCT016 26/25 Q1011 NOSIG
WADD 192200Z 25002KT 9999 FEW015CB SCT016 26/24 Q1011 NOSIG
WADD 192130Z 16005KT 9999 FEW015CB SCT016 26/24 Q1011 NOSIG
WADD 192100Z 00000KT 9999 FEW015CB SCT016 26/23 Q1011 NOSIG
WADD 192030Z VRB01KT 9999 SCT017 26/24 Q1011 NOSIG
WADD 192000Z 07004KT 030V110 9999 SCT017 26/23 Q1010 NOSIG
WADD 191930Z 02004KT 9999 SCT017 25/23 Q1010 NOSIG</description><pubDate>Fri, 20 Jun 2025 19:21:18 </pubDate></item></channel></rss>