<rss version="2.0"><channel><title>Aviation Weather METAR Data for WADD</title><link>https://aviationweather.gov/api/data/metar?ids=WADD&amp;hours=24</link><description>Latest METAR data for WADD</description><item><title>2025-03-02 10:24:32Z</title><link>https://aviationweather.gov/api/data/metar?ids=WADD&amp;hours=24</link><description>WADD 021000Z 12010KT 9999 FEW017 30/27 Q1006 NOSIG
WADD 020930Z 14010KT 9999 FEW017 31/27 Q1005 NOSIG
WADD 020900Z 15012KT 9999 FEW017 31/28 Q1005 NOSIG
WADD 020830Z 12011KT 9999 FEW017 31/27 Q1005 NOSIG
WADD 020800Z 12011KT 9999 FEW017 32/26 Q1005 NOSIG
WADD 020730Z 11009KT 9999 FEW017 32/26 Q1005 NOSIG
WADD 020700Z 12009KT 070V150 9999 FEW017 32/27 Q1005 NOSIG
WADD 020630Z 12008KT 070V170 9999 FEW017 32/26 Q1006 NOSIG
WADD 020600Z 13009KT 9999 FEW017 32/27 Q1006 NOSIG
WADD 020530Z 12008KT 9999 FEW017 32/27 Q1007 NOSIG
WADD 020500Z 11008KT 9999 FEW017 32/27 Q1007 NOSIG
WADD 020430Z 10009KT 9999 FEW017 32/27 Q1008 NOSIG
WADD 020400Z 11009KT 9999 FEW017 31/27 Q1009 NOSIG
WADD 020330Z 11007KT 9999 SCT017 31/28 Q1009 NOSIG
WADD 020300Z 12007KT 9999 SCT017 30/28 Q1009 NOSIG
WADD 020230Z 10007KT 070V140 9999 SCT016 30/28 Q1010 NOSIG
WADD 020200Z 13007KT 9999 SCT016 30/28 Q1010 NOSIG
WADD 020130Z 11007KT 080V140 9999 SCT016 30/28 Q1010 NOSIG
WADD 020100Z 10005KT 060V130 9999 SCT016 30/28 Q1010 NOSIG
WADD 020030Z 13002KT 9999 SCT016 28/27 Q1010 NOSIG
WADD 020000Z 06003KT 9999 SCT016 28/28 Q1009 NOSIG
WADD 012330Z 02003KT 9999 SCT016 27/27 Q1009 NOSIG
WADD 012300Z 05003KT 9999 SCT016 27/27 Q1009 NOSIG
WADD 012230Z VRB01KT 9999 SCT016 27/27 Q1009 NOSIG
WADD 012200Z 12004KT 9999 FEW016CB BKN016 27/27 Q1008 NOSIG
WADD 012130Z 01005KT 9999 FEW016CB FEW016 26/26 Q1008 NOSIG
WADD 012100Z 02005KT 9999 FEW016 26/26 Q1008 NOSIG
WADD 012030Z 04003KT 9999 FEW016 26/26 Q1008 NOSIG
WADD 012000Z 12003KT 9999 SCT016 27/27 Q1008 RERA NOSIG
WADD 011930Z VRB02KT 8000 -RA FEW016CB BKN016 27/27 Q1008 NOSIG
WADD 011900Z 19010KT 5000 -RA FEW016CB BKN016 26/26 Q1008 TEMPO TL2000 5000 -RA RMK CB IN APCH
WADD 011830Z 03002KT 9999 SCT017 27/27 Q1008 NOSIG
WADD 011800Z 09004KT 9999 FEW017 27/27 Q1008 NOSIG
WADD 011730Z 09004KT 9999 FEW017 27/27 Q1008 NOSIG
WADD 011700Z 09004KT 9999 FEW017 28/27 Q1008 NOSIG
WADD 011630Z 06005KT 9999 FEW017 28/27 Q1009 NOSIG
WADD 011600Z 06006KT 9999 FEW016 28/27 Q1009 NOSIG
WADD 011530Z 09005KT 9999 FEW016 28/27 Q1009 NOSIG
WADD 011500Z 09004KT 9999 SCT016 28/27 Q1009 NOSIG
WADD 011430Z 13008KT 9999 SCT016 29/28 Q1009 NOSIG
WADD 011400Z 10005KT 9999 SCT016 29/28 Q1009 NOSIG
WADD 011330Z 10005KT 9999 FEW017 28/27 Q1008 NOSIG
WADD 011300Z 11007KT 9999 FEW017 29/28 Q1008 NOSIG
WADD 011230Z 12007KT 9999 FEW017 29/28 Q1008 NOSIG
WADD 011200Z 12008KT 9999 FEW017 29/28 Q1007 NOSIG
WADD 011130Z 13007KT 9999 FEW017 29/28 Q1007 NOSIG
WADD 011100Z 13008KT 9999 FEW017 30/28 Q1007 NOSIG
WADD 011030Z 14010KT 9999 FEW017 30/28 Q1007 NOSIG</description><pubDate>Sun, 02 Mar 2025 10:24:32 </pubDate></item></channel></rss>