<rss version="2.0"><channel><title>Aviation Weather METAR Data for WADD</title><link>https://aviationweather.gov/api/data/metar?ids=WADD&amp;hours=24</link><description>Latest METAR data for WADD</description><item><title>2025-04-10 20:42:55Z</title><link>https://aviationweather.gov/api/data/metar?ids=WADD&amp;hours=24</link><description>WADD 102030Z 14007KT 090V200 5000 -TSRA FEW014CB BKN015 25/25 Q1007 TEMPO TL2100 5000 -TSRA RMK CB IN APCH AND CLIMB-OUT
WADD 102000Z 11008KT 070V140 2000 +TSRA FEW012CB BKN013 25/25 Q1008 TEMPO TL2100 2000 +TSRA RMK CB IN APCH AND CLIMB-OUT
WADD 101930Z 13007KT 9999 -TSRA FEW014CB BKN015 26/26 Q1008 TEMPO TL2000 5000 -TSRA RMK CB IN APCH AND CLIMB-OUT
WADD 101900Z 08005KT 6000 FEW014CB BKN015 25/25 Q1008 RERA NOSIG RMK CB IN APCH AND CLIMB-OUT
WADD 101830Z 14008KT 5000 -TSRA FEW014CB BKN015 26/26 Q1008 TEMPO TL1900 5000 -TSRA RMK CB IN APCH AND CLIMB-OUT
WADD 101800Z VRB02KT 5000 -TSRA FEW013CB BKN014 26/26 Q1008 TEMPO TL1900 5000 -TSRA RMK CB IN APCH AND CLIMB-OUT
WADD 101730Z 15008KT 110V170 5000 -TSRA FEW014CB BKN015 26/26 Q1008 TEMPO TL1800 5000 -TSRA RMK CB IN APCH AND CLIMB OUT
WADD 101700Z VRB07KT 3000 TSRA FEW014CB BKN015 27/27 Q1008 TEMPO TL 1300 3000 TSRA RMK CB IN APCH AND CLIMB OUT
WADD 101630Z 01005KT 340V060 8000 TS FEW015CB SCT016 27/27 Q1009 CB CLIMB OUT NOSIG
WADD 101600Z 02005KT 330V050 9999 FEW015CB SCT016 27/27 Q1009 NOSIG
WADD 101530Z 02004KT 9999 SCT016 27/27 Q1009 NOSIG
WADD 101500Z 06006KT 9999 SCT016 28/27 Q1009 NOSIG
WADD 101430Z 09004KT 9999 SCT016 28/27 Q1010 NOSIG
WADD 101400Z 08004KT 9999 SCT016 28/27 Q1010 NOSIG
WADD 101330Z 08004KT 9999 SCT016 28/27 Q1010 NOSIG
WADD 101300Z VRB02KT 9999 SCT016 28/27 Q1009 NOSIG
WADD 101230Z 35005KT 310V040 9999 SCT016 28/27 Q1009 NOSIG
WADD 101200Z 03003KT 9999 SCT016 28/27 Q1009 NOSIG
WADD 101130Z 08002KT 9999 BKN016 28/27 Q1008 NOSIG
WADD 101100Z 11002KT 9999 FEW015CB BKN016 28/27 Q1008 NOSIG
WADD 101030Z 01008KT 9999 FEW015CB BKN016 27/27 Q1008 RERA NOSIG
WADD 101000Z 36006KT 320V040 9999 FEW015CB BKN016 28/27 Q1007 NOSIG
WADD 100930Z 33007KT 300V040 9999 FEW015CB BKN016 28/27 Q1007 NOSIG
WADD 100900Z 01005KT 350V050 9999 FEW015CB BKN016 28/27 Q1007 NOSIG
WADD 100830Z 34009KT 320V040 9999 FEW015CB BKN016 28/27 Q1007 NOSIG
WADD 100800Z 15007KT 9999 FEW015CB SCT016 31/28 Q1006 NOSIG
WADD 100730Z 14010KT 9999 FEW015CB SCT016 31/28 Q1006 NOSIG
WADD 100700Z 12009KT 090V170 9999 FEW016 32/27 Q1006 NOSIG
WADD 100630Z 10010KT 9999 SCT016 32/27 Q1006 NOSIG
WADD 100600Z 9999 SCT016 31/27 Q1007 NOSIG
WADD 100530Z 14008KT 9999 FEW017 32/28 Q1007 NOSIG
WADD 100500Z 11011KT 9999 FEW017 32/28 Q1008 NOSIG
WADD 100430Z 12007KT 9999 FEW017 32/27 Q1008 NOSIG
WADD 100400Z 11008KT 9999 FEW017 31/26 Q1009 NOSIG
WADD 100330Z 10007KT 9999 SCT016 31/27 Q1009 NOSIG
WADD 100300Z 10007KT 9999 SCT016 31/27 Q1010 NOSIG
WADD 100230Z 13006KT 9999 SCT016 30/28 Q1010 NOSIG
WADD 100200Z 19004KT 150V220 9999 SCT016 29/28 Q1010 NOSIG
WADD 100130Z 32004KT 290V020 9999 BKN016 29/28 Q1010 NOSIG
WADD 100100Z 33004KT 9999 BKN016 28/27 Q1010 RETS NOSIG
WADD 100030Z 34004KT 310V030 9999 TS FEW015CB BKN015 27/27 Q1010 TEMPO TL0130 TS
WADD 100000Z VRB02KT 9000 TS FEW014CB BKN015 27/27 Q1010 TEMPO TL0100 TS RMK CB IN APCH
WADD 092330Z VRB02KT 8000 -TSRA FEW014CB BKN015 27/27 Q1010 TEMPO TL0100 -TSRA RMK CB IN APCH
WADD 092300Z 12003KT 9000 -TSRA FEW015CB BKN015 27/27 Q1010 TEMPO TL2400 9000 -TSRA RMK CB IN CLIMB-OUT
WADD 092230Z 07003KT 9999 BKN015 26/26 Q1009 RERA NOSIG
WADD 092200Z 09002KT 9000 -RA BKN015 27/27 Q1009 TEMPO TL2300 9000 -RA
WADD 092130Z 04003KT 9999 SCT016 27/27 Q1009 NOSIG
WADD 092100Z 02003KT 9999 SCT016 27/27 Q1008 NOSIG</description><pubDate>Thu, 10 Apr 2025 20:42:55 </pubDate></item></channel></rss>