<rss version="2.0"><channel><title>Aviation Weather METAR Data for WADD</title><link>https://aviationweather.gov/api/data/metar?ids=WADD&amp;hours=24</link><description>Latest METAR data for WADD</description><item><title>2025-10-11 22:40:35Z</title><link>https://aviationweather.gov/api/data/metar?ids=WADD&amp;hours=24</link><description>METAR WADD 112200Z 11002KT 9999 SCT016 26/26 Q1011 RETS NOSIG
METAR WADD 112130Z 13005KT 9999 TS FEW015CB SCT016 26/26 Q1011 TEMPO TL2230 TS
METAR WADD 112100Z 08003KT 9999 TS FEW015CB SCT016 25/25 Q1011 TEMPO TL2130 TS
METAR WADD 112030Z 12003KT 9999 TS FEW015CB SCT016 26/25 Q1011 TEMPO TL2130 TS
METAR WADD 112000Z 15006KT 9999 TS FEW015CB SCT016 26/25 Q1011 TEMPO TL2100 TS
METAR WADD 111930Z 18004KT 9999 TS FEW015CB SCT016 27/26 Q1011 TEMPO TL2030 TS
METAR WADD 111900Z VRB02KT 9999 TS FEW015CB SCT016 26/26 Q1010 TEMPO TL2000 TS
METAR WADD 111830Z 10005KT 9999 FEW015CB SCT016 26/26 Q1011 NOSIG
METAR WADD 111800Z 07005KT 9999 FEW015CB SCT016 26/26 Q1011 NOSIG
METAR WADD 111730Z 06006KT 9999 FEW015CB SCT016 26/26 Q1011 NOSIG
METAR WADD 111700Z 06007KT 9999 FEW015CB SCT016 OVC022 26/26 Q1011 NOSIG
METAR WADD 111630Z 11006KT 9999 FEW015CB SCT016 27/27 Q1011 NOSIG
METAR WADD 111600Z 07003KT 9999 FEW015CB SCT016 27/26 Q1011 NOSIG
METAR WADD 111530Z 09003KT 9999 SCT016 26/26 Q1012 NOSIG
METAR WADD 111500Z 12005KT 090V160 9999 SCT016 27/25 Q1012 NOSIG
METAR WADD 111430Z 13009KT 9999 SCT016 26/25 Q1012 NOSIG
METAR WADD 111400Z 13009KT 9999 SCT016 26/25 Q1012 NOSIG
METAR WADD 111330Z 13011KT 9999 FEW015CB SCT016 26/26 Q1012 RETSRA NOSIG
METAR WADD 111300Z 13010KT 5000 -TSRA FEW014CB BKN015 27/26 Q1012 TEMPO TL1400 5000 -TSRA
METAR WADD 111230Z 11005KT 9999 TS FEW015CB SCT016 27/26 Q1012 TEMPO TL1330 TS
METAR WADD 111200Z 16005KT 9999 FEW015CB SCT016 27/26 Q1011 NOSIG
METAR WADD 111130Z 14004KT 9999 SCT016 27/26 Q1011 NOSIG
METAR WADD 111100Z 14006KT 9999 SCT015 27/26 Q1011 NOSIG
METAR WADD 111030Z 15012KT 9999 SCT015 27/26 Q1011 NOSIG
METAR WADD 111000Z 16011KT 9999 FEW014CB SCT015 28/26 Q1011 NOSIG
METAR WADD 110930Z 16011KT 9999 FEW015CB SCT016 28/26 Q1010 NOSIG
METAR WADD 110900Z 16011KT 9999 SCT016 28/25 Q1010 NOSIG
METAR WADD 110830Z 15013KT 9999 SCT016 28/26 Q1009 NOSIG
METAR WADD 110800Z 16013KT 9999 SCT016 28/25 Q1009 NOSIG
METAR WADD 110730Z 14010KT 9999 SCT016 28/25 Q1009 NOSIG
METAR WADD 110700Z 15012KT 9999 SCT016 28/26 Q1010 NOSIG
METAR WADD 110630Z 15014KT 9999 SCT016 29/26 Q1009 NOSIG
METAR WADD 110600Z 15016KT 9999 SCT016 29/26 Q1010 NOSIG
METAR WADD 110530Z 14010KT 9999 SCT017 31/25 Q1010 NOSIG
METAR WADD 110500Z 14010KT 9999 SCT017 30/25 Q1010 NOSIG
 WADD 110430Z 17009KT 9999 SCT017 30/25 Q1011 NOSIG
METAR WADD 110400Z 14008KT 9999 SCT017 31/25 Q1011 NOSIG
 WADD 110330Z 13009KT 9999 SCT016 30/25 Q1012 NOSIG
METAR WADD 110300Z 14007KT 9999 SCT016 30/25 Q1012 NOSIG
METAR WADD 110230Z 13009KT 9999 SCT016 30/25 Q1012 NOSIG
METAR WADD 110200Z 13008KT 9999 SCT016 29/25 Q1013 NOSIG
METAR WADD 110130Z 14007KT 9999 SCT016 29/25 Q1013 NOSIG
 WADD 110100Z 13005KT 090V160 9999 SCT016 29/25 Q1013 NOSIG
METAR WADD 110030Z 13008KT 9999 SCT016 29/25 Q1013 NOSIG
METAR WADD 110000Z 15005KT 9999 SCT016 28/25 Q1013 NOSIG
METAR WADD 102330Z 14003KT 9999 SCT016 28/25 Q1012 NOSIG
METAR WADD 102300Z 15004KT 9999 SCT016 27/25 Q1012 NOSIG</description><pubDate>Sat, 11 Oct 2025 22:40:35 </pubDate></item></channel></rss>