<rss version="2.0"><channel><title>Aviation Weather METAR Data for WADD</title><link>https://aviationweather.gov/api/data/metar?ids=WADD&amp;hours=24</link><description>Latest METAR data for WADD</description><item><title>2025-06-08 07:23:33Z</title><link>https://aviationweather.gov/api/data/metar?ids=WADD&amp;hours=24</link><description>WADD 080700Z 13019KT 9999 SCT016 29/25 Q1007 NOSIG
WADD 080630Z 14021KT 9999 FEW015CB BKN016 29/26 Q1007 NOSIG
WADD 080600Z 13018KT 9999 FEW015CB BKN016 29/26 Q1007 NOSIG
WADD 080530Z 15017KT 9999 FEW015CB BKN016 29/26 Q1008 NOSIG
WADD 080500Z 14018KT 9999 FEW015CB BKN016 28/26 Q1009 RERA NOSIG
WADD 080430Z 14015KT 9999 FEW015CB BKN016 30/26 Q1009 NOSIG
WADD 080400Z 15015KT 9999 FEW015CB BKN016 29/26 Q1010 NOSIG
WADD 080330Z 14016KT 9999 FEW015CB BKN016 29/26 Q1010 NOSIG
WADD 080300Z 13013KT 9999 SCT016 30/26 Q1011 NOSIG
WADD 080230Z 15015KT 9999 BKN016 30/26 Q1011 NOSIG
WADD 080200Z 14015KT 9999 SCT016 29/26 Q1011 NOSIG
WADD 080130Z 15016KT 9999 FEW015CB BKN016 29/26 Q1011 NOSIG
WADD 080100Z 14010KT 9999 FEW015CB SCT016 29/26 Q1011 NOSIG
WADD 080030Z 13007KT 9999 FEW015CB BKN016 28/26 Q1011 NOSIG
WADD 080000Z 13006KT 9999 FEW015CB BKN016 28/26 Q1011 NOSIG
WADD 072330Z 13006KT 9999 FEW015CB BKN016 28/26 Q1011 NOSIG
WADD 072300Z 13006KT 9999 SCT016 28/26 Q1011 NOSIG
WADD 072230Z 13008KT 9999 SCT016 28/26 Q1010 NOSIG
WADD 072200Z 13007KT 9999 SCT016 28/26 Q1010 NOSIG
WADD 072130Z 12005KT 9999 SCT016 28/25 Q1010 NOSIG
WADD 072100Z 12004KT 040V150 9999 SCT016 28/26 Q1010 NOSIG
WADD 072030Z 13006KT 9999 SCT017 28/26 Q1010 NOSIG
WADD 072000Z 14008KT 9999 SCT017 28/26 Q1010 NOSIG
WADD 071930Z 12007KT 9999 SCT017 28/26 Q1010 NOSIG
WADD 071900Z 12007KT 9999 SCT017 28/25 Q1010 NOSIG
WADD 071830Z 12009KT 9999 SCT017 28/26 Q1010 NOSIG
WADD 071800Z 13008KT 9999 SCT017 28/26 Q1010 NOSIG
WADD 071730Z 13009KT 9999 SCT017 28/26 Q1011 NOSIG
WADD 071700Z 11007KT 9999 SCT017 28/26 Q1011 NOSIG
WADD 071630Z 13006KT 9999 SCT017 27/26 Q1011 NOSIG
WADD 071600Z 12008KT 9999 SCT016 27/26 Q1011 NOSIG
WADD 071530Z 13009KT 9999 SCT016 27/26 Q1011 NOSIG
WADD 071500Z 12012KT 9999 SCT016 27/26 Q1012 NOSIG
WADD 071430Z 12010KT 9999 FEW015CB BKN016 27/26 Q1012 NOSIG
WADD 071400Z 13007KT 9999 FEW014CB BKN015 27/26 Q1012 NOSIG
WADD 071330Z 16013KT 8000 FEW014CB BKN015 26/26 Q1012 RERA NOSIG
WADD 071300Z 12006KT 9999 FEW015CB BKN016 27/26 Q1012 NOSIG
WADD 071230Z 13007KT 9999 SCT016 27/26 Q1012 NOSIG
WADD 071200Z 14010KT 9999 SCT016 27/26 Q1011 NOSIG
WADD 071130Z 13012KT 9999 SCT016 28/26 Q1011 NOSIG
WADD 071100Z 13008KT 9999 SCT016 28/25 Q1011 NOSIG
WADD 071030Z 12010KT 9999 SCT016 28/25 Q1011 NOSIG
WADD 071000Z 12012KT 9999 SCT016 28/25 Q1010 NOSIG
WADD 070930Z 10008KT 9999 SCT016 28/26 Q1010 NOSIG
WADD 070900Z 11008KT 9999 SCT016 28/26 Q1010 NOSIG
WADD 070830Z 11009KT 9999 SCT016 29/26 Q1010 NOSIG
WADD 070800Z 11009KT 9999 SCT016 29/26 Q1010 NOSIG
WADD 070730Z 10010KT 9999 SCT016 29/25 Q1010 NOSIG</description><pubDate>Sun, 08 Jun 2025 07:23:33 </pubDate></item></channel></rss>