<rss version="2.0"><channel><title>Aviation Weather METAR Data for WADD</title><link>https://aviationweather.gov/api/data/metar?ids=WADD&amp;hours=24</link><description>Latest METAR data for WADD</description><item><title>2025-09-13 20:23:36Z</title><link>https://aviationweather.gov/api/data/metar?ids=WADD&amp;hours=24</link><description>METAR WADD 132000Z 13007KT 9999 SCT016 26/25 Q1011 NOSIG
METAR WADD 131930Z 13007KT 9999 SCT016 26/25 Q1011 NOSIG
METAR WADD 131900Z 13008KT 9999 SCT016 26/25 Q1011 NOSIG
METAR WADD 131830Z 14009KT 9999 SCT016 26/25 Q1011 NOSIG
METAR WADD 131800Z 13010KT 9999 SCT016 27/26 Q1012 NOSIG
METAR WADD 131730Z 15006KT 9999 SCT016 26/26 Q1012 NOSIG
METAR WADD 131700Z 16004KT 9999 SCT016 26/26 Q1012 NOSIG
METAR WADD 131630Z 14005KT 9999 SCT016 26/26 Q1012 NOSIG
METAR WADD 131600Z 14006KT 9999 SCT016 26/26 Q1012 NOSIG
METAR WADD 131530Z 14007KT 9999 SCT016 26/26 Q1012 NOSIG
METAR WADD 131500Z 13008KT 9999 BKN015 27/26 Q1013 NOSIG
 WADD 131430Z 13008KT 9999 BKN015 27/26 Q1013 NOSIG
METAR WADD 131400Z 14011KT 9999 BKN015 27/26 Q1013 NOSIG
METAR WADD 131330Z 15007KT 9999 BKN015 27/25 Q1013 NOSIG
METAR WADD 131300Z 15008KT 9999 BKN015 27/25 Q1012 NOSIG
 WADD 131230Z 16007KT 9999 BKN015 27/25 Q1012 NOSIG
METAR WADD 131200Z 15009KT 9999 BKN015 27/26 Q1012 NOSIG
METAR WADD 131130Z 16010KT 9999 SCT016 27/25 Q1011 NOSIG
METAR WADD 131100Z 15008KT 9999 FEW017 27/25 Q1011 NOSIG
 WADD 131030Z 15007KT 9999 SCT016 27/25 Q1011 NOSIG
METAR WADD 131000Z 13009KT 9999 SCT016 28/25 Q1011 NOSIG
METAR WADD 130930Z 12009KT 9999 FEW017 28/25 Q1010 NOSIG
METAR WADD 130900Z 12010KT 9999 FEW017 28/25 Q1010 NOSIG
METAR WADD 130830Z 14010KT 9999 FEW016 29/25 Q1010 NOSIG
METAR WADD 130800Z 15012KT 9999 FEW017 29/25 Q1009 NOSIG
METAR WADD 130730Z 15013KT 9999 FEW017 29/25 Q1009 NOSIG
METAR WADD 130700Z 16013KT 9999 FEW017 29/25 Q1010 NOSIG
METAR WADD 130630Z 15011KT 9999 FEW017 30/25 Q1010 NOSIG
METAR WADD 130600Z 14011KT 9999 FEW017 30/25 Q1010 NOSIG
METAR WADD 130530Z 10011KT 9999 FEW017 31/24 Q1010 NOSIG
METAR WADD 130500Z 09010KT 9999 FEW017 31/24 Q1011 NOSIG
METAR WADD 130430Z 12008KT 080V140 9999 FEW017 31/24 Q1011 NOSIG
METAR WADD 130400Z 10008KT 9999 FEW017 31/24 Q1012 NOSIG
METAR WADD 130330Z 14008KT 9999 FEW017 30/25 Q1012 NOSIG
METAR WADD 130300Z 12008KT 9999 FEW017 30/25 Q1013 NOSIG
METAR WADD 130230Z 13007KT 090V150 9999 FEW017 29/24 Q1013 NOSIG
METAR WADD 130200Z 12008KT 080V140 9999 FEW017 29/24 Q1013 NOSIG
METAR WADD 130130Z 11007KT 9999 FEW017 29/24 Q1013 NOSIG
METAR WADD 130100Z VRB02KT 9999 FEW017 27/24 Q1013 NOSIG
METAR WADD 130030Z 22003KT 9999 FEW017 27/25 Q1013 NOSIG
METAR WADD 130000Z VRB02KT 9999 FEW017 27/25 Q1013 NOSIG
METAR WADD 122330Z 16002KT 9999 FEW017 26/25 Q1013 NOSIG
METAR WADD 122300Z 15003KT 9999 FEW017 25/25 Q1012 NOSIG
METAR WADD 122230Z 14001KT 9999 FEW017 25/25 Q1012 NOSIG
METAR WADD 122200Z 17003KT 9999 FEW017 25/25 Q1012 NOSIG
METAR WADD 122130Z VRB02KT 9999 FEW017 25/25 Q1012 NOSIG
METAR WADD 122100Z 01001KT 9999 FEW017 25/25 Q1012 NOSIG
METAR WADD 122030Z 01002KT 9999 FEW017 25/24 Q1011 NOSIG</description><pubDate>Sat, 13 Sep 2025 20:23:36 </pubDate></item></channel></rss>