<rss version="2.0"><channel><title>Aviation Weather METAR Data for WADD</title><link>https://aviationweather.gov/api/data/metar?ids=WADD&amp;hours=24</link><description>Latest METAR data for WADD</description><item><title>2025-12-26 10:31:36Z</title><link>https://aviationweather.gov/api/data/metar?ids=WADD&amp;hours=24</link><description>METAR WADD 261000Z 26013KT 9999 BKN015 29/25 Q1006 NOSIG
METAR WADD 260930Z 26012KT 9999 BKN015 29/26 Q1006 NOSIG
METAR WADD 260900Z 26013KT 9999 FEW015CB SCT016 30/26 Q1005 NOSIG
METAR WADD 260830Z 27014KT 9999 FEW015CB SCT016 30/26 Q1005 NOSIG
METAR WADD 260800Z 26012KT 9999 FEW015CB SCT016 30/26 Q1005 NOSIG
METAR WADD 260730Z 26012KT 9999 FEW015CB SCT016 30/26 Q1006 NOSIG
METAR WADD 260700Z 27014KT 9999 FEW015CB SCT016 29/24 Q1006 NOSIG
METAR WADD 260630Z 26014KT 9999 FEW015CB SCT016 30/27 Q1006 NOSIG
METAR WADD 260600Z 26014KT 9999 FEW015CB SCT016 30/26 Q1006 NOSIG
METAR WADD 260530Z 29011KT 250V320 9999 FEW015CB SCT016 29/27 Q1006 N OSIG
METAR WADD 260500Z 27011KT 9999 FEW015CB SCT016 28/27 Q1006 RERA NOSI G
METAR WADD 260430Z 26014KT 5000 -RA FEW013CB BKN014 29/26 Q1007 TEMPO FM0445 3000 RA RMK CB IN APCH AND CLIMB-OUT
SPECI WADD 260415Z 24010KT 6000 VCSH FEW014CB BKN015 27/25 Q1007 RERA TEMPO FM0445 3000 RA RMK CB IN APCH AND CLIMB-OUT
METAR WADD 260400Z 24012G21KT 210V270 2000 RA FEW015CB BKN016 26/25 Q1007 TEMPO TL0430 2000 RA RMK CB IN APCH AND CLIMB-OUT
METAR WADD 260330Z 29013KT 5000 -RA FEW015CB SCT016 31/26 Q1007 TEMPO TL0430 5000 RA RMK CB IN APCH
METAR WADD 260300Z 29011KT 9999 FEW017 30/26 Q1007 NOSIG
METAR WADD 260230Z 30012KT 9999 FEW016 29/26 Q1007 NOSIG
METAR WADD 260200Z 30013KT 8000 FEW015CB FEW016 30/25 Q1007 NOSIG RMK CB IN APCH
SPECI WADD 260141Z 29017G30KT 6000 VCSH FEW015CB FEW016 28/25 Q1008 NOSIG RMK CB IN APCH AND CLIMB-OUT
SPECI WADD 260135Z 29018G30KT 6000 VCSH FEW015CB SCT016 30/28 Q1008 NOSIG RMK CB IN CLIMB OUT
METAR WADD 260130Z 29013KT 6000 VCSH FEW015CB FEW016 30/28 Q1008 NOSIG RMK CB IN CLIMB OUT
METAR WADD 260100Z 29013KT 8000 FEW015CB FEW016 31/26 Q1008 NOSIG RMK CB IN CLIMB-OUT
METAR WADD 260030Z 29013KT 9999 FEW017 30/25 Q1007 NOSIG
METAR WADD 260000Z 29012KT 9999 SCT017 29/25 Q1007 NOSIG
METAR WADD 252330Z 32009KT 9999 SCT017 29/25 Q1007 NOSIG
METAR WADD 252300Z 29015KT 9999 BKN017 29/25 Q1007 NOSIG
METAR WADD 252230Z 28016KT 9999 SCT017 29/25 Q1007 NOSIG
METAR WADD 252200Z 28016KT 9999 SCT017 29/25 Q1007 NOSIG
METAR WADD 252130Z 28015KT 9999 SCT017 29/25 Q1006 NOSIG
METAR WADD 252100Z 28013KT 9999 SCT017 28/24 Q1006 NOSIG
METAR WADD 252030Z 29012KT 9999 FEW017 28/24 Q1006 NOSIG
METAR WADD 252000Z 29012KT 9999 FEW017 28/24 Q1006 NOSIG
METAR WADD 251930Z 28015KT 9999 FEW017 28/25 Q1006 NOSIG
METAR WADD 251900Z 28015KT 9999 FEW017 28/25 Q1006 NOSIG
METAR WADD 251830Z 29012KT 9999 FEW017 28/25 Q1006 NOSIG
METAR WADD 251800Z 28012KT 9999 FEW017 28/25 Q1006 NOSIG
METAR WADD 251730Z 29013KT 9999 FEW017 29/25 Q1006 NOSIG
METAR WADD 251700Z 28013KT 9999 FEW017 29/25 Q1006 NOSIG
METAR WADD 251630Z 28012KT 9999 FEW017 28/25 Q1007 NOSIG
METAR WADD 251600Z 28012KT 9999 FEW017 29/25 Q1007 NOSIG
METAR WADD 251530Z 28011KT 9999 FEW017 29/25 Q1008 NOSIG
METAR WADD 251500Z 28013KT 9999 FEW017 29/25 Q1008 NOSIG
METAR WADD 251430Z 28012KT 9999 FEW017 29/25 Q1008 NOSIG
METAR WADD 251400Z 27013KT 9999 FEW017 29/25 Q1008 NOSIG
METAR WADD 251330Z 28012KT 9999 FEW017 29/25 Q1008 NOSIG
METAR WADD 251300Z 27011KT 9999 FEW017 29/25 Q1007 NOSIG
METAR WADD 251230Z 27013KT 9999 FEW017 29/25 Q1007 NOSIG
METAR WADD 251200Z 27013KT 9999 FEW017 29/25 Q1007 NOSIG
METAR WADD 251130Z 27013KT 9999 FEW017 29/25 Q1006 NOSIG
METAR WADD 251100Z 27010KT 9999 FEW017 29/25 Q1006 NOSIG</description><pubDate>Fri, 26 Dec 2025 10:31:36 </pubDate></item></channel></rss>