<rss version="2.0"><channel><title>Aviation Weather METAR Data for WADD</title><link>https://aviationweather.gov/api/data/metar?ids=WADD</link><description>Latest METAR data for WADD</description><item><title>2024-12-30 11:39:23Z</title><link>https://aviationweather.gov/api/data/metar?ids=WADD</link><description>WADD 301130Z 05004KT 010V080 9999 SCT016 28/25 Q1008 NOSIG</description><pubDate>Mon, 30 Dec 2024 11:39:23 </pubDate></item></channel></rss>