<rss version="2.0"><channel><title>Aviation Weather METAR Data for WADD</title><link>https://aviationweather.gov/api/data/metar?ids=WADD&amp;hours=24</link><description>Latest METAR data for WADD</description><item><title>2026-02-06 07:06:31Z</title><link>https://aviationweather.gov/api/data/metar?ids=WADD&amp;hours=24</link><description>METAR WADD 060700Z 25014KT 9999 FEW017 31/25 Q1007 NOSIG
METAR WADD 060630Z 25011KT 9999 FEW017 31/26 Q1007 NOSIG
METAR WADD 060600Z 26010KT 9999 FEW017 30/25 Q1007 NOSIG
METAR WADD 060530Z 26009KT 9999 FEW016 30/25 Q1008 NOSIG
METAR WADD 060500Z 27012KT 9999 FEW016 31/25 Q1008 NOSIG
METAR WADD 060430Z 27013KT 9999 FEW016 31/25 Q1008 NOSIG
METAR WADD 060400Z 28013KT 9999 FEW016 31/25 Q1009 NOSIG
METAR WADD 060330Z 30011KT 9999 FEW016 31/25 Q1009 NOSIG
METAR WADD 060300Z 29012KT 9999 FEW016 30/25 Q1009 NOSIG
METAR WADD 060230Z 30009KT 260V330 9999 FEW016 30/25 Q1010 NOSIG
METAR WADD 060200Z 31011KT 9999 FEW016 29/26 Q1010 NOSIG
METAR WADD 060130Z 29013KT 9999 SCT016 29/24 Q1010 NOSIG
METAR WADD 060100Z 31009KT 9999 SCT016 28/25 Q1010 NOSIG
METAR WADD 060030Z 27011KT 9999 SCT016 28/25 Q1010 NOSIG
METAR WADD 060000Z 28009KT 9999 SCT016 28/24 Q1010 NOSIG
METAR WADD 052330Z 29008KT 9999 SCT016 26/24 Q1010 RETS NOSIG
METAR WADD 052300Z 29010KT 9999 TS FEW014CB BKN015 26/24 Q1009 RERA TEMPO TL2400 TS
METAR WADD 052230Z 29011KT 6000 -TSRA FEW014CB BKN015 26/24 Q1009 TEMPO TL2300 6000 -TSRA
METAR WADD 052200Z 29012KT 4000 TSRA FEW014CB BKN014 25/24 Q1010 TEMPO TL2300 5000 TSRA RMK CB IN APCH AND CLIMB-OUT
METAR WADD 052130Z 30011KT 4000 TSRA FEW014CB BKN014 25/24 Q1010 TEMPO TL2200 5000 TSRA RMK CB IN APCH AND CLIMB-OUT
METAR WADD 052100Z 30012KT 4000 TSRA FEW014CB BKN014 25/23 Q1009 TEMPO TL2200 5000 TSRA RMK CB IN APCH AND CLIMB-OUT
METAR WADD 052030Z 29014KT 4000 TSRA FEW014CB BKN014 24/24 Q1010 TEMPO TL2100 5000 TSRA RMK CB IN APCH AND CLIMB-OUT
METAR WADD 052000Z 29024KT 4000 TSRA FEW014CB BKN014 25/24 Q1010 TEMPO TL2100 5000 TSRA RMK CB IN APCH AND CLIMB-OUT
METAR WADD 051930Z 30010KT 7000 -TSRA FEW014CB BKN014 26/25 Q1009 TEMPO TL2100 7000 -TSRA RMK CB IN APCH AND CLIMB-OUT
METAR WADD 051900Z 30012KT 7000 -TSRA FEW014CB BKN014 25/24 Q1009 TEMPO TL2100 7000 -TSRA RMK CB IN APCH AND CLIMB-OUT
METAR WADD 051830Z VRB03G18KT 4000 +RA FEW014CB BKN014 26/24 Q1009 TEMPO TL2100 5000 RA
METAR WADD 051800Z 29004KT 9999 FEW015CB SCT015 26/24 Q1009 RERA NOSI G
SPECI WADD 051736Z 25010KT 230V300 4000 RA FEW014CB BKN014 27/25 Q1009
METAR WADD 051730Z 29010KT 8000 -RA FEW015CB SCT015 26/25 Q1009 TEMPO TL1800 8000 -RA
METAR WADD 051700Z 30010KT 8000 -RA FEW015CB SCT015 27/25 Q1009 TEMPO TL1800 8000 -RA
SPECI WADD 051652Z 29010KT 8000 -RA SCT016 27/25 Q1009
METAR WADD 051630Z 31008KT 9999 SCT016 27/25 Q1009 NOSIG
METAR WADD 051600Z 28008KT 9999 SCT016 27/25 Q1010 NOSIG
METAR WADD 051530Z 27011KT 9999 SCT016 28/25 Q1010 NOSIG
METAR WADD 051500Z 27010KT 9999 SCT016 28/25 Q1010 RERA NOSIG
METAR WADD 051430Z 31008KT 9999 FEW015CB SCT015 27/25 Q1011 NOSIG
METAR WADD 051400Z 31007KT 9999 FEW015CB SCT015 26/24 Q1010 NOSIG
METAR WADD 051330Z 33008KT 9999 FEW015CB SCT015 26/24 Q1010 NOSIG
METAR WADD 051300Z 25007KT 9999 FEW015CB SCT015 28/25 Q1010 NOSIG
METAR WADD 051200Z 25008KT 220V280 9999 FEW015CB SCT016 28/25 Q1010 N OSIG
METAR WADD 051130Z 25007KT 9999 FEW015CB SCT016 28/25 Q1009 NOSIG
METAR WADD 051100Z 24006KT 9999 SCT016 28/25 Q1009 NOSIG
METAR WADD 051030Z 24007KT 210V280 9999 FEW015CB SCT016 28/25 Q1009 N OSIG
METAR WADD 051000Z 23008KT 190V260 9999 SCT016 29/25 Q1008 NOSIG
METAR WADD 050930Z 24010KT 9999 SCT016 29/25 Q1008 NOSIG
METAR WADD 050900Z 23009KT 190V260 9999 SCT016 30/25 Q1008 NOSIG
METAR WADD 050830Z 24010KT 200V260 9999 SCT016 30/25 Q1008 NOSIG
METAR WADD 050800Z 24009KT 210V270 9999 FEW016 30/25 Q1008 NOSIG
METAR WADD 050730Z 24010KT 9999 FEW015CB FEW016 31/25 Q1008 NOSIG</description><pubDate>Fri, 06 Feb 2026 07:06:31 </pubDate></item></channel></rss>