<rss version="2.0"><channel><title>Aviation Weather METAR Data for WADD</title><link>https://aviationweather.gov/api/data/metar?ids=WADD&amp;hours=24</link><description>Latest METAR data for WADD</description><item><title>2025-02-17 05:42:14Z</title><link>https://aviationweather.gov/api/data/metar?ids=WADD&amp;hours=24</link><description>WADD 170530Z 11008KT 9999 FEW016 31/25 Q1009 NOSIG
WADD 170500Z 12007KT 090V180 9999 FEW016 30/25 Q1009 NOSIG
WADD 170430Z 13004KT 060V180 9999 FEW017 30/25 Q1010 NOSIG
WADD 170400Z 26004KT 230V310 9999 FEW016 29/25 Q1010 NOSIG
WADD 170330Z 27007KT 9999 FEW017 29/25 Q1011 NOSIG
WADD 170300Z VRB05KT 9999 FEW017 30/25 Q1011 NOSIG
WADD 170230Z 09005KT 060V130 9999 FEW017 29/25 Q1011 NOSIG
WADD 170200Z VRB02KT 9999 FEW017 29/25 Q1012 NOSIG
WADD 170130Z 11003KT 9999 FEW017 28/25 Q1012 NOSIG
WADD 170100Z 10003KT 9999 SCT016 26/25 Q1011 RERA NOSIG
WADD 170030Z 24005KT 190V280 7000 -RA FEW015CB SCT015 26/24 Q1012 TEMPO TL0130 7000 -RA
WADD 170000Z 22005G14KT 110V260 8000 TS FEW014CB BKN014 26/24 Q1012 TEMPO TL0100 TS RMK CB IN APCH
WADD 162330Z 14003KT 9999 TS FEW015CB SCT016 27/26 Q1011 TEMPO TL0030 TS
WADD 162300Z 36004KT 350V080 9999 FEW015CB SCT016 27/26 Q1011 NOSIG
WADD 162230Z 01004KT 9999 BKN016 26/26 Q1010 NOSIG
WADD 162200Z 03004KT 9999 SCT016 26/26 Q1010 NOSIG
WADD 162130Z 01005KT 9999 SCT016 26/26 Q1010 NOSIG
WADD 162100Z 35004KT 9999 SCT016 26/26 Q1009 NOSIG
WADD 162030Z 35004KT 9999 SCT016 26/26 Q1009 NOSIG
WADD 162000Z 01004KT 9999 SCT016 27/26 Q1009 NOSIG
WADD 161930Z VRB02KT 9999 BKN016 27/26 Q1009 NOSIG
WADD 161900Z VRB02KT 9999 FEW015CB BKN016 27/26 Q1009 NOSIG
WADD 161830Z 05002KT 9999 FEW015CB BKN016 27/26 Q1009 NOSIG
WADD 161800Z VRB02KT 9999 FEW015CB BKN016 27/26 Q1009 NOSIG
WADD 161730Z 07006KT 9999 FEW015CB BKN016 27/27 Q1009 NOSIG
WADD 161700Z 05007KT 9999 FEW015CB BKN016 28/27 Q1009 NOSIG
WADD 161630Z 05006KT 9999 FEW015CB BKN016 28/27 Q1010 NOSIG
WADD 161600Z 03005KT 9999 FEW015CB BKN016 28/26 Q1011 NOSIG
WADD 161530Z 06005KT 9999 FEW015CB BKN016 28/27 Q1011 NOSIG
WADD 161500Z 04004KT 9999 FEW015CB BKN016 28/27 Q1011 NOSIG
WADD 161430Z 05005KT 9999 FEW015CB BKN016 28/27 Q1011 NOSIG
WADD 161400Z 09005KT 9999 FEW015CB BKN016 28/27 Q1011 NOSIG
WADD 161330Z 09004KT 9999 SCT016 28/26 Q1011 NOSIG
WADD 161300Z 09004KT 9999 SCT016 28/26 Q1010 NOSIG
WADD 161230Z 12004KT 9999 SCT016 28/27 Q1010 NOSIG
WADD 161200Z 11004KT 9999 BKN016 28/27 Q1010 NOSIG
WADD 161130Z 10004KT 9999 BKN016 28/27 Q1009 NOSIG
WADD 161100Z 09006KT 9999 BKN016 28/27 Q1009 NOSIG
WADD 161030Z 09007KT 9999 BKN016 28/27 Q1008 RERA NOSIG
WADD 161000Z 09009KT 8000 -RA BKN016 29/27 Q1008 TEMPO TL1100 -RA
WADD 160930Z 08008KT 9999 BKN016 29/26 Q1007 NOSIG
WADD 160900Z 26007KT 9999 BKN016 30/26 Q1007 NOSIG
WADD 160830Z 27007KT 9999 SCT016 31/26 Q1007 NOSIG
WADD 160800Z 27008KT 9999 FEW015CB SCT016 31/27 Q1007 NOSIG
WADD 160730Z 25008KT 9999 FEW015CB SCT016 31/27 Q1007 NOSIG
WADD 160700Z 25009KT 9999 SCT016 FEW015CB 31/26 Q1007 NOSIG
WADD 160630Z 25008KT 9999 SCT17 31/26 Q1008 NOSIG
WADD 160600Z 25010KT 9999 SCT017 31/27 Q1008 NOSIG</description><pubDate>Mon, 17 Feb 2025 05:42:14 </pubDate></item></channel></rss>