<rss version="2.0"><channel><title>Aviation Weather METAR Data for WADD</title><link>https://aviationweather.gov/api/data/metar?ids=WADD&amp;hours=24</link><description>Latest METAR data for WADD</description><item><title>2025-10-09 18:36:15Z</title><link>https://aviationweather.gov/api/data/metar?ids=WADD&amp;hours=24</link><description>METAR WADD 091830Z VRB01KT 9999 FEW017 25/23 Q1012 NOSIG
METAR WADD 091800Z VRB01KT 9999 SCT016 25/23 Q1012 NOSIG
 WADD 091730Z 14002KT 9999 SCT016 26/24 Q1012 NOSIG
 WADD 091700Z VRB01KT 9999 SCT016 27/24 Q1012 NOSIG
 WADD 091630Z 22002KT 9999 SCT016 26/23 Q1012 NOSIG
METAR WADD 091600Z 00000KT 9999 SCT016 26/23 Q1012 NOSIG
METAR WADD 091530Z VRB02KT 9999 SCT016 27/24 Q1013 NOSIG
 WADD 091500Z VRB02KT 9999 FEW017 26/23 Q1013 NOSIG
METAR WADD 091430Z VRB01KT 9999 FEW017 26/23 Q1013 NOSIG
METAR WADD 091400Z VRB02KT 9999 FEW017 27/23 Q1013 NOSIG
METAR WADD 091330Z VRB02KT 9999 SCT016 27/23 Q1012 NOSIG
METAR WADD 091300Z VRB02KT 9999 FEW017 27/23 Q1012 NOSIG
METAR WADD 091230Z 16003KT 9999 FEW017 27/23 Q1012 NOSIG
METAR WADD 091200Z VRB02KT 9999 FEW017 27/23 Q1012 NOSIG
METAR WADD 091130Z 13003KT 9999 FEW017 27/23 Q1011 NOSIG
METAR WADD 091100Z 16003KT 9999 FEW017 27/23 Q1011 NOSIG
METAR WADD 091030Z 16004KT 090V240 9999 FEW017 28/23 Q1011 NOSIG
METAR WADD 091000Z 16005KT 110V220 9999 SCT019 28/22 Q1010 NOSIG
METAR WADD 090930Z 15005KT 110V250 9999 SCT017 28/23 Q1010 NOSIG
METAR WADD 090900Z 20005KT 120V220 9999 SCT017 29/23 Q1009 NOSIG
METAR WADD 090830Z 20005KT 110V290 9999 SCT017 30/23 Q1009 NOSIG
METAR WADD 090800Z 19005KT 130V250 9999 SCT017 30/23 Q1009 NOSIG
METAR WADD 090730Z 20004KT 160V260 9999 SCT017 30/23 Q1009 NOSIG
METAR WADD 090700Z 21005KT 150V270 9999 SCT017 30/23 Q1009 NOSIG
METAR WADD 090630Z 26010KT 9999 SCT017 29/24 Q1009 NOSIG
METAR WADD 090600Z 25010KT 220V280 9999 FEW017 29/24 Q1010 NOSIG
METAR WADD 090530Z 26009KT 9999 FEW017 30/24 Q1010 NOSIG
METAR WADD 090500Z 25009KT 9999 FEW017 29/24 Q1010 NOSIG
METAR WADD 090430Z 25008KT 9999 FEW017 29/24 Q1011 NOSIG
METAR WADD 090400Z 26008KT 220V290 9999 FEW017 29/24 Q1011 NOSIG
METAR WADD 090330Z 27009KT 9999 FEW017 29/24 Q1012 NOSIG
METAR WADD 090300Z 27008KT 9999 FEW017 29/24 Q1012 NOSIG
METAR WADD 090230Z 26007KT 9999 FEW017 29/23 Q1013 NOSIG
METAR WADD 090200Z 27008KT 210V290 9999 FEW017 29/23 Q1013 NOSIG
METAR WADD 090130Z 26006KT 220V300 9999 FEW017 28/24 Q1013 NOSIG
METAR WADD 090100Z 25004KT 210V330 9999 FEW017 28/23 Q1013 NOSIG
METAR WADD 090030Z VRB03KT 9999 FEW017 28/23 Q1013 NOSIG
METAR WADD 090000Z VRB02KT 9999 FEW017 27/24 Q1013 NOSIG
METAR WADD 082330Z VRB02KT 9999 FEW017 26/24 Q1013 NOSIG
METAR WADD 082300Z 11001KT 9999 FEW017 25/23 Q1012 NOSIG
METAR WADD 082230Z VRB01KT 9999 SCT017 24/22 Q1012 NOSIG
METAR WADD 082200Z VRB02KT 9999 SCT016 24/23 Q1012 NOSIG
METAR WADD 082130Z 02004KT 9999 SCT016 24/22 Q1012 NOSIG
METAR WADD 082100Z VRB01KT 9999 SCT016 25/23 Q1012 NOSIG
METAR WADD 082030Z 36003KT 9999 SCT016 24/23 Q1011 NOSIG
METAR WADD 082000Z VRB02KT 9999 SCT016 24/23 Q1011 NOSIG
 WADD 081930Z VRB01KT 9999 SCT016 25/24 Q1011 NOSIG
METAR WADD 081900Z 04001KT 9999 SCT016 25/24 Q1012 NOSIG</description><pubDate>Thu, 09 Oct 2025 18:36:15 </pubDate></item></channel></rss>