<rss version="2.0"><channel><title>Aviation Weather METAR Data for WADD</title><link>https://aviationweather.gov/api/data/metar?ids=WADD</link><description>Latest METAR data for WADD</description><item><title>2024-12-29 09:39:21Z</title><link>https://aviationweather.gov/api/data/metar?ids=WADD</link><description>WADD 290930Z 26017KT 9999 FEW017 29/26 Q1006 NOSIG</description><pubDate>Sun, 29 Dec 2024 09:39:21 </pubDate></item></channel></rss>