<rss version="2.0"><channel><title>Aviation Weather METAR Data for WADD</title><link>https://aviationweather.gov/api/data/metar?ids=WADD&amp;hours=24</link><description>Latest METAR data for WADD</description><item><title>2025-03-22 07:39:30Z</title><link>https://aviationweather.gov/api/data/metar?ids=WADD&amp;hours=24</link><description>WADD 220700Z 30015KT 9999 BKN014 28/25 Q1007 NOSIG
WADD 220630Z 29021G29KT 9999 BKN013 26/25 Q1007 RERA NOSIG
WADD 220600Z 30018KT 8000 -RA BKN013 26/25 Q1008 TEMPO TL0700 8000 -RA
WADD 220530Z 28021KT 2000 RA BKN015 26/25 Q1009 TEMPO TL0630 RA
WADD 220500Z 26021KT 7000 -RA FEW015CB BKN016 25/25 Q1009 TEMPO TL0600 -RA
WADD 220430Z 27026KT 1000 RA FEW015CB BKN016 26/25 Q1009 TEMPO TL0530 RA RMK CB IN APCH
WADD 220400Z 30014KT 9999 FEW015CB FEW016 31/26 Q1008 TEMPO FM0418 5000 RA
WADD 220330Z 30013KT 9999 FEW017 31/25 Q1008 NOSIG
WADD 220300Z 30013KT 9999 FEW017 31/26 Q1009 NOSIG
WADD 220230Z 30012KT 9999 FEW017 31/26 Q1009 NOSIG
WADD 220200Z 30012KT 9999 FEW017 30/26 Q1010 NOSIG
WADD 220130Z 30010KT 9999 FEW017 30/26 Q1010 NOSIG
WADD 220100Z 31008KT 9999 FEW017 30/25 Q1010 NOSIG
WADD 220030Z 30008KT 9999 FEW017 29/25 Q1010 NOSIG
WADD 220000Z 30008KT 9999 FEW017 29/26 Q1009 NOSIG
WADD 212330Z 29009KT 9999 FEW017 29/25 Q1009 NOSIG
WADD 212300Z 30010KT 9999 SCT016 28/25 Q1009 NOSIG
WADD 212230Z 29010KT 9999 FEW017 28/26 Q1008 NOSIG
WADD 212200Z 30008KT 9999 FEW017 28/26 Q1008 NOSIG
WADD 212130Z 32007KT 9999 FEW017 28/26 Q1008 NOSIG
WADD 212100Z 29012KT 9999 FEW017 28/26 Q1008 NOSIG
WADD 212030Z 28012KT 9999 FEW017 28/25 Q1008 NOSIG
WADD 212000Z 28012KT 9999 FEW017 28/26 Q1008 NOSIG
WADD 211930Z 28012KT 9999 FEW017 28/26 Q1008 NOSIG
WADD 211900Z 28011KT 9999 FEW017 28/26 Q1008 NOSIG
WADD 211830Z 28010KT 9999 FEW017 28/26 Q1008 NOSIG
WADD 211800Z 29011KT 9999 FEW017 28/26 Q1009 NOSIG
WADD 211730Z 28010KT 9999 FEW016 28/26 Q1009 NOSIG
WADD 211700Z 27012KT 9999 FEW016 28/27 Q1010 NOSIG
WADD 211630Z 28010KT 9999 FEW016 28/27 Q1010 NOSIG
WADD 211600Z 29009KT 9999 FEW016 29/27 Q1011 NOSIG
WADD 211530Z 27009KT 9999 SCT016 28/27 Q1011 NOSIG
WADD 211500Z 27011KT 9999 SCT016 28/27 Q1011 NOSIG
WADD 211430Z 27011KT 9999 SCT016 28/26 Q1011 NOSIG
WADD 211400Z 26011KT 9999 SCT016 28/26 Q1011 NOSIG
WADD 211330Z 26010KT 9999 SCT016 29/26 Q1011 NOSIG
WADD 211300Z 26009KT 9999 SCT016 29/26 Q1010 NOSIG
WADD 211230Z 26010KT 9999 SCT016 29/26 Q1010 NOSIG
WADD 211200Z 26009KT 9999 SCT016 29/26 Q1010 NOSIG
WADD 211130Z 26011KT 9999 SCT016 29/26 Q1009 NOSIG
WADD 211100Z 26009KT 9999 SCT016 29/26 Q1009 NOSIG
WADD 211030Z 26010KT 9999 SCT016 29/26 Q1009 NOSIG
WADD 211000Z 29008KT 9999 SCT016 28/27 Q1009 NOSIG
WADD 210930Z 28008KT 9999 SCT016 28/26 Q1009 NOSIG
WADD 210900Z 29006KT 9999 SCT016 28/26 Q1008 NOSIG
WADD 210830Z 29005KT 9999 SCT016 28/26 Q1008 RERA NOSIG
WADD 210800Z 30006KT 8000 -RA SCT015 27/26 Q1008 TEMPO TL0900 8000 -RA</description><pubDate>Sat, 22 Mar 2025 07:39:30 </pubDate></item></channel></rss>