<rss version="2.0"><channel><title>Aviation Weather METAR Data for WADD</title><link>https://aviationweather.gov/api/data/metar?ids=WADD&amp;hours=24</link><description>Latest METAR data for WADD</description><item><title>2025-06-14 17:22:22Z</title><link>https://aviationweather.gov/api/data/metar?ids=WADD&amp;hours=24</link><description>WADD 141700Z 05005KT 030V090 9999 SCT016 26/26 Q1011 NOSIG
WADD 141630Z 07004KT 9999 SCT016 26/26 Q1011 NOSIG
WADD 141600Z 07004KT 9999 SCT016 26/26 Q1012 NOSIG
WADD 141530Z 09004KT 9999 SCT016 26/26 Q1012 NOSIG
WADD 141500Z 09005KT 9999 SCT017 27/26 Q1012 NOSIG
WADD 141430Z 09005KT 9999 SCT016 26/26 Q1012 NOSIG
WADD 141400Z 09004KT 9999 SCT016 27/27 Q1012 NOSIG
WADD 141330Z 10003KT 9999 SCT017 27/27 Q1012 NOSIG
WADD 141300Z 06004KT 350V080 9999 FEW017 26/26 Q1012 NOSIG
WADD 141230Z 10004KT 9999 FEW017 27/27 Q1011 NOSIG
WADD 141200Z 14005KT 9999 FEW017 27/27 Q1011 NOSIG
WADD 141130Z 14003KT 9999 FEW017 27/25 Q1010 NOSIG
WADD 141100Z VRB03KT 9999 FEW016 27/25 Q1010 NOSIG
WADD 141030Z 15002KT 9999 SCT016 26/25 Q1010 NOSIG
WADD 141000Z 13003KT 9999 SCT016 26/25 Q1010 RETS NOSIG
WADD 140930Z 14004KT 9999 TS SCT015 26/25 Q1010 RERA NOSIG
WADD 140900Z 23006KT 7000 -TSRA FEW015CB SCT015 25/25 Q1010 TEMPO TL1000 7000 -TSRA
WADD 140830Z 31008KT 1500 +TSRA FEW014CB BKN014 24/24 Q1010 TEMPO TL0930 2000 +TSRA RMK CB IN APCH AND CLIMB-OUT
WADD 140800Z 01014G23KT 1000 +TSRA FEW014CB BKN014 25/25 Q1010 TEMPO TL0900 1000 +TSRA RMK CB IN APCH AND CLIMB-OUT
WADD 140730Z 11010KT 9999 TS FEW015CB BKN016 29/26 Q1010 TEMPO TL0830 TS RMK CB IN APCH
WADD 140700Z 13012KT 9999 TS FEW016CB SCT016 30/27 Q1009 TEMPO TL0800 TS
WADD 140630Z 12014KT 9999 FEW017 30/27 Q1009 NOSIG
WADD 140600Z 12014KT 9999 FEW017 30/27 Q1009 NOSIG
WADD 140530Z 11013KT 9999 FEW017 30/27 Q1010 NOSIG
WADD 140500Z 12014KT 9999 FEW017 30/27 Q1010 NOSIG
WADD 140430Z 11013KT 9999 FEW017 30/27 Q1010 NOSIG
WADD 140400Z 11014KT 9999 FEW017 30/27 Q1011 NOSIG
WADD 140330Z 11016KT 9999 FEW017 30/27 Q1011 NOSIG
WADD 140300Z 11014KT 9999 FEW017 30/27 Q1012 NOSIG
WADD 140230Z 11014KT 9999 SCT017 30/27 Q1012 NOSIG
WADD 140200Z 10013KT 9999 SCT017 30/27 Q1012 NOSIG
WADD 140130Z 11013KT 9999 FEW015CB SCT016 29/27 Q1013 NOSIG
WADD 140100Z 11012KT 9999 SCT016 29/27 Q1013 NOSIG
WADD 140030Z 11009KT 9999 SCT016 29/27 Q1012 NOSIG
WADD 140000Z 34004KT 290V030 9999 SCT016 27/26 Q1012 NOSIG
WADD 132330Z VRB04KT 9999 SCT017 27/26 Q1012 NOSIG
WADD 132300Z 03002KT 9999 SCT017 27/26 Q1011 NOSIG
WADD 132230Z 07005KT 9999 FEW017 26/26 Q1011 NOSIG
WADD 132200Z 10005KT 9999 SCT017 27/27 Q1010 NOSIG
WADD 132130Z 11006KT 9999 SCT017 27/27 Q1010 NOSIG
WADD 132100Z VRB01KT 9999 SCT017 27/26 Q1010 NOSIG
WADD 132030Z 09004KT 9999 SCT017 27/26 Q1010 NOSIG
WADD 132000Z 10006KT 9999 SCT017 27/27 Q1010 NOSIG
WADD 131930Z 10005KT 9999 SCT017 27/27 Q1011 NOSIG
WADD 131900Z 12006KT 9999 SCT017 28/27 Q1011 NOSIG
WADD 131830Z 08005KT 9999 FEW017 27/27 Q1011 NOSIG
WADD 131800Z 11005KT 9999 FEW017 27/27 Q1011 NOSIG</description><pubDate>Sat, 14 Jun 2025 17:22:22 </pubDate></item></channel></rss>