<rss version="2.0"><channel><title>Aviation Weather METAR Data for WADD</title><link>https://aviationweather.gov/api/data/metar?ids=WADD&amp;hours=24</link><description>Latest METAR data for WADD</description><item><title>2025-10-02 11:40:04Z</title><link>https://aviationweather.gov/api/data/metar?ids=WADD&amp;hours=24</link><description>METAR WADD 021130Z 13004KT 9999 FEW017 28/24 Q1012 NOSIG
METAR WADD 021100Z 13006KT 9999 FEW017 28/24 Q1011 NOSIG
METAR WADD 021030Z 14009KT 9999 FEW017 28/24 Q1011 NOSIG
METAR WADD 021000Z 14012KT 9999 FEW017 28/24 Q1010 NOSIG
METAR WADD 020930Z 14011KT 9999 FEW017 29/24 Q1010 NOSIG
METAR WADD 020900Z 15012KT 9999 FEW017 29/24 Q1009 NOSIG
 WADD 020830Z 16010KT 9999 FEW017 30/24 Q1009 NOSIG
METAR WADD 020800Z 15010KT 9999 FEW017 30/24 Q1009 NOSIG
METAR WADD 020730Z 15010KT 9999 FEW017 30/24 Q1009 NOSIG
METAR WADD 020700Z 16010KT 9999 FEW017 30/24 Q1009 NOSIG
METAR WADD 020630Z 16010KT 9999 FEW017 30/25 Q1009 NOSIG
METAR WADD 020600Z 17011KT 9999 FEW017 30/24 Q1010 NOSIG
METAR WADD 020530Z 16009KT 9999 FEW017 31/24 Q1010 NOSIG
METAR WADD 020500Z 11009KT 9999 FEW017 31/24 Q1010 NOSIG
METAR WADD 020430Z 13008KT 9999 FEW017 31/24 Q1011 NOSIG
METAR WADD 020400Z 10009KT 9999 FEW017 31/24 Q1011 NOSIG
METAR WADD 020330Z 11007KT 070V140 9999 FEW017 31/23 Q1011 NOSIG
METAR WADD 020300Z 11007KT 9999 FEW017 30/23 Q1012 NOSIG
METAR WADD 020230Z 12007KT 9999 FEW017 30/24 Q1012 NOSIG
METAR WADD 020200Z 11007KT 9999 FEW017 30/24 Q1012 NOSIG
METAR WADD 020130Z 11007KT 080V150 9999 FEW017 29/24 Q1012 NOSIG
METAR WADD 020100Z 12006KT 080V150 9999 FEW017 29/25 Q1012 NOSIG
METAR WADD 020030Z 11006KT 9999 FEW017 29/25 Q1012 NOSIG
METAR WADD 020000Z 13006KT 9999 FEW017 28/25 Q1012 NOSIG
METAR WADD 012330Z 16003KT 9999 FEW017 27/25 Q1011 NOSIG
METAR WADD 012300Z 15004KT 9999 SCT016 27/25 Q1011 NOSIG
METAR WADD 012230Z 15004KT 9999 SCT016 26/25 Q1011 NOSIG
METAR WADD 012200Z 15004KT 9999 SCT016 27/25 Q1010 NOSIG
 WADD 012130Z 14004KT 9999 SCT016 27/25 Q1010 NOSIG
METAR WADD 012100Z 12005KT 9999 FEW016 27/25 Q1010 NOSIG
METAR WADD 012030Z 11006KT 9999 SCT016 27/25 Q1010 NOSIG
METAR WADD 012000Z 13005KT 9999 SCT016 27/25 Q1010 NOSIG
METAR WADD 011930Z 13006KT 9999 SCT016 27/26 Q1010 NOSIG
METAR WADD 011900Z 11006KT 9999 SCT016 27/25 Q1010 NOSIG
METAR WADD 011830Z 11006KT 9999 SCT016 27/25 Q1010 NOSIG
METAR WADD 011800Z 12006KT 9999 SCT016 27/26 Q1010 NOSIG
METAR WADD 011730Z 14006KT 9999 SCT016 27/26 Q1011 NOSIG
 WADD 011700Z 13006KT 9999 SCT016 27/26 Q1011 NOSIG
 WADD 011630Z 14006KT 9999 SCT016 27/26 Q1011 NOSIG
 WADD 011600Z 14006KT 9999 SCT016 27/26 Q1012 NOSIG
 WADD 011530Z 13005KT 9999 FEW017 27/26 Q1012 NOSIG
METAR WADD 011500Z 13005KT 9999 FEW017 27/26 Q1012 NOSIG
 WADD 011430Z 13006KT 9999 FEW017 28/26 Q1012 NOSIG
METAR WADD 011400Z 13007KT 9999 FEW017 28/26 Q1012 NOSIG
METAR WADD 011330Z 13008KT 9999 FEW017 28/26 Q1012 NOSIG
METAR WADD 011300Z 12008KT 9999 FEW017 28/26 Q1011 NOSIG
METAR WADD 011230Z 12009KT 9999 FEW017 28/26 Q1011 NOSIG
 WADD 011200Z 13010KT 9999 FEW017 28/26 Q1011 NOSIG</description><pubDate>Thu, 02 Oct 2025 11:40:04 </pubDate></item></channel></rss>