<rss version="2.0"><channel><title>Aviation Weather METAR Data for WADD</title><link>https://aviationweather.gov/api/data/metar?ids=WADD&amp;hours=24</link><description>Latest METAR data for WADD</description><item><title>2025-05-18 23:42:02Z</title><link>https://aviationweather.gov/api/data/metar?ids=WADD&amp;hours=24</link><description>WADD 182330Z 11010KT 9999 FEW016 28/25 Q1010 NOSIG
WADD 182300Z 12011KT 9999 FEW017 27/25 Q1009 NOSIG
WADD 182230Z 12011KT 9999 SCT017 27/25 Q1009 NOSIG
WADD 182200Z 12012KT 9999 SCT017 27/25 Q1009 NOSIG
WADD 182130Z 12011KT 9999 FEW017 27/25 Q1009 NOSIG
WADD 182100Z 12009KT 9999 FEW017 27/25 Q1009 NOSIG
WADD 182030Z 12011KT 9999 FEW017 27/25 Q1008 NOSIG
WADD 182000Z 12011KT 9999 FEW017 27/25 Q1009 NOSIG
WADD 181930Z 12010KT 9999 FEW017 27/25 Q1009 NOSIG
WADD 181900Z 12010KT 9999 FEW017 28/25 Q1009 NOSIG
WADD 181830Z 12011KT 9999 FEW017 28/25 Q1009 NOSIG
WADD 181800Z 12012KT 9999 FEW017 28/25 Q1009 NOSIG
WADD 181730Z 11011KT 9999 FEW017 28/25 Q1010 NOSIG
WADD 181700Z 11013KT 9999 SCT017 28/25 Q1010 NOSIG
WADD 181630Z 11011KT 9999 BKN016 28/25 Q1010 NOSIG
WADD 181600Z 11010KT 9999 BKN016 28/26 Q1010 NOSIG
WADD 181530Z 12013KT 9999 BKN016 28/26 Q1011 NOSIG
WADD 181500Z 11009KT 9999 SCT017 28/25 Q1010 NOSIG
WADD 181430Z 11011KT 9999 SCT017 28/25 Q1011 NOSIG
WADD 181400Z 12010KT 9999 SCT017 28/26 Q1010 NOSIG
WADD 181330Z 11010KT 9999 SCT017 28/26 Q1010 NOSIG
WADD 181300Z 12011KT 9999 SCT017 28/26 Q1010 NOSIG
WADD 181230Z 12012KT 9999 FEW017 28/25 Q1010 NOSIG
WADD 181200Z 12011KT 9999 FEW017 28/26 Q1010 NOSIG
WADD 181130Z 12010KT 9999 FEW017 28/25 Q1010 NOSIG
WADD 181100Z 10010KT 9999 FEW017 28/25 Q1009 NOSIG
WADD 181030Z 11011KT 9999 FEW017 28/25 Q1009 NOSIG
WADD 181000Z 11012KT 9999 FEW017 28/25 Q1009 NOSIG
WADD 180930Z 12014KT 9999 FEW017 28/25 Q1008 NOSIG
WADD 180900Z 12017KT 9999 FEW017 29/25 Q1008 NOSIG
WADD 180830Z 11017KT 9999 FEW017 29/25 Q1008 NOSIG
WADD 180800Z 12017KT 9999 FEW017 29/26 Q1008 NOSIG
WADD 180730Z 11018KT 9999 FEW017 30/25 Q1008 NOSIG
WADD 180700Z 11019KT 9999 FEW017 30/25 Q1008 NOSIG
WADD 180630Z 11019KT 9999 FEW017 30/25 Q1008 NOSIG
WADD 180600Z 11019KT 9999 SCT017 30/25 Q1008 NOSIG
WADD 180530Z 11017KT 9999 FEW017 30/25 Q1009 NOSIG
WADD 180500Z 12018KT 9999 SCT017 30/26 Q1009 NOSIG
WADD 180430Z 12016KT 9999 SCT017 30/26 Q1010 NOSIG
WADD 180400Z 12016KT 9999 SCT017 29/26 Q1010 NOSIG
WADD 180330Z 13016KT 9999 SCT017 30/26 Q1011 NOSIG
WADD 180300Z 12018KT 9999 SCT016 29/26 Q1011 NOSIG
WADD 180230Z 12017KT 9999 SCT017 29/26 Q1011 NOSIG
WADD 180200Z 12017KT 9999 BKN016 29/25 Q1011 NOSIG
WADD 180130Z 12018KT 9999 SCT016 29/26 Q1011 NOSIG
WADD 180100Z 12017KT 9999 SCT016 29/26 Q1011 NOSIG
WADD 180030Z 11014KT 9999 SCT016 28/26 Q1011 NOSIG
WADD 180000Z 12013KT 9999 SCT016 28/26 Q1011 NOSIG</description><pubDate>Sun, 18 May 2025 23:42:02 </pubDate></item></channel></rss>