<rss version="2.0"><channel><title>Aviation Weather METAR Data for WADD</title><link>https://aviationweather.gov/api/data/metar?ids=WADD&amp;hours=24</link><description>Latest METAR data for WADD</description><item><title>2026-01-13 21:45:51Z</title><link>https://aviationweather.gov/api/data/metar?ids=WADD&amp;hours=24</link><description>METAR WADD 132130Z 29010KT 9999 FEW017 27/24 Q1006 NOSIG
METAR WADD 132100Z 29011KT 9999 FEW017 27/24 Q1006 NOSIG
METAR WADD 132030Z 29010KT 9999 FEW017 27/25 Q1006 NOSIG
METAR WADD 132000Z 29009KT 9999 FEW017 27/25 Q1006 NOSIG
METAR WADD 131930Z 29010KT 9999 SCT016 27/25 Q1006 NOSIG
METAR WADD 131900Z 29008KT 7000 SCT016 27/25 Q1007 RERA NOSIG
METAR WADD 131830Z 28007KT 7000 -RA SCT016 27/25 Q1007 NOSIG
SPECI WADD 131812Z 28007KT 7000 -RA SCT016 26/25 Q1007 NOSIG
METAR WADD 131800Z 28007KT 9999 SCT016 26/25 Q1007 NOSIG
METAR WADD 131730Z 28006KT 8000 BKN016 27/25 Q1007 RERA NOSIG
METAR WADD 131700Z 28006KT 7000 -RA BKN016 26/25 Q1008 NOSIG
METAR WADD 131630Z 27004KT 7000 -RA BKN015 26/25 Q1008 NOSIG
METAR WADD 131600Z 36003KT 9999 BKN016 26/25 Q1008 NOSIG
METAR WADD 131530Z VRB02KT 9999 SCT016 26/25 Q1009 NOSIG
METAR WADD 131500Z VRB02KT 8000 FEW015CB BKN016 26/25 Q1009 RERA NOSI G
METAR WADD 131430Z 23002KT 7000 -RA FEW015CB BKN016 26/25 Q1009 NOSIG
METAR WADD 131400Z 26007KT 7000 -RA FEW015CB BKN016 26/25 Q1009 NOSIG RMK CB IN APCH
METAR WADD 131330Z 25006KT 7000 -RA FEW015CB BKN016 26/25 Q1009 NOSIG
METAR WADD 131300Z 23005KT 170V270 7000 -RA FEW015CB BKN016 26/25 Q10 09 RETS NOSIG
METAR WADD 131230Z 25008KT 7000 -TSRA FEW013CB BKN014 26/25 Q1009 NOSIG RMK CB IN APCH
METAR WADD 131200Z 25004KT 5000 -RA FEW013CB BKN014 25/24 Q1008 TEMPO TL1300 7000 -RA RMK CB IN APCH AND CLIMB-OUT
METAR WADD 131130Z 29012G22KT 230V340 1500 RA FEW014CB BKN014 25/23 Q1008 TEMPO TL1230 1500 RA RMK CB IN APCH AND CLIMB-OUT
METAR WADD 131100Z 25008KT 7000 -RA FEW014CB BKN015 28/26 Q1007 TEMPO TL1200 7000 -RA RMK CB OVER THE FIELD
METAR WADD 131030Z 25009KT 9999 FEW014CB SCT015 29/25 Q1007 NOSIG
METAR WADD 131000Z 26011KT 9999 FEW015CB SCT016 29/24 Q1007 NOSIG
METAR WADD 130930Z 25011KT 9999 FEW015CB SCT016 29/24 Q1007 NOSIG
METAR WADD 130900Z 26010KT 9999 FEW015CB SCT016 30/24 Q1006 NOSIG
METAR WADD 130830Z 25009KT 9999 FEW015CB SCT016 29/24 Q1006 NOSIG
METAR WADD 130800Z 25009KT 9999 FEW016 30/25 Q1006 NOSIG
METAR WADD 130730Z 24010KT 9999 SCT016 30/24 Q1006 NOSIG
METAR WADD 130700Z 24010KT 9999 SCT016 30/24 Q1006 NOSIG
METAR WADD 130630Z 24009KT 9999 SCT016 30/24 Q1007 NOSIG
METAR WADD 130600Z 24010KT 9999 FEW017 30/24 Q1007 NOSIG
METAR WADD 130530Z 25009KT 9999 FEW017 31/25 Q1007 NOSIG
METAR WADD 130500Z 25008KT 9999 FEW017 30/25 Q1008 NOSIG
METAR WADD 130430Z 26009KT 9999 FEW017 30/24 Q1009 NOSIG
METAR WADD 130400Z 26010KT 9999 FEW017 31/24 Q1009 NOSIG
METAR WADD 130330Z 26010KT 9999 FEW017 30/24 Q1009 NOSIG
METAR WADD 130230Z 27008KT 9999 FEW016 30/24 Q1010 NOSIG
METAR WADD 130200Z 30007KT 9999 SCT016 30/24 Q1010 NOSIG
METAR WADD 130130Z 32009KT 9999 SCT016 29/24 Q1010 NOSIG
METAR WADD 130100Z 28005KT 9999 SCT016 29/25 Q1010 NOSIG
METAR WADD 130030Z 28004KT 9999 SCT016 28/24 Q1010 NOSIG
METAR WADD 130000Z VRB01KT 9999 SCT016 27/24 Q1009 NOSIG
METAR WADD 122330Z VRB02KT 9999 FEW016 26/24 Q1009 NOSIG
METAR WADD 122300Z VRB02KT 9999 FEW016 26/24 Q1009 NOSIG
METAR WADD 122230Z 02004KT 340V050 9999 SCT016 25/25 Q1008 NOSIG
METAR WADD 122200Z VRB01KT 9999 SCT016 25/25 Q1008 NOSIG</description><pubDate>Tue, 13 Jan 2026 21:45:51 </pubDate></item></channel></rss>