<rss version="2.0"><channel><title>Aviation Weather METAR Data for WADD</title><link>https://aviationweather.gov/api/data/metar?ids=WADD&amp;hours=24</link><description>Latest METAR data for WADD</description><item><title>2026-05-18 14:06:08Z</title><link>https://aviationweather.gov/api/data/metar?ids=WADD&amp;hours=24</link><description>METAR WADD 181400Z 10007KT 9999 SCT016 27/25 Q1010 NOSIG
METAR WADD 181330Z 15004KT 9999 SCT016 27/25 Q1010 NOSIG
METAR WADD 181300Z VRB01KT 9999 SCT016 27/24 Q1010 NOSIG
METAR WADD 181230Z 14002KT 9999 SCT016 27/24 Q1010 NOSIG
METAR WADD 181200Z 14004KT 9999 SCT016 27/24 Q1009 NOSIG
METAR WADD 181130Z 17005KT 9999 SCT016 27/24 Q1009 NOSIG
METAR WADD 181100Z 14006KT 9999 SCT016 27/25 Q1008 NOSIG
METAR WADD 181000Z 13008KT 9999 FEW016CB SCT016 27/25 Q1008 NOSIG
METAR WADD 180930Z 13009KT 9999 FEW015CB BKN015 27/25 Q1008 NOSIG
METAR WADD 180900Z 13011KT 9999 FEW015CB BKN015 27/25 Q1008 NOSIG
METAR WADD 180830Z 16013KT 9999 FEW015CB BKN015 28/25 Q1007 NOSIG RMK CB IN APCH
METAR WADD 180800Z 15007KT 9999 FEW015CB BKN015 30/25 Q1007 NOSIG
METAR WADD 180730Z 14005KT 9999 SCT016 30/24 Q1007 NOSIG
METAR WADD 180700Z 13005KT 100V160 9999 FEW016CB SCT016 29/25 Q1007 NOSIG
METAR WADD 180630Z 10004KT 9999 FEW015CB BKN015 29/25 Q1008 NOSIG
METAR WADD 180600Z 11004KT 080V140 9999 FEW015CB BKN015 28/25 Q1008 NOSIG
METAR WADD 180530Z 12010KT 9999 FEW015CB BKN015 28/25 Q1008 RERA NOSIG
METAR WADD 180500Z 10005KT 060V130 9999 SCT016 30/25 Q1009 NOSIG
METAR WADD 180430Z 13004KT 110V180 9999 SCT016 29/25 Q1009 NOSIG
METAR WADD 180400Z 25004KT 9999 SCT016 30/25 Q1009 NOSIG
METAR WADD 180330Z 21003KT 9999 SCT016 30/25 Q1010 NOSIG
METAR WADD 180300Z VRB03KT 9999 SCT016 30/24 Q1010 NOSIG
METAR WADD 180230Z VRB03KT 9999 SCT016 31/25 Q1010 NOSIG
METAR WADD 180200Z VRB02KT 9999 FEW017 30/24 Q1011 NOSIG
METAR WADD 180130Z 24004KT 9999 SCT016 29/25 Q1011 NOSIG
METAR WADD 180100Z VRB02KT 9999 SCT016 28/24 Q1010 NOSIG
METAR WADD 180030Z 22002KT 9999 BKN016 26/24 Q1010 NOSIG
METAR WADD 180000Z 21004KT 9999 FEW015CB BKN016 26/24 Q1010 NOSIG
METAR WADD 172330Z VRB04KT 9999 FEW015CB SCT016 26/25 Q1010 NOSIG
METAR WADD 172300Z 08003KT 9999 SCT016 26/24 Q1009 NOSIG
METAR WADD 172230Z 03003KT 9999 SCT016 26/24 Q1009 NOSIG
METAR WADD 172200Z 05005KT 9999 FEW017 26/25 Q1009 NOSIG
METAR WADD 172130Z 07003KT 9999 FEW017 26/25 Q1009 NOSIG
METAR WADD 172100Z VRB02KT 9999 FEW017 26/24 Q1009 NOSIG
METAR WADD 172030Z 08002KT 9999 FEW017 26/24 Q1009 NOSIG
METAR WADD 172000Z 08003KT 9999 FEW017 25/24 Q1009 NOSIG
METAR WADD 171930Z 09005KT 9999 SCT016 26/24 Q1009 NOSIG
METAR WADD 171900Z 10003KT 9999 SCT016 26/24 Q1009 NOSIG
METAR WADD 171830Z 14003KT 9999 SCT016 26/24 Q1009 NOSIG
METAR WADD 171800Z 13006KT 9999 SCT016 27/25 Q1009 NOSIG
METAR WADD 171730Z 15006KT 9999 SCT016 27/25 Q1009 NOSIG
METAR WADD 171700Z 16007KT 9999 SCT016 27/25 Q1010 NOSIG
METAR WADD 171630Z 16008KT 9999 FEW015CB BKN015 27/24 Q1010 NOSIG RMK CB IN CLIMB-OUT
METAR WADD 171600Z 19010KT 9999 FEW015CB BKN015 27/24 Q1010 NOSIG RMK CB IN CLIMB-OUT
METAR WADD 171530Z 19011KT 9999 SCT016 27/25 Q1010 NOSIG
METAR WADD 171500Z 17008KT 9999 SCT016 27/25 Q1010 NOSIG
METAR WADD 171430Z 17003KT 9999 FEW015CB SCT015 27/25 Q1010 NOSIG</description><pubDate>Mon, 18 May 2026 14:06:08 </pubDate></item></channel></rss>