<rss version="2.0"><channel><title>Aviation Weather METAR Data for WADD</title><link>https://aviationweather.gov/api/data/metar?ids=WADD&amp;hours=24</link><description>Latest METAR data for WADD</description><item><title>2025-04-06 22:42:05Z</title><link>https://aviationweather.gov/api/data/metar?ids=WADD&amp;hours=24</link><description>WADD 062230Z 04005KT 9999 FEW017 25/24 Q1011 NOSIG
WADD 062200Z VRB02KT 9999 FEW017 25/24 Q1011 NOSIG
WADD 062130Z 05004KT 9999 FEW017 25/25 Q1011 NOSIG
WADD 062100Z 03004KT 9999 FEW017 26/25 Q1011 NOSIG
WADD 062030Z 04005KT 9999 FEW017 26/25 Q1011 NOSIG
WADD 062000Z 03005KT 9999 FEW017 26/25 Q1011 NOSIG
WADD 061930Z 07004KT 9999 FEW017 26/25 Q1011 NOSIG
WADD 061900Z 05005KT 9999 FEW017 26/25 Q1010 NOSIG
WADD 061830Z 05006KT 9999 FEW017 26/25 Q1011 NOSIG
WADD 061800Z 06007KT 9999 FEW017 27/26 Q1011 NOSIG
WADD 061730Z 03005KT 350V100 9999 FEW017 27/26 Q1011 NOSIG
WADD 061700Z 02005KT 9999 FEW017 27/26 Q1011 NOSIG
WADD 061630Z 03005KT 9999 FEW017 27/26 Q1011 NOSIG
WADD 061600Z 07006KT 9999 FEW017 27/25 Q1011 NOSIG
WADD 061530Z 09007KT 9999 FEW017 27/25 Q1012 NOSIG
WADD 061500Z 09006KT 9999 FEW017 27/26 Q1012 NOSIG
WADD 061430Z 12006KT 9999 FEW017 29/26 Q1011 NOSIG
WADD 061400Z 12006KT 9999 FEW017 28/26 Q1011 NOSIG
WADD 061330Z 12007KT 9999 FEW017 29/26 Q1011 NOSIG
WADD 061300Z 12005KT 9999 FEW017 29/26 Q1011 NOSIG
WADD 061230Z 12006KT 9999 FEW017 29/26 Q1010 NOSIG
WADD 061200Z 12004KT 9999 FEW017 29/26 Q1010 NOSIG
WADD 061130Z 12005KT 9999 FEW017 29/26 Q1010 NOSIG
WADD 061100Z 13004KT 9999 FEW017 29/26 Q1010 NOSIG
WADD 061030Z 13007KT 9999 FEW017 29/26 Q1009 NOSIG
WADD 061000Z 15007KT 9999 FEW017 29/27 Q1009 NOSIG
WADD 060930Z 17007KT 9999 FEW017 30/26 Q1009 NOSIG
WADD 060900Z 16008KT 9999 FEW017 30/26 Q1009 NOSIG
WADD 060830Z 16009KT 9999 FEW017 31/26 Q1008 NOSIG
WADD 060800Z 18010KT 9999 FEW017 31/26 Q1008 NOSIG
WADD 060730Z 13007KT 9999 FEW017 31/23 Q1008 NOSIG
WADD 060700Z 14006KT 100V180 9999 FEW017 31/24 Q1008 NOSIG
WADD 060630Z 12006KT 9999 FEW017 30/23 Q1008 NOSIG
WADD 060600Z 12006KT 070V150 9999 FEW017 32/24 Q1009 NOSIG
WADD 060530Z 12006KT 9999 FEW017 31/24 Q1009 NOSIG
WADD 060500Z 26008KT 210V270 9999 SCT017 31/25 Q1009 NOSIG
WADD 060430Z 10006KT 060V130 9999 SCT017 31/24 Q1010 NOSIG
WADD 060400Z 23006KT 9999 SCT017 31/27 Q1010 NOSIG
WADD 060330Z 24006KT 9999 FEW017 30/27 Q1010 NOSIG
WADD 060300Z 27006KT 9999 FEW017 30/26 Q1011 NOSIG
WADD 060230Z 28005KT 240V300 9999 FEW017 30/26 Q1011 NOSIG
WADD 060200Z 29004KT 9999 FEW017 30/26 Q1011 NOSIG
WADD 060130Z 24003KT 9999 FEW017 29/25 Q1011 NOSIG
WADD 060100Z VRB02KT 9999 FEW017 28/25 Q1011 NOSIG
WADD 060030Z 19002KT 9999 FEW017 28/25 Q1011 NOSIG
WADD 060000Z 16003KT 9999 FEW017 28/25 Q1011 NOSIG
WADD 052330Z VRB02KT 9999 FEW017 27/24 Q1011 NOSIG
WADD 052300Z VRB02KT 9999 FEW017 25/23 Q1010 NOSIG</description><pubDate>Sun, 06 Apr 2025 22:42:05 </pubDate></item></channel></rss>