<rss version="2.0"><channel><title>Aviation Weather METAR Data for WADD</title><link>https://aviationweather.gov/api/data/metar?ids=WADD&amp;hours=24</link><description>Latest METAR data for WADD</description><item><title>2026-02-17 16:31:36Z</title><link>https://aviationweather.gov/api/data/metar?ids=WADD&amp;hours=24</link><description>METAR WADD 171600Z VRB02KT 9999 FEW017 27/26 Q1007 NOSIG
METAR WADD 171530Z 08003KT 9999 FEW017 28/26 Q1008 NOSIG
METAR WADD 171500Z 12003KT 9999 SCT016 28/26 Q1008 NOSIG
METAR WADD 171430Z 10005KT 070V130 9999 SCT016 28/26 Q1007 NOSIG
METAR WADD 171400Z VRB02KT 9999 FEW015CB SCT016 28/26 Q1007 NOSIG
METAR WADD 171330Z VRB02KT 9999 FEW015CB SCT016 28/26 Q1007 NOSIG
METAR WADD 171300Z VRB01KT 9999 FEW015CB SCT016 27/26 Q1007 NOSIG
METAR WADD 171230Z VRB01KT 9999 FEW015CB SCT016 27/26 Q1007 NOSIG
METAR WADD 171200Z 15003KT 9999 FEW015CB SCT016 28/26 Q1007 NOSIG
METAR WADD 171130Z 20004KT 160V220 9999 FEW016 28/27 Q1006 NOSIG
METAR WADD 171100Z 21005KT 9999 FEW016 29/27 Q1006 NOSIG
METAR WADD 171030Z 20006KT 9999 FEW016 29/26 Q1005 NOSIG
METAR WADD 171000Z 20006KT 9999 FEW016 29/27 Q1005 NOSIG
METAR WADD 170930Z 21005KT 9999 SCT016 29/27 Q1005 NOSIG
METAR WADD 170900Z 19006KT 9999 SCT016 29/27 Q1005 NOSIG
METAR WADD 170830Z 22006KT 9999 FEW015CB SCT016 28/26 Q1005 RETS NOSI G
METAR WADD 170800Z 18007KT 9999 TS FEW015CB SCT016 28/26 Q1005 TEMPO TL0900 TS
METAR WADD 170730Z 22006KT 9999 TS FEW015CB BKN015 29/26 Q1005 TEMPO TL0900 TS RMK CB IN APCH
METAR WADD 170700Z 10006KT 9999 FEW015CB BKN015 30/26 Q1005 NOSIG RMK CB IN APCH
METAR WADD 170630Z 09008KT 9999 FEW015CB BKN015 30/26 Q1005 NOSIG
METAR WADD 170600Z 11007KT 9999 FEW015CB BKN015 31/27 Q1005 NOSIG
METAR WADD 170530Z 24003KT 9999 FEW016CB SCT016 32/27 Q1006 NOSIG
METAR WADD 170500Z 24003KT 9999 SCT016 32/27 Q1006 NOSIG
METAR WADD 170430Z 11006KT 9999 FEW016 31/26 Q1006 NOSIG
METAR WADD 170400Z 11007KT 080V150 9999 FEW016 30/25 Q1006 NOSIG
METAR WADD 170330Z 24006KT 180V280 9999 FEW016 30/25 Q1006 NOSIG
METAR WADD 170300Z 23004KT 170V290 9999 FEW016 30/24 Q1007 NOSIG
METAR WADD 170230Z 11004KT 080V150 9999 FEW016 29/25 Q1007 NOSIG
METAR WADD 170200Z 10005KT 070V140 9999 FEW016 29/25 Q1007 NOSIG
METAR WADD 170100Z 03003KT 9999 SCT016 28/25 Q1008 NOSIG
METAR WADD 170030Z VRB01KT 9999 SCT016 27/25 Q1008 NOSIG
METAR WADD 170000Z VRB01KT 9999 BKN016 26/25 Q1007 NOSIG
METAR WADD 162330Z VRB02KT 9999 BKN016 26/24 Q1007 NOSIG
METAR WADD 162300Z 29003KT 9999 FEW015CB SCT016 25/24 Q1007 NOSIG
METAR WADD 162230Z 24003KT 9999 FEW015CB SCT016 25/24 Q1007 RETSRA NO SIG
METAR WADD 162200Z 24005KT 150V270 6000 -TSRA FEW014CB BKN015 25/24 Q1007 TEMPO TL2300 -TSRA RMK CB IN APCH AND CLIMB-OUT
METAR WADD 162130Z VRB02KT 5000 -TSRA FEW015CB BKN016 26/25 Q1007 TEMPO TL2230 -TSRA RMK CB IN APCH AND CLIMB-OUT
METAR WADD 162100Z VRB02KT 9999 FEW015CB BKN016 26/25 Q1006 NOSIG
METAR WADD 162030Z 04003KT 9999 FEW015CB BKN016 26/25 Q1006 NOSIG
METAR WADD 162000Z VRB02KT 9999 FEW015CB BKN016 26/25 Q1006 RERA NOSI G
METAR WADD 161930Z 28006KT 210V310 5000 -RA FEW015CB BKN016 26/25 Q10 06 TEMPO TL2030 -RA
METAR WADD 161900Z VRB02KT 3000 RA FEW015CB BKN016 27/25 Q1006 TEMPO TL2000 3000 RA RMK CB IN APCH AND CLIMB-OUT
METAR WADD 161830Z VRB02KT 9999 FEW015CB SCT016 27/25 Q1006 NOSIG
METAR WADD 161800Z VRB02KT 9999 FEW015CB SCT016 26/24 Q1007 NOSIG
METAR WADD 161730Z 29007KT 260V340 9999 FEW015CB SCT016 27/25 Q1007 N OSIG
METAR WADD 161700Z 25006KT 9999 FEW015CB SCT016 28/25 Q1007 NOSIG</description><pubDate>Tue, 17 Feb 2026 16:31:36 </pubDate></item></channel></rss>