<rss version="2.0"><channel><title>Aviation Weather METAR Data for WADD</title><link>https://aviationweather.gov/api/data/metar?ids=WADD</link><description>Latest METAR data for WADD</description><item><title>2024-12-29 13:39:44Z</title><link>https://aviationweather.gov/api/data/metar?ids=WADD</link><description>WADD 291300Z 27014KT 9999 SCT016 28/25 Q1009 NOSIG</description><pubDate>Sun, 29 Dec 2024 13:39:44 </pubDate></item></channel></rss>