<rss version="2.0"><channel><title>Aviation Weather METAR Data for WADD</title><link>https://aviationweather.gov/api/data/metar?ids=WADD&amp;hours=24</link><description>Latest METAR data for WADD</description><item><title>2026-05-22 05:44:59Z</title><link>https://aviationweather.gov/api/data/metar?ids=WADD&amp;hours=24</link><description>METAR WADD 220530Z 10011KT 9999 SCT017 31/26 Q1010 NOSIG
METAR WADD 220500Z 10009KT 9999 SCT017 32/26 Q1010 NOSIG
METAR WADD 220430Z 09010KT 9999 SCT017 32/27 Q1010 NOSIG
METAR WADD 220400Z 18006KT 110V230 9999 SCT016 32/27 Q1011 NOSIG
METAR WADD 220330Z 11010KT 9999 FEW015CB SCT016 32/26 Q1011 NOSIG
METAR WADD 220300Z VRB03KT 9999 FEW015CB SCT016 33/27 Q1012 NOSIG RMK CB IN APCH
METAR WADD 220230Z 12009KT 090V160 9999 FEW015CB SCT017 32/27 Q1012 NOSIG
METAR WADD 220200Z 11008KT 9999 FEW015CB SCT017 31/26 Q1012 NOSIG
METAR WADD 220130Z 11008KT 9999 FEW017 31/26 Q1012 NOSIG
METAR WADD 220030Z 10004KT 9999 FEW017 30/27 Q1012 NOSIG
METAR WADD 220000Z 14003KT 9999 FEW017 29/27 Q1012 NOSIG
METAR WADD 212330Z 14003KT 9999 FEW016 29/27 Q1011 NOSIG
METAR WADD 212300Z 10003KT 9999 FEW015CB FEW016 27/26 Q1011 NOSIG
METAR WADD 212230Z 12003KT 9999 FEW015CB SCT016 27/26 Q1011 NOSIG
METAR WADD 212200Z 12003KT 9999 FEW015CB SCT016 27/26 Q1011 NOSIG
METAR WADD 212130Z VRB02KT 9999 FEW015CB SCT016 26/26 Q1011 NOSIG
METAR WADD 212100Z 08004KT 9999 FEW015CB SCT016 26/26 Q1010 NOSIG
METAR WADD 212030Z 07003KT 9999 FEW015CB SCT016 27/26 Q1010 NOSIG
METAR WADD 212000Z 17003KT 9999 FEW015CB SCT016 27/26 Q1010 NOSIG
METAR WADD 211930Z 09003KT 9999 SCT017 27/26 Q1010 NOSIG
METAR WADD 211900Z 09003KT 9999 SCT017 27/26 Q1010 NOSIG
METAR WADD 211830Z 08004KT 9999 SCT017 27/25 Q1010 NOSIG
METAR WADD 211730Z 11006KT 9999 SCT017 27/26 Q1010 NOSIG
METAR WADD 211700Z 11008KT 9999 SCT017 27/25 Q1010 NOSIG
METAR WADD 211630Z 12009KT 9999 SCT017 27/26 Q1011 NOSIG
METAR WADD 211600Z 13009KT 9999 SCT017 28/27 Q1011 NOSIG
METAR WADD 211530Z 13010KT 9999 SCT017 28/27 Q1011 NOSIG
METAR WADD 211500Z 13012KT 9999 SCT017 28/27 Q1011 NOSIG
METAR WADD 211430Z 13013KT 9999 SCT017 28/27 Q1011 NOSIG
METAR WADD 211400Z 13011KT 9999 SCT017 28/27 Q1011 NOSIG
METAR WADD 211330Z 13012KT 9999 SCT017 28/27 Q1011 NOSIG
METAR WADD 211300Z 12013KT 9999 SCT017 28/26 Q1011 NOSIG
METAR WADD 211230Z 13012KT 9999 SCT017 28/26 Q1010 NOSIG
METAR WADD 211200Z 14010KT 9999 SCT017 29/26 Q1010 NOSIG
METAR WADD 211130Z 13008KT 9999 FEW017 29/26 Q1010 NOSIG
METAR WADD 211100Z 12006KT 9999 FEW017 29/26 Q1010 NOSIG
METAR WADD 211030Z 13005KT 9999 FEW017 29/26 Q1009 NOSIG
METAR WADD 210930Z 10007KT 9999 SCT017 30/25 Q1009 NOSIG
METAR WADD 210900Z 11008KT 9999 SCT017 31/26 Q1009 NOSIG
METAR WADD 210830Z 11008KT 9999 SCT017 31/26 Q1008 NOSIG
METAR WADD 210800Z 12008KT 9999 SCT017 31/26 Q1008 NOSIG
METAR WADD 210730Z 11009KT 9999 SCT017 31/26 Q1008 NOSIG
METAR WADD 210700Z 11007KT 060V130 9999 SCT017 32/26 Q1008 NOSIG
METAR WADD 210630Z 11006KT 070V140 9999 FEW017 33/27 Q1008 NOSIG
METAR WADD 210600Z 11005KT 080V160 9999 FEW017 33/27 Q1009 NOSIG</description><pubDate>Fri, 22 May 2026 05:44:59 </pubDate></item></channel></rss>