<rss version="2.0"><channel><title>Aviation Weather METAR Data for WADD</title><link>https://aviationweather.gov/api/data/metar?ids=WADD&amp;hours=24</link><description>Latest METAR data for WADD</description><item><title>2025-09-11 18:46:17Z</title><link>https://aviationweather.gov/api/data/metar?ids=WADD&amp;hours=24</link><description>METAR WADD 111830Z 15005KT 9999 FEW017 26/25 Q1011 NOSIG
METAR WADD 111800Z 14006KT 9999 +DZ BKN018 26/25 Q1011 NOSIG
METAR WADD 111730Z 13006KT 9999 FEW017 26/25 Q1011 NOSIG
METAR WADD 111700Z 13006KT 9999 FEW017 26/25 Q1012 NOSIG
METAR WADD 111630Z 14007KT 9999 FEW017 26/25 Q1012 NOSIG
METAR WADD 111600Z 11005KT 9999 FEW017 26/25 Q1012 NOSIG
METAR WADD 111530Z 13006KT 9999 FEW017 26/25 Q1012 NOSIG
METAR WADD 111500Z 13006KT 9999 FEW017 26/25 Q1012 NOSIG
METAR WADD 111430Z 12006KT 9999 FEW017 26/25 Q1012 NOSIG
METAR WADD 111400Z 12007KT 9999 FEW017 26/26 Q1012 NOSIG
METAR WADD 111330Z 13008KT 9999 FEW017 26/26 Q1012 NOSIG
METAR WADD 111300Z 12009KT 9999 FEW017 26/25 Q1011 NOSIG
METAR WADD 111230Z 12008KT 9999 FEW017 27/25 Q1011 NOSIG
METAR WADD 111200Z 12008KT 9999 FEW017 27/25 Q1011 NOSIG
METAR WADD 111130Z 13010KT 9999 FEW017 27/25 Q1010 NOSIG
METAR WADD 111100Z 14010KT 9999 FEW017 27/25 Q1010 NOSIG
METAR WADD 111030Z 13011KT 9999 FEW017 27/25 Q1010 NOSIG
METAR WADD 111000Z 14015KT 9999 FEW017 27/25 Q1009 NOSIG
METAR WADD 110930Z 14011KT 9999 FEW017 28/25 Q1009 NOSIG
METAR WADD 110900Z 14011KT 9999 FEW017 29/25 Q1008 NOSIG
METAR WADD 110830Z 14012KT 9999 FEW017 29/25 Q1008 NOSIG
METAR WADD 110800Z 14012KT 9999 FEW017 29/25 Q1008 NOSIG
METAR WADD 110730Z 14013KT 9999 FEW017 29/25 Q1008 NOSIG
METAR WADD 110700Z 12013KT 9999 FEW017 30/25 Q1008 NOSIG
METAR WADD 110630Z 12013KT 9999 FEW017 30/25 Q1009 NOSIG
METAR WADD 110600Z 12012KT 9999 FEW017 30/25 Q1009 NOSIG
METAR WADD 110530Z 11013KT 9999 FEW017 30/25 Q1010 NOSIG
METAR WADD 110500Z 11013KT 9999 FEW017 30/25 Q1010 NOSIG
METAR WADD 110430Z 12013KT 9999 FEW016 29/26 Q1010 NOSIG
METAR WADD 110400Z 12013KT 9999 FEW016 29/26 Q1011 NOSIG
METAR WADD 110330Z 12015KT 9999 SCT016 29/26 Q1011 NOSIG
METAR WADD 110300Z 12014KT 9999 SCT016 29/26 Q1011 NOSIG
METAR WADD 110230Z 11013KT 9999 SCT016 29/26 Q1011 NOSIG
METAR WADD 110200Z 12012KT 9999 SCT016 29/26 Q1012 NOSIG
METAR WADD 110130Z 11012KT 9999 SCT016 28/26 Q1012 NOSIG
 WADD 110100Z 12014KT 9999 SCT016 28/26 Q1012 NOSIG
METAR WADD 110030Z 11012KT 9999 SCT016 27/26 Q1011 NOSIG
 WADD 110000Z 11012KT 9999 SCT016 27/26 Q1011 NOSIG
METAR WADD 102330Z 11009KT 9999 SCT016 26/26 Q1011 NOSIG
 WADD 102300Z 11007KT 9999 BKN015 26/24 Q1011 NOSIG
METAR WADD 102230Z 12007KT 9999 BKN015 26/26 Q1011 NOSIG
METAR WADD 102200Z 12008KT 9999 BKN015 26/26 Q1010 NOSIG
METAR WADD 102130Z 12007KT 9999 SCT016 26/26 Q1010 NOSIG
METAR WADD 102100Z 12009KT 9999 SCT016 26/26 Q1010 NOSIG
 WADD 102030Z 12010KT 9999 SCT016 26/26 Q1010 NOSIG
METAR WADD 102000Z 12009KT 9999 SCT016 26/26 Q1010 NOSIG
METAR WADD 101930Z 12011KT 9999 SCT016 26/26 Q1010 NOSIG
METAR WADD 101900Z 13007KT 9999 SCT016 26/26 Q1010 NOSIG</description><pubDate>Thu, 11 Sep 2025 18:46:17 </pubDate></item></channel></rss>