<rss version="2.0"><channel><title>Aviation Weather METAR Data for WADD</title><link>https://aviationweather.gov/api/data/metar?ids=WADD&amp;hours=24</link><description>Latest METAR data for WADD</description><item><title>2025-07-20 03:55:39Z</title><link>https://aviationweather.gov/api/data/metar?ids=WADD&amp;hours=24</link><description>WADD 200330Z 12013KT 9999 FEW017 28/22 Q1010 NOSIG
WADD 200300Z 10012KT 9999 FEW017 28/22 Q1010 NOSIG
WADD 200230Z 10010KT 9999 FEW017 28/22 Q1011 NOSIG
WADD 200200Z 10010KT 9999 FEW017 28/22 Q1011 NOSIG
WADD 200130Z 09008KT 9999 FEW017 28/22 Q1011 NOSIG
WADD 200100Z 08007KT 9999 FEW017 27/22 Q1011 NOSIG
WADD 200030Z 08005KT 050V120 9999 FEW017 26/22 Q1011 NOSIG
WADD 200000Z 04003KT 9999 FEW017 25/21 Q1011 NOSIG
WADD 192330Z VRB02KT 9999 FEW017 24/21 Q1011 NOSIG
WADD 192300Z VRB02KT 9999 SCT016 23/21 Q1010 NOSIG
WADD 192230Z 36005KT 9999 SCT016 23/21 Q1010 NOSIG
WADD 192200Z 36004KT 9999 SCT016 23/21 Q1010 NOSIG
WADD 192130Z 35003KT 9999 SCT016 23/21 Q1010 NOSIG
WADD 192100Z 35003KT 9999 SCT016 23/21 Q1010 NOSIG
WADD 192030Z 36002KT 9999 SCT016 24/22 Q1010 NOSIG
WADD 192000Z VRB01KT 9999 SCT016 24/22 Q1010 NOSIG
WADD 191930Z VRB02KT 9999 SCT016 24/22 Q1010 NOSIG
WADD 191900Z 13004KT 9999 FEW016 25/22 Q1010 NOSIG
WADD 191830Z 13006KT 9999 FEW016 25/22 Q1010 NOSIG
WADD 191800Z 13007KT 9999 FEW016 25/22 Q1010 NOSIG
WADD 191730Z 13006KT 9999 FEW016 25/22 Q1010 NOSIG
WADD 191700Z 13007KT 9999 FEW016 25/22 Q1010 NOSIG
WADD 191630Z 12008KT 9999 FEW016 25/22 Q1010 NOSIG
WADD 191600Z 11008KT 9999 FEW016 25/22 Q1010 NOSIG
WADD 191530Z 10007KT 9999 FEW016 25/22 Q1010 NOSIG
WADD 191500Z 11008KT 9999 FEW016 25/22 Q1010 NOSIG
WADD 191430Z 12008KT 9999 FEW016 25/22 Q1010 NOSIG
WADD 191400Z 12007KT 9999 FEW016 25/22 Q1011 NOSIG
WADD 191330Z 13007KT 9999 FEW016 25/22 Q1011 NOSIG
WADD 191300Z 13007KT 9999 FEW017 25/22 Q1010 NOSIG
WADD 191230Z 13007KT 9999 FEW017 26/22 Q1010 NOSIG
WADD 191200Z 13008KT 9999 FEW017 26/22 Q1010 NOSIG
WADD 191130Z 13008KT 9999 FEW017 26/22 Q1010 NOSIG
WADD 191100Z 14009KT 9999 FEW017 26/22 Q1009 NOSIG
WADD 191030Z 13007KT 9999 FEW017 26/22 Q1009 NOSIG
WADD 191000Z 14012KT 9999 FEW017 26/22 Q1008 NOSIG
WADD 190930Z 14010KT 9999 FEW017 27/22 Q1008 NOSIG
WADD 190900Z 14011KT 9999 FEW017 27/22 Q1008 NOSIG
WADD 190830Z 13011KT 9999 FEW017 28/22 Q1008 NOSIG
WADD 190800Z 12010KT 9999 FEW017 28/22 Q1008 NOSIG
WADD 190730Z 10010KT 9999 FEW017 28/22 Q1008 NOSIG
WADD 190700Z 12008KT 9999 FEW017 28/22 Q1008 NOSIG
WADD 190630Z 10010KT 9999 FEW017 28/21 Q1008 NOSIG
WADD 190600Z 11010KT 9999 FEW017 28/22 Q1009 NOSIG
WADD 190530Z 10010KT 9999 FEW017 29/22 Q1009 NOSIG
WADD 190500Z 09010KT 9999 FEW017 29/22 Q1009 NOSIG
WADD 190430Z 11009KT 9999 FEW017 29/22 Q1010 NOSIG
WADD 190400Z 10007KT 060V140 9999 FEW017 28/22 Q1010 NOSIG</description><pubDate>Sun, 20 Jul 2025 03:55:39 </pubDate></item></channel></rss>