<rss version="2.0"><channel><title>Aviation Weather METAR Data for WADD</title><link>https://aviationweather.gov/api/data/metar?ids=WADD&amp;hours=24</link><description>Latest METAR data for WADD</description><item><title>2025-06-13 10:47:53Z</title><link>https://aviationweather.gov/api/data/metar?ids=WADD&amp;hours=24</link><description>WADD 131030Z 13012KT 9999 SCT016 28/26 Q1010 NOSIG
WADD 131000Z 13013KT 9999 SCT016 28/26 Q1010 NOSIG
WADD 130930Z 14015KT 9999 SCT016 28/27 Q1010 NOSIG
WADD 130900Z 13013KT 9999 SCT016 28/27 Q1010 NOSIG
WADD 130830Z 13013KT 9999 FEW016CB SCT017 29/27 Q1010 NOSIG
WADD 130800Z 12014KT 9999 FEW017 29/26 Q1009 NOSIG
WADD 130730Z 12013KT 9999 FEW017 30/26 Q1009 NOSIG
WADD 130700Z 11013KT 9999 SCT017 30/27 Q1010 NOSIG
WADD 130630Z 12012KT 9999 SCT017 30/27 Q1010 NOSIG
WADD 130600Z 12013KT 9999 SCT017 30/27 Q1010 NOSIG
WADD 130530Z 11012KT 9999 SCT016 30/27 Q1011 NOSIG
WADD 130500Z 11013KT 9999 SCT016 30/27 Q1011 NOSIG
WADD 130430Z 11014KT 9999 SCT016 30/27 Q1011 NOSIG
WADD 130400Z 11015KT 9999 SCT016 29/26 Q1012 NOSIG
WADD 130330Z 10013KT 9999 SCT016 29/27 Q1012 NOSIG
WADD 130300Z 11014KT 9999 BKN016 29/27 Q1012 NOSIG
WADD 130230Z 11012KT 9999 BKN016 29/27 Q1013 NOSIG
WADD 130200Z 12014KT 9999 BKN016 28/26 Q1013 NOSIG
WADD 130130Z 11014KT 9999 BKN016 28/26 Q1013 NOSIG
WADD 130100Z 11011KT 9999 BKN016 29/26 Q1013 NOSIG
WADD 130030Z 12011KT 9999 BKN016 28/26 Q1012 NOSIG
WADD 130000Z 11012KT 9999 BKN016 28/26 Q1012 NOSIG
WADD 122330Z 12015KT 9999 SCT016 28/26 Q1012 NOSIG
WADD 122300Z 13014KT 9999 BKN016 28/26 Q1011 NOSIG
WADD 122230Z 12014KT 9999 FEW016CB BKN017 28/25 Q1011 NOSIG
WADD 122200Z 13011KT 9999 FEW016CB SCT017 28/26 Q1011 NOSIG
WADD 122130Z 12009KT 9999 SCT017 28/26 Q1011 NOSIG
WADD 122100Z 11012KT 9999 SCT017 27/26 Q1011 NOSIG
WADD 122030Z 11013KT 9999 SCT017 28/26 Q1011 NOSIG
WADD 122000Z 12013KT 9999 SCT017 28/26 Q1011 NOSIG
WADD 121930Z 12011KT 9999 SCT017 28/26 Q1011 NOSIG
WADD 121900Z 11011KT 9999 SCT017 28/26 Q1011 NOSIG
WADD 121830Z 11013KT 9999 SCT017 28/25 Q1011 NOSIG
WADD 121800Z 12012KT 9999 SCT017 28/25 Q1011 NOSIG
WADD 121730Z 12014KT 9999 SCT017 28/25 Q1011 NOSIG
WADD 121700Z 12017KT 9999 SCT017 28/25 Q1011 NOSIG
WADD 121630Z 12014KT 9999 SCT017 28/25 Q1011 NOSIG
WADD 121600Z 12015KT 9999 SCT017 28/25 Q1011 NOSIG
WADD 121530Z 13014KT 9999 SCT017 28/25 Q1011 NOSIG
WADD 121500Z 13017KT 9999 SCT017 28/25 Q1011 NOSIG
WADD 121430Z 14015KT 9999 BKN017 28/25 Q1011 NOSIG
WADD 121400Z 13017KT 9999 BKN017 28/25 Q1011 NOSIG
WADD 121330Z 13015KT 9999 BKN017 28/25 Q1011 NOSIG
WADD 121300Z 13015KT 9999 SCT017 28/25 Q1011 NOSIG
WADD 121230Z 13017KT 9999 SCT017 28/25 Q1010 NOSIG
WADD 121200Z 13016KT 9999 SCT017 28/25 Q1010 NOSIG
WADD 121130Z 13016KT 9999 FEW017 28/25 Q1010 NOSIG
WADD 121100Z 13014KT 9999 FEW017 28/25 Q1010 NOSIG</description><pubDate>Fri, 13 Jun 2025 10:47:53 </pubDate></item></channel></rss>