<rss version="2.0"><channel><title>Aviation Weather METAR Data for WADD</title><link>https://aviationweather.gov/api/data/metar?ids=WADD&amp;hours=24</link><description>Latest METAR data for WADD</description><item><title>2025-10-30 11:22:35Z</title><link>https://aviationweather.gov/api/data/metar?ids=WADD&amp;hours=24</link><description>METAR WADD 301100Z 15010KT 9999 TS FEW015CB BKN016 29/27 Q1010 TEMPO TL1200 TS
METAR WADD 301030Z 14008KT 9999 TS FEW015CB BKN016 29/27 Q1010 TEMPO TL1130 TS
METAR WADD 301000Z 16010KT 9999 TS FEW015CB BKN016 29/27 Q1009 TEMPO TL1100 TS
METAR WADD 300930Z 16013KT 9999 FEW015CB BKN016 29/27 Q1009 NOSIG
METAR WADD 300900Z 16013KT 9999 FEW015CB BKN016 29/27 Q1009 NOSIG
METAR WADD 300830Z 15014KT 9999 FEW015CB BKN016 30/27 Q1008 NOSIG
METAR WADD 300800Z 16015KT 9999 FEW015CB BKN016 30/27 Q1008 NOSIG
METAR WADD 300730Z 14016KT 9999 FEW015CB BKN016 30/27 Q1008 NOSIG
METAR WADD 300700Z 16015KT 9999 FEW015CB BKN016 30/27 Q1008 NOSIG
METAR WADD 300630Z 14013KT 9999 FEW015CB SCT016 30/27 Q1009 NOSIG
METAR WADD 300600Z 13010KT 9999 FEW015CB SCT016 30/27 Q1009 NOSIG
METAR WADD 300530Z 12013KT 9999 FEW016CB SCT017 31/27 Q1010 NOSIG
METAR WADD 300500Z 13012KT 9999 FEW016CB SCT017 31/27 Q1010 NOSIG
METAR WADD 300430Z 12011KT 9999 SCT017 31/27 Q1010 NOSIG
METAR WADD 300400Z 12013KT 9999 SCT017 31/27 Q1010 NOSIG
METAR WADD 300330Z 13011KT 9999 FEW016CB SCT017 31/27 Q1011 NOSIG
 WADD 300300Z 11008KT 9999 FEW016CB SCT017 31/26 Q1011 NOSIG
 WADD 300230Z 11006KT 080V160 9999 FEW016CB SCT017 30/26 Q1011 NOSIG
 WADD 300200Z 11005KT 070V150 9999 FEW016CB SCT017 31/26 Q1011 NOSIG
METAR WADD 300130Z 08003KT 9999 SCT017 30/25 Q1011 NOSIG
 WADD 300100Z 14004KT 9999 SCT017 29/26 Q1012 NOSIG
METAR WADD 300030Z 24004KT 9999 SCT017 29/25 Q1011 NOSIG
METAR WADD 300000Z 27004KT 9999 SCT017 29/25 Q1012 NOSIG
METAR WADD 292330Z 31003KT 9999 FEW016CB SCT017 28/24 Q1011 NOSIG
METAR WADD 292300Z 32004KT 9999 FEW016CB SCT016 27/24 Q1011 NOSIG
METAR WADD 292230Z 31004KT 9999 SCT016 26/24 Q1011 NOSIG
METAR WADD 292200Z 34003KT 9999 SCT016 26/24 Q1010 NOSIG
METAR WADD 292130Z 34002KT 9999 SCT016 26/24 Q1010 NOSIG
METAR WADD 292100Z 35002KT 9999 SCT016 26/25 Q1010 NOSIG
METAR WADD 292030Z 27001KT 9999 SCT016 26/25 Q1010 NOSIG
METAR WADD 292000Z VRB02KT 9999 SCT016 26/24 Q1009 NOSIG
METAR WADD 291930Z VRB01KT 9999 SCT016 26/25 Q1009 NOSIG
METAR WADD 291900Z 36004KT 9999 SCT016 26/25 Q1009 NOSIG
METAR WADD 291830Z 33003KT 9999 SCT016 26/25 Q1010 NOSIG
METAR WADD 291800Z 35002KT 9999 SCT016 27/25 Q1010 NOSIG
 WADD 291730Z VRB02KT 9999 SCT016 27/25 Q1010 NOSIG
METAR WADD 291700Z VRB02KT 9999 SCT016 27/25 Q1010 NOSIG
METAR WADD 291630Z VRB01KT 9999 SCT016 26/25 Q1010 NOSIG
METAR WADD 291600Z VRB03KT 9999 SCT016 26/25 Q1011 NOSIG
METAR WADD 291530Z VRB02KT 9999 FEW016 26/25 Q1011 NOSIG
METAR WADD 291500Z VRB02KT 9999 SCT016 26/25 Q1011 NOSIG
METAR WADD 291430Z VRB02KT 9999 SCT016 27/25 Q1012 NOSIG
METAR WADD 291400Z VRB02KT 9999 SCT016 26/25 Q1012 NOSIG
METAR WADD 291330Z 34004KT 290V360 9999 BKN015 26/25 Q1012 NOSIG
METAR WADD 291300Z 32007KT 280V340 9999 FEW015CB BKN015 26/25 Q1011 NOSIG
METAR WADD 291230Z 30006KT 9999 FEW015CB BKN015 26/25 Q1011 NOSIG
METAR WADD 291200Z 29007KT 9999 FEW015CB BKN015 27/25 Q1011 NOSIG RMK CB IN APCH AND CLIMB-OUT
METAR WADD 291130Z 31008KT 9999 FEW014CB BKN014 27/24 Q1011 NOSIG RMK CB IN APCH AND CLIMB-OUT</description><pubDate>Thu, 30 Oct 2025 11:22:35 </pubDate></item></channel></rss>