<rss version="2.0"><channel><title>Aviation Weather METAR Data for WADD</title><link>https://aviationweather.gov/api/data/metar?ids=WADD&amp;hours=24</link><description>Latest METAR data for WADD</description><item><title>2025-02-06 04:28:05Z</title><link>https://aviationweather.gov/api/data/metar?ids=WADD&amp;hours=24</link><description>WADD 060400Z 12007KT 9999 FEW017 32/27 Q1006 NOSIG
WADD 060330Z 11007KT 080V140 9999 FEW017 31/26 Q1006 NOSIG
WADD 060300Z 09006KT 040V140 9999 FEW017 31/26 Q1006 NOSIG
WADD 060230Z 27003KT 9999 FEW017 31/25 Q1006 NOSIG
WADD 060200Z 28007KT 9999 FEW017 31/25 Q1006 NOSIG
WADD 060130Z 29009KT 9999 FEW016 31/25 Q1006 NOSIG
WADD 060100Z 29008KT 9999 FEW017 30/25 Q1007 NOSIG
WADD 060030Z 29011KT 9999 FEW017 30/25 Q1006 NOSIG
WADD 060000Z 30007KT 9999 FEW017 29/25 Q1006 NOSIG
WADD 052330Z 32004KT 9999 FEW017 29/25 Q1006 NOSIG
WADD 052300Z 31003KT 9999 FEW017 28/25 Q1006 NOSIG
WADD 052230Z 30004KT 9999 FEW017 27/26 Q1006 NOSIG
WADD 052200Z 31004KT 280V350 9999 FEW017 28/26 Q1005 NOSIG
WADD 052130Z 29004KT 9999 FEW017 28/26 Q1005 NOSIG
WADD 052100Z 31005KT 9999 FEW017 28/27 Q1004 NOSIG
WADD 052030Z 34007KT 9999 FEW017 28/26 Q1004 NOSIG
WADD 052000Z 31011KT 9999 FEW017 28/27 Q1004 NOSIG
WADD 051930Z 28007KT 9999 FEW017 28/27 Q1004 NOSIG
WADD 051900Z 30006KT 9999 FEW017 28/27 Q1005 NOSIG
WADD 051830Z 32008KT 9999 FEW017 28/27 Q1005 NOSIG
WADD 051800Z 33005KT 310V030 9999 FEW017 29/27 Q1005 NOSIG
WADD 051730Z 34006KT 320V050 9999 FEW017 29/27 Q1005 NOSIG
WADD 051700Z 35009KT 320V040 9999 FEW017 29/26 Q1006 NOSIG
WADD 051630Z 01003KT 9999 FEW017 30/26 Q1006 NOSIG
WADD 051600Z VRB02KT 9999 FEW017 30/27 Q1006 NOSIG
WADD 051530Z VRB02KT 9999 SCT017 29/27 Q1006 NOSIG
WADD 051500Z 13003KT 9999 SCT017 30/27 Q1006 NOSIG
WADD 051430Z 13004KT 9999 FEW016CB SCT017 30/28 Q1006 NOSIG
WADD 051400Z 12004KT 9999 FEW016CB SCT017 30/28 Q1006 NOSIG
WADD 051330Z 14007KT 9999 FEW017 30/28 Q1006 NOSIG
WADD 051300Z 12007KT 9999 FEW017 30/28 Q1006 NOSIG
WADD 051230Z 14007KT 090V160 9999 FEW017 30/28 Q1005 NOSIG
WADD 051200Z 16008KT 9999 FEW016CB SCT017 30/28 Q1005 NOSIG
WADD 051130Z 15004KT 100V190 9999 FEW017 30/27 Q1005 NOSIG
WADD 051100Z 15004KT 120V180 9999 FEW017 30/26 Q1004 NOSIG
WADD 051030Z 23003KT 9999 FEW017 31/25 Q1003 NOSIG
WADD 051000Z 25006KT 9999 FEW017 31/26 Q1003 NOSIG
WADD 050930Z 26007KT 220V280 9999 FEW017 32/26 Q1003 NOSIG
WADD 050900Z 24007KT 9999 FEW017 32/26 Q1002 NOSIG
WADD 050830Z 25007KT 9999 FEW017 32/26 Q1002 NOSIG
WADD 050800Z 24007KT 9999 FEW017 32/26 Q1002 NOSIG
WADD 050730Z 25009KT 9999 FEW017 33/26 Q1002 NOSIG
WADD 050700Z 25008KT 9999 FEW017 33/27 Q1002 NOSIG
WADD 050630Z 27009KT 9999 FEW017 33/27 Q1002 NOSIG
WADD 050600Z 29012KT 9999 FEW017 34/25 Q1003 NOSIG
WADD 050530Z 29011KT 9999 FEW017 34/25 Q1003 NOSIG
WADD 050500Z 28009KT 240V350 9999 FEW017 33/26 Q1003 NOSIG
WADD 050430Z 26009KT 210V310 9999 FEW017 33/27 Q1004 NOSIG</description><pubDate>Thu, 06 Feb 2025 04:28:05 </pubDate></item></channel></rss>