<rss version="2.0"><channel><title>Aviation Weather METAR Data for WADD</title><link>https://aviationweather.gov/api/data/metar?ids=WADD&amp;hours=24</link><description>Latest METAR data for WADD</description><item><title>2025-04-24 13:35:02Z</title><link>https://aviationweather.gov/api/data/metar?ids=WADD&amp;hours=24</link><description>WADD 241300Z 12003KT 9999 FEW017 28/26 Q1011 NOSIG
WADD 241230Z 14005KT 9999 FEW017 29/27 Q1010 NOSIG
WADD 241200Z 15004KT 9999 FEW017 29/25 Q1010 NOSIG
WADD 241030Z 16003KT 9999 FEW017 29/24 Q1009 NOSIG
WADD 240930Z 16003KT 9999 FEW017 30/24 Q1008 NOSIG
WADD 240900Z 16004KT 120V240 9999 FEW017 30/24 Q1008 NOSIG
WADD 240830Z 15005KT 080V210 9999 FEW016 31/24 Q1007 NOSIG
WADD 240730Z 26009KT 9999 FEW016 31/25 Q1008 NOSIG
WADD 240700Z 26008KT 9999 FEW017 31/25 Q1008 NOSIG
WADD 240630Z 27009KT 9999 FEW016 30/25 Q1008 NOSIG
WADD 240530Z 27009KT 9999 FEW017 30/25 Q1009 NOSIG
WADD 240500Z 26008KT 9999 FEW017 30/25 Q1009 NOSIG
WADD 240400Z 26008KT 220V290 9999 FEW017 30/24 Q1010 NOSIG
WADD 240330Z 25006KT 220V280 9999 FEW017 30/24 Q1010 NOSIG
WADD 240200Z 02003KT 9999 FEW017 30/23 Q1011 NOSIG
WADD 240030Z 11003KT 9999 FEW017 28/23 Q1011 NOSIG
WADD 240000Z VRB01KT 9999 FEW017 27/23 Q1011 NOSIG
WADD 232330Z 35004KT 320V030 9999 FEW017 26/22 Q1010 NOSIG
WADD 232230Z VRB02KT 9999 FEW017 25/22 Q1010 NOSIG
WADD 232200Z VRB01KT 9999 FEW017 24/22 Q1009 NOSIG
WADD 232130Z 01003KT 9999 FEW017 24/22 Q1009 NOSIG
WADD 232100Z VRB01KT 9999 FEW017 25/22 Q1009 NOSIG
WADD 232030Z VRB01KT 9999 FEW017 25/23 Q1009 NOSIG
WADD 232000Z VRB01KT 9999 FEW017 25/23 Q1009 NOSIG
WADD 231930Z VRB01KT 9999 FEW017 25/23 Q1009 NOSIG
WADD 231900Z 00000KT 9999 FEW017 25/23 Q1009 NOSIG
WADD 231830Z VRB01KT 9999 FEW017 25/23 Q1010 NOSIG
WADD 231800Z VRB01KT 9999 FEW017 26/23 Q1010 NOSIG
WADD 231730Z 36003KT 9999 FEW017 26/23 Q1010 NOSIG
WADD 231700Z VRB01KT 9999 FEW017 26/23 Q1010 NOSIG
WADD 231630Z VRB01KT 9999 FEW017 25/23 Q1011 NOSIG
WADD 231600Z 00000KT 9999 FEW017 26/23 Q1011 NOSIG
WADD 231530Z 21001KT 9999 FEW017 26/23 Q1011 NOSIG
WADD 231500Z 00000KT 9999 FEW017 26/23 Q1011 NOSIG
WADD 231430Z 12001KT 9999 FEW017 26/23 Q1011 NOSIG
WADD 231400Z VRB01KT 9999 FEW017 26/23 Q1011 NOSIG</description><pubDate>Thu, 24 Apr 2025 13:35:02 </pubDate></item></channel></rss>