<rss version="2.0"><channel><title>Aviation Weather METAR Data for WADD</title><link>https://aviationweather.gov/api/data/metar?ids=WADD&amp;hours=24</link><description>Latest METAR data for WADD</description><item><title>2025-03-14 09:41:06Z</title><link>https://aviationweather.gov/api/data/metar?ids=WADD&amp;hours=24</link><description>WADD 140930Z 05004KT 350V100 9999 BKN016 29/25 Q1008 NOSIG
WADD 140900Z 04007KT 9999 BKN016 29/25 Q1008 RETS NOSIG
WADD 140830Z 09007KT 9999 TS FEW015CB BKN016 29/27 Q1008 TEMPO TL0930 TS
WADD 140800Z 12008KT 9999 FEW015CB BKN016 30/26 Q1007 NOSIG
WADD 140730Z VRB07G15KT 9999 FEW015CB BKN016 31/26 Q1007 NOSIG
WADD 140700Z VRB03KT 9999 SCT016 31/26 Q1007 NOSIG
WADD 140630Z 24006KT 210V270 9999 SCT017 32/26 Q1007 NOSIG
WADD 140600Z 25008KT 9999 SCT017 32/26 Q1007 NOSIG
WADD 140530Z 26008KT 9999 SCT017 32/27 Q1008 NOSIG
WADD 140500Z 26009KT 9999 STC017 32/26 Q1008 NOSIG
WADD 140430Z 21006KT 9999 FEW017 32/28 Q1008 NOSIG
WADD 140400Z 19004KT 9999 FEW017 31/28 Q1009 NOSIG
WADD 140330Z 13006KT 9999 SCT017 31/28 Q1009 NOSIG
WADD 140300Z 12006KT 9999 SCT017 30/28 Q1010 NOSIG
WADD 140230Z 09008KT 9999 SCT017 30/28 Q1010 NOSIG
WADD 140200Z 12008KT 9999 SCT017 30/28 Q1010 NOSIG
WADD 140130Z 10006KT 9999 FEW017TCU FEW017 30/28 Q1010 NOSIG
WADD 140100Z 11006KT 9999 FEW017 30/28 Q1010 NOSIG
WADD 140030Z 09007KT 9999 FEW017 29/28 Q1010 NOSIG
WADD 140000Z 13005KT 9999 FEW017 29/27 Q1010 NOSIG
WADD 132330Z 09003KT 9999 FEW016 28/27 Q1009 NOSIG
WADD 132300Z 08002KT 9999 SCT015 27/25 Q1009 NOSIG
WADD 132230Z VRB01KT 9999 SCT015 27/25 Q1008 NOSIG
WADD 132200Z 05002KT 9999 SCT016 27/25 Q1008 NOSIG
WADD 132130Z 03002KT 9999 SCT016 27/25 Q1008 NOSIG
WADD 132100Z 06003KT 9999 SCT016 27/25 Q1008 NOSIG
WADD 132000Z 05003KT 9999 SCT016 27/26 Q1008 NOSIG NOSIG
WADD 131930Z 06003KT 9999 SCT016 27/26 Q1007 NOSIG
WADD 131900Z VRB02KT 9999 SCT016 27/26 Q1008 NOSIG
WADD 131830Z VRB02KT 9999 SCT016 28/26 Q1007 NOSIG
WADD 131800Z 11003KT 9999 SCT016 28/26 Q1008 NOSIG
WADD 131730Z 10003KT 9999 SCT016 28/26 Q1008 NOSIG
WADD 131700Z 09003KT 9999 SCT016 28/26 Q1008 NOSIG
WADD 131630Z 06003KT 9999 SCT016 28/26 Q1008 NOSIG
WADD 131600Z 04003KT 9999 SCT016 29/26 Q1009 NOSIG
WADD 131530Z VRB02KT 9999 SCT016 29/26 Q1009 NOSIG
WADD 131500Z VRB02KT 9999 SCT016 29/26 Q1009 NOSIG
WADD 131430Z 26003KT 9999 FEW016CB FEW016 29/26 Q1009 NOSIG
WADD 131400Z VRB01KT 9999 FEW016CB FEW016 29/26 Q1009 RETS NOSIG
WADD 131330Z VRB02KT 9999 TS FEW016CB FEW016 29/26 Q1009 NOSIG
WADD 131300Z VRB02KT 9999 TS FEW016CB FEW016 29/26 Q1009 NOSIG
WADD 131230Z VRB02KT 9999 TS FEW016CB FEW016 28/26 Q1008 NOSIG
WADD 131200Z 22003KT 9999 FEW016CB FEW016 29/26 Q1008 NOSIG
WADD 131130Z VRB03KT 9999 SCT016 29/26 Q1008 NOSIG
WADD 131100Z 23005KT 190V260 9999 SCT016 30/26 Q1007 NOSIG
WADD 131030Z 24005KT 200V260 9999 SCT016 30/25 Q1007 NOSIG
WADD 131000Z 26007KT 9999 FEW016 30/26 Q1007 NOSIG</description><pubDate>Fri, 14 Mar 2025 09:41:06 </pubDate></item></channel></rss>