<rss version="2.0"><channel><title>Aviation Weather METAR Data for WADD</title><link>https://aviationweather.gov/api/data/metar?ids=WADD&amp;hours=24</link><description>Latest METAR data for WADD</description><item><title>2025-05-26 16:32:03Z</title><link>https://aviationweather.gov/api/data/metar?ids=WADD&amp;hours=24</link><description>WADD 261600Z 08004KT 020V100 9999 FEW016 27/26 Q1010 NOSIG
WADD 261530Z 12003KT 9999 FEW016 28/27 Q1010 NOSIG
WADD 261500Z 14004KT 9999 FEW016 29/26 Q1010 NOSIG
WADD 261430Z 14006KT 9999 SCT016 29/26 Q1010 NOSIG
WADD 261400Z 16004KT 9999 SCT016 29/26 Q1010 NOSIG
WADD 261330Z 14004KT 9999 SCT016 28/26 Q1009 NOSIG
WADD 261300Z 14005KT 9999 SCT016 28/26 Q1009 NOSIG
WADD 261230Z 14008KT 9999 SCT016 28/27 Q1009 NOSIG
WADD 261200Z 13007KT 9999 SCT016 28/26 Q1009 NOSIG
WADD 261130Z 15006KT 9999 SCT016 28/26 Q1008 NOSIG
WADD 261100Z 08008KT 9999 BKN015 27/26 Q1008 NOSIG
WADD 261030Z 12004KT 9000 FEW014CB BKN015 29/27 Q1007 NOSIG
WADD 261000Z 11004KT 9000 FEW014CB BKN015 28/26 Q1007 RERA NOSIG
WADD 260930Z 27004KT 210V310 9999 FEW014CB BKN015 29/26 Q1008 RMK CB IN APCH
WADD 260900Z 24005KT 9999 FEW015CB SCT016 30/27 Q1007 NOSIG
WADD 260830Z 24004KT 9999 SCT016 30/27 Q1007 NOSIG
WADD 260800Z 25006KT 9999 FEW015CB SCT016 30/27 Q1007 NOSIG
WADD 260730Z 24008KT 9999 FEW015CB SCT016 30/27 Q1007 NOSIG
WADD 260700Z 24010KT 9999 SCT017 30/27 Q1007 NOSIG
WADD 260630Z 24008KT 9999 SCT017 30/27 Q1007 NOSIG
WADD 260600Z 24008KT 9999 SCT017 30/27 Q1007 NOSIG
WADD 260530Z 24007KT 9999 FEW017 30/27 Q1007 NOSIG
WADD 260500Z 23005KT 9999 FEW017 31/27 Q1008 NOSIG
WADD 260430Z 23005KT 9999 FEW017 30/27 Q1008 NOSIG
WADD 260400Z 25006KT 9999 FEW017 30/27 Q1009 NOSIG
WADD 260330Z 25007KT 9999 FEW017 30/27 Q1009 NOSIG
WADD 260300Z 24004KT 9999 FEW017 30/27 Q1009 NOSIG
WADD 260230Z 21003KT 9999 FEW017 30/27 Q1009 NOSIG
WADD 260200Z 16003KT 9999 FEW017 29/27 Q1009 NOSIG
WADD 260130Z 14003KT 9999 FEW017 28/26 Q1009 NOSIG
WADD 260100Z 13003KT 9000 FEW016 28/26 Q1009 NOSIG
WADD 260030Z VRB02KT 9999 FEW016 28/25 Q1009 NOSIG
WADD 260000Z 36003KT 9999 FEW016 28/25 Q1009 NOSIG
WADD 252330Z 31003KT 9999 FEW016 27/26 Q1009 NOSIG
WADD 252300Z 35003KT 9999 FEW016 26/25 Q1008 NOSIG
WADD 252230Z 36003KT 9999 FEW016 26/25 Q1008 NOSIG
WADD 252200Z VRB02KT 9999 FEW016 26/25 Q1007 NOSIG
WADD 252130Z 01003KT 9999 FEW016 26/25 Q1007 NOSIG
WADD 252100Z 35004KT 9999 FEW016 26/25 Q1007 NOSIG
WADD 252030Z 34005KT 9999 FEW016 26/26 Q1007 NOSIG
WADD 252000Z 33006KT 9999 FEW016 26/26 Q1007 NOSIG
WADD 251930Z VRB01KT 9999 FEW016 27/26 Q1007 NOSIG
WADD 251900Z VRB01KT 9999 FEW016 26/26 Q1007 NOSIG
WADD 251830Z 12004KT 9999 FEW016 27/27 Q1008 NOSIG
WADD 251800Z 13003KT 9999 FEW016 27/27 Q1008 NOSIG
WADD 251730Z 11005KT 9999 FEW016 27/26 Q1008 NOSIG
WADD 251700Z 10005KT 9999 FEW016 27/26 Q1009 NOSIG</description><pubDate>Mon, 26 May 2025 16:32:03 </pubDate></item></channel></rss>