<rss version="2.0"><channel><title>Aviation Weather METAR Data for WADD</title><link>https://aviationweather.gov/api/data/metar?ids=WADD&amp;hours=24</link><description>Latest METAR data for WADD</description><item><title>2026-01-10 10:29:39Z</title><link>https://aviationweather.gov/api/data/metar?ids=WADD&amp;hours=24</link><description>METAR WADD 101000Z 28010KT 9999 FEW017 29/25 Q1007 NOSIG
METAR WADD 100930Z 28010KT 9999 FEW017 29/25 Q1007 NOSIG
METAR WADD 100900Z 27010KT 9999 FEW017 30/25 Q1007 NOSIG
METAR WADD 100830Z 26010KT 9999 FEW017 30/25 Q1007 NOSIG
METAR WADD 100800Z 27010KT 9999 FEW017 30/25 Q1007 NOSIG
METAR WADD 100730Z 27010KT 9999 FEW017 30/25 Q1007 NOSIG
METAR WADD 100700Z 28011KT 9999 FEW017 31/25 Q1007 NOSIG
METAR WADD 100630Z 28010KT 9999 SCT017 31/26 Q1007 NOSIG
METAR WADD 100600Z 28011KT 9999 SCT017 30/26 Q1007 NOSIG
METAR WADD 100530Z 28011KT 9999 FEW017 30/26 Q1008 NOSIG
METAR WADD 100500Z 29011KT 9999 FEW017 31/26 Q1008 NOSIG
METAR WADD 100430Z 29012KT 9999 FEW017 30/25 Q1008 NOSIG
METAR WADD 100400Z 31011KT 9999 FEW017 30/25 Q1008 NOSIG
METAR WADD 100330Z 31008KT 9999 FEW017 30/24 Q1009 NOSIG
METAR WADD 100300Z 30007KT 9999 FEW017 29/24 Q1009 NOSIG
METAR WADD 100230Z 30007KT 9999 SCT016 28/24 Q1009 NOSIG
METAR WADD 100200Z 31006KT 9999 SCT016 27/23 Q1009 NOSIG
METAR WADD 100130Z 31007KT 9999 SCT016 27/23 Q1009 NOSIG
METAR WADD 100100Z 31006KT 9999 SCT016 27/23 Q1009 NOSIG
METAR WADD 100030Z 32004KT 300V360 9999 SCT016 26/23 Q1009 NOSIG
METAR WADD 100000Z 32007KT 9999 BKN016 25/23 Q1009 RERA NOSIG
METAR WADD 092330Z 32009KT 8000 -RA BKN014 25/24 Q1009 TEMPO TL2430 -RA
METAR WADD 092300Z 33006KT 300V010 7000 -RA BKN014 25/23 Q1009 TEMPO TL2430 -RA
METAR WADD 092230Z 30011KT 7000 -RA BKN014 25/23 Q1009 TEMPO TL2330 -RA
METAR WADD 092200Z 29015KT 7000 -RA BKN014 26/23 Q1009 TEMPO TL2330 -RA
METAR WADD 092130Z 28014KT 7000 -RA BKN014 26/24 Q1009 TEMPO TL2230 -RA
METAR WADD 092100Z 27015KT 7000 -RA BKN014 25/24 Q1009 TEMPO TL2230 -RA
METAR WADD 092030Z 28017KT 7000 -RA BKN014 25/23 Q1008 TEMPO TL2130 - RA
METAR WADD 092000Z 26018KT 7000 -RA FEW014CB BKN014 26/24 Q1008 TEMPO TL2130 -RA
METAR WADD 091930Z 26014KT 7000 -RA FEW014CB BKN014 26/24 Q1008 TEMPO TL2030 -RA
METAR WADD 091900Z 25012KT 5000 -RA FEW014CB BKN014 26/25 Q1008 TEMPO TL2030 7000 -RA
METAR WADD 091830Z 25009KT 5000 -RA FEW014CB BKN014 27/25 Q1008 TEMPO TL1930 -RA RMK CB IN CLIMB-OUT
METAR WADD 091800Z 25009KT 9999 FEW014CB BKN014 27/25 Q1008 NOSIG
METAR WADD 091730Z 23003KT 9999 FEW014CB BKN014 26/25 Q1008 NOSIG
METAR WADD 091700Z 27003KT 9999 FEW014CB BKN014 25/24 Q1008 RERA NOSI G
METAR WADD 091630Z 26011KT 210V270 0700 +RA FEW013CB BKN014 25/25 Q10 09 TEMPO TL1730 3000 RA RMK CB IN CLIMB-OUT
METAR WADD 091600Z VRB02KT 7000 -RA BKN014 25/25 Q1009 TEMPO TL1730 - RA
METAR WADD 091530Z 21003KT 7000 -RA BKN014 25/25 Q1009 TEMPO TL1630 - RA
METAR WADD 091500Z 24003KT 7000 -RA BKN014 25/25 Q1009 TEMPO TL1630 - RA
METAR WADD 091430Z 29006KT 7000 -RA BKN015 26/24 Q1009 TEMPO TL1530 -RA
METAR WADD 091400Z 23003KT 9999 FEW015CB BKN015 25/24 Q1010 RERA NOSI G
METAR WADD 091330Z 26003KT 7000 -RA FEW014CB BKN014 24/24 Q1010 TEMPO TL1430 -RA
METAR WADD 091300Z 28007KT 190V330 2000 RA FEW014CB BKN014 24/23 Q1010 TEMPO TL1400 5000 -RA
METAR WADD 091230Z 35004KT 260V040 7000 -RA FEW015CB BKN015 27/24 Q1009 TEMPO TL1330 -RA RMK CB IN CLIMB-OUT
METAR WADD 091200Z 35004KT 320V030 9999 FEW015CB SCT015 26/24 Q1009 N OSIG
METAR WADD 091130Z 02005KT 330V040 9999 FEW015CB SCT015 26/25 Q1009 N OSIG
METAR WADD 091100Z 34004KT 300V030 9999 SCT015 27/25 Q1008 NOSIG
METAR WADD 091030Z 31007KT 8000 FEW015CB SCT015 27/24 Q1008 RERA NOSI G</description><pubDate>Sat, 10 Jan 2026 10:29:39 </pubDate></item></channel></rss>