<rss version="2.0"><channel><title>Aviation Weather METAR Data for WADD</title><link>https://aviationweather.gov/api/data/metar?ids=WADD&amp;hours=24</link><description>Latest METAR data for WADD</description><item><title>2025-02-17 18:44:46Z</title><link>https://aviationweather.gov/api/data/metar?ids=WADD&amp;hours=24</link><description>WADD 171830Z 26002KT 9999 BKN016 27/25 Q1010 NOSIG
WADD 171800Z VRB02KT 9999 BKN016 26/25 Q1010 NOSIG
WADD 171730Z VRB02KT 9999 FEW017 27/25 Q1010 NOSIG
WADD 171700Z 25003KT 9999 SCT016 27/25 Q1011 NOSIG
WADD 171630Z 24003KT 9999 FEW016 27/26 Q1011 RERA NOSIG
WADD 171600Z 22002KT 7000 -RA FEW014CB BKN014 28/26 Q1011 TEMPO TL1700 7000 -RA RMK CB IN APCH AND CLIMB-OUT
WADD 171530Z VRB01KT 9999 FEW014CB SCT015 27/26 Q1012 NOSIG RMK CB IN CLIMB-OUT
WADD 171500Z VRB02KT 9999 FEW017 28/27 Q1012 NOSIG
WADD 171430Z 15004KT 9999 FEW017 28/27 Q1011 NOSIG
WADD 171400Z 12003KT 9999 SCT016 28/26 Q1011 NOSIG
WADD 171330Z 13005KT 9999 SCT016 28/27 Q1011 NOSIG
WADD 171300Z 13004KT 9999 SCT016 28/27 Q1011 NOSIG
WADD 171230Z 13005KT 9999 FEW016 28/27 Q1010 NOSIG
WADD 171200Z 13004KT 9999 FEW017 28/27 Q1010 NOSIG
WADD 171130Z 11005KT 9999 FEW016 28/27 Q1010 NOSIG
WADD 171100Z 11005KT 9999 FEW017 28/26 Q1010 NOSIG
WADD 171030Z 11007KT 9999 FEW017 29/26 Q1009 NOSIG
WADD 171000Z 10007KT 9999 FEW017 29/26 Q1009 NOSIG
WADD 170931Z 11006KT 9999 FEW016 29/26 Q1008 NOSIG
WADD 170930Z 11006KT 9999 FEW016 29/26 Q1008 NOSIG
WADD 170900Z 11007KT 9999 FEW016 29/26 Q1008 NOSIG
WADD 170830Z 10005KT 9999 SCT016 29/25 Q1008 NOSIG
WADD 170800Z 11005KT 080V140 9999 SCT016 29/25 Q1008 NOSIG
WADD 170730Z 08007KT 9999 SCT016 29/26 Q1008 NOSIG
WADD 170700Z 09007KT 9999 SCT016 30/26 Q1008 NOSIG
WADD 170630Z 11007KT 070V130 9999 FEW016CB SCT016 31/25 Q1008 NOSIG
WADD 170600Z 11007KT 9999 FEW016CB SCT016 31/26 Q1009 NOSIG
WADD 170530Z 11008KT 9999 FEW016 31/25 Q1009 NOSIG
WADD 170500Z 12007KT 090V180 9999 FEW016 30/25 Q1009 NOSIG
WADD 170430Z 13004KT 060V180 9999 FEW017 30/25 Q1010 NOSIG
WADD 170400Z 26004KT 230V310 9999 FEW016 29/25 Q1010 NOSIG
WADD 170330Z 27007KT 9999 FEW017 29/25 Q1011 NOSIG
WADD 170300Z VRB05KT 9999 FEW017 30/25 Q1011 NOSIG
WADD 170230Z 09005KT 060V130 9999 FEW017 29/25 Q1011 NOSIG
WADD 170200Z VRB02KT 9999 FEW017 29/25 Q1012 NOSIG
WADD 170130Z 11003KT 9999 FEW017 28/25 Q1012 NOSIG
WADD 170100Z 10003KT 9999 SCT016 26/25 Q1011 RERA NOSIG
WADD 170030Z 24005KT 190V280 7000 -RA FEW015CB SCT015 26/24 Q1012 TEMPO TL0130 7000 -RA
WADD 170000Z 22005G14KT 110V260 8000 TS FEW014CB BKN014 26/24 Q1012 TEMPO TL0100 TS RMK CB IN APCH
WADD 162330Z 14003KT 9999 TS FEW015CB SCT016 27/26 Q1011 TEMPO TL0030 TS
WADD 162300Z 36004KT 350V080 9999 FEW015CB SCT016 27/26 Q1011 NOSIG
WADD 162230Z 01004KT 9999 BKN016 26/26 Q1010 NOSIG
WADD 162200Z 03004KT 9999 SCT016 26/26 Q1010 NOSIG
WADD 162130Z 01005KT 9999 SCT016 26/26 Q1010 NOSIG
WADD 162100Z 35004KT 9999 SCT016 26/26 Q1009 NOSIG
WADD 162030Z 35004KT 9999 SCT016 26/26 Q1009 NOSIG
WADD 162000Z 01004KT 9999 SCT016 27/26 Q1009 NOSIG
WADD 161930Z VRB02KT 9999 BKN016 27/26 Q1009 NOSIG
WADD 161900Z VRB02KT 9999 FEW015CB BKN016 27/26 Q1009 NOSIG</description><pubDate>Mon, 17 Feb 2025 18:44:46 </pubDate></item></channel></rss>