<rss version="2.0"><channel><title>Aviation Weather METAR Data for WADD</title><link>https://aviationweather.gov/api/data/metar?ids=WADD&amp;hours=24</link><description>Latest METAR data for WADD</description><item><title>2025-01-28 14:22:41Z</title><link>https://aviationweather.gov/api/data/metar?ids=WADD&amp;hours=24</link><description>WADD 281400Z 27009KT 9999 SCT016 28/26 Q1009 NOSIG
WADD 281330Z 26008KT 9999 SCT016 29/26 Q1009 NOSIG
WADD 281300Z 26007KT 9999 SCT016 29/26 Q1009 NOSIG
WADD 281230Z VRB01KT 9999 FEW017 28/26 Q1008 NOSIG
WADD 281200Z VRB01KT 9999 FEW016 28/25 Q1008 NOSIG
WADD 281130Z VRB02KT 9999 FEW016 28/25 Q1008 NOSIG
WADD 281100Z 22003KT 9999 FEW015CB FEW016 28/25 Q1007 NOSIG
WADD 281030Z 25006KT 9999 FEW015CB SCT016 28/24 Q1007 NOSIG
WADD 281000Z 06004KT 020V090 9999 FEW015CB SCT016 28/26 Q1007 NOSIG RMK CB IN APCH
WADD 280930Z 05003KT 9999 FEW015CB SCT016 29/25 Q1006 NOSIG
WADD 280900Z 03004KT 320V050 9999 FEW015CB SCT016 28/25 Q1006 NOSIG
WADD 280830Z 02007KT 320V060 9999 FEW015CB SCT015 29/25 Q1006 RETS NOSIG
WADD 280800Z 29005KT 250V330 9999 TS FEW015CB BKN015 29/26 Q1006 NOSIG
WADD 280730Z 26006KT 9999 TS FEW015CB SCT015 30/26 Q1006 NOSIG
WADD 280700Z 26005KT 190V300 9999 SCT015 30/26 Q1006 NOSIG
WADD 280630Z VRB04KT 9999 SCT015 30/26 Q1007 NOSIG
WADD 280600Z 24006KT 200V270 9999 SCT016 30/26 Q1007 NOSIG
WADD 280530Z 24007KT 9999 SCT016 30/25 Q1007 NOSIG
WADD 280500Z 24007KT 9999 SCT016 30/25 Q1007 NOSIG
WADD 280430Z 24006KT 210V270 9999 SCT016 31/25 Q1007 NOSIG
WADD 280400Z 26005KT 190V320 9999 SCT016 31/25 Q1008 NOSIG
WADD 280330Z 28005KT 220V310 9999 SCT016 31/25 Q1008 NOSIG
WADD 280300Z 29007KT 250V310 9999 SCT016 30/26 Q1008 NOSIG
WADD 280230Z 31005KT 260V350 9999 SCT016 29/26 Q1008 NOSIG
WADD 280200Z 32005KT 280V340 9999 SCT016 29/26 Q1008 NOSIG
WADD 280130Z 33006KT 310V020 9999 BKN015 29/26 Q1008 NOSIG
WADD 280100Z 34003KT 9999 BKN015 8/26 Q1008 NOSIG
WADD 280030Z 05003KT 9999 BKN015 28/27 Q1008 NOSIG
WADD 280000Z VRB01KT 9999 BKN015 27/26 Q1007 NOSIG
WADD 272330Z VRB02KT 9999 BKN015 26/26 Q1007 NOSIG
WADD 272300Z VRB02KT 9999 SCT015 26/25 Q1007 NOSIG
WADD 272230Z VRB01KT 9999 SCT015 25/25 Q1007 NOSIG
WADD 272200Z VRB02KT 9999 SCT015 26/25 Q1007 NOSIG
WADD 272130Z VRB02KT 9999 BKN015 26/25 Q1007 NOSIG
WADD 272100Z VRB02KT 9999 BKN015 26/25 Q1007 RERA NOSIG
WADD 272030Z VRB03KT 7000 -RA FEW015CB BKN015 25/25 Q1007 TEMPO TL2130 -RA
WADD 272000Z VRB01KT 5000 RA FEW015CB BKN015 25/25 Q1007 TEMPO TL2100 7000 -RA
WADD 271930Z 03003KT 9999 FEW015CB BKN015 27/26 Q1007 NOSIG
WADD 271900Z VRB02KT 9999 BKN016 27/26 Q1007 NOSIG
WADD 271830Z 25005KT 9999 SCT016 28/26 Q1007 RERA NOSIG
WADD 271800Z 26004KT 9000 -RA BKN016 27/26 Q1007 TEMPO TL1900 -RA
WADD 271730Z 26004KT 9000 -RA BKN016 27/26 Q1007 TEMPO TL1830 -RA
WADD 271700Z 26006KT 9000 -RA SCT016 28/26 Q1007 TEMPO TL1800 -RA
WADD 271630Z 27010KT 9999 FEW017 28/25 Q1007 NOSIG
WADD 271600Z 27009KT 9999 FEW017 28/25 Q1008 NOSIG
WADD 271530Z 27010KT 9999 FEW017 28/25 Q1008 NOSIG
WADD 271500Z 27010KT 9999 FEW017 28/25 Q1008 NOSIG
WADD 271430Z 26010KT 9999 FEW017 28/26 Q1008 NOSIG</description><pubDate>Tue, 28 Jan 2025 14:22:41 </pubDate></item></channel></rss>