<rss version="2.0"><channel><title>Aviation Weather METAR Data for WADD</title><link>https://aviationweather.gov/api/data/metar?ids=WADD&amp;hours=24</link><description>Latest METAR data for WADD</description><item><title>2026-04-21 08:18:51Z</title><link>https://aviationweather.gov/api/data/metar?ids=WADD&amp;hours=24</link><description>METAR WADD 210800Z 12004KT 9999 SCT016 28/28 Q1006 NOSIG
METAR WADD 210730Z 10004KT 9999 FEW015CB SCT016 29/28 Q1006 NOSIG
METAR WADD 210700Z 09003KT 9999 FEW015CB SCT016 29/29 Q1006 NOSIG
METAR WADD 210630Z 04003KT 9999 FEW015CB SCT016 28/28 Q1006 NOSIG
METAR WADD 210600Z VRB03KT 9999 FEW015CB SCT016 27/27 Q1007 RERA NOSI G
METAR WADD 210530Z VRB01KT 7000 -RA FEW015CB BKN015 26/26 Q1007 TEMPO TL0630 7000 -RA RMK CB IN CLIMB-OUT
SPECI WADD 210516Z VRB01KT 3000 RA FEW015CB BKN015 25/25 Q1007 RETS TEMPO TL0600 3000 RA RMK CB IN CLIMB-OUT
METAR WADD 210500Z 34003KT 1500 +TSRA FEW015CB BKN015 26/25 Q1008 TEMPO TL0600 1500 +TSRA RMK CB IN APCH AND CLIMB-OUT
METAR WADD 210430Z VRB01KT 3000 TSRA FEW015CB BKN015 26/26 Q1008 TEMP O TL0530 3000 TSRA RMK CB IN APCH AND CLIMB-OUT
SPECI WADD 210411Z 24004KT 210V320 3000 TSRA FEW015CB BKN015 26/26 Q1008 TEMPO TL0500 3000 TSRA RMK CB IN APCH AND CLIMB-OUT
SPECI WADD 210406Z VRB04KT 1200 +TSRA FEW015CB BKN015 27/26 Q1008 TEMPO TL0500 1200 +TSRA RMK CB IN APCH AND CLIMB-OUT
METAR WADD 210400Z VRB02KT 0600 +RA FEW015CB BKN015 27/27 Q1009 TEMPO TL0500 0600 +RA RMK CB IN APCH AND CLIMB-OUT
SPECI WADD 210350Z 02007KT 310V030 0500 +RA FEW015CB BKN015 28/27 Q1009 TEMPO TL0500 0500 +RA RMK CB IN APCH AND CLIMB-OUT
SPECI WADD 210346Z 02007KT 1500 +RA FEW015CB BKN015 29/29 Q1008 TEMPO TL0500 1500 +RA RMK CB IN APCH AND CLIMB-OUT
SPECI WADD 210342Z 31008KT 3000 RA FEW015CB BKN015 29/29 Q1008 TEMPO TL0430 3000 RA RMK CB IN APCH AND CLIMB-OUT
SPECI WADD 210339Z 31008KT 6000 -RA FEW015CB BKN015 29/29 Q1008 TEMPO TL0430 6000 -RA RMK CB IN APCH
METAR WADD 210330Z 30007KT 8000 FEW015CB BKN015 30/29 Q1008 NOSIG RMK CB IN APCH
METAR WADD 210300Z 32008KT 9999 FEW015CB SCT016 31/26 Q1009 NOSIG
METAR WADD 210230Z 34006KT 300V010 9999 SCT016 31/27 Q1009 NOSIG
METAR WADD 210200Z 31005KT 9999 SCT016 31/27 Q1009 NOSIG
METAR WADD 210130Z 28005KT 250V320 9999 SCT016 29/27 Q1009 NOSIG
METAR WADD 210100Z 29005KT 240V310 9999 SCT016 28/26 Q1009 NOSIG
METAR WADD 210030Z 28004KT 230V310 9999 SCT016 27/26 Q1009 NOSIG
METAR WADD 210000Z 24003KT 9999 SCT016 27/26 Q1009 NOSIG
METAR WADD 202330Z 23003KT 9999 SCT016 27/26 Q1009 NOSIG
METAR WADD 202300Z VRB02KT 9999 FEW015CB SCT015 26/25 Q1008 NOSIG RMK CB IN APCH AND CLIMB-OUT
METAR WADD 202230Z 26004KT 9999 FEW015CB SCT015 26/25 Q1008 RERA NOSI G RMK CB IN APCH AND CLIMB-OUT
METAR WADD 202200Z 20004KT 8000 -RA FEW015CB SCT015 26/25 Q1008 TEMPO TL2230 8000 -RA RMK CB IN APCH AND CLIMB-OUT
METAR WADD 202130Z 28004KT 8000 -RA FEW015CB SCT015 26/25 Q1008 RETS TEMPO TL2230 8000 -RA RMK CB IN APCH AND CLIMB-OUT
METAR WADD 202100Z 26003KT 8000 -TSRA FEW015CB SCT015 25/25 Q1008 TEMPO TL2130 8000 -TSRA RMK CB IN APCH AND CLIMB-OUT
METAR WADD 202030Z 27004KT 230V340 8000 -TSRA FEW015CB SCT015 26/26 Q1008 TEMPO TL2130 8000 -TSRA RMK CB IN APCH AND CLIMB-OUT
METAR WADD 202000Z 01005KT 5000 TSRA FEW015CB SCT015 27/26 Q1008 TEMP O TL2130 5000 TSRA RMK CB IN APCH AND CLIMB-OUT
SPECI WADD 201935Z 34006KT 8000 TSRA FEW015CB SCT015 27/26 Q1008 NOSIG RMK CB IN APCH AND CLIMB-OUT
METAR WADD 201930Z 34006KT 9999 FEW015CB SCT015 27/26 Q1008 NOSIG RMK CB IN APCH AND CLIMB-OUT
METAR WADD 201900Z 33007KT 9999 FEW015CB SCT015 27/26 Q1008 NOSIG RMK CB IN APCH AND CLIMB-OUT
METAR WADD 201830Z 33006KT 9999 FEW016 27/26 Q1008 NOSIG
METAR WADD 201800Z 33003KT 9999 FEW016 27/26 Q1009 NOSIG
METAR WADD 201730Z 33005KT 300V030 9999 FEW016 27/26 Q1009 NOSIG
METAR WADD 201700Z 24003KT 9999 FEW016 28/27 Q1009 NOSIG
METAR WADD 201630Z 22003KT 9999 FEW016 28/26 Q1009 NOSIG
METAR WADD 201600Z VRB01KT 9999 FEW016 28/26 Q1009 NOSIG
METAR WADD 201530Z 19003KT 9999 FEW016 28/27 Q1009 NOSIG
METAR WADD 201500Z 16003KT 9999 FEW016 28/26 Q1009 NOSIG
METAR WADD 201430Z 04003KT 9999 FEW016 28/26 Q1009 NOSIG
METAR WADD 201400Z 01005KT 350V060 9999 FEW016 28/26 Q1009 NOSIG
METAR WADD 201330Z 08005KT 9999 FEW016 27/26 Q1010 NOSIG
METAR WADD 201300Z 10005KT 9999 FEW016 28/26 Q1010 NOSIG
METAR WADD 201230Z 12006KT 9999 FEW016 28/26 Q1009 NOSIG
METAR WADD 201200Z 14007KT 9999 FEW016 28/26 Q1009 NOSIG
METAR WADD 201130Z 15006KT 9999 SCT016 28/26 Q1008 NOSIG
METAR WADD 201100Z 15008KT 9999 SCT016 29/26 Q1008 NOSIG
METAR WADD 201030Z 15009KT 9999 SCT016 29/26 Q1008 NOSIG
METAR WADD 201000Z 15010KT 9999 SCT016 29/26 Q1007 NOSIG
METAR WADD 200930Z 16011KT 9999 SCT016 30/26 Q1007 NOSIG
METAR WADD 200900Z 17012KT 9999 SCT016 30/26 Q1007 NOSIG
METAR WADD 200830Z 17013KT 9999 SCT016 30/26 Q1007 NOSIG</description><pubDate>Tue, 21 Apr 2026 08:18:51 </pubDate></item></channel></rss>