<rss version="2.0"><channel><title>Aviation Weather METAR Data for WADD</title><link>https://aviationweather.gov/api/data/metar?ids=WADD&amp;hours=24</link><description>Latest METAR data for WADD</description><item><title>2026-02-01 18:49:07Z</title><link>https://aviationweather.gov/api/data/metar?ids=WADD&amp;hours=24</link><description>METAR WADD 011830Z 28015KT 9999 FEW014CB SCT015 27/24 Q1010 NOSIG
METAR WADD 011800Z 29016KT 9999 FEW014CB SCT015 26/25 Q1010 NOSIG
METAR WADD 011730Z 28020KT 9999 FEW014CB BKN015 26/24 Q1010 RERA NOSI G
METAR WADD 011700Z 28015KT 7000 -RA FEW014CB BKN015 26/25 Q1010 RETS NOSIG
METAR WADD 011630Z 28020KT 4000 TSRA FEW014CB BKN015 25/24 Q1010 TEMPO TL1730 4000 TSRA RMK CB IN APCH
METAR WADD 011600Z 27018G28KT 2000 +RA FEW014CB BKN015 26/25 Q1010 TEMPO TL1700 2000 +RA RMK CB IN APCH AND CLIMB-OUT
METAR WADD 011530Z 27009KT 8000 FEW014CB BKN015 27/25 Q1010 RERA NOSIG RMK CB IN APCH AND CLIMB-OUT
SPECI WADD 011516Z 26010G20KT 6000 -RA FEW014CB BKN015 26/25 Q1010 NOSIG RMK CB IN APCH AND CLIMB-OUT
METAR WADD 011500Z 24012G23KT 1500 +RA FEW014CB BKN015 25/25 Q1011 TEMPO TL1600 1500 +RA RMK CB IN APCH AND CLIMB-OUT
METAR WADD 011430Z 26011KT 7000 -RA FEW015CB BKN016 28/25 Q1010 TEMPO TL1530 4000 RA RMK CB IN APCH AND CLIMB-OUT
METAR WADD 011400Z 26012KT 9999 FEW015CB SCT016 28/25 Q1010 NOSIG RMK CB IN APCH
METAR WADD 011330Z 26014KT 9999 FEW015CB SCT016 29/25 Q1010 NOSIG
METAR WADD 011300Z 26012KT 9999 FEW015CB SCT016 29/25 Q1010 NOSIG
METAR WADD 011230Z 27011KT 9999 SCT016 28/25 Q1010 NOSIG
METAR WADD 011200Z 26013KT 9999 FEW016 28/25 Q1010 NOSIG
METAR WADD 011130Z 27014KT 9999 FEW016 28/24 Q1009 NOSIG
METAR WADD 011100Z 26013KT 9999 FEW016 28/24 Q1009 NOSIG
METAR WADD 011030Z 26011KT 9999 SCT016 29/25 Q1009 NOSIG
METAR WADD 011000Z 26011KT 9999 SCT016 29/25 Q1008 NOSIG
METAR WADD 010930Z 26012KT 9999 SCT016 30/25 Q1008 NOSIG
METAR WADD 010900Z 25012KT 9999 SCT016 30/24 Q1007 NOSIG
METAR WADD 010830Z 25011KT 9999 SCT016 29/26 Q1008 NOSIG
METAR WADD 010800Z COR 25014G24KT 9999 SCT016 29/25 Q1008 NOSIG
METAR WADD 010730Z 27015KT 9999 SCT016 30/25 Q1008 NOSIG
METAR WADD 010700Z 27015KT 9999 SCT016 30/25 Q1008 NOSIG
METAR WADD 010630Z 25016G26KT 9999 FEW015CB SCT016 28/24 Q1008 NOSIG
SPECI WADD 010608Z 26020G31KT 9999 FEW015CB SCT016 30/25 Q1008 NOSIG
METAR WADD 010600Z 26019KT 9999 FEW015CB SCT016 30/25 Q1008 NOSIG
METAR WADD 010530Z 26018KT 9999 FEW015CB SCT016 31/25 Q1009 NOSIG
METAR WADD 010500Z 26015KT 9999 FEW015CB BKN015 30/26 Q1009 NOSIG
METAR WADD 010430Z 29017KT 9999 FEW015CB SCT016 31/25 Q1009 NOSIG
METAR WADD 010400Z 29018KT 9999 FEW016 31/25 Q1009 NOSIG
METAR WADD 010330Z 29017KT 9999 FEW016 31/25 Q1009 NOSIG
METAR WADD 010300Z 28018KT 9999 FEW016 30/26 Q1010 NOSIG
METAR WADD 010230Z 29016KT 9999 FEW015 29/25 Q1010 NOSIG
METAR WADD 010200Z 29013KT 9999 SCT015 29/25 Q1010 NOSIG
METAR WADD 010130Z 29011KT 9999 SCT015 28/25 Q1011 NOSIG
METAR WADD 010100Z 29008KT 9999 SCT015 28/25 Q1011 RERA NOSIG
METAR WADD 010030Z 28010KT 8000 -RA BKN015 27/25 Q1011 TEMPO TL0130 8000 -RA
METAR WADD 010000Z 27008KT 7000 -RA FEW014CB BKN014 26/25 Q1011 TEMPO TL0100 7000 -RA
METAR WADD 312330Z 27008KT 7000 -RA FEW014CB BKN014 26/25 Q1010 TEMPO TL0000 5000 RA
METAR WADD 312300Z 28007KT 7000 -RA FEW014CB BKN014 27/25 Q1010 TEMPO TL0000 5000 RA
METAR WADD 312230Z 28011KT 7000 -RA FEW014CB BKN014 27/24 Q1009 TEMPO TL2330 5000 RA
METAR WADD 312200Z 32005KT 9999 FEW016CB SCT016 26/24 Q1009 NOSIG
METAR WADD 312130Z 32005KT 9999 FEW016CB SCT016 25/24 Q1008 NOSIG
METAR WADD 312100Z 34005KT 9999 SCT016 25/24 Q1008 NOSIG
METAR WADD 312030Z 34005KT 9999 SCT016 25/24 Q1009 NOSIG
METAR WADD 312000Z 32006KT 9999 BKN015 25/24 Q1009 NOSIG
METAR WADD 311930Z 32009KT 9000 -RA FEW015CB BKN016 25/24 Q1009 TEMPO TL2030 -RA
METAR WADD 311900Z 30008KT 260V330 8000 -RA FEW015CB BKN015 25/25 Q10 09 TEMPO TL2000 -RA</description><pubDate>Sun, 01 Feb 2026 18:49:07 </pubDate></item></channel></rss>