<rss version="2.0"><channel><title>Aviation Weather METAR Data for WADD</title><link>https://aviationweather.gov/api/data/metar?ids=WADD&amp;hours=24</link><description>Latest METAR data for WADD</description><item><title>2025-04-01 17:24:09Z</title><link>https://aviationweather.gov/api/data/metar?ids=WADD&amp;hours=24</link><description>WADD 011700Z VRB02KT 9999 FEW017 26/25 Q1009 NOSIG
WADD 011630Z VRB01KT 9999 FEW017 27/25 Q1009 NOSIG
WADD 011600Z VRB01KT 9999 FEW017 27/25 Q1010 NOSIG
WADD 011530Z 30003KT 9999 FEW017 27/25 Q1010 NOSIG
WADD 011500Z 33004KT 290V010 9999 FEW017 28/25 Q1010 NOSIG
WADD 011430Z 32007KT 9999 FEW017 28/25 Q1010 NOSIG
WADD 011400Z 31007KT 9999 FEW017 28/25 Q1010 NOSIG
WADD 011330Z 31009KT 9999 FEW017 28/25 Q1010 NOSIG
WADD 011300Z 27005KT 250V310 9999 SCT016 28/25 Q1010 NOSIG
WADD 011230Z 25003KT 9999 FEW016 28/25 Q1009 NOSIG
WADD 011200Z 24003KT 9999 FEW017 28/25 Q1009 NOSIG
WADD 011130Z 24003KT 9999 FEW017 28/25 Q1009 NOSIG
WADD 011100Z 23003KT 9999 FEW017 29/25 Q1008 NOSIG
WADD 011030Z 25005KT 210V270 9999 FEW017 29/24 Q1008 NOSIG
WADD 011000Z 25006KT 210V270 9999 FEW017 29/25 Q1008 NOSIG
WADD 010930Z 25007KT 9999 FEW017 29/25 Q1007 NOSIG
WADD 010900Z 26008KT 9999 FEW017 30/25 Q1007 NOSIG
WADD 010830Z 26008KT 9999 FEW017 30/25 Q1007 NOSIG
WADD 010800Z 26007KT 220V280 9999 FEW017 30/26 Q1007 NOSIG
WADD 010730Z 26008KT 9999 FEW017 30/26 Q1007 NOSIG
WADD 010700Z 25008KT 9999 FEW017 30/25 Q1007 NOSIG
WADD 010630Z 26010KT 9999 FEW017 30/26 Q1007 NOSIG
WADD 010600Z 27010KT 9999 FEW017 30/25 Q1007 NOSIG
WADD 010530Z 26009KT 220V310 9999 FEW017 30/26 Q1008 NOSIG
WADD 010500Z 25008KT 210V290 9999 FEW017 30/26 Q1008 NOSIG
WADD 010430Z 25009KT 220V310 9999 SCT017 30/26 Q1008 NOSIG
WADD 010400Z 25007KT 9999 SCT016 30/26 Q1009 NOSIG
WADD 010330Z 26007KT 220V300 9999 SCT016 30/26 Q1009 NOSIG
WADD 010300Z 27008KT 220V310 9999 SCT016 30/26 Q1009 NOSIG
WADD 010230Z 29007KT 240V330 9999 SCT016 30/26 Q1009 NOSIG
WADD 010200Z 29009KT 9999 SCT016 30/25 Q1009 NOSIG
WADD 010130Z 30007KT 9999 SCT016 29/26 Q1009 NOSIG
WADD 010100Z 30006KT 270V330 9999 SCT016 29/26 Q1009 NOSIG
WADD 010030Z 30005KT 270V330 9999 SCT016 29/25 Q1009 NOSIG
WADD 312330Z VRB02KT 9999 SCT017 28/25 Q1008 NOSIG
WADD 312300Z VRB01KT 9999 SCT016 26/25 Q1008 NOSIG
WADD 312230Z 04004KT 9999 SCT016 26/25 Q1008 NOSIG
WADD 312200Z VRB01KT 9999 SCT016 26/25 Q1007 NOSIG
WADD 312130Z 05002KT 9999 FEW017 26/25 Q1007 NOSIG
WADD 312100Z VRB02KT 9999 FEW017 26/25 Q1007 NOSIG
WADD 312030Z VRB01KT 9999 FEW017 26/25 Q1007 NOSIG
WADD 312000Z VRB01KT 9999 FEW017 26/25 Q1007 NOSIG
WADD 311930Z VRB01KT 9999 FEW017 26/25 Q1007 NOSIG
WADD 311900Z VRB01KT 9999 FEW017 26/25 Q1007 NOSIG
WADD 311830Z VRB02KT 9999 FEW017 26/24 Q1007 NOSIG
WADD 311800Z 34004KT 9999 FEW017 27/25 Q1008 NOSIG
WADD 311730Z 36004KT 290V020 9999 FEW017 27/24 Q1008 NOSIG</description><pubDate>Tue, 01 Apr 2025 17:24:09 </pubDate></item></channel></rss>