<rss version="2.0"><channel><title>Aviation Weather METAR Data for WADD</title><link>https://aviationweather.gov/api/data/metar?ids=WADD&amp;hours=24</link><description>Latest METAR data for WADD</description><item><title>2025-11-16 19:19:51Z</title><link>https://aviationweather.gov/api/data/metar?ids=WADD&amp;hours=24</link><description>METAR WADD 161900Z VRB02KT 9999 FEW017 27/25 Q1008 NOSIG
METAR WADD 161830Z 01002KT 9999 FEW017 27/24 Q1008 NOSIG
METAR WADD 161800Z VRB02KT 9999 FEW017 27/25 Q1008 NOSIG
METAR WADD 161730Z VRB02KT 9999 SCT017 28/25 Q1009 NOSIG
METAR WADD 161700Z VRB01KT 9999 SCT017 28/25 Q1009 NOSIG
METAR WADD 161630Z VRB01KT 9999 SCT017 27/25 Q1010 NOSIG
METAR WADD 161600Z VRB01KT 9999 FEW016CB SCT017 27/25 Q1010 NOSIG
METAR WADD 161530Z VRB01KT 9999 FEW016CB SCT017 28/25 Q1010 NOSIG
METAR WADD 161500Z VRB01KT 9999 FEW017 28/25 Q1011 NOSIG
METAR WADD 161430Z VRB02KT 9999 FEW017 28/25 Q1011 NOSIG
METAR WADD 161400Z VRB01KT 9999 FEW017 28/25 Q1011 NOSIG
METAR WADD 161330Z VRB01KT 9999 FEW017 28/25 Q1011 NOSIG
METAR WADD 161300Z VRB02KT 9999 FEW017 28/25 Q1010 NOSIG
METAR WADD 161230Z VRB01KT 9999 FEW017 28/25 Q1010 NOSIG
METAR WADD 161200Z VRB02KT 9999 FEW017 28/25 Q1010 NOSIG
METAR WADD 161130Z VRB02KT 9999 SCT015 28/25 Q1009 NOSIG
METAR WADD 161100Z VRB02KT 9999 SCT016 29/25 Q1009 NOSIG
METAR WADD 161030Z 23004KT 190V280 9999 SCT016 29/25 Q1009 NOSIG
METAR WADD 161000Z 24006KT 9999 SCT017 29/24 Q1008 NOSIG
METAR WADD 160930Z 26007KT 9999 FEW017 29/25 Q1008 NOSIG
METAR WADD 160900Z 26009KT 9999 FEW017 30/25 Q1008 NOSIG
METAR WADD 160830Z 26008KT 230V290 9999 FEW017 30/25 Q1008 NOSIG
METAR WADD 160800Z 26008KT 220V280 9999 FEW017 30/25 Q1008 NOSIG
METAR WADD 160730Z 27009KT 9999 FEW017 30/25 Q1008 NOSIG
METAR WADD 160700Z 26007KT 220V290 9999 FEW017 31/25 Q1008 NOSIG
METAR WADD 160630Z 26008KT 230V290 9999 FEW017 31/25 Q1008 NOSIG
METAR WADD 160600Z 27008KT 210V290 9999 FEW017 31/25 Q1009 NOSIG
METAR WADD 160530Z 25008KT 210V300 9999 FEW017 31/24 Q1009 NOSIG
METAR WADD 160500Z 26008KT 230V300 9999 FEW017 31/25 Q1009 NOSIG
METAR WADD 160430Z 24007KT 210V290 9999 FEW017 31/24 Q1010 NOSIG
METAR WADD 160400Z 26008KT 9999 FEW017 31/24 Q1010 NOSIG
METAR WADD 160330Z 28008KT 220V310 9999 FEW017 31/24 Q1010 NOSIG
METAR WADD 160300Z 27007KT 230V310 9999 FEW017 31/24 Q1010 NOSIG
METAR WADD 160230Z 29007KT 9999 FEW017 31/24 Q1011 NOSIG
METAR WADD 160200Z 28007KT 9999 FEW017 30/24 Q1011 NOSIG
METAR WADD 160130Z 31007KT 270V340 9999 FEW017 30/24 Q1011 NOSIG
METAR WADD 160100Z 29004KT 230V330 9999 FEW017 29/24 Q1011 NOSIG
METAR WADD 160030Z 31004KT 260V020 9999 FEW017 29/25 Q1011 NOSIG
METAR WADD 160000Z 28004KT 250V310 9999 FEW017 28/24 Q1011 NOSIG
METAR WADD 152330Z 03004KT 320V080 9999 FEW017 28/24 Q1010 NOSIG
METAR WADD 152300Z 34003KT 9999 FEW017 27/24 Q1010 NOSIG
METAR WADD 152230Z 34004KT 9999 FEW017 26/23 Q1010 NOSIG
METAR WADD 152200Z 34003KT 9999 FEW017 26/23 Q1010 NOSIG
METAR WADD 152130Z 32005KT 9999 FEW017 26/24 Q1009 NOSIG
METAR WADD 152100Z 30004KT 9999FEW017 26/24 Q1009 NOSIG
METAR WADD 152030Z 29003KT 9999 FEW017 26/23 Q1009 NOSIG
METAR WADD 152000Z 33003KT 9999 FEW017 26/23 Q1009 NOSIG
METAR WADD 151930Z 33004KT 9999 FEW017 26/23 Q1009 NOSIG</description><pubDate>Sun, 16 Nov 2025 19:19:51 </pubDate></item></channel></rss>