<rss version="2.0"><channel><title>Aviation Weather METAR Data for WADD</title><link>https://aviationweather.gov/api/data/metar?ids=WADD&amp;hours=24</link><description>Latest METAR data for WADD</description><item><title>2025-12-31 22:28:55Z</title><link>https://aviationweather.gov/api/data/metar?ids=WADD&amp;hours=24</link><description>METAR WADD 312200Z 02002KT 9999 SCT016 27/25 Q1007 NOSIG
METAR WADD 312130Z VRB01KT 9999 SCT016 27/25 Q1007 NOSIG
METAR WADD 312100Z VRB01KT 9999 FEW017 26/25 Q1007 NOSIG
METAR WADD 312030Z VRB01KT 9999 FEW017 27/25 Q1006 NOSIG
METAR WADD 311930Z 32004KT 9999 SCT016 27/25 Q1007 NOSIG
METAR WADD 311900Z 30004KT 9999 SCT016 27/25 Q1007 RERA NOSIG
METAR WADD 311830Z 32003KT 8000 -RA BKN015 27/25 Q1007 TEMPO TL1930 8 000 -RA
METAR WADD 311800Z 34003KT 9999 SCT016 27/25 Q1007 NOSIG
METAR WADD 311730Z 32006KT 9999 SCT016 27/25 Q1007 NOSIG
METAR WADD 311700Z VRB02KT 9999 FEW015CB SCT016 28/25 Q1007 NOSIG
METAR WADD 311630Z 22003KT 9999 FEW015CB SCT016 28/25 Q1008 NOSIG
METAR WADD 311600Z VRB02KT 9999 SCT016 28/25 Q1008 NOSIG
METAR WADD 311530Z VRB01KT 9999 SCT016 28/25 Q1008 NOSIG
METAR WADD 311500Z VRB01KT 9999 SCT016 28/25 Q1008 NOSIG
METAR WADD 311430Z VRB02KT 9999 SCT016 28/25 Q1008 NOSIG
METAR WADD 311400Z VRB02KT 9999 SCT016 28/25 Q1009 NOSIG
METAR WADD 311330Z VRB02KT 9999 SCT016 29/24 Q1008 NOSIG
METAR WADD 311300Z VRB02KT 9999 SCT016 29/24 Q1008 NOSIG
METAR WADD 311230Z 25003KT 9999 SCT016 28/24 Q1008 NOSIG
METAR WADD 311200Z 23004KT 180V250 9999 SCT016 29/24 Q1007 NOSIG
METAR WADD 311130Z VRB02KT 9999 SCT017 29/24 Q1007 NOSIG
METAR WADD 311100Z 22003KT 9999 SCT017 29/25 Q1007 NOSIG
METAR WADD 311030Z 23004KT 180V260 9999 FEW017 29/25 Q1006 NOSIG
METAR WADD 311000Z 25003KT 9999 FEW017 30/24 Q1006 NOSIG
METAR WADD 310930Z 24004KT 210V280 9999 FEW017 30/24 Q1005 NOSIG
METAR WADD 310900Z 26006KT 9999 FEW017 30/25 Q1005 NOSIG
METAR WADD 310830Z 27006KT 9999 SCT017 30/25 Q1005 NOSIG
METAR WADD 310800Z 28006KT 9999 SCT017 30/23 Q1005 NOSIG
METAR WADD 310730Z 29007KT 9999 SCT017 30/23 Q1005 NOSIG
METAR WADD 310700Z 27007KT 9999 FEW017 31/24 Q1005 NOSIG
METAR WADD 310630Z 26007KT 220V280 9999 FEW017 31/25 Q1005 NOSIG
METAR WADD 310600Z 26009KT 220V280 9999 FEW017 30/25 Q1005 NOSIG
METAR WADD 310530Z 25008KT 210V280 9999 FEW017 30/25 Q1006 NOSIG
METAR WADD 310500Z 26008KT 220V290 9999 FEW017 30/26 Q1006 NOSIG
METAR WADD 310430Z 25008KT 9999 FEW017 30/25 Q1007 NOSIG
METAR WADD 310400Z 25007KT 210V280 9999 FEW017 30/25 Q1007 NOSIG
METAR WADD 310330Z 25008KT 210V280 9999 FEW017 30/25 Q1007 NOSIG
METAR WADD 310300Z 25007KT 190V290 9999 FEW017 30/25 Q1008 NOSIG
METAR WADD 310230Z 26007KT 220V290 9999 FEW017 30/25 Q1008 NOSIG
METAR WADD 310200Z 26005KT 230V290 9999 FEW017 29/25 Q1008 NOSIG
METAR WADD 310130Z VRB04KT 9999 FEW016 29/25 Q1008 NOSIG
METAR WADD 310100Z 30004KT 270V340 9999 FEW016 29/25 Q1008 NOSIG
SPECI WADD 310030Z VRB02KT 9999 FEW016 28/25 Q1008 NOSIG
METAR WADD 310000Z 33003KT 9999 SCT016 27/25 Q1008 NOSIG
METAR WADD 302330Z 36005KT 310V030 9999 SCT016 27/24 Q1008 NOSIG
METAR WADD 302300Z 32005KT 9999 SCT016 26/25 Q1007 NOSIG
METAR WADD 302230Z 01004KT 9999 BKN016 26/24 Q1007 NOSIG</description><pubDate>Wed, 31 Dec 2025 22:28:55 </pubDate></item></channel></rss>