<rss version="2.0"><channel><title>Aviation Weather METAR Data for WADD</title><link>https://aviationweather.gov/api/data/metar?ids=WADD&amp;hours=24</link><description>Latest METAR data for WADD</description><item><title>2025-03-30 16:45:26Z</title><link>https://aviationweather.gov/api/data/metar?ids=WADD&amp;hours=24</link><description>WADD 301630Z 31006KT 9999 BKN015 27/24 Q1008 NOSIG
WADD 301600Z 31006KT 270V330 9999 BKN015 27/24 Q1008 NOSIG
WADD 301530Z 32008KT 9999 BKN015 27/24 Q1008 NOSIG
WADD 301500Z 32007KT 9999 BKN015 27/24 Q1009 NOSIG
WADD 301430Z 31007KT 9999 BKN015 27/24 Q1009 NOSIG
WADD 301400Z 32006KT 9999 BKN015 26/24 Q1009 RERA NOSIG
WADD 301330Z 32006KT 9000 -RA BKN015 26/24 Q1009 TEMPO TL1430 9000 -RA
WADD 301300Z 32008KT 9000 -RA BKN015 26/25 Q1009 TEMPO TL1430 9000 -RA
WADD 301230Z 31011KT 9000 -RA FEW016CB SCT016 27/25 Q1009 TEMPO TL1330 9000 -RA
WADD 301200Z 30013KT 9999 FEW016CB SCT016 27/25 Q1009 RERA NOSIG
WADD 301130Z 29016KT 9000 -RA FEW016CB SCT016 28/25 Q1008 TEMPO TL1230 9000 -RA
WADD 301100Z 29013KT 9999 SCT016 28/25 Q1008 NOSIG
WADD 301030Z 30011KT 9999 SCT016 28/25 Q1008 NOSIG
WADD 301000Z 28010KT 240V310 9999 SCT016 28/26 Q1007 NOSIG
WADD 300930Z 25007KT 9999 SCT016 27/25 Q1007 NOSIG
WADD 300900Z 25008KT 9999 SCT016 27/24 Q1007 NOSIG
WADD 300830Z 27013KT 9999 SCT016 28/26 Q1007 NOSIG
WADD 300800Z 26012KT 9999 SCT016 28/25 Q1007 NOSIG
WADD 300730Z 26010KT 9999 FEW016 28/26 Q1007 NOSIG
WADD 300700Z 26010KT 9999 FEW016 28/26 Q1007 NOSIG
WADD 300630Z 26011KT 9999 FEW016 28/26 Q1007 NOSIG
WADD 300600Z 26009KT 9999 FEW016 29/26 Q1007 NOSIG
WADD 300530Z 26011KT 9999 FEW016 29/26 Q1007 NOSIG
WADD 300500Z 26007KT 230V300 9999 SCT016 29/26 Q1008 NOSIG
WADD 300430Z 24007KT 9999 SCT015 28/27 Q1008 NOSIG
WADD 300400Z VRB02KT 8000 FEW014CB SCT015 27/26 Q1008 NOSIG RMK CB IN APCH
WADD 300330Z 13005KT 100V190 4000 RA FEW014CB BKN014 26/25 Q1009 TEMPO TL0430 4000 RA RMK CB IN CLIMB-OUT
WADD 300300Z 14007KT 8000 FEW015CB SCT016 25/24 Q1009 NOSIG RMK CB IN APCH
WADD 300230Z 25004G14KT 170V300 4000 RA FEW015CB BKN016 27/26 Q1010 TEMPO TL0300 4000 RA RMK CB IN APCH AND CLIMB-OUT
WADD 300200Z 30009KT 8000 4000W FEW015CB SCT016 29/26 Q1009 RERA TEMPO FM0210 4000 RA RMK CB IIN CLIMB-OUT
WADD 300130Z 30012KT 8000 FEW015CB SCT016 27/25 Q1009 RERA NOSIG RMK CB IN APCH
WADD 300100Z 27008KT 9999 FEW015CB SCT016 27/26 Q1009 NOSIG RMK CB IN APCH
WADD 300030Z 27006KT 8000 FEW015CB SCT016 26/26 Q1009 RERA NOSIG RMK CB IN APCH
WADD 300000Z 26016KT 2000 RA FEW014CB BKN015 27/25 Q1009 TEMPO TL0045 2000 RA RMK CB IN APCH AND CLIMB-OUT
WADD 292330Z 28010KT 9999 SCT016 28/26 Q1008 NOSIG
WADD 292300Z 30010KT 9000 SCT016 28/25 Q1007 NOSIG
WADD 292230Z 30009KT 9999 SCT016 27/26 Q1007 NOSIG
WADD 292200Z 29011KT 9999 SCT016 27/25 Q1007 NOSIG
WADD 292130Z 29010KT 9999 SCT016 27/26 Q1007 NOSIG
WADD 292100Z 28011KT 9999 BKN015 27/26 Q1007 NOSIG
WADD 292030Z 28012KT 9999 BKN015 27/26 Q1007 NOSIG
WADD 292000Z 28011KT 9999 FEW014CB BKN015 27/26 Q1007 RERA NOSIG
WADD 291930Z 29011KT 7000 -RA FEW014CB BKN014 27/26 Q1007 TEMPO TL2030 -RA
WADD 291900Z 32004KT 280V360 5000 -RA FEW014CB BKN014 26/26 Q1007 TEMPO TL2000 7000 -RA
WADD 291830Z 35008KT 300V010 4000 RA FEW014CB BKN014 26/26 Q1007 TEMPO TL2000 6000 -RA
WADD 291800Z 28005G19KT 200V320 1000 +RA FEW014CB BKN015 26/25 Q1007 TEMPO TL1830 3000 RA RMK CB IN APCH
WADD 291730Z 29004KT 260V340 3000 +RA FEW014CB BKN015 26/26 Q1007 TEMPO TL1830 3000 +RA
WADD 291700Z 33003KT 5000 RA FEW014CB BKN015 27/26 Q1008 TEMPO TL1730 8000 -RA</description><pubDate>Sun, 30 Mar 2025 16:45:26 </pubDate></item></channel></rss>