<rss version="2.0"><channel><title>Aviation Weather METAR Data for WADD</title><link>https://aviationweather.gov/api/data/metar?ids=WADD&amp;hours=24</link><description>Latest METAR data for WADD</description><item><title>2025-07-16 19:23:38Z</title><link>https://aviationweather.gov/api/data/metar?ids=WADD&amp;hours=24</link><description>WADD 161900Z 15003KT 9999 FEW017 25/23 Q1012 NOSIG
WADD 161830Z 12002KT 9999 FEW017 25/23 Q1012 NOSIG
WADD 161800Z 15005KT 9999 FEW017 25/23 Q1012 NOSIG
WADD 161730Z 14007KT 9999 FEW017 25/23 Q1012 NOSIG
WADD 161700Z 14009KT 9999 FEW017 25/23 Q1012 NOSIG
WADD 161630Z 13007KT 9999 FEW017 25/23 Q1012 NOSIG
WADD 161600Z 12006KT 9999 FEW017 25/23 Q1012 NOSIG
WADD 161530Z 13007KT 9999 FEW017 25/23 Q1012 NOSIG
WADD 161500Z 11005KT 9999 FEW017 25/23 Q1012 NOSIG
WADD 161430Z 13005KT 9999 FEW017 26/23 Q1012 NOSIG
WADD 161400Z 12006KT 9999 FEW017 26/23 Q1012 NOSIG
WADD 161330Z 12008KT 9999 FEW017 26/23 Q1012 NOSIG
WADD 161230Z 13010KT 9999 FEW017 26/23 Q1012 NOSIG
WADD 161200Z 13012KT 9999 FEW017 26/24 Q1011 NOSIG
WADD 161130Z 13009KT 9999 SCT016 26/24 Q1011 NOSIG
WADD 161100Z 13009KT 9999 SCT016 26/23 Q1011 NOSIG
WADD 161030Z 13011KT 9999 SCT016 27/23 Q1010 NOSIG
WADD 161000Z 13012KT 9999 SCT016 27/23 Q1010 NOSIG
WADD 160930Z 13013KT 9999 SCT016 27/23 Q1010 NOSIG
WADD 160900Z 14014KT 9999 SCT016 27/24 Q1010 NOSIG
WADD 160830Z 14015KT 9999 SCT016 28/23 Q1010 NOSIG
WADD 160800Z 14015KT 9999 SCT016 28/23 Q1010 NOSIG
WADD 160730Z 14015KT 9999 SCT016 28/23 Q1010 NOSIG
WADD 160700Z 13015KT 9999 SCT016 28/23 Q1010 NOSIG
WADD 160630Z 13014KT 9999 SCT016 28/22 Q1010 NOSIG
WADD 160600Z 14014KT 9999 SCT016 28/22 Q1010 NOSIG
WADD 160530Z 15016KT 9999 SCT016 28/23 Q1011 NOSIG
WADD 160500Z 14016KT 9999 SCT016 28/23 Q1011 NOSIG
WADD 160430Z 14015KT 9999 SCT016 28/23 Q1012 NOSIG
WADD 160400Z 13016KT 9999 SCT016 28/23 Q1012 NOSIG
WADD 160330Z 15015KT 9999 BKN015 28/23 Q1012 NOSIG
WADD 160300Z 14014KT 9999 BKN015 28/23 Q1013 NOSIG
WADD 160230Z 15015KT 9999 BKN015 28/23 Q1013 NOSIG
WADD 160200Z 15014KT 9999 BKN015 27/23 Q1013 NOSIG
WADD 160130Z 15012KT 9999 BKN015 27/23 Q1013 NOSIG
WADD 160100Z 15011KT 9999 SCT016 27/23 Q1013 NOSIG
WADD 160030Z 14007KT 9999 SCT016 26/23 Q1013 NOSIG
WADD 160000Z 14007KT 9999 SCT016 26/23 Q1013 NOSIG
WADD 152330Z 13007KT 9999 SCT016 26/23 Q1012 NOSIG
WADD 152300Z 14009KT 9999 SCT016 26/23 Q1012 NOSIG
WADD 152230Z 14010KT 9999 SCT016 26/23 Q1012 NOSIG
WADD 152200Z 14008KT 9999 SCT016 26/23 Q1011 NOSIG
WADD 152130Z 14012KT 9999 SCT016 26/23 Q1011 NOSIG
WADD 152100Z 14012KT 9999 SCT016 26/23 Q1011 NOSIG
WADD 152030Z 15013KT 9999 SCT016 26/23 Q1011 NOSIG
WADD 152000Z 15012KT 9999 SCT016 26/23 Q1011 NOSIG
WADD 151930Z 15009KT 9999 SCT016 26/24 Q1011 NOSIG</description><pubDate>Wed, 16 Jul 2025 19:23:38 </pubDate></item></channel></rss>