<rss version="2.0"><channel><title>Aviation Weather METAR Data for WADD</title><link>https://aviationweather.gov/api/data/metar?ids=WADD&amp;hours=24</link><description>Latest METAR data for WADD</description><item><title>2025-09-28 03:51:37Z</title><link>https://aviationweather.gov/api/data/metar?ids=WADD&amp;hours=24</link><description>METAR WADD 280330Z 13014KT 9999 SCT016 29/26 Q1012 NOSIG
METAR WADD 280300Z 13013KT 9999 SCT016 29/26 Q1012 NOSIG
METAR WADD 280230Z 11011KT 9999 SCT016 29/26 Q1013 NOSIG
METAR WADD 280200Z 11008KT 9999 SCT016 29/26 Q1013 NOSIG
METAR WADD 280130Z 12009KT 9999 SCT016 28/26 Q1013 NOSIG
METAR WADD 280100Z 11008KT 9999 SCT016 29/27 Q1013 NOSIG
 WADD 280030Z 12004KT 9999 SCT016 28/26 Q1013 NOSIG
METAR WADD 280000Z 13005KT 9999 SCT016 27/26 Q1013 NOSIG
METAR WADD 272330Z 05004KT 360V100 9999 SCT016 26/26 Q1013 NOSIG
METAR WADD 272300Z VRB02KT 9999 SCT016 26/26 Q1013 NOSIG
METAR WADD 272230Z 06005KT 9999 SCT016 25/25 Q1012 NOSIG
METAR WADD 272200Z 07004KT 9999 SCT016 25/25 Q1012 RERA NOSIG
METAR WADD 272130Z 13007KT 8000 -RA FEW014CB BKN015 25/25 Q1012 RETS TEMPO TL2230 -RA
METAR WADD 272100Z 11008KT 7000 -TSRA FEW014CB BKN015 24/24 Q1012 TEMPO TL2200 -TSRA
METAR WADD 272030Z 14017KT 6000 -TSRA FEW014CB BKN015 25/25 Q1012 TEMPO TL2130 -TSRA
METAR WADD 272000Z 35004KT 270V040 0500 +TSRA FEW014CB BKN015 25/25 Q1012 TEMPO TL2100 5000 TSRA
METAR WADD 271930Z 18007KT 140V200 9999 FEW015CB BKN016 26/26 Q1011 NOSIG
METAR WADD 271900Z 11008KT 9999 FEW015CB SCT016 27/26 Q1011 RETS NOSIG
METAR WADD 271830Z 12008KT 9999 FEW015CB SCT016 27/26 Q1011 NOSIG
METAR WADD 271800Z 13007KT 9999 FEW015CB SCT016 27/26 Q1011 NOSIG
METAR WADD 271730Z 13009KT 9999 SCT017 27/26 Q1011 NOSIG
METAR WADD 271700Z 13011KT 9999 SCT017 27/26 Q1011 NOSIG
METAR WADD 271630Z 13010KT 9999 SCT017 27/26 Q1012 NOSIG
METAR WADD 271600Z 13008KT 9999 SCT017 27/26 Q1012 NOSIG
METAR WADD 271530Z 13008KT 9999 FEW017 27/26 Q1012 NOSIG
METAR WADD 271500Z 12010KT 9999 FEW017 27/26 Q1012 NOSIG
METAR WADD 271430Z 13010KT 9999 FEW017 27/26 Q1012 NOSIG
METAR WADD 271400Z 12010KT 9999 FEW017 27/26 Q1012 NOSIG
METAR WADD 271330Z 12011KT 9999 FEW017 27/26 Q1012 NOSIG
METAR WADD 271300Z 13011KT 9999 FEW017 27/26 Q1012 NOSIG
METAR WADD 271230Z 12010KT 9999 FEW017 27/26 Q1012 NOSIG
METAR WADD 271200Z 13011KT 9999 FEW017 27/26 Q1011 NOSIG
METAR WADD 271130Z 12011KT 9999 SCT016 27/26 Q1011 NOSIG
METAR WADD 271100Z 13011KT 9999 SCT016 28/26 Q1010 NOSIG
METAR WADD 271030Z 13012KT 9999 SCT016 28/26 Q1010 NOSIG
METAR WADD 271000Z 14012KT 9999 BKN016 28/26 Q1010 NOSIG
METAR WADD 270930Z 13014KT 9999 SCT016 28/26 Q1009 NOSIG
METAR WADD 270900Z 14016KT 9999 SCT016 28/26 Q1009 NOSIG
METAR WADD 270830Z 13010KT 9999 BKN016 28/26 Q1009 NOSIG
METAR WADD 270800Z 15011KT 9999 BKN016 28/26 Q1009 NOSIG
METAR WADD 270730Z 14013KT 9999 BKN016 29/26 Q1009 NOSIG
METAR WADD 270700Z 14011KT 9999 BKN017 29/25 Q1009 NOSIG
METAR WADD 270630Z 14015KT 9999 SCT017 30/25 Q1009 NOSIG
METAR WADD 270600Z 14015KT 9999 SCT017 30/25 Q1010 NOSIG
METAR WADD 270530Z 14013KT 9999 SCT017 30/26 Q1010 NOSIG
METAR WADD 270500Z 13014KT 9999 SCT017 30/25 Q1010 NOSIG
METAR WADD 270430Z 13013KT 9999 SCT017 30/26 Q1011 NOSIG
METAR WADD 270400Z 12013KT 9999 SCT016 30/26 Q1011 NOSIG</description><pubDate>Sun, 28 Sep 2025 03:51:37 </pubDate></item></channel></rss>