<rss version="2.0"><channel><title>Aviation Weather METAR Data for WADD</title><link>https://aviationweather.gov/api/data/metar?ids=WADD&amp;hours=24</link><description>Latest METAR data for WADD</description><item><title>2025-06-08 19:40:03Z</title><link>https://aviationweather.gov/api/data/metar?ids=WADD&amp;hours=24</link><description>WADD 081930Z 11005KT 070V130 9999 SCT017 27/24 Q1009 NOSIG
WADD 081900Z 12008KT 9999 SCT017 28/25 Q1009 NOSIG
WADD 081830Z 10007KT 9999 SCT017 27/24 Q1009 NOSIG
WADD 081800Z 11009KT 9999 FEW017 28/24 Q1010 NOSIG
WADD 081730Z 12009KT 9999 SCT017 28/24 Q1010 NOSIG
WADD 081700Z 11007KT 9999 FEW017 28/24 Q1010 NOSIG
WADD 081630Z 12012KT 9999 FEW017 28/24 Q1010 NOSIG
WADD 081600Z 12013KT 9999 FEW017 28/24 Q1010 NOSIG
WADD 081530Z 12011KT 9999 SCT017 28/24 Q1011 NOSIG
WADD 081500Z 12012KT 9999 FEW017 28/24 Q1011 NOSIG
WADD 081430Z 11010KT 9999 FEW017 28/24 Q1011 NOSIG
WADD 081400Z 12012KT 9999 SCT017 28/24 Q1011 NOSIG
WADD 081330Z 11012KT 9999 SCT017 28/24 Q1010 NOSIG
WADD 081300Z 11010KT 9999 SCT017 28/25 Q1010 NOSIG
WADD 081230Z 11011KT 9999 SCT017 28/25 Q1010 NOSIG
WADD 081200Z 12011KT 9999 SCT017 28/25 Q1010 NOSIG
WADD 081130Z 12012KT 9999 SCT016 28/25 Q1009 NOSIG
WADD 081100Z 12012KT 9999 SCT016 28/25 Q1009 NOSIG
WADD 081030Z 12014KT 9999 SCT016 29/25 Q1009 NOSIG
WADD 081000Z 12014KT 9999 SCT016 29/25 Q1008 NOSIG
WADD 080930Z 12016KT 9999 SCT016 29/25 Q1008 NOSIG
WADD 080900Z 12017KT 9999 SCT016 29/25 Q1008 NOSIG
WADD 080830Z 13018KT 9999 BKN016 30/25 Q1007 NOSIG
WADD 080800Z 12019KT 9999 SCT016 30/25 Q1007 NOSIG
WADD 080730Z 13018KT 9999 SCT016 30/26 Q1007 NOSIG
WADD 080700Z 13019KT 9999 SCT016 29/25 Q1007 NOSIG
WADD 080630Z 14021KT 9999 FEW015CB BKN016 29/26 Q1007 NOSIG
WADD 080600Z 13018KT 9999 FEW015CB BKN016 29/26 Q1007 NOSIG
WADD 080530Z 15017KT 9999 FEW015CB BKN016 29/26 Q1008 NOSIG
WADD 080500Z 14018KT 9999 FEW015CB BKN016 28/26 Q1009 RERA NOSIG
WADD 080430Z 14015KT 9999 FEW015CB BKN016 30/26 Q1009 NOSIG
WADD 080400Z 15015KT 9999 FEW015CB BKN016 29/26 Q1010 NOSIG
WADD 080330Z 14016KT 9999 FEW015CB BKN016 29/26 Q1010 NOSIG
WADD 080300Z 13013KT 9999 SCT016 30/26 Q1011 NOSIG
WADD 080230Z 15015KT 9999 BKN016 30/26 Q1011 NOSIG
WADD 080200Z 14015KT 9999 SCT016 29/26 Q1011 NOSIG
WADD 080130Z 15016KT 9999 FEW015CB BKN016 29/26 Q1011 NOSIG
WADD 080100Z 14010KT 9999 FEW015CB SCT016 29/26 Q1011 NOSIG
WADD 080030Z 13007KT 9999 FEW015CB BKN016 28/26 Q1011 NOSIG
WADD 080000Z 13006KT 9999 FEW015CB BKN016 28/26 Q1011 NOSIG
WADD 072330Z 13006KT 9999 FEW015CB BKN016 28/26 Q1011 NOSIG
WADD 072300Z 13006KT 9999 SCT016 28/26 Q1011 NOSIG
WADD 072230Z 13008KT 9999 SCT016 28/26 Q1010 NOSIG
WADD 072200Z 13007KT 9999 SCT016 28/26 Q1010 NOSIG
WADD 072130Z 12005KT 9999 SCT016 28/25 Q1010 NOSIG
WADD 072100Z 12004KT 040V150 9999 SCT016 28/26 Q1010 NOSIG
WADD 072030Z 13006KT 9999 SCT017 28/26 Q1010 NOSIG
WADD 072000Z 14008KT 9999 SCT017 28/26 Q1010 NOSIG</description><pubDate>Sun, 08 Jun 2025 19:40:03 </pubDate></item></channel></rss>