<rss version="2.0"><channel><title>Aviation Weather METAR Data for WADD</title><link>https://aviationweather.gov/api/data/metar?ids=WADD&amp;hours=24</link><description>Latest METAR data for WADD</description><item><title>2026-03-05 19:22:43Z</title><link>https://aviationweather.gov/api/data/metar?ids=WADD&amp;hours=24</link><description>METAR WADD 051900Z 29020KT 9999 SCT016 28/25 Q1004 NOSIG
METAR WADD 051830Z 28016KT 9999 SCT016 28/26 Q1004 NOSIG
METAR WADD 051800Z 27014KT 9999 SCT016 28/26 Q1004 NOSIG
METAR WADD 051730Z 27016KT 9999 SCT016 28/26 Q1005 NOSIG
METAR WADD 051700Z 27018KT 9999 SCT016 28/25 Q1005 NOSIG
METAR WADD 051630Z 27016KT 9999 BKN016 28/25 Q1005 NOSIG
METAR WADD 051600Z 28016KT 9999 BKN016 28/25 Q1006 NOSIG
METAR WADD 051530Z 27015KT 9999 BKN016 28/26 Q1006 NOSIG
METAR WADD 051500Z 27021KT 9999 BKN016 28/26 Q1006 NOSIG
METAR WADD 051430Z 28019KT 9999 BKN016 27/25 Q1006 NOSIG
METAR WADD 051400Z 27021KT 9999 BKN016 27/26 Q1006 NOSIG
METAR WADD 051330Z 27018KT 9999 SCT017 28/26 Q1005 NOSIG
METAR WADD 051300Z 27021KT 9999 SCT017 28/26 Q1005 NOSIG
METAR WADD 051230Z COR 27021KT 9999 SCT017 28/25 Q1005 NOSIG
METAR WADD 051200Z 27022KT 9999 SCT017 28/26 Q1004 NOSIG
METAR WADD 051130Z 27019KT 9999 FEW017 28/26 Q1004 NOSIG
METAR WADD 051100Z 26019KT 9999 FEW017 28/26 Q1004 NOSIG
METAR WADD 051030Z 26020G30KT 9999 FEW017 29/26 Q1003 NOSIG
METAR WADD 051000Z 26019KT 9999 FEW017 29/26 Q1003 NOSIG
METAR WADD 050930Z 26020KT 9999 FEW017 30/26 Q1003 NOSIG
METAR WADD 050900Z 26022KT 9999 FEW017 30/26 Q1003 NOSIG
METAR WADD 050830Z 26023KT 9999 FEW017 30/26 Q1003 NOSIG
METAR WADD 050800Z 26020KT 9999 FEW017 31/26 Q1003 NOSIG
METAR WADD 050730Z 27020G30KT 9999 FEW017 32/26 Q1003 NOSIG
METAR WADD 050700Z 27022KT 9999 FEW017 32/26 Q1003 NOSIG
METAR WADD 050630Z 27023G31KT 9999 FEW017 32/25 Q1003 NOSIG
METAR WADD 050600Z 27023KT 9999 FEW017 32/25 Q1004 NOSIG
METAR WADD 050530Z 28023KT 9999 FEW017 32/24 Q1004 NOSIG
METAR WADD 050500Z 29024G33KT 9999 FEW017 32/24 Q1004 NOSIG
METAR WADD 050430Z 29019KT 9999 FEW016 32/25 Q1004 NOSIG
METAR WADD 050400Z 30016KT 9999 FEW016 32/25 Q1005 NOSIG
METAR WADD 050330Z 29017KT 9999 FEW016 31/25 Q1005 NOSIG
METAR WADD 050300Z 29016KT 9999 FEW016 31/24 Q1005 NOSIG
METAR WADD 050230Z 30015KT 9999 FEW016 31/24 Q1005 NOSIG
METAR WADD 050200Z 30012KT 9999 FEW016 31/24 Q1005 NOSIG
METAR WADD 050130Z 29012KT 9999 SCT016 30/24 Q1006 NOSIG
METAR WADD 050100Z 31011KT 9999 SCT016 29/24 Q1006 NOSIG
METAR WADD 050030Z VRB02KT 9999 SCT016 27/24 Q1006 NOSIG
METAR WADD 042330Z 03003KT 9999 SCT016 26/23 Q1005 NOSIG
METAR WADD 042230Z 10004KT 9999 SCT016 24/23 Q1004 NOSIG
METAR WADD 042130Z VRB01KT 9999 SCT016 23/23 Q1005 NOSIG
METAR WADD 042030Z 03003KT 9999 SCT015 23/23 Q1004 NOSIG
METAR WADD 042000Z VRB01KT 9999 SCT015 23/22 Q1004 NOSIG
METAR WADD 041930Z VRB01KT 9000 BKN015 23/22 Q1004 RERA NOSIG</description><pubDate>Thu, 05 Mar 2026 19:22:43 </pubDate></item></channel></rss>