<rss version="2.0"><channel><title>Aviation Weather METAR Data for WADD</title><link>https://aviationweather.gov/api/data/metar?ids=WADD&amp;hours=24</link><description>Latest METAR data for WADD</description><item><title>2025-09-18 22:41:12Z</title><link>https://aviationweather.gov/api/data/metar?ids=WADD&amp;hours=24</link><description>METAR WADD 182230Z 11012KT 7000 -RA FEW015CB BKN016 25/25 Q1012 TEMPO TL2330 -RA
METAR WADD 182200Z 06004KT 020V080 9999 BKN016 25/25 Q1012 NOSIG
METAR WADD 182130Z 04005KT 9999 BKN016 25/25 Q1012 RERA NOSIG
METAR WADD 182100Z 07011KT 7000 -RA FEW014CB BKN015 25/25 Q1011 TEMPO TL2200 -RA
METAR WADD 182030Z 14013G23KT 8000 -RA FEW014CB BKN015 25/25 Q1011 TEMPO TL2130 -RA
METAR WADD 182000Z 12008KT 5000 RA FEW014CB BKN015 25/25 Q1011 TEMPO TL2100 5000 RA
METAR WADD 181930Z 10010KT 8000 -RA FEW014CB BKN015 25/25 Q1012 TEMPO TL2030 -RA
METAR WADD 181900Z 11007KT 8000 -RA FEW014CB BKN015 25/25 Q1012 TEMPO TL2000 -RA
METAR WADD 181830Z 18007KT 6000 -RA FEW014CB BKN015 25/25 Q1012 TEMPO TL1930 -RA
METAR WADD 181800Z 14015KT 1000 +RA FEW014CB BKN015 25/25 Q1012 TEMPO TL1900 5000 RA
METAR WADD 181730Z 17007KT 6000 -RA FEW015CB BKN016 25/25 Q1012 TEMPO TL1830 -RA
METAR WADD 181700Z 13008KT 6000 -RA FEW015CB BKN016 25/25 Q1012 TEMPO TL1800 -RA
METAR WADD 181630Z 11006KT 9999 SCT016 25/25 Q1013 NOSIG
METAR WADD 181600Z 12009KT 9999 BKN016 26/25 Q1013 NOSIG
METAR WADD 181530Z 08010KT 9999 FEW015CB BKN016 26/25 Q1014 RERA NOSIG
METAR WADD 181500Z 07009KT 6000 -RA FEW015CB BKN016 26/25 Q1014 TEMPO TL1600 -RA
METAR WADD 181430Z 10007KT 8000 -RA FEW015CB BKN016 26/25 Q1014 TEMPO TL1530 -RA
METAR WADD 181400Z 12006KT 8000 -RA BKN016 26/25 Q1014 TEMPO TL1500 -RA
METAR WADD 181300Z 14005KT 9999 SCT016 26/25 Q1014 NOSIG
METAR WADD 181230Z 14005KT 9999 SCT016 26/25 Q1014 NOSIG
METAR WADD 181200Z 14007KT 9999 SCT016 26/25 Q1013 NOSIG
METAR WADD 181130Z 14007KT 9999 SCT016 26/25 Q1013 NOSIG
METAR WADD 181100Z 15008KT 9999 SCT016 26/25 Q1012 NOSIG
METAR WADD 181030Z 14008KT 9999 SCT016 26/24 Q1012 NOSIG
METAR WADD 181000Z 15008KT 9999 SCT016 27/24 Q1012 NOSIG
 WADD 180930Z 15008KT 9999 SCT016 26/24 Q1011 NOSIG
METAR WADD 180900Z 14008KT 9999 SCT016 26/25 Q1011 NOSIG
 WADD 180830Z 15007KT 9999 FEW015CB BKN016 26/25 Q1011 NOSIG
METAR WADD 180800Z 15006KT 9999 FEW015CB BKN016 26/25 Q1011 NOSIG
METAR WADD 180730Z 17004KT 9999 FEW015CB BKN016 26/26 Q1010 NOSIG
METAR WADD 180700Z 12004KT 9999 FEW015CB BKN016 26/26 Q1011 NOSIG
METAR WADD 180630Z 16007KT 9999 FEW015CB BKN016 26/26 Q1011 NOSIG
 WADD 180600Z 17007KT 8000 FEW015CB BKN016 25/25 Q1011 RERA NOSIG
METAR WADD 180530Z 16006KT 6000 -RA FEW015CB BKN016 25/25 Q1011 TEMPO TL0630 6000 -RA
METAR WADD 180500Z 17014KT 3000 RA FEW015CB BKN016 25/25 Q1012 TEMPO TL0600 3000 RA
METAR WADD 180430Z 17010KT 5000 -RA FEW015CB 24/24 Q1012 TEMPO TL0530 5000 -RA
METAR WADD 180400Z 15009KT 120V190 0600 +RA FEW015CB BKN016 25/25 Q1013 TEMPO TL0500 0600 +RA
METAR WADD 180330Z 21007KT 4000 RA FEW015CB BKN016 25/25 Q1013 TEMPO TL0430 4000 RA
METAR WADD 180300Z 26003KT 4000 RA FEW015CB BKN016 24/24 Q1014 TEMPO TL0400 4000 RA
METAR WADD 180230Z 01004KT 0500 +RA FEW015CB BKN016 24/24 Q1014 TEMPO TL0330 0500 +RA
METAR WADD 180200Z 01009KT 1300 +RA FEW015CB BKN016 25/25 Q1014 TEMPO TL0300 1300 +RA
METAR WADD 180130Z 04004KT 030V110 6000 -RA FEW015CB BKN016 25/25 Q1014 TEMPO TL0230 6000 -RA
METAR WADD 180100Z 11005KT 050V140 3000 RA FEW015CB BKN016 26/24 Q1014 TEMPO TL0200 3000 RA
METAR WADD 180030Z 14005KT 8000 -RA FEW015CB BKN016 26/25 Q1013 TEMPO TL0130 -RA
METAR WADD 180000Z 15004KT 9999 FEW015CB BKN016 26/25 Q1013 RERA NOSIG
METAR WADD 172330Z 15006KT 8000 -RA FEW015CB BKN016 26/24 Q1013 TEMPO TL2430 -RA
METAR WADD 172300Z 15008KT 9999 FEW016CB BKN016 26/24 Q1013 NOSIG</description><pubDate>Thu, 18 Sep 2025 22:41:12 </pubDate></item></channel></rss>