<rss version="2.0"><channel><title>Aviation Weather METAR Data for WADD</title><link>https://aviationweather.gov/api/data/metar?ids=WADD&amp;hours=24</link><description>Latest METAR data for WADD</description><item><title>2026-01-23 17:32:30Z</title><link>https://aviationweather.gov/api/data/metar?ids=WADD&amp;hours=24</link><description>METAR WADD 231700Z 32011KT 9999 FEW017 29/21 Q1009 NOSIG
METAR WADD 231630Z 34010KT 300V010 9999 FEW017 29/21 Q1009 NOSIG
METAR WADD 231600Z 34008KT 320V020 9999 SCT017 28/22 Q1009 NOSIG
METAR WADD 231530Z 34005KT 310V020 9999 SCT017 29/21 Q1009 NOSIG
METAR WADD 231500Z 33008KT 300V360 9999 SCT017 29/21 Q1010 NOSIG
METAR WADD 231430Z 33008KT 300V360 9999 SCT017 29/22 Q1009 NOSIG
METAR WADD 231400Z 33011KT 9999 FEW017 29/22 Q1009 NOSIG
METAR WADD 231330Z 32014KT 9999 FEW017 29/22 Q1009 NOSIG
METAR WADD 231300Z 33008KT 9999 FEW017 29/22 Q1009 NOSIG
METAR WADD 231230Z 32012KT 9999 SCT017 29/22 Q1009 NOSIG
METAR WADD 231200Z 31012KT 9999 SCT017 29/22 Q1009 NOSIG
METAR WADD 231130Z 31012KT 9999 FEW017 29/22 Q1008 NOSIG
METAR WADD 231100Z 32011KT 9999 FEW017 29/22 Q1008 NOSIG
METAR WADD 231030Z 31012KT 9999 FEW017 29/22 Q1007 NOSIG
METAR WADD 231000Z 31012KT 9999 FEW017 30/23 Q1007 NOSIG
METAR WADD 230930Z 30014KT 9999 FEW017 30/23 Q1007 NOSIG
METAR WADD 230900Z 30013KT 9999 FEW017 31/23 Q1006 NOSIG
METAR WADD 230830Z 30013KT 9999 FEW017 31/24 Q1006 NOSIG
METAR WADD 230800Z 31013KT 9999 FEW017 32/24 Q1006 NOSIG
METAR WADD 230730Z 31015KT 9999 FEW017 32/24 Q1005 NOSIG
METAR WADD 230700Z 30013KT 9999 FEW017 31/25 Q1006 NOSIG
METAR WADD 230630Z 30012KT 9999 FEW017 31/26 Q1006 NOSIG
METAR WADD 230600Z 29013KT 9999 FEW017 31/26 Q1006 NOSIG
METAR WADD 230530Z 28013KT 9999 FEW017 31/25 Q1007 NOSIG
METAR WADD 230500Z 27014KT 9999 FEW017 30/25 Q1007 NOSIG
METAR WADD 230430Z 27015KT 9999 FEW017 29/25 Q1007 NOSIG
METAR WADD 230400Z 27014KT 9999 FEW017 29/25 Q1008 NOSIG
METAR WADD 230330Z 27015KT 9999 FEW017 29/26 Q1008 NOSIG
METAR WADD 230300Z 27015KT 9999 FEW017 29/26 Q1008 NOSIG
METAR WADD 230230Z 28016KT 9999 FEW017 29/25 Q1008 NOSIG
METAR WADD 230200Z 28016KT 9999 FEW017 29/25 Q1009 NOSIG
METAR WADD 230130Z 29013KT 9999 FEW016 28/25 Q1009 NOSIG
METAR WADD 230100Z 31011KT 9999 SCT016 28/25 Q1009 NOSIG
METAR WADD 230030Z 31013KT 9999 SCT016 27/25 Q1008 NOSIG
METAR WADD 230000Z 28015KT 9999 FEW016 27/24 Q1008 NOSIG
METAR WADD 222330Z 27017KT 9999 FEW016 26/24 Q1008 NOSIG
METAR WADD 222300Z 27017KT 9999 SCT016 26/24 Q1008 NOSIG
METAR WADD 222230Z 26013KT 9999 SCT016 26/24 Q1008 RERA NOSIG
METAR WADD 222200Z 25017KT 6000 -RA FEW014CB BKN015 25/24 Q1008 NOSIG RMK CB IN APCH
METAR WADD 222130Z 25015KT 6000 -RA FEW014CB BKN015 25/24 Q1007 NOSIG RMK CB IN APCH
METAR WADD 222100Z 23002KT 9999 FEW014CB BKN015 25/25 Q1007 NOSIG RMK CB IN CLIMB-OUT
METAR WADD 222030Z VRB02KT 9999 FEW014CB BKN015 25/25 Q1006 NOSIG
METAR WADD 222000Z 02003KT 9999 BKN015 25/25 Q1006 NOSIG
METAR WADD 221930Z 36004KT 9999 BKN015 26/25 Q1006 NOSIG
METAR WADD 221900Z 35003KT 9999 FEW014CB BKN015 26/24 Q1006 NOSIG
METAR WADD 221830Z VRB02KT 9999 FEW014CB BKN015 26/24 Q1006 NOSIG
METAR WADD 221800Z 29004KT 9999 FEW014CB BKN015 26/24 Q1006 NOSIG</description><pubDate>Fri, 23 Jan 2026 17:32:30 </pubDate></item></channel></rss>