<rss version="2.0"><channel><title>Aviation Weather METAR Data for WADD</title><link>https://aviationweather.gov/api/data/metar?ids=WADD&amp;hours=24</link><description>Latest METAR data for WADD</description><item><title>2025-08-04 09:40:14Z</title><link>https://aviationweather.gov/api/data/metar?ids=WADD&amp;hours=24</link><description>WADD 040930Z 13012KT 9999 FEW017 28/24 Q1010 NOSIG
WADD 040900Z 13014KT 9999 FEW017 29/24 Q1010 NOSIG
WADD 040830Z 11012KT 9999 FEW017 29/24 Q1009 NOSIG
WADD 040800Z 12012KT 9999 FEW017 29/24 Q1009 NOSIG
WADD 040730Z 12014KT 9999 FEW017 29/25 Q1009 NOSIG
WADD 040700Z 11013KT 9999 FEW017 29/25 Q1010 NOSIG
WADD 040630Z 12013KT 9999 FEW017 29/25 Q1010 NOSIG
WADD 040600Z 12013KT 9999 FEW017 30/25 Q1010 NOSIG
WADD 040530Z 12013KT 9999 FEW017 30/24 Q1011 NOSIG
WADD 040500Z 12013KT 9999 FEW017 29/24 Q1011 NOSIG
WADD 040430Z 12012KT 9999 FEW017 30/25 Q1011 NOSIG
WADD 040400Z 11012KT 9999 FEW017 29/25 Q1011 NOSIG
WADD 040330Z 11011KT 9999 FEW017 29/24 Q1012 NOSIG
WADD 040300Z 12012KT 9999 FEW018 29/24 Q1012 NOSIG
WADD 040230Z 11011KT 9999 FEW018 29/25 Q1012 NOSIG
WADD 040200Z 10013KT 9999 FEW018 29/25 Q1012 NOSIG
WADD 040130Z 11012KT 9999 FEW018 28/25 Q1012 NOSIG
WADD 040100Z 11011KT 9999 FEW018 28/25 Q1012 NOSIG
WADD 040030Z 10011KT 9999 FEW017 27/25 Q1012 NOSIG
WADD 040000Z 10009KT 9999 FEW017 27/25 Q1012 NOSIG
WADD 032330Z 09007KT 9999 SCT016 26/25 Q1012 NOSIG
WADD 032300Z 10007KT 9999 SCT016 26/25 Q1012 NOSIG
WADD 032230Z 10006KT 9999 SCT016 26/25 Q1011 NOSIG
WADD 032200Z 10008KT 9999 SCT016 26/25 Q1011 NOSIG
WADD 032130Z 09008KT 9999 SCT016 26/25 Q1011 NOSIG
WADD 032100Z 10007KT 9999 SCT016 26/25 Q1011 NOSIG
WADD 032030Z 10009KT 9999 SCT016 26/25 Q1011 NOSIG
WADD 032000Z 10009KT 9999 SCT016 26/25 Q1011 NOSIG
WADD 031930Z 12009KT SCT016 26/25 Q1012 NOSIG
WADD 031900Z 11010KT SCT016 OVC019 26/25 Q1012 NOSIG
WADD 031830Z 13010KT 9999 SCT016 27/25 Q1012 NOSIG
WADD 031800Z 12010KT 9999 SCT016 26/25 Q1012 NOSIG
WADD 031730Z 13011KT 9999 SCT016 26/25 Q1012 NOSIG
WADD 031700Z 11008KT 9999 SCT016 27/25 Q1013 NOSIG
WADD 031630Z 10010KT 9999 SCT016 27/25 Q1013 NOSIG
WADD 031600Z 11010KT 9999 SCT016 27/25 Q1013 NOSIG
WADD 031530Z 10011KT 9999 SCT016 27/25 Q1013 NOSIG
WADD 031500Z 10009KT 9999 SCT016 27/25 Q1013 NOSIG
WADD 031430Z 10009KT 9999 SCT016 27/25 Q1013 NOSIG
WADD 031400Z 10009KT 9999 FEW017 27/25 Q1013 NOSIG
WADD 031330Z 10009KT 9999 FEW017 27/25 Q1013 NOSIG
WADD 031300Z 12010KT 9999 FEW017 27/26 Q1012 NOSIG
WADD 031230Z 11013KT 9999 FEW017 27/26 Q1012 NOSIG
WADD 031200Z 12013KT 9999 FEW017 27/26 Q1011 NOSIG
WADD 031130Z 12012KT 9999 FEW017 27/26 Q1011 NOSIG
WADD 031100Z 12012KT 9999 FEW017 27/26 Q1011 NOSIG
WADD 031030Z 12011KT 9999 FEW017 28/25 Q1010 NOSIG
WADD 031000Z 12011KT 9999 FEW017 28/26 Q1010 NOSIG</description><pubDate>Mon, 04 Aug 2025 09:40:14 </pubDate></item></channel></rss>