<rss version="2.0"><channel><title>Aviation Weather METAR Data for WADD</title><link>https://aviationweather.gov/api/data/metar?ids=WADD&amp;hours=24</link><description>Latest METAR data for WADD</description><item><title>2025-05-16 04:48:20Z</title><link>https://aviationweather.gov/api/data/metar?ids=WADD&amp;hours=24</link><description>WADD 160430Z 11015KT 9999 FEW017 31/26 Q1009 NOSIG
WADD 160400Z 11014KT 9999 FEW017 30/26 Q1009 NOSIG
WADD 160330Z 11012KT 9999 FEW017 31/26 Q1009 NOSIG
WADD 160300Z 11013KT 9999 SCT016 30/27 Q1010 NOSIG
WADD 160230Z 12011KT 9999 SCT016 30/27 Q1010 NOSIG
WADD 160200Z 11010KT 9999 FEW017 30/27 Q1010 NOSIG
WADD 160130Z 12012KT 9999 FEW017 29/27 Q1010 NOSIG
WADD 160100Z 10008KT 9999 FEW017 29/27 Q1010 NOSIG
WADD 160030Z 10009KT 9999 FEW017 29/27 Q1010 NOSIG
WADD 160000Z 11007KT 9999 FEW017 28/27 Q1010 NOSIG
WADD 152330Z 11006KT 9999 FEW017 28/26 Q1010 NOSIG
WADD 152300Z 10004KT 9999 FEW017 27/26 Q1010 NOSIG
WADD 152230Z 11004KT 9999 FEW017 26/26 Q1010 NOSIG
WADD 152200Z 09003KT 9999 FEW017 26/26 Q1009 NOSIG
WADD 152130Z 06003KT 9999 FEW017 26/26 Q1009 NOSIG
WADD 152100Z 06004KT 9999 FEW017 26/25 Q1009 NOSIG
WADD 152030Z 08005KT 9999 SCT016 26/25 Q1009 NOSIG
WADD 152000Z 06004KT 9999 SCT016 26/26 Q1010 NOSIG
WADD 151930Z 05006KT 9999 SCT016 26/26 Q1010 NOSIG
WADD 151900Z 05006KT 9999 FEW015CB SCT016 27/26 Q1010 NOSIG
WADD 151830Z 06004KT 9999 FEW015CB SCT016 27/27 Q1010 RERA NOSIG
WADD 151800Z 12003KT 8000 -RA FEW015CB SCT016 27/26 Q1010 RETS TEMPO TL1900 -RA
WADD 151730Z 06005KT 9999 TS FEW016CB SCT017 27/26 Q1010 TEMPO TL1830 TS
WADD 151630Z 02006KT 9999 FEW017 27/25 Q1011 NOSIG
WADD 151600Z 05007KT 9999 FEW017 27/26 Q1011 NOSIG
WADD 151530Z 09006KT 9999 FEW017 27/26 NOSIG
WADD 151500Z 08006KT 9999 FEW017 27/26 Q1011 NOSIG
WADD 151430Z 09005KT 9999 FEW017 27/26 Q1011 NOSIG
WADD 151400Z 08005KT 9999 FEW017 26/25 Q1011 NOSIG
WADD 151300Z 05005KT FEW017 27/25 Q1010 NOSIG
WADD 151230Z 09005KT 9999 FEW017 27/26 Q1010 NOSIG
WADD 151200Z 08003KT 9999 FEW017 27/25 Q1009 NOSIG
WADD 151130Z VRB02KT 9999 FEW017 27/25 Q1009 NOSIG
WADD 151100Z VRB02KT 9999 FEW017 26/25 Q1009 NOSIG
WADD 151030Z 36002KT 9999 FEW017 26/25 Q1009 NOSIG
WADD 151000Z 31003KT 9999 FEW017 27/25 Q1009 NOSIG
WADD 150930Z 31003KT 9999 SCT016 27/25 Q1009 NOSIG
WADD 150900Z 36004KT 9999 SCT016 27/25 Q1009 NOSIG
WADD 150830Z 35007KT 9999 SCT016 27/25 Q1008 NOSIG
WADD 150800Z 36008KT 9999 FEW016CB SCT016 27/25 Q1008 RETS NOSIG
WADD 150730Z 03012KT 8000 TS FEW016CB BKN016 27/24 Q1008 TEMPO TL0830 TS RMK CB IN APCH
WADD 150700Z 17008KT 8000 TS FEW016CB SCT016 31/27 Q1008 NOSIG TEMPO TL0800 TS
WADD 150630Z 9999 FEW016CB SCT016 30/27 Q1008 NOSIG
WADD 150600Z 25007KT 9999 FEW016 31/27 Q1008 NOSIG
WADD 150530Z 19005KT 9999 SCT016 31/26 Q1008 NOSIG
WADD 150500Z 20005KT 9999 FEW017 31/27 Q1008 NOSIG</description><pubDate>Fri, 16 May 2025 04:48:20 </pubDate></item></channel></rss>