<rss version="2.0"><channel><title>Aviation Weather METAR Data for WADD</title><link>https://aviationweather.gov/api/data/metar?ids=WADD&amp;hours=24</link><description>Latest METAR data for WADD</description><item><title>2025-11-29 06:38:13Z</title><link>https://aviationweather.gov/api/data/metar?ids=WADD&amp;hours=24</link><description>METAR WADD 290630Z 26010KT 9999 FEW015CB SCT017 30/25 Q1009 NOSIG RMK CB IN APCH
METAR WADD 290600Z 26009KT 9999 SCT017 30/24 Q1009 NOSIG
METAR WADD 290530Z 25010KT 220V280 9999 FEW015 30/24 Q1009 NOSIG
METAR WADD 290500Z 26009KT 9999 FEW015CB FEW015 30/24 Q1010 NOSIG RMK CB IN APCH
METAR WADD 290430Z 26010KT 9999 FEW015CB SCT015 30/24 Q1010 NOSIG
METAR WADD 290400Z 26009KT 9999 SCT015 30/24 Q1010 NOSIG
METAR WADD 290330Z 26009KT 9999 FEW015CB SCT015 30/24 Q1010 NOSIG
METAR WADD 290300Z 26009KT 9999 FEW015CB SCT015 30/24 Q1011 NOSIG RMK CB IN APPCH
METAR WADD 290230Z 26008KT 9999 SCT016 30/24 Q1011 NOSIG
METAR WADD 290200Z 26008KT 9999 BKN015 29/24 Q1011 NOSIG
METAR WADD 290130Z 25007KT 9999 SCT016 30/24 Q1011 NOSIG
METAR WADD 290100Z 24005KT 9999 SCT016 29/24 Q1011 NOSIG
METAR WADD 290030Z 23004KT 170V270 9999 SCT016 29/24 Q1011 NOSIG
METAR WADD 290000Z 23005KT 190V250 9999 SCT016 29/24 Q1011 NOSIG
METAR WADD 282330Z 24004KT 210V270 9999 BKN017 28/24 Q1010 NOSIG
METAR WADD 282300Z 22004KT 180V250 9999 BKN017 28/23 Q1010 NOSIG
METAR WADD 282230Z 23005KT 200V260 9999 BKN017 28/23 Q1010 NOSIG
METAR WADD 282200Z 23005KT 9999 BKN017 28/24 Q1009 NOSIG
METAR WADD 282130Z 23006KT 9999 BKN017 28/24 Q1009 NOSIG
METAR WADD 282100Z 24004KT 200V270 9999 BKN017 28/24 Q1009 NOSIG
METAR WADD 282030Z 23005KT 9999 BKN017 28/24 Q1009 NOSIG
METAR WADD 282000Z 23005KT 210V270 9999 BKN017 27/24 Q1008 NOSIG
METAR WADD 281930Z 23005KT 9999 BKN017 27/24 Q1008 RERA NOSIG
METAR WADD 281900Z 22005KT 130V260 8000 -RA BKN017 28/24 Q1008 TEMPO TL2000 -RA
METAR WADD 281830Z 24006KT 9999 SCT017 28/24 Q1008 NOSIG
METAR WADD 281800Z 26008KT 9999 SCT017 28/24 Q1009 NOSIG
METAR WADD 281730Z 26009KT 9999 SCT017 28/24 Q1009 NOSIG
METAR WADD 281700Z 26009KT 9999 BKN017 28/24 Q1009 NOSIG
METAR WADD 281630Z 26010KT 9999 BKN017 28/24 Q1009 NOSIG
METAR WADD 281600Z 25007KT 9999 BKN017 28/24 Q1010 NOSIG
METAR WADD 281530Z 23006KT 9999 BKN017 28/24 Q1010 NOSIG
METAR WADD 281500Z 24006KT 200V270 9999 BKN017 28/24 Q1010 NOSIG
METAR WADD 281430Z 23004KT 9999 BKN017 28/24 Q1010 NOSIG
METAR WADD 281400Z 24005KT 210V280 9999 BKN017 28/24 Q1010 NOSIG
METAR WADD 281330Z 23005KT 190V260 9999 BKN017 28/24 Q1010 NOSIG
METAR WADD 281300Z 23004KT 9999 SCT017 28/24 Q1010 NOSIG
METAR WADD 281230Z 23004KT 200V260 9999 SCT017 28/23 Q1009 NOSIG
METAR WADD 281200Z 23004KT 9999 FEW017 28/23 Q1009 NOSIG
METAR WADD 281130Z 24004KT 9999 FEW016 28/23 Q1009 NOSIG
METAR WADD 281100Z 24004KT 200V260 9999 FEW016 28/23 Q1009 NOSIG
METAR WADD 281030Z 23006KT 9999 FEW016 28/24 Q1008 NOSIG
METAR WADD 281000Z 23007KT 190V260 9999 SCT016 29/24 Q1008 NOSIG
METAR WADD 280930Z 23007KT 9999 SCT016 29/24 Q1008 NOSIG
METAR WADD 280900Z 24008KT 9999 SCT016 29/24 Q1007 NOSIG
METAR WADD 280830Z 24008KT 200V270 9999 SCT016 30/24 Q1007 NOSIG
METAR WADD 280800Z 25009KT 9999 SCT016 31/25 Q1007 NOSIG
METAR WADD 280730Z 25009KT 9999 SCT016 30/25 Q1007 NOSIG
METAR WADD 280700Z 25011KT 9999 SCT016 30/25 Q1007 NOSIG</description><pubDate>Sat, 29 Nov 2025 06:38:13 </pubDate></item></channel></rss>