<rss version="2.0"><channel><title>Aviation Weather METAR Data for WADD</title><link>https://aviationweather.gov/api/data/metar?ids=WADD&amp;hours=24</link><description>Latest METAR data for WADD</description><item><title>2025-12-01 13:00:05Z</title><link>https://aviationweather.gov/api/data/metar?ids=WADD&amp;hours=24</link><description>METAR WADD 011230Z 23006KT 170V290 9999 FEW015CB SCT016 28/24 Q1011 N OSIG
METAR WADD 011200Z VRB02KT 9999 SCT017 29/25 Q1011 NOSIG
METAR WADD 011130Z VRB02KT 9999 SCT016 29/25 Q1010 NOSIG
METAR WADD 011100Z 23004KT 190V250 9999 SCT015 29/25 Q1010 NOSIG
METAR WADD 011030Z 21003KT 9999 SCT016 29/25 Q1009 NOSIG
METAR WADD 011000Z 20003KT 9999 SCT016 29/25 Q1009 NOSIG
METAR WADD 010930Z VRB03KT 9999 FEW015CB SCT016 30/25 Q1009 NOSIG
METAR WADD 010900Z 21005KT 120V280 9999 FEW015CB SCT015 30/25 Q1009 N OSIG
METAR WADD 010830Z VRB04KT 9999 SCT015 31/25 Q1008 NOSIG
METAR WADD 010800Z VRB04KT 9999 SCT015 31/25 Q1008 NOSIG
METAR WADD 010730Z 13013KT 9999 FEW017 31/27 Q1008 NOSIG
METAR WADD 010700Z 26009KT 210V290 9999 SCT016 30/26 Q1008 NOSIG
METAR WADD 010630Z 26010KT 9999 FEW015CB BKN015 30/26 Q1009 NOSIG
METAR WADD 010600Z 26009KT 9999 FEW015CB BKN015 30/26 Q1009 RETS NOSI G
METAR WADD 010530Z 25007KT 210V270 9999 TS FEW015CB BKN016 30/25 Q1010 TEMPO TL0630 TS
METAR WADD 010500Z 24007KT 9999 TS FEW015CB BKN015 29/25 Q1010 TEMPO TL0600 TS
METAR WADD 010430Z 27010KT 9999 FEW015CB BKN016 29/26 Q1010 RERA NOSI G
METAR WADD 010400Z 28008KT 230V290 8000 -RA FEW015CB BKN016 29/25 Q10 11 TEMPO TL0500 -RA RMK CB IN APCH
METAR WADD 010330Z 26008KT 9999 SCT016 30/25 Q1011 NOSIG
METAR WADD 010300Z 27006KT 230V300 9999 SCT016 31/26 Q1012 NOSIG
METAR WADD 010230Z 26004KT 210V290 9999 SCT016 29/25 Q1012 NOSIG
METAR WADD 010200Z 33004KT 9999 SCT016 29/25 Q1013 NOSIG
METAR WADD 010130Z 11007KT 060V140 9999 FEW017 30/27 Q1013 NOSIG
METAR WADD 010100Z VRB02KT 9999 FEW016 29/26 Q1013 NOSIG
METAR WADD 010030Z VRB01KT 9999 FEW016 28/25 Q1013 NOSIG
METAR WADD 010000Z 13004KT 9999 FEW016 28/26 Q1013 NOSIG
METAR WADD 302330Z 12003KT 9999 SCT017 27/26 Q1012 NOSIG
METAR WADD 302300Z 10003KT 9999 FEW016 27/26 Q1012 NOSIG
METAR WADD 302230Z 12004KT 9999 SCT016 27/26 Q1012 NOSIG
METAR WADD 302200Z 12005KT 9999 FEW015CB SCT016 27/25 Q1012 NOSIG
METAR WADD 302130Z 10003KT 9999 FEW015CB SCT016 27/25 Q1012 NOSIG
METAR WADD 302100Z VRB01KT 9999 FEW015CB SCT016 27/24 Q1011 NOSIG
METAR WADD 302030Z VRB02KT 9999 FEW015CB SCT016 27/24 Q1011 NOSIG
METAR WADD 302000Z 11003KT 9999 FEW015CB SCT016 27/24 Q1011 NOSIG
METAR WADD 301930Z VRB01KT 9999 SCT017 27/24 Q1011 NOSIG
METAR WADD 301900Z VRB02KT 9999 SCT017 27/24 Q1011 NOSIG
METAR WADD 301830Z VRB02KT 9999 SCT017 27/24 Q1011 NOSIG
METAR WADD 301800Z VRB02KT 9999 SCT017 27/24 Q1011 NOSIG
METAR WADD 301730Z 01004KT 9999 SCT017 27/25 Q1011 NOSIG
METAR WADD 301700Z VRB01KT 9999 SCT017 27/25 Q1011 NOSIG
METAR WADD 301630Z 24002KT 9999 SCT017 27/25 Q1011 NOSIG
METAR WADD 301600Z VRB01KT 9999 SCT017 27/24 Q1012 NOSIG
METAR WADD 301530Z VRB01KT 9999 SCT017 27/25 Q1012 NOSIG
METAR WADD 301500Z VRB01KT 9999 SCT017 27/24 Q1012 NOSIG
METAR WADD 301430Z 22001KT 9999 SCT017 28/24 Q1012 NOSIG
METAR WADD 301400Z VRB02KT 9999 SCT017 28/24 Q1012 NOSIG
METAR WADD 301330Z VRB01KT 9999 SCT017 28/24 Q1012 NOSIG</description><pubDate>Mon, 01 Dec 2025 13:00:05 </pubDate></item></channel></rss>