<rss version="2.0"><channel><title>Aviation Weather METAR Data for WADD</title><link>https://aviationweather.gov/api/data/metar?ids=WADD&amp;hours=24</link><description>Latest METAR data for WADD</description><item><title>2026-04-22 20:11:01Z</title><link>https://aviationweather.gov/api/data/metar?ids=WADD&amp;hours=24</link><description>METAR WADD 222000Z 09005KT 9999 FEW017 25/24 Q1008 NOSIG
METAR WADD 221930Z 09004KT 9999 FEW017 26/24 Q1008 NOSIG
METAR WADD 221900Z 13006KT 9999 FEW017 26/25 Q1008 NOSIG
METAR WADD 221830Z 09003KT 9999 FEW017 26/24 Q1009 NOSIG
METAR WADD 221800Z 13003KT 9999 FEW017 26/24 Q1009 NOSIG
METAR WADD 221730Z 09003KT 9999 FEW017 26/24 Q1009 NOSIG
METAR WADD 221700Z 04003KT 9999 FEW017 26/25 Q1010 NOSIG
METAR WADD 221630Z 36004KT 9999 FEW017 26/25 Q1010 NOSIG
METAR WADD 221600Z 01003KT 9999 FEW017 26/25 Q1010 NOSIG
METAR WADD 221530Z 11005KT 9999 FEW017 26/25 Q1010 NOSIG
METAR WADD 221500Z 11003KT 9999 FEW017 26/25 Q1010 NOSIG
METAR WADD 221430Z VRB02KT 9999 FEW017 26/25 Q1010 NOSIG
METAR WADD 221400Z 14003KT 9999 FEW017 27/25 Q1010 NOSIG
METAR WADD 221330Z 15003KT 9999 FEW017 27/24 Q1010 NOSIG
METAR WADD 221300Z 07003KT 9999 FEW017 26/24 Q1010 NOSIG
METAR WADD 221230Z 04005KT 360V060 9999 FEW017 27/24 Q1009 NOSIG
METAR WADD 221200Z 01005KT 330V040 9999 FEW017 26/25 Q1009 NOSIG
METAR WADD 221130Z 06007KT 9999 FEW017 26/24 Q1009 NOSIG
METAR WADD 221100Z 04005KT 010V080 9999 FEW017 26/25 Q1008 NOSIG
METAR WADD 221030Z 06004KT 9999 FEW017 26/25 Q1008 NOSIG
METAR WADD 221000Z 01005KT 310V040 9999 FEW017 27/25 Q1008 NOSIG
METAR WADD 220930Z 11003KT 9999 FEW017 26/25 Q1008 NOSIG
METAR WADD 220900Z 21003KT 9999 SCT016 26/25 Q1007 RERA NOSIG
METAR WADD 220830Z 23005KT 9000 -RA BKN016 25/24 Q1007 RETS TEMPO TL0930 -RA
METAR WADD 220800Z 25007KT 7000 -TSRA FEW014CB BKN014 24/24 Q1007 TEMPO TL0900 7000 -TSRA RMK CB IN CLIMB-OUT
SPECI WADD 220748Z 25010KT 3000 TSRA FEW013CB BKN013 24/23 Q1008 TEMPO TL0830 3000 TSRA RMK CB IN CLIMB-OUT
SPECI WADD 220742Z 26010KT 1800 TSRA FEW013CB BKN013 24/23 Q1008 TEMPO TL0830 2000 TSRA RMK CB IN APCH AND CLIMB-OUT
METAR WADD 220730Z 35012G25KT 0500 1000E +TSRA FEW013CB BKN013 25/24 Q1008 TEMPO TL0830 VIS 0500 1000E +TSRA RMK CB IN APCH AND CLIMB-OUT
METAR WADD 220700Z 11008KT 9000 TS FEW014CB BKN014 30/26 Q1007 TEMPO TL0800 TS
METAR WADD 220630Z 18005KT 9999 TS FEW015CB SCT016 32/26 Q1007 TEMPO TL0730 TS
SPECI WADD 220617Z 18004KT 9999 TS FEW015CB SCT016 32/26 Q1007 TEMPO TL0730 TS
METAR WADD 220600Z 15007KT 110V180 9999 FEW016CB FEW017 32/26 Q1007 N OSIG
METAR WADD 220530Z 13007KT 090V160 9999 FEW017 32/26 Q1007 NOSIG
METAR WADD 220500Z 11009KT 9999 FEW017 32/26 Q1008 NOSIG
METAR WADD 220430Z 11007KT 9999 FEW017 31/26 Q1008 NOSIG
METAR WADD 220400Z 13006KT 9999 FEW017 33/27 Q1008 NOSIG
METAR WADD 220330Z 12005KT 090V160 9999 FEW017 32/26 Q1009 NOSIG
METAR WADD 220300Z 13008KT 090V150 9999 FEW017 31/26 Q1009 NOSIG
METAR WADD 220230Z 25006KT 9999 FEW017 30/26 Q1010 NOSIG
METAR WADD 220200Z 24004KT 220V280 9999 FEW017 30/26 Q1009 NOSIG
METAR WADD 220130Z 27004KT 240V310 9999 FEW017 30/25 Q1009 NOSIG
METAR WADD 220100Z 26003KT 9999 FEW017 31/25 Q1009 NOSIG
METAR WADD 220030Z VRB02KT 9999 FEW017 29/26 Q1008 NOSIG
METAR WADD 220000Z 15003KT 9999 FEW017 28/26 Q1008 NOSIG
METAR WADD 212330Z 02003KT 9999 FEW017 26/25 Q1008 NOSIG
METAR WADD 212300Z 01003KT 9999 FEW017 26/25 Q1008 NOSIG
METAR WADD 212230Z VRB01KT 9999 FEW017 25/24 Q1007 NOSIG
METAR WADD 212200Z VRB02KT 9999 FEW017 25/25 Q1007 NOSIG
METAR WADD 212130Z VRB01KT 9999 FEW017 25/25 Q1007 NOSIG
METAR WADD 212100Z VRB01KT 9999 FEW017 25/25 Q1007 NOSIG
METAR WADD 212030Z 03002KT 9999 FEW017 25/25 Q1007 NOSIG</description><pubDate>Wed, 22 Apr 2026 20:11:01 </pubDate></item></channel></rss>