<rss version="2.0"><channel><title>Aviation Weather METAR Data for WADD</title><link>https://aviationweather.gov/api/data/metar?ids=WADD&amp;hours=24</link><description>Latest METAR data for WADD</description><item><title>2025-07-13 15:43:39Z</title><link>https://aviationweather.gov/api/data/metar?ids=WADD&amp;hours=24</link><description>WADD 131530Z 14011KT 9999 SCT016 26/25 Q1013 NOSIG
WADD 131500Z 13006KT 9999 SCT016 26/25 Q1013 NOSIG
WADD 131430Z 13007KT 9999 SCT016 26/25 Q1013 NOSIG
WADD 131400Z 13009KT 9999 SCT016 26/24 Q1013 NOSIG
WADD 131330Z 13010KT 9999 SCT016 26/24 Q1012 NOSIG
WADD 131300Z 12010KT 9999 FEW017 26/24 Q1012 NOSIG
WADD 131230Z 13011KT 9999 SCT017 27/24 Q1012 NOSIG
WADD 131200Z 13012KT 9999 SCT017 27/24 Q1012 NOSIG
WADD 131130Z 13016KT 9999 SCT016 27/25 Q1011 NOSIG
WADD 131100Z 12014KT 9999 SCT016 27/25 Q1011 NOSIG
WADD 131030Z 12013KT 9999 FEW017 27/25 Q1011 NOSIG
WADD 131000Z 13017KT 9999 SCT016 27/24 Q1010 NOSIG
WADD 130930Z 12015KT 9999 SCT016 27/24 Q1010 NOSIG
WADD 130900Z 12017KT 9999 FEW017 28/25 Q1010 NOSIG
WADD 130830Z 13018KT 9999 FEW017 28/25 Q1010 NOSIG
WADD 130800Z 12017KT 9999 FEW017 28/25 Q1010 NOSIG
WADD 130730Z 12015KT 9999 FEW017 29/25 Q1010 NOSIG
WADD 130700Z 12016KT 9999 FEW017 29/25 Q1010 NOSIG
WADD 130630Z 11017KT 9999 FEW017 29/25 Q1010 NOSIG
WADD 130600Z 12016KT 9999 FEW017 29/25 Q1010 NOSIG
WADD 130530Z 12017KT 9999 FEW017 29/25 Q1010 NOSIG
WADD 130500Z 13018KT 9999 FEW017 29/25 Q1011 NOSIG
WADD 130430Z 12018KT 9999 FEW017 29/25 Q1011 NOSIG
WADD 130400Z 12017KT 9999 FEW017 29/25 Q1011 NOSIG
WADD 130330Z 12016KT 9999 FEW017 28/25 Q1012 NOSIG
WADD 130300Z 12015KT 9999 SCT016 28/25 Q1012 NOSIG
WADD 130230Z 11017KT 9999 SCT016 28/25 Q1012 NOSIG
WADD 130200Z 11016KT 9999 SCT016 28/25 Q1012
WADD 130130Z 12014KT 9999 SCT016 28/25 Q1012 NOSIG
WADD 130100Z 11014KT 9999 SCT016 28/25 Q1012 NOSIG
WADD 130030Z 11015KT 9999 BKN015 27/25 Q1012 NOSIG
WADD 130000Z 11012KT 9999 BKN015 26/25 Q1012 NOSIG
WADD 122330Z 10011KT 9999 BKN015 26/25 Q1012 NOSIG
WADD 122300Z 12012KT 9999 BKN015 26/25 Q1012 NOSIG
WADD 122230Z 11010KT 9999 BKN015 26/25 Q1011 NOSIG
WADD 122200Z 11010KT 9999 SCT016 26/25 Q1011 NOSIG
WADD 122130Z 12011KT 9999 SCT016 26/25 Q1011 NOSIG
WADD 122100Z 12011KT 9999 SCT016 26/25 Q1011 NOSIG
WADD 122030Z 12010KT 9999 SCT016 26/24 Q1011 NOSIG
WADD 122000Z 12009KT 9999 SCT016 26/24 Q1011 NOSIG
WADD 121930Z 12012KT 9999 SCT016 26/25 Q1011 NOSIG
WADD 121900Z 11009KT 9999 SCT016 26/25 Q1011 NOSIG
WADD 121830Z 11010KT 9999 SCT016 26/25 Q1011 NOSIG
WADD 121800Z 12011KT 9999 SCT016 26/25 Q1012 NOSIG
WADD 121730Z 11009KT 9999 SCT016 26/25 Q1012 NOSIG
WADD 121700Z 10009KT 9999 SCT016 26/25 Q1012 NOSIG
WADD 121630Z 10010KT 9999 SCT016 26/25 Q1012 NOSIG
WADD 121600Z 10010KT 9999 SCT016 26/25 Q1012 NOSIG</description><pubDate>Sun, 13 Jul 2025 15:43:39 </pubDate></item></channel></rss>