<rss version="2.0"><channel><title>Aviation Weather METAR Data for WADD</title><link>https://aviationweather.gov/api/data/metar?ids=WADD&amp;hours=24</link><description>Latest METAR data for WADD</description><item><title>2025-07-17 19:23:57Z</title><link>https://aviationweather.gov/api/data/metar?ids=WADD&amp;hours=24</link><description>WADD 171900Z 13004KT 9999 SCT016 25/23 Q1011 NOSIG
WADD 171830Z 14003KT 9999 SCT016 25/23 Q1011 NOSIG
WADD 171800Z 14006KT 9999 SCT016 25/23 Q1011 NOSIG
WADD 171730Z 14007KT 9999 SCT016 25/23 Q1011 NOSIG
WADD 171700Z 14006KT 9999 SCT016 25/23 Q1011 NOSIG
WADD 171630Z 13008KT 9999 SCT016 25/23 Q1011 NOSIG
WADD 171600Z 14009KT 9999 FEW017 25/23 Q1012 NOSIG
WADD 171530Z 14011KT 9999 FEW017 26/23 Q1011 NOSIG
WADD 171500Z 13008KT 9999 FEW017 26/23 Q1012 NOSIG
WADD 171430Z 12005KT 9999 FEW017 26/23 Q1012 NOSIG
WADD 171400Z 12006KT 9999 FEW017 26/22 Q1012 NOSIG
WADD 171330Z 13006KT 9999 FEW017 26/23 Q1012 NOSIG
WADD 171300Z 15006KT 9999 FEW017 26/23 Q1011 NOSIG
WADD 171230Z 13008KT 9999 FEW017 26/23 Q1011 NOSIG
WADD 171200Z 12005KT 9999 FEW017 26/23 Q1011 NOSIG
WADD 171130Z 13006KT 9999 FEW017 26/23 Q1011 NOSIG
WADD 171100Z 13008KT 9999 FEW017 26/23 Q1011 NOSIG
WADD 171030Z 14011KT 9999 FEW017 26/23 Q1010 NOSIG
WADD 171000Z 14014KT 9999 FEW017 27/23 Q1010
WADD 170930Z 14012KT 9999 FEW017 27/22 Q1010 NOSIG
WADD 170900Z 13011KT 9999 FEW017 27/22 Q1009 NOSIG
WADD 170830Z 14012KT 9999 FEW017 27/23 Q1009 NOSIG
WADD 170800Z 13011KT 9999 FEW017 28/23 Q1009 NOSIG
WADD 170730Z 14009KT 9999 FEW017 28/22 Q1009 NOSIG
WADD 170700Z 14011KT 9999 FEW017 28/23 Q1009 NOSIG
WADD 170630Z 13011KT 9999 FEW017 28/23 Q1010 NOSIG
WADD 170600Z 12010KT 9999 FEW017 29/23 Q1010 NOSIG
WADD 170530Z 10011KT 9999 FEW017 29/23 Q1010 NOSIG
WADD 170500Z 12010KT 9999 FEW017 29/23 Q1011 NOSIG
WADD 170430Z 10010KT 9999 FEW017 29/23 Q1011 NOSIG
WADD 170400Z 11010KT 9999 FEW017 28/23 Q1011 NOSIG
WADD 170330Z 10009KT 9999 FEW017 28/22 Q1012 NOSIG
WADD 170300Z 170300Z 11009KT 070V130 9999 FEW017 29/23 Q1012 NOSIG
WADD 170230Z 10008KT 060V130 9999 FEW0217 28/23 Q1012 NOSIG
WADD 170200Z 11009KT 9999 FEW017 28/22 Q1012 NOSIG
WADD 170130Z 12010KT 9999 FEW017 28/22 Q1013 NOSIG
WADD 170100Z 11009KT 9999 SCT016 27/22 Q1013 NOSIG
WADD 170030Z 12004KT 9999 SCT016 26/22 Q1013 NOSIG
WADD 170000Z VRB01KT 9999 SCT016 25/22 Q1013 NOSIG
WADD 162330Z 36003KT 9999 SCT016 24/22 Q1012 NOSIG
WADD 162300Z 34002KT 9999 FEW016 24/22 Q1012 NOSIG
WADD 162230Z 15003KT 9999 SCT016 24/22 Q1012 NOSIG
WADD 162200Z 15003KT 9999 FEW017 25/23 Q1012 NOSIG
WADD 162130Z VRB02KT 9999 SCT016 25/23 Q1011 NOSIG
WADD 162100Z 04002KT 9999 SCT016 24/22 Q1011 NOSIG
WADD 162030Z 01004KT 9999 SCT017 24/22 Q1011 NOSIG
WADD 162000Z 36003KT 9999 FEW017 24/22 Q1011 NOSIG
WADD 161930Z 13004KT 9999 FEW017 25/23 Q1011 NOSIG</description><pubDate>Thu, 17 Jul 2025 19:23:57 </pubDate></item></channel></rss>