<rss version="2.0"><channel><title>Aviation Weather METAR Data for WADD</title><link>https://aviationweather.gov/api/data/metar?ids=WADD&amp;hours=24</link><description>Latest METAR data for WADD</description><item><title>2025-10-14 10:28:56Z</title><link>https://aviationweather.gov/api/data/metar?ids=WADD&amp;hours=24</link><description>METAR WADD 141000Z 15012KT 9999 SCT016 29/27 Q1008 NOSIG
 WADD 140930Z 14011KT 9999 FEW017 30/27 Q1008 NOSIG
 WADD 140900Z 15011KT 9999 FEW017 30/26 Q1007 NOSIG
 WADD 140830Z 14011KT 9999 FEW017 31/27 Q1007 NOSIG
METAR WADD 140800Z 14013KT 9999 FEW017 31/27 Q1007 NOSIG
METAR WADD 140730Z 15012KT 9999 FEW017 31/26 Q1007 NOSIG
METAR WADD 140700Z 15011KT 9999 FEW017 31/27 Q1007 NOSIG
METAR WADD 140630Z 15011KT 9999 FEW017 32/27 Q1008 NOSIG
METAR WADD 140600Z 13011KT 090V150 9999 FEW017 32/27 Q1008 NOSIG
METAR WADD 140530Z 10011KT 9999 FEW017 33/26 Q1008 NOSIG
METAR WADD 140500Z 10009KT 9999 FEW017 32/26 Q1009 NOSIG
METAR WADD 140430Z 11008KT 9999 FEW017 32/26 Q1009 NOSIG
METAR WADD 140400Z 11010KT 9999 FEW017 32/27 Q1010 NOSIG
METAR WADD 140330Z 11009KT 9999 FEW017 32/26 Q1010 NOSIG
METAR WADD 140300Z 11009KT 9999 SCT016 31/26 Q1011 NOSIG
METAR WADD 140230Z 10010KT 070V140 9999 SCT016 31/27 Q1011 NOSIG
METAR WADD 140200Z 11008KT 070V130 9999 SCT016 31/27 Q1011 NOSIG
METAR WADD 140130Z 11008KT 9999 SCT016 31/26 Q1011 NOSIG
METAR WADD 140100Z 11007KT 060V130 9999 SCT016 30/26 Q1011 NOSIG
METAR WADD 140030Z 08006KT 070V140 9999 SCT016 30/26 Q1011 NOSIG
METAR WADD 140000Z 13004KT 090V160 9999 SCT016 29/27 Q1011 NOSIG
METAR WADD 132330Z 13005KT 9999 SCT016 28/27 Q1010 NOSIG
METAR WADD 132300Z 08005KT 9999 FEW016 28/27 Q1010 NOSIG
METAR WADD 132230Z 09003KT 9999 FEW016 27/27 Q1010
METAR WADD 132200Z 11003KT 9999 FEW016 27/26 Q1010 NOSIG
METAR WADD 132130Z 12004KT 9999 FEW016 27/27 Q1010 NOSIG
METAR WADD 132100Z 12005KT 9999 FEW016 27/27 Q1009 NOSIG
METAR WADD 132030Z 14005KT 9999 FEW016 28/27 Q1009 NOSIG
METAR WADD 132000Z 14004KT 9999 FEW016 28/27 Q1009 NOSIG
METAR WADD 131930Z 12004KT 9999 FEW016 28/27 Q1009 NOSIG
METAR WADD 131900Z 12005KT 9999 FEW016 28/27 Q1009 NOSIG
METAR WADD 131830Z 14006KT 9999 FEW016 28/27 Q1009 NOSIG
METAR WADD 131800Z 14006KT 9999 FEW016 28/27 Q1009 NOSIG
 WADD 131730Z 12006KT 9999 FEW017 28/27 Q1009 NOSIG
 WADD 131700Z 13006KT 9999 FEW016 28/27 Q1010 NOSIG
METAR WADD 131630Z 13006KT 9999 FEW016 28/27 Q1010 NOSIG
 WADD 131600Z 13006KT 9999 FEW016 28/27 Q1010 NOSIG
 WADD 131530Z 13006KT 9999 FEW016 BKN033 28/27 Q1010 NOSIG
 WADD 131500Z 14007KT 9999 FEW016 28/27 Q1010 NOSIG
METAR WADD 131430Z 13007KT 9999 FEW016 28/27 Q1010 NOSIG
METAR WADD 131400Z 13006KT 9999 FEW016 28/27 Q1010 NOSIG
METAR WADD 131330Z 12005KT 9999 FEW016 28/27 Q1010 NOSIG
METAR WADD 131300Z 11004KT 9999 FEW016 28/26 Q1010 NOSIG
METAR WADD 131230Z 12005KT 9999 FEW016 28/26 Q1010 NOSIG
METAR WADD 131200Z 14006KT 9999 FEW016 29/27 Q1010 NOSIG
METAR WADD 131130Z 12007KT 9999 FEW017 29/26 Q1009 NOSIG
METAR WADD 131100Z 12010KT 9999 FEW017 29/26 Q1009 NOSIG
METAR WADD 131030Z 13009KT 9999 FEW016 29/26 Q1009 NOSIG</description><pubDate>Tue, 14 Oct 2025 10:28:56 </pubDate></item></channel></rss>