<rss version="2.0"><channel><title>Aviation Weather METAR Data for WADD</title><link>https://aviationweather.gov/api/data/metar?ids=WADD&amp;hours=24</link><description>Latest METAR data for WADD</description><item><title>2026-07-02 17:58:06Z</title><link>https://aviationweather.gov/api/data/metar?ids=WADD&amp;hours=24</link><description>METAR WADD 021730Z 34003KT 9999 FEW017 25/23 Q1013 NOSIG
METAR WADD 021700Z VRB02KT 9999 FEW017 25/22 Q1013 NOSIG
METAR WADD 021630Z 03003KT 9999 FEW017 25/23 Q1013 NOSIG
METAR WADD 021600Z 04004KT 360V070 9999 FEW017 25/23 Q1013 NOSIG
METAR WADD 021530Z 11004KT 9999 FEW017 25/24 Q1013 NOSIG
METAR WADD 021500Z 10006KT 9999 FEW017 25/24 Q1013 NOSIG
METAR WADD 021430Z 09006KT 9999 FEW017 25/24 Q1013 NOSIG
METAR WADD 021400Z 13005KT 9999 FEW017 26/24 Q1013 NOSIG
METAR WADD 021330Z 13007KT 9999 FEW017 26/24 Q1013 NOSIG
METAR WADD 021300Z 12007KT 9999 FEW017 26/24 Q1012 NOSIG
METAR WADD 021230Z 12007KT 9999 FEW017 26/23 Q1012 NOSIG
METAR WADD 021200Z 12007KT 9999 FEW017 26/24 Q1012 NOSIG
METAR WADD 021130Z 12007KT 9999 FEW017 26/23 Q1012 NOSIG
METAR WADD 021100Z 12009KT 9999 FEW017 26/24 Q1012 NOSIG
METAR WADD 021030Z 12008KT 9999 FEW017 27/24 Q1011 NOSIG
METAR WADD 021000Z 12009KT 9999 FEW017 27/23 Q1011 NOSIG
METAR WADD 020930Z 14010KT 9999 FEW017 28/23 Q1011 NOSIG
METAR WADD 020900Z 12009KT 9999 FEW017 28/23 Q1011 NOSIG
METAR WADD 020830Z 12009KT 9999 FEW017 29/23 Q1011 NOSIG
METAR WADD 020800Z 12010KT 9999 FEW017 29/23 Q1010 NOSIG
METAR WADD 020730Z 12009KT 9999 FEW017 29/23 Q1010 NOSIG
METAR WADD 020700Z 13011KT 9999 FEW017 29/23 Q1010 NOSIG
METAR WADD 020630Z 11010KT 9999 FEW017 29/23 Q1011 NOSIG
METAR WADD 020600Z 09009KT 050V110 9999 FEW017 29/22 Q1011 NOSIG
METAR WADD 020530Z 10009KT 070V130 9999 FEW017 29/22 Q1011 NOSIG
METAR WADD 020500Z 10009KT 070V130 9999 FEW017 29/22 Q1011 NOSIG
METAR WADD 020430Z 11010KT 9999 FEW017 29/22 Q1012 NOSIG
METAR WADD 020400Z 11010KT 9999 FEW017 29/23 Q1012 NOSIG
METAR WADD 020330Z 09009KT 060V130 9999 FEW017 29/23 Q1012 NOSIG
METAR WADD 020300Z 11009KT 9999 FEW017 29/23 Q1013 NOSIG
METAR WADD 020230Z 10009KT 9999 FEW017 29/22 Q1013 NOSIG
METAR WADD 020200Z 12006KT 9999 FEW017 29/23 Q1013 NOSIG
METAR WADD 020130Z 21003KT 9999 FEW017 28/22 Q1013 NOSIG
METAR WADD 020100Z 21003KT 9999 FEW017 27/22 Q1013 NOSIG
SPECI WADD 020038Z VRB02KT BKN005 27/22 Q1013
METAR WADD 020030Z COR 22002KT FEW005 27/21 Q1013 NOSIG
METAR WADD 020000Z VRB01KT 9999 FEW017 26/21 Q1013 NOSIG
METAR WADD 012330Z 02003KT 9999 FEW017 24/20 Q1012 NOSIG
METAR WADD 012300Z VRB01KT 9999 FEW017 22/19 Q1012 NOSIG
METAR WADD 012230Z 36001KT 9999 FEW017 22/19 Q1012 NOSIG
METAR WADD 012200Z 36002KT 9999 FEW017 22/19 Q1012 NOSIG
METAR WADD 012130Z 02005KT 9999 FEW017 22/19 Q1012 NOSIG
METAR WADD 012100Z 36005KT 9999 FEW017 22/19 Q1012 NOSIG
METAR WADD 012030Z 36005KT 9999 FEW017 22/20 Q1011 NOSIG
METAR WADD 012000Z 02002KT 9999 FEW017 23/21 Q1011 NOSIG
METAR WADD 011930Z VRB01KT 9999 FEW017 23/20 Q1011 NOSIG
METAR WADD 011900Z 01001KT 9999 FEW017 23/21 Q1011 NOSIG
METAR WADD 011830Z VRB01KT 9999 FEW017 23/21 Q1011 NOSIG
METAR WADD 011800Z 01002KT 9999 FEW017 23/21 Q1012 NOSIG</description><pubDate>Thu, 02 Jul 2026 17:58:06 </pubDate></item></channel></rss>