<rss version="2.0"><channel><title>Aviation Weather METAR Data for WADD</title><link>https://aviationweather.gov/api/data/metar?ids=WADD&amp;hours=24</link><description>Latest METAR data for WADD</description><item><title>2026-03-03 22:39:57Z</title><link>https://aviationweather.gov/api/data/metar?ids=WADD&amp;hours=24</link><description>METAR WADD 032230Z 36001KT 9999 FEW016 25/25 Q1007 NOSIG
METAR WADD 032200Z 35001KT 9999 SCT016 25/25 Q1007 NOSIG
METAR WADD 032130Z 01002KT 9999 SCT016 25/25 Q1007 NOSIG
METAR WADD 032100Z VRB02KT 9999 SCT016 26/25 Q1007 NOSIG
METAR WADD 032030Z 10002KT 9999 SCT016 26/26 Q1007 NOSIG
METAR WADD 032000Z 25002KT 9999 SCT016 26/25 Q1007 NOSIG
METAR WADD 031930Z 25003KT 9999 SCT016 26/25 Q1007 NOSIG
METAR WADD 031900Z 25003KT 9999 SCT016 26/24 Q1007 NOSIG
METAR WADD 031830Z 26002KT 9999 SCT016 26/26 Q1007 RERA NOSIG
METAR WADD 031800Z VRB02KT 8000 -RA FEW015CB SCT016 26/26 Q1008 TEMPO TL1830 8000 -RA
METAR WADD 031730Z 24003KT 9999 FEW015CB SCT016 26/26 Q1008 NOSIG
METAR WADD 031700Z 25005KT 9999 FEW015CB SCT016 26/25 Q1008 NOSIG
METAR WADD 031630Z 22004KT 150V260 9999 FEW015CB SCT016 26/25 Q1008 N OSIG
METAR WADD 031600Z VRB04KT 9999 FEW015CB SCT016 27/25 Q1009 NOSIG
METAR WADD 031530Z 24003KT 9999 SCT016 27/26 Q1009 NOSIG
METAR WADD 031500Z 24004KT 9999 SCT016 27/26 Q1009 NOSIG
METAR WADD 031430Z 25003KT 9999 SCT016 28/26 Q1008 NOSIG
METAR WADD 031400Z 31005KT 260V340 9999 SCT016 28/26 Q1008 NOSIG
METAR WADD 031330Z 24004KT 9999 SCT016 27/26 Q1008 NOSIG
METAR WADD 031300Z 26006KT 8000 BKN015 28/26 Q1008 RERA NOSIG
SPECI WADD 031246Z 27007KT 7000 -RA BKN015 28/26 Q1008 TEMPO TL1315 7000 -RA
METAR WADD 031230Z 27009KT 9999 FEW016 28/26 Q1008 NOSIG
METAR WADD 031200Z 27007KT 9999 FEW016 28/25 Q1007 NOSIG
METAR WADD 031130Z 28007KT 9999 FEW016 28/26 Q1007 NOSIG
METAR WADD 031100Z 27007KT 9999 FEW016 28/26 Q1007 NOSIG
METAR WADD 031030Z 27007KT 9999 FEW016 29/26 Q1006 NOSIG
METAR WADD 031000Z 25006KT 220V280 9999 FEW016 30/26 Q1006 NOSIG
METAR WADD 030930Z 26008KT 9999 FEW016 30/26 Q1006 NOSIG
METAR WADD 030900Z 26009KT 9999 FEW016 30/26 Q1006 NOSIG
METAR WADD 030830Z 27009KT 9999 FEW016 30/26 Q1006 NOSIG
METAR WADD 030800Z 27009KT 9999 FEW016 30/26 Q1006 NOSIG
METAR WADD 030730Z 25008KT 9999 FEW016 31/26 Q1006 NOSIG
METAR WADD 030700Z 25009KT 9999 FEW016 30/26 Q1006 NOSIG
METAR WADD 030630Z 26009KT 9999 FEW016 30/26 Q1006 NOSIG
METAR WADD 030600Z 26009KT 9999 FEW016 30/26 Q1006 NOSIG
METAR WADD 030530Z 27008KT 9999 FEW016 30/26 Q1007 NOSIG
METAR WADD 030500Z 25007KT 220V280 9999 FEW016 30/26 Q1007 NOSIG
METAR WADD 030430Z 30008KT 9999 FEW016 30/26 Q1008 NOSIG
METAR WADD 030400Z 26008KT 9999 FEW016 30/26 Q1008 NOSIG
METAR WADD 030330Z 28007KT 9999 FEW016 30/26 Q1008 NOSIG
METAR WADD 030300Z 30008KT 270V340 9999 SCT016 30/26 Q1009 NOSIG
METAR WADD 030230Z 29009KT 9999 SCT016 29/26 Q1009 NOSIG
METAR WADD 030200Z 29011KT 9999 SCT015 29/26 Q1009 NOSIG
METAR WADD 030130Z 30010KT 9999 SCT015 28/26 Q1009 NOSIG
METAR WADD 030100Z 30009KT 9999 BKN015 27/26 Q1009 NOSIG
METAR WADD 030030Z 29010KT 9999 BKN015 27/26 Q1009 NOSIG
METAR WADD 030000Z 29009KT 9999 BKN015 26/26 Q1009 NOSIG
METAR WADD 022330Z 31006KT 9999 BKN015 26/26 Q1008 NOSIG
METAR WADD 022300Z 31005KT 9999 BKN015 26/26 Q1008 NOSIG</description><pubDate>Tue, 03 Mar 2026 22:39:57 </pubDate></item></channel></rss>