<rss version="2.0"><channel><title>Aviation Weather METAR Data for WADD</title><link>https://aviationweather.gov/api/data/metar?ids=WADD&amp;hours=24</link><description>Latest METAR data for WADD</description><item><title>2025-01-07 08:45:09Z</title><link>https://aviationweather.gov/api/data/metar?ids=WADD&amp;hours=24</link><description>WADD 070830Z 22002KT 9999 FEW017 29/28 Q1005 NOSIG
WADD 070800Z VRB02KT 9999 FEW017 29/28 Q1006 NOSIG
WADD 070730Z 08003KT 9999 SCT016 28/27 Q1006 RERA NOSIG
WADD 070700Z 09004KT 050V140 8000 -RA FEW015CB BKN015 28/27 Q1006 RETS TEMPO TL0800 -RA
WADD 070630Z 05004KT 340V110 6000 -TSRA FEW014CB BKN014 28/27 Q1007 TEMPO TL0730 -TSRA RMK CB IN CLIMB-OUT
WADD 070600Z 13006KT 6000 -TSRA FEW014CB BKN014 29/28 Q1007 TEMPO TL0700 -TSRA RMK CB IN CLIMB-OUT
WADD 070530Z 13004KT 6000 -TSRA FEW015CB BKN015 29/28 Q1007 TEMPO TL0630 -TSRA RMK CB IN CLIMB-OUT
WADD 070500Z 11005KT 6000 -RA FEW015CB BKN015 28/27 Q1008 TEMPO TL0600 -RA RMK CB IN CLIMB-OUT
WADD 070430Z 12006KT 9999 FEW015CB SCT016 31/27 Q1008 NOSIG
WADD 070400Z 12004KT 070V140 9999 SCT017 31/27 Q1008 NOSIG
WADD 070330Z 14007KT 9999 FEW017 31/27 Q1008 NOSIG
WADD 070300Z 11007KT 9999 FEW017 31/27 Q1009 NOSIG
WADD 070230Z 12006KT 9999 FEW017 30/27 Q1009 NOSIG
WADD 070200Z 10007KT 9999 FEW017 30/26 Q1009 NOSIG
WADD 070130Z 18005KT 120V200 9999 FEW017 30/27 Q1009 NOSIG
WADD 070100Z 18004KT 9999 FEW017 29/27 Q1009 NOSIG
WADD 070030Z 16003KT 9999 FEW017 29/27 Q1009 NOSIG
WADD 070000Z 04003KT 9999 FEW017 28/26 Q1009 NOSIG
WADD 062330Z 08004KT 9999 FEW017 27/26 Q1008 NOSIG
WADD 062300Z 06004KT 9999 FEW017 26/26 Q1008 NOSIG
WADD 062230Z 10003KT 9999 FEW017 26/26 Q1008 NOSIG
WADD 062200Z 01001KT 9999 FEW017 25/25 Q1008 NOSIG
WADD 062130Z 05003KT 8000 SCT017 25/25 Q1007 NOSIG
WADD 062100Z 05002KT 8000 FEW017 25/25 Q1007 NOSIG
WADD 062030Z 07003KT 8000 FEW017 25/25 Q1007 NOSIG
WADD 062000Z 03001KT 8000 FEW017 25/25 Q1007 NOSIG
WADD 061930Z 04002KT 8000 FEW017 25/25 Q1007 NOSIG
WADD 061900Z VRB01KT 9000 FEW017 25/25 Q1007 NOSIG
WADD 061830Z VRB01KT 9999 FEW017 26/25 Q1007 NOSIG
WADD 061800Z VRB01KT 9999 FEW017 26/25 Q1007 NOSIG
WADD 061730Z VRB02KT 9000 FEW017 26/25 Q1007 NOSIG
WADD 061700Z 03003KT 9999 FEW017 26/25 Q1008 NOSIG
WADD 061630Z VRB01KT 9999 FEW017 26/25 Q1008 NOSIG
WADD 061600Z VRB02KT 9999 FEW017 27/25 Q1008 NOSIG
WADD 061530Z 11002KT 9999 FEW017 27/25 Q1009 NOSIG
WADD 061500Z VRB02KT 9999 FEW017 27/25 Q1009 NOSIG
WADD 061430Z 05003KT 9999 SCT017 27/25 Q1009 NOSIG
WADD 061400Z VRB02KT 9999 FEW017 27/25 Q1009 NOSIG
WADD 061330Z VRB01KT 9999 FEW017 27/25 Q1009 NOSIG
WADD 061300Z 10002KT 9999 FEW017 27/25 Q1009 NOSIG
WADD 061230Z 09003KT 9999 FEW017 27/25 Q1008 NOSIG
WADD 061200Z 09003KT 9999 FEW016 27/25 Q1008 NOSIG
WADD 061130Z VRB02KT 9999 FEW016 27/25 Q1007 NOSIG
WADD 061100Z 09003KT 9999 FEW016 27/25 Q1007 NOSIG
WADD 061030Z 10004KT 9999 SCT016 27/25 Q1007 NOSIG
WADD 061000Z 08005KT 9999 SCT016 27/25 Q1006 NOSIG
WADD 060930Z 10006KT 9000 -RA FEW015CB SCT016 27/25 Q1006 RETS TEMPO TL1030 -RA
WADD 060900Z 07008KT 040V110 9999 TS FEW015CB BKN016 28/25 Q1006 TEMPO TL1000 TS</description><pubDate>Tue, 07 Jan 2025 08:45:09 </pubDate></item></channel></rss>