<rss version="2.0"><channel><title>Aviation Weather METAR Data for WADD</title><link>https://aviationweather.gov/api/data/metar?ids=WADD&amp;hours=24</link><description>Latest METAR data for WADD</description><item><title>2025-02-12 01:48:38Z</title><link>https://aviationweather.gov/api/data/metar?ids=WADD&amp;hours=24</link><description>WADD 120130Z 30008KT 7000 -RA FEW013CB BKN013 26/25 Q1011 TEMPO TL0300 7000 -RA
WADD 120100Z 30010KT 7000 -RA FEW013CB BKN013 26/25 Q1011 TEMPO TL0200 7000 -RA
WADD 120030Z 32006KT 280V340 5000 -RA FEW013CB BKN013 25/25 Q1011 TEMPO TL0200 5000 -RA
WADD 120000Z 32006KT 4000 RA FEW013CB BKN013 25/24 Q1010 TEMPO TL0130 4000 RA
WADD 112330Z 32011KT 1500 +RA BKN011 FEW014CB 25/25 Q1010 TEMPO TL0030 1500 +RA
WADD 112300Z 30015KT 1000 +RA BKN010 FEW014CB 25/25 Q1010 TEMPO TL2400 1000 +RA
WADD 112230Z 29012KT 6000 -RA FEW015CB BKN016 25/25 Q1009 TEMPO TL2330 6000 -RA
WADD 112200Z 29018KT 3000 RA FEW015CB BKN016 25/24 Q1009 TEMPO TL2300 3000 RA
WADD 112130Z 28013KT 4000 RA FEW015CB BKN016 24/24 Q1009 TEMPO TL2230 4000 RA
WADD 112100Z 30021KT 1400 +RA FEW015CB BKN016 25/25 Q1008 TEMPO TL2200 1400 +RA
WADD 112030Z 29012KT 6000 -RA FEW015CB BKN016 25/25 Q1008 TEMPO TL2130 6000 -RA
WADD 112000Z 29018KT 6000 -RA FEW015CB BKN016 25/25 Q1008 TEMPO TL2100 6000 -RA
WADD 111930Z 31012KT 1400 +RA FEW015CB BKN016 24/24 Q1008 TEMPO TL2030 1400 +RA
WADD 111900Z 26018G28KT 1400 +RA FEW015CB BKN016 25/24 Q1009 TEMPO TL2000 1400 +RA
WADD 111830Z 27023KT 1400 +RA FEW015CB BKN016 26/25 Q1009 TEMPO TL1930 1400 +RA
WADD 111800Z 30012KT 9999 FEW015CB BKN016 28/25 Q1008 NOSIG
WADD 111730Z 28016KT 9999 BKN017 28/25 Q1008 NOSIG
WADD 111700Z 29017KT 9999 SCT017 28/25 Q1008 NOSIG
WADD 111630Z 28016KT 9999 SCT017 28/25 Q1008 NOSIG
WADD 111600Z 29013KT 9999 SCT017 28/26 Q1009 NOSIG
WADD 111530Z 28017KT 9999 SCT017 28/25 Q1009 NOSIG
WADD 111500Z 28016KT 9999 SCT017 28/25 Q1009 NOSIG
WADD 111430Z 27015KT 9999 SCT017 28/25 Q1009 NOSIG
WADD 111400Z 28015KT 9999 SCT017 28/25 Q1009 NOSIG
WADD 111330Z 29014KT 9999 SCT017 28/26 Q1009 NOSIG
WADD 111300Z 28015KT 9999 SCT017 29/25 Q1009 NOSIG
WADD 111230Z 28015KT 9999 SCT017 29/25 Q1008 NOSIG
WADD 111200Z 28015KT 9999 SCT017 28/25 Q1008 NOSIG
WADD 111130Z 28014KT 9999 FEW017 28/25 Q1008 NOSIG
WADD 111100Z 28014KT 9999 FEW017 28/25 Q1008 NOSIG
WADD 111030Z 27016KT 9999 FEW017 28/25 Q1007 NOSIG
WADD 111000Z 28017KT 9999 FEW017 29/25 Q1007 NOSIG
WADD 110930Z 28017KT 9999 FEW017 29/26 Q1007 NOSIG
WADD 110900Z 28018KT 9999 FEW017 30/26 Q1006 NOSIG
WADD 110830Z 27016G26KT 9999 FEW017 30/26 Q1006 NOSIG
WADD 110800Z 28017KT 9999 SCT016 29/26 Q1006 NOSIG
WADD 110730Z 28016KT 9999 SCT016 29/26 Q1006 NOSIG
WADD 110700Z 28016KT 9999 SCT016 29/26 Q1007 NOSIG
WADD 110630Z 28018KT 9999 FEW015CB SCT016 28/26 Q1007 NOSIG
WADD 110600Z 28018KT 4000 RA FEW014CB BKN014 29/26 Q1007 TEMPO TL0700 4000 RA RMK CB IN APCH AND CLIMB-OUT
WADD 110530Z 28018KT 9999 FEW015CB BKN015 30/27 Q1008 NOSIG
WADD 110500Z 28020KT 9999 FEW015CB BKN015 29/26 Q1008 NOSIG
WADD 110430Z 28021KT 9999 FEW015CB BKN015 29/26 Q1008 RERA NOSIG
WADD 110400Z 29015KT 8000 -RA FEW014CB BKN014 27/26 Q1009 TEMPO TL0600 8000 -RA
WADD 110330Z 29016KT 0200 +RA FEW014CB BKN014 29/26 Q1008 NOSIG TEMPO TL0400 0200 +RA
WADD 110300Z 29017KT 8000 -RA FEW014CB BKN014 28/26 Q1009 TEMPO TL0400 8000 -RA
WADD 110230Z 29017KT 7000 -RA FEW013CB BKN013 27/26 Q1009 TEMPO TL0400 7000 -RA
WADD 110200Z 29017KT 4000 +RA FEW013CB BKN013 26/25 Q1009 TEMPO TL0300 4000 +RA RMK CB IN APCH AND CLIMB-OUT</description><pubDate>Wed, 12 Feb 2025 01:48:38 </pubDate></item></channel></rss>