<rss version="2.0"><channel><title>Aviation Weather METAR Data for WADD</title><link>https://aviationweather.gov/api/data/metar?ids=WADD&amp;hours=24</link><description>Latest METAR data for WADD</description><item><title>2026-02-10 05:18:26Z</title><link>https://aviationweather.gov/api/data/metar?ids=WADD&amp;hours=24</link><description>METAR WADD 100500Z 28012KT 9999 SCT016 30/25 Q1010 NOSIG
METAR WADD 100430Z 28010KT 9999 SCT016 30/25 Q1010 NOSIG
METAR WADD 100400Z COR 30010KT 9999 SCT016 29/25 Q1010 NOSIG
METAR WADD 100330Z 27009KT 9999 SCT016 29/25 Q1010 NOSIG
METAR WADD 100300Z 29012KT 9999 SCT016 28/25 Q1011 NOSIG
METAR WADD 100230Z 29011KT 9999 BKN015 28/25 Q1011 NOSIG
METAR WADD 100200Z 30010KT 9999 BKN015 27/25 Q1011 NOSIG
METAR WADD 100130Z 29008KT 9999 BKN015 27/25 Q1012 NOSIG
METAR WADD 100100Z 29008KT 9999 BKN015 27/25 Q1012 RERA NOSIG
METAR WADD 100030Z 30009KT 7000 FBL RA BKN015 26/24 Q1011 NOSIG
METAR WADD 100000Z 31011KT 7000 -RA BKN015 25/24 Q1011 NOSIG
METAR WADD 092330Z 31011KT 7000 -RA BKN015 26/24 Q1010 NOSIG
METAR WADD 092300Z 31013KT 7000 -RA BKN015 26/25 Q1010 NOSIG
METAR WADD 092230Z 31011KT 7000 -RA BKN015 26/25 Q1010 TEMPO TL2330 -RA
METAR WADD 092200Z 30010KT 7000 -RA FEW014CB BKN015 26/25 Q1010 TEMPO TL2330 -RA
METAR WADD 092130Z 29007KT 9999 FEW014CB BKN015 26/25 Q1010 NOSIG
METAR WADD 092100Z 29007KT 9999 FEW014CB BKN015 26/25 Q1009 NOSIG
METAR WADD 092000Z 26005KT 7000 -RA FEW014CB BKN015 25/24 Q1009 TEMPO TL2130 -RA
METAR WADD 091930Z 24005KT 7000 -RA FEW014CB BKN015 25/24 Q1009 TEMPO TL2030 -RA
METAR WADD 091900Z 24008KT 6000 -RA FEW014CB BKN015 25/24 Q1009 TEMPO TL2030 -RA
METAR WADD 091830Z 27005KT 9999 FEW014CB BKN015 26/24 Q1009 NOSIG
METAR WADD 091800Z 30006KT 9999 FEW014CB BKN015 26/24 Q1009 RERA NOSI G
METAR WADD 091730Z 31007KT 7000 -RA FEW014CB BKN015 26/25 Q1009 NOSIG
METAR WADD 091700Z 30007KT 7000 -RA FEW014CB BKN014 26/24 Q1010 NOSIG
METAR WADD 091630Z 30008KT 7000 -RA FEW014CB BKN014 26/24 Q1010 NOSIG
METAR WADD 091600Z 30008KT 7000 -RA FEW014CB BKN014 26/24 Q1011 NOSIG
METAR WADD 091530Z 30009KT 7000 -RA FEW014CB BKN014 26/25 Q1011 NOSIG
METAR WADD 091500Z 30008KT 7000 -RA FEW014CB BKN014 26/25 Q1011 RETS TEMPO TL1600 -RA
METAR WADD 091430Z 32006KT 290V350 7000 -TSRA FEW013CB BKN014 25/24 Q 1011 TEMPO TL1600 -TSRA
METAR WADD 091400Z VRB05KT 4000 TSRA FEW013CB BKN013 24/24 Q1011 TEMPO TL1500 6000 -TSRA RMK CB IN APCH
METAR WADD 091330Z VRB03KT 0500 +RA FEW013CB BKN013 26/25 Q1011 TEMPO TL1500 2000 RA RMK CB IN APCH AND CLIMB-OUT
METAR WADD 091300Z 34005KT 290V020 9999 FEW015CB BKN015 27/24 Q1010 TEMPO FM1320 4000 TSRA RMK CB IN CLIMB-OUT
METAR WADD 091230Z VRB03KT 9999 BKN016 26/23 Q1010 NOSIG
METAR WADD 091200Z 33006KT 290V030 9999 FEW015CB BKN016 27/24 Q1009 N OSIG RMK CB IN APCH
METAR WADD 091130Z 32007KT 9999 FEW015CB BKN016 27/24 Q1009 NOSIG RMK CB IN APCH
METAR WADD 091100Z 32013KT 9999 FEW015CB BKN016 27/24 Q1009 NOSIG
METAR WADD 091030Z 26010KT 9999 FEW015CB SCT016 29/25 Q1008 NOSIG
METAR WADD 091000Z 25007KT 9999 FEW015CB SCT016 29/25 Q1008 NOSIG
METAR WADD 090930Z 25008KT 9999 FEW015CB SCT016 30/25 Q1007 NOSIG
METAR WADD 090900Z 25007KT 9999 FEW015CB SCT016 30/25 Q1007 NOSIG
METAR WADD 090830Z 25006KT 9999 FEW015CB SCT016 30/24 Q1007 NOSIG
METAR WADD 090800Z 26007KT 9999 FEW015CB SCT016 30/24 Q1006 NOSIG
METAR WADD 090730Z 25005KT 210V290 9999 FEW015CB SCT016 30/24 Q1007 N OSIG
METAR WADD 090700Z 26007KT 9999 FEW015CB SCT016 30/24 Q1007 NOSIG
METAR WADD 090630Z 29010KT 9999 FEW015CB SCT016 30/25 Q1007 NOSIG
METAR WADD 090600Z 27009KT 9999 FEW015CB SCT016 30/25 Q1008 NOSIG
METAR WADD 090530Z 26008KT 9999 SCT016 30/25 Q1007 NOSIG</description><pubDate>Tue, 10 Feb 2026 05:18:26 </pubDate></item></channel></rss>