<rss version="2.0"><channel><title>Aviation Weather METAR Data for WADD</title><link>https://aviationweather.gov/api/data/metar?ids=WADD&amp;hours=24</link><description>Latest METAR data for WADD</description><item><title>2026-01-14 09:37:07Z</title><link>https://aviationweather.gov/api/data/metar?ids=WADD&amp;hours=24</link><description>METAR WADD 140930Z 28016KT 9999 FEW015CB BKN015 30/24 Q1005 NOSIG
METAR WADD 140900Z 27019KT 9999 FEW014CB BKN014 29/24 Q1005 NOSIG
METAR WADD 140830Z VRB02KT 9000 -TSRA FEW014CB BKN015 25/24 Q1006 TEMPO TL0930 9000 -TSRA RMK CB IN APCH
METAR WADD 140800Z 25014KT 9999 FEW015CB BKN015 29/24 Q1005 NOSIG
METAR WADD 140730Z 25014G22KT 9999 SCT017 30/24 Q1005 NOSIG
METAR WADD 140700Z 26016KT 9999 SCT017 30/25 Q1005 NOSIG
METAR WADD 140630Z 26014KT 9999 FEW017 30/25 Q1005 NOSIG
METAR WADD 140600Z 25012KT 9999 FEW017 30/25 Q1005 NOSIG
METAR WADD 140530Z 25012KT 9999 FEW017 31/25 Q1006 NOSIG
METAR WADD 140500Z 26013KT 9999 FEW017 31/25 Q1006 NOSIG
METAR WADD 140430Z 26010KT 9999 FEW017 30/25 Q1006 NOSIG
METAR WADD 140400Z 26011KT 9999 FEW017 30/24 Q1006 NOSIG
METAR WADD 140330Z 26011KT 9999 FEW017 30/24 Q1007 NOSIG
METAR WADD 140300Z 26014KT 9999 FEW017 30/24 Q1007 NOSIG
METAR WADD 140230Z 27013KT 9999 FEW017 30/24 Q1008 NOSIG
METAR WADD 140200Z 30012KT 9999 FEW017 29/24 Q1008 NOSIG
METAR WADD 140130Z 30013KT 9999 FEW017 30/24 Q1008 NOSIG
METAR WADD 140100Z 30011KT 9999 FEW017 30/24 Q1008 NOSIG
METAR WADD 140030Z 30009KT 9999 FEW017 29/24 Q1008 NOSIG
METAR WADD 140000Z 01006KT 330V030 8000 TS FEW013CB BKN014 26/25 Q1008 TEMPO TL0100 TS RMK CB IN APCH
METAR WADD 132330Z 28010KT 9999 FEW017 28/24 Q1007 NOSIG
METAR WADD 132300Z 28009KT 9999 FEW017 27/24 Q1007 NOSIG
METAR WADD 132230Z 29010KT 9999 FEW017 27/24 Q1007 NOSIG
METAR WADD 132200Z 29008KT 9999 FEW017 27/25 Q1006 NOSIG
METAR WADD 132130Z 29010KT 9999 FEW017 27/24 Q1006 NOSIG
METAR WADD 132100Z 29011KT 9999 FEW017 27/24 Q1006 NOSIG
METAR WADD 132030Z 29010KT 9999 FEW017 27/25 Q1006 NOSIG
METAR WADD 132000Z 29009KT 9999 FEW017 27/25 Q1006 NOSIG
METAR WADD 131930Z 29010KT 9999 SCT016 27/25 Q1006 NOSIG
METAR WADD 131900Z 29008KT 7000 SCT016 27/25 Q1007 RERA NOSIG
METAR WADD 131830Z 28007KT 7000 -RA SCT016 27/25 Q1007 NOSIG
SPECI WADD 131812Z 28007KT 7000 -RA SCT016 26/25 Q1007 NOSIG
METAR WADD 131800Z 28007KT 9999 SCT016 26/25 Q1007 NOSIG
METAR WADD 131730Z 28006KT 8000 BKN016 27/25 Q1007 RERA NOSIG
METAR WADD 131700Z 28006KT 7000 -RA BKN016 26/25 Q1008 NOSIG
METAR WADD 131630Z 27004KT 7000 -RA BKN015 26/25 Q1008 NOSIG
METAR WADD 131600Z 36003KT 9999 BKN016 26/25 Q1008 NOSIG
METAR WADD 131530Z VRB02KT 9999 SCT016 26/25 Q1009 NOSIG
METAR WADD 131500Z VRB02KT 8000 FEW015CB BKN016 26/25 Q1009 RERA NOSI G
METAR WADD 131430Z 23002KT 7000 -RA FEW015CB BKN016 26/25 Q1009 NOSIG
METAR WADD 131400Z 26007KT 7000 -RA FEW015CB BKN016 26/25 Q1009 NOSIG RMK CB IN APCH
METAR WADD 131330Z 25006KT 7000 -RA FEW015CB BKN016 26/25 Q1009 NOSIG
METAR WADD 131300Z 23005KT 170V270 7000 -RA FEW015CB BKN016 26/25 Q10 09 RETS NOSIG
METAR WADD 131230Z 25008KT 7000 -TSRA FEW013CB BKN014 26/25 Q1009 NOSIG RMK CB IN APCH
METAR WADD 131200Z 25004KT 5000 -RA FEW013CB BKN014 25/24 Q1008 TEMPO TL1300 7000 -RA RMK CB IN APCH AND CLIMB-OUT
METAR WADD 131130Z 29012G22KT 230V340 1500 RA FEW014CB BKN014 25/23 Q1008 TEMPO TL1230 1500 RA RMK CB IN APCH AND CLIMB-OUT
METAR WADD 131100Z 25008KT 7000 -RA FEW014CB BKN015 28/26 Q1007 TEMPO TL1200 7000 -RA RMK CB OVER THE FIELD
METAR WADD 131030Z 25009KT 9999 FEW014CB SCT015 29/25 Q1007 NOSIG
METAR WADD 131000Z 26011KT 9999 FEW015CB SCT016 29/24 Q1007 NOSIG</description><pubDate>Wed, 14 Jan 2026 09:37:07 </pubDate></item></channel></rss>