<rss version="2.0"><channel><title>Aviation Weather METAR Data for WADD</title><link>https://aviationweather.gov/api/data/metar?ids=WADD&amp;hours=24</link><description>Latest METAR data for WADD</description><item><title>2026-01-15 19:48:58Z</title><link>https://aviationweather.gov/api/data/metar?ids=WADD&amp;hours=24</link><description>METAR WADD 151930Z 06003KT 9999 SCT016 24/23 Q1006 NOSIG
METAR WADD 151900Z 04003KT 9999 SCT016 24/23 Q1006 NOSIG
METAR WADD 151830Z VRB01KT 9999 SCT016 25/23 Q1006 NOSIG
METAR WADD 151800Z 29006KT 270V020 9999 SCT016 26/24 Q1006 NOSIG
METAR WADD 151730Z 31005KT 9999 SCT016 26/23 Q1007 NOSIG
METAR WADD 151700Z 34004KT 9999 SCT016 25/23 Q1007 NOSIG
METAR WADD 151630Z 34006KT 9999 SCT016 26/23 Q1008 NOSIG
METAR WADD 151600Z 34005KT 300V010 9999 SCT016 26/23 Q1008 NOSIG
METAR WADD 151530Z 35004KT 9999 SCT016 25/23 Q1008 NOSIG
METAR WADD 151500Z 34004KT 310V010 9999 BKN016 25/23 Q1008 NOSIG
METAR WADD 151430Z 33004KT 300V360 9999 BKN016 25/23 Q1008 NOSIG
METAR WADD 151400Z 34004KT 280V030 9999 BKN015 25/23 Q1008 NOSIG
METAR WADD 151330Z 36004KT 310V040 9999 BKN015 25/23 Q1008 RERA NOSIG
METAR WADD 151300Z 35006KT 300V040 8000 -RA BKN015 25/23 Q1008 TEMPO TL1400 8000 -RA
METAR WADD 151230Z 32007KT 8000 -RA FEW014CB BKN015 25/23 Q1008 TEMPO TL1330 8000 -RA
METAR WADD 151200Z 32009KT 6000 -RA FEW014CB BKN015 25/23 Q1007 TEMPO TL1300 6000 -RA
METAR WADD 151130Z 33011KT 6000 -RA FEW014CB BKN015 25/23 Q1007 RETS TEMPO TL1230 6000 -RA
METAR WADD 151100Z 33013KT 300V360 6000 -TSRA FEW014CB BKN015 25/23 Q1007 TEMPO TL1200 6000 -TSRA
METAR WADD 151030Z 32014G24KT 8000 -TSRA FEW014CB BKN015 26/24 Q1007 TEMPO TL1130 -TSRA
METAR WADD 151000Z 29015KT 8000 -RA FEW014CB BKN015 27/24 Q1007 TEMPO TL1100 -RA
METAR WADD 150930Z 27014KT 8000 -RA FEW014CB BKN015 26/24 Q1006 RETS TEMPO TL1030 -RA RMK CB IN APCH
METAR WADD 150900Z 27011KT 4000 TSRA BKN010 FEW014CB 25/24 Q1006 TEMPO TL1000 4000 TSRA RMK CB IN APCH AND CLIMB-OUT
METAR WADD 150830Z 31010KT 2000 +TSRA FEW014CB BKN015 25/24 Q1006 TEM PO TL0930 2000 +TSRA RMK CB IN APCH AND CLIMB-OUT
METAR WADD 150800Z 27017KT 5000 -RA FEW014CB BKN015 29/25 Q1005 TEMPO TL0900 5000 -RA RMK CB IN CLIMB-OUT
METAR WADD 150730Z 26014KT 9999 FEW015CB SCT016 30/25 Q1005 NOSIG
METAR WADD 150700Z 26014KT 9999 SCT016 30/25 Q1005 NOSIG
METAR WADD 150630Z 26013KT 9999 FEW015CB SCT016 30/25 Q1006 NOSIG
METAR WADD 150600Z 25011KT 9999 FEW015CB SCT016 29/26 Q1006 NOSIG
METAR WADD 150530Z 26013KT 9999 FEW015CB FEW016 29/26 Q1007 NOSIG
METAR WADD 150500Z 25013KT 9999 FEW014CB SCT015 28/26 Q1007 NOSIG RMK CB IN APCH
SPECI WADD 150453Z 24014G24KT 9999 FEW014CB SCT015 28/25 Q1007 RERA NOSIG
SPECI WADD 150443Z 24014KT 6000 RA FEW014CB SCT015 30/26 Q1007 NOSIG
METAR WADD 150430Z 26013KT 9999 SCT017 31/26 Q1007 NOSIG
METAR WADD 150400Z 27013KT 9999 FEW017 30/24 Q1007 NOSIG
METAR WADD 150330Z 29011KT 9999 SCT017 31/24 Q1008 NOSIG
METAR WADD 150300Z 29009KT 260V320 9999 FEW017 31/25 Q1008 NOSIG
METAR WADD 150230Z 28009KT 9999 FEW017 30/24 Q1008 NOSIG
METAR WADD 150200Z 27008KT 9999 FEW017 29/24 Q1008 NOSIG
METAR WADD 150130Z 30010KT 9999 FEW017 30/24 Q1008 NOSIG
METAR WADD 150100Z 31010KT 9999 FEW017 30/24 Q1008 NOSIG
METAR WADD 150030Z 29011KT 9999 FEW017 29/25 Q1008 NOSIG
METAR WADD 150000Z 29011KT 9999 FEW017 29/24 Q1008 NOSIG
METAR WADD 142330Z 29009KT 9999 SCT016 28/24 Q1008 NOSIG
METAR WADD 142300Z 28010KT 9999 SCT016 28/23 Q1007 NOSIG
METAR WADD 142230Z 28010KT 9999 SCT016 27/23 Q1007 NOSIG
METAR WADD 142200Z 28010KT 9999 FEW017 27/23 Q1006 NOSIG
METAR WADD 142130Z 28010KT 9999 FEW017 27/23 Q1006 NOSIG
METAR WADD 142100Z 29008KT 9999 SCT016 27/24 Q1006 NOSIG
METAR WADD 142030Z 29009KT 9999 SCT016 27/24 Q1006 NOSIG
METAR WADD 142000Z 29010KT 9999 SCT016 27/24 Q1006 NOSIG</description><pubDate>Thu, 15 Jan 2026 19:48:58 </pubDate></item></channel></rss>