<rss version="2.0"><channel><title>Aviation Weather METAR Data for WADD</title><link>https://aviationweather.gov/api/data/metar?ids=WADD&amp;hours=24</link><description>Latest METAR data for WADD</description><item><title>2025-04-23 09:43:20Z</title><link>https://aviationweather.gov/api/data/metar?ids=WADD&amp;hours=24</link><description>WADD 230930Z 23005KT 200V270 9999 SCT017 29/22 Q1008 NOSIG
WADD 230900Z VRB03KT 9999 SCT017 30/22 Q1008 NOSIG
WADD 230830Z 24006KT 210V280 9999 FEW017 30/23 Q1008 NOSIG
WADD 230800Z VRB05KT 9999 FEW017 31/22 Q1007 NOSIG
WADD 230730Z 21004KT 140V260 9999 FEW017 31/22 Q1007 NOSIG
WADD 230630Z 26009KT 9999 FEW017 30/23 Q1008 NOSIG
WADD 230600Z 26010KT 9999 FEW017 30/23 Q1008 NOSIG
WADD 230530Z 25009KT 220V290 9999 FEW016 30/24 Q1009 NOSIG
WADD 230500Z 26008KT 9999 FEW016 30/24 Q1009 NOSIG
WADD 230430Z 26008KT 230V290 9999 FEW016 30/24 Q1010 NOSIG
WADD 230400Z 25007KT 210V280 9999 FEW016 30/23 Q1010 NOSIG
WADD 230200Z 26006KT 220V300 9999 FEW016 29/23 Q1011 NOSIG
WADD 230130Z 22003KT 9999 FEW016 29/25 Q1011 NOSIG
WADD 230030Z VRB02KT 9999 FEW016 28/24 Q1011 NOSIG
WADD 230000Z VRB02KT 9999 FEW016 27/24 Q1011 NOSIG
WADD 222230Z 07002KT 9999 FEW017 25/23 Q1011 NOSIG
WADD 222200Z 02004KT 9999 FEW017 24/23 Q1010 NOSIG
WADD 222130Z 03005KT 9999 FEW017 24/23 Q1010 NOSIG
WADD 222100Z 03004KT 9999 FEW017 25/24 Q1010 NOSIG
WADD 222030Z 04003KT 9999 FEW017 25/24 Q1010 NOSIG
WADD 222000Z 03003KT 9999 FEW016 25/24 Q1010 NOSIG
WADD 221930Z 02002KT 9999 FEW016 25/24 Q1010 NOSIG
WADD 221900Z 08003KT 9999 FEW016 25/24 Q1010 NOSIG
WADD 221830Z 09002KT 9999 FEW016 25/24 Q1010 NOSIG
WADD 221800Z 08003KT 9999 FEW016 25/23 Q1011 NOSIG
WADD 221730Z 15002KT 9999 FEW016 26/24 Q1011 NOSIG
WADD 221700Z 11002KT 9999 SCT016 26/24 Q1011 NOSIG
WADD 221630Z 14003KT 9999 SCT017 28/24 Q1012 NOSIG
WADD 221600Z 20003KT 9999 SCT017 28/25 Q1012 NOSIG
WADD 221530Z 15003KT 9999 FEW017 28/25 Q1012 NOSIG
WADD 221500Z 15003KT 9999 FEW017 28/24 Q1012 NOSIG
WADD 221430Z 14003KT 9999 FEW017 27/24 Q1012 NOSIG
WADD 221400Z VRB02KT 9999 FEW017 26/24 Q1012 NOSIG
WADD 221330Z 16004KT 9999 FEW017 28/24 Q1012 NOSIG
WADD 221300Z 15003KT 9999 FEW017 28/24 Q1011 NOSIG
WADD 221230Z 14003KT 9999 FEW017 28/24 Q1011 NOSIG
WADD 221200Z 16003KT 9999 FEW017 28/24 Q1011 NOSIG
WADD 221130Z 18004KT 9999 FEW016 28/25 Q1010 NOSIG
WADD 221100Z 17005KT 9999 FEW016 28/25 Q1010 NOSIG
WADD 221000Z 18008KT 9999 FEW016 29/25 Q1009 NOSIG</description><pubDate>Wed, 23 Apr 2025 09:43:20 </pubDate></item></channel></rss>