<rss version="2.0"><channel><title>Aviation Weather METAR Data for WADD</title><link>https://aviationweather.gov/api/data/metar?ids=WADD&amp;hours=24</link><description>Latest METAR data for WADD</description><item><title>2026-06-27 08:11:19Z</title><link>https://aviationweather.gov/api/data/metar?ids=WADD&amp;hours=24</link><description>METAR WADD 270800Z 13014KT 9999 FEW017 29/24 Q1010 NOSIG
METAR WADD 270730Z 13014KT 9999 SCT016 29/24 Q1010 NOSIG
METAR WADD 270700Z 13015KT 9999 SCT016 29/24 Q1010 NOSIG
METAR WADD 270630Z 13016KT 9999 SCT016 29/24 Q1010 NOSIG
METAR WADD 270600Z 14016KT 9999 SCT016 29/24 Q1011 NOSIG
METAR WADD 270530Z 13016KT 9999 SCT016 29/24 Q1011 NOSIG
METAR WADD 270500Z 14017KT 9999 SCT016 29/24 Q1011 NOSIG
METAR WADD 270430Z 14015KT 9999 SCT016 30/24 Q1012 NOSIG
METAR WADD 270400Z 13016KT 9999 SCT016 29/24 Q1012 NOSIG
METAR WADD 270330Z 12014KT 9999 BKN016 30/25 Q1012 NOSIG
METAR WADD 270300Z 13013KT 9999 BKN016 29/24 Q1013 NOSIG
METAR WADD 270230Z 13014KT 9999 BKN016 29/25 Q1013 NOSIG
METAR WADD 270200Z 12012KT 9999 BKN016 29/25 Q1013 NOSIG
METAR WADD 270130Z 12014KT 9999 BKN016 29/25 Q1013 NOSIG
METAR WADD 270100Z 12013KT 9999 BKN016 29/25 Q1013 NOSIG
METAR WADD 270030Z 12012KT 9999 BKN016 28/25 Q1012 NOSIG
METAR WADD 270000Z 12009KT 9999 BKN016 27/24 Q1012 NOSIG
METAR WADD 262330Z 13009KT 9999 BKN016 27/25 Q1012 NOSIG
METAR WADD 262300Z 13008KT 9999 BKN016 27/25 Q1011 NOSIG
METAR WADD 262230Z 13007KT 9999 SCT016 26/25 Q1011 NOSIG
METAR WADD 262200Z 14007KT 9999 SCT017 26/25 Q1011 NOSIG
METAR WADD 262130Z 14007KT 9999 FEW017 26/24 Q1011 NOSIG
METAR WADD 262100Z 14009KT 9999 FEW017 26/25 Q1011 NOSIG
METAR WADD 262030Z 13009KT 9999 FEW017 26/25 Q1011 NOSIG
METAR WADD 262000Z 13008KT 9999 FEW017 26/25 Q1011 NOSIG
METAR WADD 261930Z 13007KT 9999 FEW017 26/25 Q1011 NOSIG
METAR WADD 261900Z 12007KT 9999 FEW017 26/25 Q1011 NOSIG
METAR WADD 261830Z 12009KT 9999 FEW017 26/25 Q1011 NOSIG
METAR WADD 261800Z 13009KT 9999 FEW017 26/25 Q1011 NOSIG
METAR WADD 261730Z 13008KT 9999 FEW017 26/25 Q1011 NOSIG
METAR WADD 261700Z 12010KT 9999 FEW017 27/24 Q1012 NOSIG
METAR WADD 261630Z 12010KT 9999 FEW017 27/24 Q1012 NOSIG
METAR WADD 261600Z 12011KT 9999 FEW017 27/25 Q1012 NOSIG
METAR WADD 261530Z 12010KT 9999 FEW017 27/25 Q1012 NOSIG
METAR WADD 261500Z 12010KT 9999 FEW017 27/24 Q1012 NOSIG
METAR WADD 261430Z 12009KT 9999 FEW017 27/25 Q1012 NOSIG
METAR WADD 261400Z 12011KT 9999 FEW017 27/25 Q1012 NOSIG
METAR WADD 261330Z 12010KT 9999 FEW017 27/25 Q1012 NOSIG
METAR WADD 261300Z 12010KT 9999 FEW017 27/25 Q1012 NOSIG
METAR WADD 261230Z 12011KT 9999 FEW017 27/25 Q1012 NOSIG
METAR WADD 261200Z 12011KT 9999 FEW017 27/25 Q1011 NOSIG
METAR WADD 261130Z 12011KT 9999 FEW017 27/25 Q1011 NOSIG
METAR WADD 261100Z 12013KT 9999 FEW017 27/25 Q1011 NOSIG
METAR WADD 261030Z 12015KT 9999 FEW017 27/24 Q1011 NOSIG
METAR WADD 261000Z 13015KT 9999 FEW018 28/25 Q1010 NOSIG
METAR WADD 260930Z 11015KT 9999 FEW018 28/24 Q1010 NOSIG
METAR WADD 260900Z 12016KT 9999 FEW018 28/24 Q1010 NOSIG
METAR WADD 260830Z 12015KT 9999 FEW018 29/24 Q1010 NOSIG</description><pubDate>Sat, 27 Jun 2026 08:11:19 </pubDate></item></channel></rss>