<rss version="2.0"><channel><title>Aviation Weather METAR Data for WADD</title><link>https://aviationweather.gov/api/data/metar?ids=WADD&amp;hours=24</link><description>Latest METAR data for WADD</description><item><title>2026-04-20 03:45:16Z</title><link>https://aviationweather.gov/api/data/metar?ids=WADD&amp;hours=24</link><description>METAR WADD 200330Z 24006KT 9999 FEW017 31/26 Q1010 NOSIG
METAR WADD 200300Z 25005KT 9999 FEW017 30/26 Q1011 NOSIG
METAR WADD 200230Z 24005KT 9999 FEW017 31/27 Q1011 NOSIG
METAR WADD 200200Z 25004KT 220V290 9999 FEW017 31/26 Q1011 NOSIG
METAR WADD 200130Z 26004KT 240V320 9999 FEW017 30/26 Q1011 NOSIG
METAR WADD 200100Z 33003KT 9999 SCT016 29/26 Q1011 NOSIG
METAR WADD 200030Z VRB03KT 9999 SCT016 28/26 Q1011 NOSIG
METAR WADD 200000Z VRB01KT 9999 BKN016 27/26 Q1010 NOSIG
METAR WADD 192330Z VRB02KT 9999 SCT016 27/25 Q1010 NOSIG
SPECI WADD 192312Z 08005KT 8000 FEW015CB SCT016 26/25 Q1010 RERA NOSIG
METAR WADD 192300Z 08005KT 5000 -RA FEW015CB SCT016 26/25 Q1010 TEMPO TL2300 5000 -RA
METAR WADD 192230Z 01004KT 5000 -RA FEW015CB SCT016 26/25 Q1010 TEMPO TL2300 5000 -RA RMK CB IN CLIMB-OUT
SPECI WADD 192220Z 06004KT 010V070 6000 FEW015CB SCT016 26/24 Q1009 RERA NOSIG RMK CB IN APCH AND CLIMB-OUT
SPECI WADD 192205Z 06004KT 010V070 3000 RA FEW015CB BKN016 26/24 Q1009 TEMPO TL2300 VIS 3000 RA RMK CB IN APCH
METAR WADD 192200Z 06004KT 010V070 5000 FBL RA FEW015CB BKN016 26/24 Q1009 TEMPO TL2300 VIS 5KM FBL RA RMK CB IN APCH
METAR WADD 192130Z 20003KT 6000 FEW015CB BKN016 26/24 Q1009 NOSIG RMK CB IN CLIMB-OUT
METAR WADD 192100Z 15003KT 8000 BKN016 26/24 Q1009 RERA NOSIG
METAR WADD 192030Z 03003KT 5000 -RA FEW015CB SCT016 26/24 Q1009 TEMPO TL2100 5000 -RA RMK CB IN CLIMB-OUT
METAR WADD 192000Z 01002KT 6000 -RA FEW015CB SCT016 27/24 Q1009 RETS TEMPO TL2100 6000 -RA RMK CB IN CLIMB-OUT
METAR WADD 191930Z 36003KT 8000 TS FEW015CB SCT016 26/23 Q1009 TEMPO TL2000 TS RMK CB IN CLIMB-OUT
METAR WADD 191900Z 36004KT 9999 TS FEW015CB SCT016 26/23 Q1009 TEMPO TL2000 TS CB IN CLIMB-OUT
METAR WADD 191830Z 36005KT 9999 FEW016 26/24 Q1009 NOSIG
METAR WADD 191800Z 36005KT 9999 FEW016 27/24 Q1010 NOSIG
METAR WADD 191730Z 01004KT 9999 SCT016 27/24 Q1010 NOSIG
METAR WADD 191700Z 04004KT 010V070 9999 SCT016 27/24 Q1010 NOSIG
METAR WADD 191630Z VRB02KT 9999 SCT016 27/24 Q1010 NOSIG
METAR WADD 191600Z 09003KT 9999 BKN016 27/24 Q1011 NOSIG
METAR WADD 191530Z 09002KT 9999 BKN016 27/24 Q1011 NOSIG
METAR WADD 191500Z 14003KT 9999 BKN016 27/25 Q1011 NOSIG
METAR WADD 191430Z 16004KT 9999 FEW017 28/25 Q1011 NOSIG
METAR WADD 191400Z 12003KT 9999 FEW017 27/25 Q1011 NOSIG
METAR WADD 191330Z 10004KT 9999 FEW017 27/24 Q1011 NOSIG
METAR WADD 191300Z 10005KT 9999 FEW017 27/24 Q1010 NOSIG
METAR WADD 191230Z 11004KT 9999 FEW017 27/24 Q1010 NOSIG
METAR WADD 191200Z 13007KT 9999 FEW017 28/24 Q1010 NOSIG
METAR WADD 191130Z 13007KT 9999 FEW017 28/24 Q1009 NOSIG
METAR WADD 191100Z 14008KT 9999 FEW017 28/24 Q1009 NOSIG
METAR WADD 191030Z 16010KT 9999 FEW017 28/24 Q1008 NOSIG
METAR WADD 191000Z 15009KT 9999 FEW017 29/24 Q1008 NOSIG
METAR WADD 190930Z 16007KT 9999 FEW017 30/24 Q1008 NOSIG
METAR WADD 190900Z 16011KT 9999 FEW017 30/23 Q1008 NOSIG
METAR WADD 190830Z 16010KT 9999 FEW017 31/23 Q1008 NOSIG
METAR WADD 190800Z 16008KT 9999 FEW017 31/23 Q1008 NOSIG
METAR WADD 190730Z 16009KT 9999 FEW017 32/23 Q1008 NOSIG
METAR WADD 190700Z 10009KT 9999 FEW017 32/22 Q1008 NOSIG
METAR WADD 190630Z 10006KT 060V140 9999 FEW017 32/22 Q1009 NOSIG
METAR WADD 190600Z 10007KT 060V130 9999 FEW017 32/24 Q1009 NOSIG
METAR WADD 190530Z 11007KT 9999 FEW017 32/23 Q1009 NOSIG
METAR WADD 190500Z 11008KT 9999 FEW017 32/24 Q1010 NOSIG
METAR WADD 190430Z 12006KT 080V150 9999 FEW017 33/24 Q1010 NOSIG
METAR WADD 190400Z 15003KT 9999 FEW017 32/24 Q1011 NOSIG</description><pubDate>Mon, 20 Apr 2026 03:45:16 </pubDate></item></channel></rss>