<rss version="2.0"><channel><title>Aviation Weather METAR Data for WADD</title><link>https://aviationweather.gov/api/data/metar?ids=WADD&amp;hours=24</link><description>Latest METAR data for WADD</description><item><title>2026-02-10 18:07:35Z</title><link>https://aviationweather.gov/api/data/metar?ids=WADD&amp;hours=24</link><description>METAR WADD 101800Z 32003KT 9999 SCT016 26/25 Q1010 NOSIG
METAR WADD 101730Z 30006KT 9999 SCT016 26/25 Q1010 NOSIG
METAR WADD 101700Z 31007KT 9999 SCT016 26/25 Q1010 NOSIG
METAR WADD 101630Z 29009KT 9999 SCT016 26/24 Q1011 NOSIG
METAR WADD 101600Z 29009KT 9999 FEW015CB SCT016 26/24 Q1011 NOSIG
METAR WADD 101530Z 30008KT 9999 FEW015CB SCT016 26/24 Q1011 NOSIG
METAR WADD 101500Z 29010KT 9999 FEW015CB SCT016 26/24 Q1011 NOSIG
METAR WADD 101430Z 28014KT 260V320 9999 FEW015CB SCT016 27/25 Q1012 N OSIG
METAR WADD 101400Z 30006KT 270V330 9999 FEW015CB SCT016 26/24 Q1012 R ERA NOSIG
METAR WADD 101330Z 25004KT 8000 -RA FEW015CB BKN016 25/24 Q1011 TEMPO TL1430 -RA
METAR WADD 101300Z 27010KT 4000 RA FEW015CB BKN016 25/23 Q1011 TEMPO TL1400 4000 RA
METAR WADD 101230Z 27015KT 2000 +RA FEW015CB BKN016 25/24 Q1011 TEMPO TL1330 2000 +RA
METAR WADD 101200Z 25004KT 8000 -RA FEW015CB BKN016 26/25 Q1011 TEMPO TL1300 -RA RMK CB IN CLIMB-OUT
METAR WADD 101130Z VRB02KT 9999 FEW015CB BKN016 26/24 Q1010 NOSIG
METAR WADD 101100Z 22005KT 190V250 9999 FEW015CB BKN016 26/24 Q1010 N OSIG
METAR WADD 101030Z VRB01KT 8000 FEW015CB BKN016 25/24 Q1010 RERA NOSI G
METAR WADD 101000Z 22007KT 170V260 4000 RA FEW014CB BKN015 25/24 Q101 0 TEMPO TL1100 4000 RA
METAR WADD 100930Z 25009KT 1500 +RA FEW014CB BKN015 25/24 Q1009 TEMPO TL1030 1500 +RA RMK CB IN CLIMB-OUT
METAR WADD 100900Z 28012KT 3000 RA FEW014CB BKN015 25/24 Q1009 TEMPO TL1000 3000 -RA RMK CB IN CLIMB-OUT
METAR WADD 100830Z 26007KT 5000 -RA FEW014CB BKN015 26/24 Q1009 TEMPO TL0930 5000 -RA RMK CB IN CLIMB-OUT
METAR WADD 100800Z 21005G15KT 130V280 6000 -RA FEW014CB BKN015 24/23 Q1010 TEMPO TL0900 6000 -RA RMK CB IN APCH AND CLIMB-OUT
METAR WADD 100730Z 22008KT 160V280 1000 +RA FEW012CB BKN013 25/24 Q1009 TEMPO TL0830 1000 +RA RMK CB IN APCH AND CLIMB-OUT
METAR WADD 100700Z 25010G21KT 220V310 6000 -RA FEW013CB BKN014 28/25 Q1009 TEMPO TL0800 4000 RA RMK CB IN APCH AND CLIMB-OUT
METAR WADD 100630Z 26014KT 9999 FEW015CB SCT016 29/25 Q1009 NOSIG RMK CB IN APCH
METAR WADD 100600Z 27011KT 9999 FEW015CB SCT016 30/25 Q1009 NOSIG RMK CB IN APCH
METAR WADD 100530Z 27012KT 9999 SCT016 30/25 Q1009 NOSIG
METAR WADD 100500Z 28012KT 9999 SCT016 30/25 Q1010 NOSIG
METAR WADD 100430Z 28010KT 9999 SCT016 30/25 Q1010 NOSIG
METAR WADD 100400Z COR 30010KT 9999 SCT016 29/25 Q1010 NOSIG
METAR WADD 100330Z 27009KT 9999 SCT016 29/25 Q1010 NOSIG
METAR WADD 100300Z 29012KT 9999 SCT016 28/25 Q1011 NOSIG
METAR WADD 100230Z 29011KT 9999 BKN015 28/25 Q1011 NOSIG
METAR WADD 100200Z 30010KT 9999 BKN015 27/25 Q1011 NOSIG
METAR WADD 100130Z 29008KT 9999 BKN015 27/25 Q1012 NOSIG
METAR WADD 100100Z 29008KT 9999 BKN015 27/25 Q1012 RERA NOSIG
METAR WADD 100030Z 30009KT 7000 FBL RA BKN015 26/24 Q1011 NOSIG
METAR WADD 100000Z 31011KT 7000 -RA BKN015 25/24 Q1011 NOSIG
METAR WADD 092330Z 31011KT 7000 -RA BKN015 26/24 Q1010 NOSIG
METAR WADD 092300Z 31013KT 7000 -RA BKN015 26/25 Q1010 NOSIG
METAR WADD 092230Z 31011KT 7000 -RA BKN015 26/25 Q1010 TEMPO TL2330 -RA
METAR WADD 092200Z 30010KT 7000 -RA FEW014CB BKN015 26/25 Q1010 TEMPO TL2330 -RA
METAR WADD 092130Z 29007KT 9999 FEW014CB BKN015 26/25 Q1010 NOSIG
METAR WADD 092100Z 29007KT 9999 FEW014CB BKN015 26/25 Q1009 NOSIG
METAR WADD 092000Z 26005KT 7000 -RA FEW014CB BKN015 25/24 Q1009 TEMPO TL2130 -RA
METAR WADD 091930Z 24005KT 7000 -RA FEW014CB BKN015 25/24 Q1009 TEMPO TL2030 -RA
METAR WADD 091900Z 24008KT 6000 -RA FEW014CB BKN015 25/24 Q1009 TEMPO TL2030 -RA
METAR WADD 091830Z 27005KT 9999 FEW014CB BKN015 26/24 Q1009 NOSIG</description><pubDate>Tue, 10 Feb 2026 18:07:35 </pubDate></item></channel></rss>