<rss version="2.0"><channel><title>Aviation Weather METAR Data for WADD</title><link>https://aviationweather.gov/api/data/metar?ids=WADD&amp;hours=24</link><description>Latest METAR data for WADD</description><item><title>2025-06-01 14:45:19Z</title><link>https://aviationweather.gov/api/data/metar?ids=WADD&amp;hours=24</link><description>WADD 011430Z 13005KT 9999 SCT016 28/25 Q1013 NOSIG
WADD 011400Z 11004KT 9999 FEW016 27/25 Q1013 NOSIG
WADD 011330Z 11004KT 9999 FEW016 27/25 Q1013 NOSIG
WADD 011300Z 11005KT 9999 FEW016 28/25 Q1013 NOSIG
WADD 011230Z 11004KT 9999 FEW016 28/25 Q1013 NOSIG
WADD 011200Z 12007KT 9999 FEW016 28/25 Q1012 NOSIG
WADD 011130Z 12009KT 9999 SCT017 28/25 Q1012 NOSIG
WADD 011100Z 12010KT 9999 SCT017 28/25 Q1012 NOSIG
WADD 011030Z 12010KT 9999 SCT017 29/26 Q1012 NOSIG
WADD 011000Z 12010KT 9999 FEW017 29/26 Q1011 NOSIG
WADD 010930Z 12010KT 9999 FEW017 29/25 Q1011 NOSIG
WADD 010900Z 12011KT 9999 FEW017 30/25 Q1011 NOSIG
WADD 010830Z 13012KT 9999 FEW017 30/26 Q1011 NOSIG
WADD 010800Z 12011KT 9999 FEW017 30/26 Q1011 NOSIG
WADD 010730Z 13009KT 9999 FEW017 30/26 Q1011 NOSIG
WADD 010700Z 14010KT 9999 FEW017 30/26 Q1011 NOSIG
WADD 010630Z 12008KT 080V150 9999 FEW017 30/26 Q1011 NOSIG
WADD 010600Z 11010KT 9999 FEW017 30/26 Q1011 NOSIG
WADD 010530Z 12010KT 9999 FEW016 30/26 Q1011 NOSIG
WADD 010500Z 10010KT 9999 FEW016 31/26 Q1012 NOSIG
WADD 010430Z 10010KT 9999 FEW016 31/26 Q1012 NOSIG
WADD 010400Z 12010KT 9999 FEW016 31/26 Q1012 NOSIG
WADD 010330Z 12011KT 9999 FEW016 31/26 Q1013 NOSIG
WADD 010300Z 12011KT 9999 FEW016 31/25 Q1013 NOSIG
WADD 010230Z 13012KT 9999 SCT016 30/25 Q1013 NOSIG
WADD 010200Z 13010KT 9999 SCT016 30/26 Q1014 NOSIG
WADD 010130Z 13012KT 9999 SCT016 30/25 Q1014 NOSIG
WADD 010100Z 14013KT 9999 SCT016 29/26 Q1014 NOSIG
WADD 010030Z 12010KT 9999 SCT016 29/25 Q1014 NOSIG
WADD 312330Z 13008KT 9999 SCT016 28/26 Q1013 NOSIG
WADD 312300Z 14008KT 9999 SCT016 28/26 Q1012 NOSIG
WADD 312230Z 13009KT 9999 SCT016 28/26 Q1012 NOSIG
WADD 312200Z 13009KT 9999 SCT016 28/26 Q1012 NOSIG
WADD 312130Z 14008KT 9999 SCT016 28/26 Q1012 NOSIG
WADD 312100Z 14008KT 9999 SCT016 28/26 Q1012 NOSIG
WADD 312030Z 14007KT 9999 SCT016 28/26 Q1012 NOSIG
WADD 312000Z 13008KT 9999 SCT016 28/26 Q1012 NOSIG
WADD 311930Z 13009KT 9999 SCT016 28/26 Q1012 NOSIG
WADD 311900Z 13009KT 9999 SCT016 28/26 Q1012 NOSIG
WADD 311830Z 13010KT 9999 SCT016 28/26 Q1012 NOSIG
WADD 311800Z 14010KT 9999 SCT016 28/26 Q1013 NOSIG
WADD 311730Z 14009KT 9999 SCT016 28/26 Q1013 NOSIG
WADD 311700Z 14009KT 9999 SCT016 28/26 Q1013 NOSIG
WADD 311630Z 14009KT 9999 SCT016 28/27 Q1013 NOSIG
WADD 311600Z 13010KT 9999 SCT016 28/26 Q1013 NOSIG
WADD 311530Z 13010KT 9999 BKN016 28/26 Q1013 NOSIG
WADD 311500Z 13010KT 9999 BKN016 29/27 Q1014 NOSIG</description><pubDate>Sun, 01 Jun 2025 14:45:19 </pubDate></item></channel></rss>