<rss version="2.0"><channel><title>Aviation Weather METAR Data for WADD</title><link>https://aviationweather.gov/api/data/metar?ids=WADD&amp;hours=24</link><description>Latest METAR data for WADD</description><item><title>2026-02-27 16:53:05Z</title><link>https://aviationweather.gov/api/data/metar?ids=WADD&amp;hours=24</link><description>METAR WADD 271630Z 27013KT 9999 FEW015CB BKN016 27/25 Q1006 NOSIG RMK CB IN APCH
METAR WADD 271600Z 28013KT 9999 FEW015CB BKN016 27/25 Q1007 NOSIG
METAR WADD 271530Z 24008KT 9999 FEW015CB BKN016 26/25 Q1007 NOSIG RMK CB IN APCH
METAR WADD 271500Z 26011KT 9999 FEW015CB BKN016 27/25 Q1007 NOSIG RMK CB IN APCH
METAR WADD 271430Z 28016KT 9999 FEW015CB BKN016 28/26 Q1007 NOSIG RMK CB IN APCH AND CLIMB-OUT
METAR WADD 271400Z 27013KT 9999 FEW015CB SCT016 27/25 Q1007 NOSIG RMK CB TO SE
METAR WADD 271330Z 27014KT 9999 FEW015CB SCT016 28/25 Q1007 NOSIG RMK CB TO S
METAR WADD 271300Z 27014KT 9999 FEW015CB SCT016 28/24 Q1006 NOSIG
METAR WADD 271230Z 27014KT 9999 FEW017 28/24 Q1006 NOSIG
METAR WADD 271200Z 27011KT 9999 FEW017 28/24 Q1006 NOSIG
METAR WADD 271130Z 29011KT 9999 FEW017 28/24 Q1005 NOSIG
METAR WADD 271100Z 30009KT 9999 FEW017 28/24 Q1005 NOSIG
METAR WADD 271030Z 28012KT 9999 FEW017 28/24 Q1004 NOSIG
METAR WADD 271000Z 27016KT 9999 FEW017 28/23 Q1004 NOSIG
METAR WADD 270930Z 27016KT 9999 FEW017 28/23 Q1004 NOSIG
METAR WADD 270900Z 27015KT 9999 FEW017 29/24 Q1004 NOSIG
METAR WADD 270830Z 27015KT 9999 FEW017 29/24 Q1004 NOSIG
METAR WADD 270800Z 28015KT 9999 SCT016 29/24 Q1004 NOSIG
METAR WADD 270730Z 27014KT 9999 SCT016 30/24 Q1004 NOSIG
METAR WADD 270700Z 26012KT 9999 SCT016 30/23 Q1005 NOSIG
METAR WADD 270630Z 28014KT 9999 SCT016 31/24 Q1005 NOSIG
METAR WADD 270600Z 28014KT 9999 SCT016 30/24 Q1005 NOSIG
METAR WADD 270530Z 28016KT 9999 SCT016 30/23 Q1005 NOSIG
METAR WADD 270500Z 28015KT 9999 SCT016 29/24 Q1006 NOSIG
METAR WADD 270430Z 27016KT 9999 SCT016 29/24 Q1006 NOSIG
METAR WADD 270400Z 29017KT 9999 SCT016 29/24 Q1006 NOSIG
METAR WADD 270330Z 29015KT 9999 SCT016 30/24 Q1006 NOSIG
METAR WADD 270300Z 29015KT 9999 SCT016 29/24 Q1007 NOSIG
METAR WADD 270230Z 29015KT 9999 SCT016 29/24 Q1007 NOSIG
METAR WADD 270200Z 33008KT 300V360 9999 SCT016 27/23 Q1007 NOSIG
METAR WADD 270130Z 32010KT 9999 BKN016 26/23 Q1007 NOSIG
METAR WADD 270100Z 29014KT 9999 BKN016 26/23 Q1007 RERA NOSIG
METAR WADD 270030Z 28013KT 8000 -RA BKN016 25/24 Q1007 TEMPO TL0130 -RA
METAR WADD 270000Z 29014KT 7000 -RA FEW014CB BKN015 24/23 Q1007 TEMPO TL0100 -RA
METAR WADD 262330Z 29013KT 6000 -RA FEW014CB BKN015 23/23 Q1007 TEMPO TL2430 -RA RMK CB IN APCH
METAR WADD 262300Z 28014KT 5000 RA FEW014CB BKN015 23/22 Q1007 TEMPO TL2400 5000 RA RMK CB IN APCH
METAR WADD 262230Z 27012KT 5000 RA FEW014CB BKN015 23/23 Q1006 TEMPO TL2330 5000 RA RMK CB IN APCH
METAR WADD 262200Z 26012KT 5000 RA FEW015CB BKN016 24/24 Q1006 TEMPO TL2330 5000 RA
METAR WADD 262130Z 26011KT 5000 -RA FEW015CB BKN016 24/24 Q1006 TEMPO TL2230 5000 -RA
METAR WADD 262100Z 26007KT 220V280 3000 RA FEW015CB BKN016 24/24 Q1006 TEMPO TL2200 3000 RA
METAR WADD 262030Z 26010KT 3000 RA FEW015CB BKN016 24/24 Q1005 TEMPO TL2130 3000 RA
METAR WADD 262000Z 27014KT 6000 -RA FEW015CB BKN016 24/23 Q1005 TEMPO TL2100 6000 -RA RMK CB IN APCH
METAR WADD 261930Z 24009KT 200V280 3000 RA FEW015CB BKN016 24/24 Q100 5 TEMPO TL2030 3000 RA RMK CB IN APCH
METAR WADD 261900Z 14003KT 6000 -RA FEW015CB BKN016 25/24 Q1005 TEMPO TL2000 6000 -RA RMK CB IN APCH
METAR WADD 261830Z 35007KT 310V020 6000 -RA FEW015CB BKN016 25/24 Q1005 TEMPO TL1930 6000 -RA RMK CB IN APCH
METAR WADD 261800Z VRB02KT 5000 -RA FEW015CB BKN016 24/23 Q1005 TEMPO TL1900 5000 -RA RMK CB IN APCH
METAR WADD 261730Z 21007G19KT 150V260 2000 +RA FEW015CB BKN016 24/23 Q1006 TEMPO TL1830 2000 +RA RMK CB IN APCH
METAR WADD 261700Z 29012KT 9999 FEW015CB BKN016 26/25 Q1006 NOSIG RMK CB IN APCH</description><pubDate>Fri, 27 Feb 2026 16:53:05 </pubDate></item></channel></rss>