<rss version="2.0"><channel><title>Aviation Weather METAR Data for WADD</title><link>https://aviationweather.gov/api/data/metar?ids=WADD&amp;hours=24</link><description>Latest METAR data for WADD</description><item><title>2026-03-03 11:39:56Z</title><link>https://aviationweather.gov/api/data/metar?ids=WADD&amp;hours=24</link><description>METAR WADD 031130Z 28007KT 9999 FEW016 28/26 Q1007 NOSIG
METAR WADD 031100Z 27007KT 9999 FEW016 28/26 Q1007 NOSIG
METAR WADD 031030Z 27007KT 9999 FEW016 29/26 Q1006 NOSIG
METAR WADD 031000Z 25006KT 220V280 9999 FEW016 30/26 Q1006 NOSIG
METAR WADD 030930Z 26008KT 9999 FEW016 30/26 Q1006 NOSIG
METAR WADD 030900Z 26009KT 9999 FEW016 30/26 Q1006 NOSIG
METAR WADD 030830Z 27009KT 9999 FEW016 30/26 Q1006 NOSIG
METAR WADD 030800Z 27009KT 9999 FEW016 30/26 Q1006 NOSIG
METAR WADD 030730Z 25008KT 9999 FEW016 31/26 Q1006 NOSIG
METAR WADD 030700Z 25009KT 9999 FEW016 30/26 Q1006 NOSIG
METAR WADD 030630Z 26009KT 9999 FEW016 30/26 Q1006 NOSIG
METAR WADD 030600Z 26009KT 9999 FEW016 30/26 Q1006 NOSIG
METAR WADD 030530Z 27008KT 9999 FEW016 30/26 Q1007 NOSIG
METAR WADD 030500Z 25007KT 220V280 9999 FEW016 30/26 Q1007 NOSIG
METAR WADD 030430Z 30008KT 9999 FEW016 30/26 Q1008 NOSIG
METAR WADD 030400Z 26008KT 9999 FEW016 30/26 Q1008 NOSIG
METAR WADD 030330Z 28007KT 9999 FEW016 30/26 Q1008 NOSIG
METAR WADD 030300Z 30008KT 270V340 9999 SCT016 30/26 Q1009 NOSIG
METAR WADD 030230Z 29009KT 9999 SCT016 29/26 Q1009 NOSIG
METAR WADD 030200Z 29011KT 9999 SCT015 29/26 Q1009 NOSIG
METAR WADD 030130Z 30010KT 9999 SCT015 28/26 Q1009 NOSIG
METAR WADD 030100Z 30009KT 9999 BKN015 27/26 Q1009 NOSIG
METAR WADD 030030Z 29010KT 9999 BKN015 27/26 Q1009 NOSIG
METAR WADD 030000Z 29009KT 9999 BKN015 26/26 Q1009 NOSIG
METAR WADD 022330Z 31006KT 9999 BKN015 26/26 Q1008 NOSIG
METAR WADD 022300Z 31005KT 9999 BKN015 26/26 Q1008 NOSIG
METAR WADD 022230Z 31004KT 9999 BKN016 26/26 Q1007 RETSRA NOSIG
METAR WADD 022200Z 28007KT 6000 -TSRA FEW014CB BKN015 26/26 Q1008 TEMPO TL2300 -TSRA
METAR WADD 022130Z 30007KT 6000 -TSRA FEW014CB BKN015 26/26 Q1007 TEMPO TL2230 -TSRA
METAR WADD 022100Z VRB02KT 9999 FEW015CB BKN016 25/25 Q1007 NOSIG
METAR WADD 022030Z 30003KT 9999 FEW015CB BKN016 25/25 Q1007 RERA NOSI G
METAR WADD 022000Z 26005KT 210V310 3000 RA FEW014CB BKN015 26/26 Q100 7 TEMPO TL2100 7000 -RA RMK CB IN APCH AND CLIMB-OUT
METAR WADD 021930Z 31006KT 9999 SCT016 26/26 Q1007 NOSIG
METAR WADD 021900Z 29009KT 9999 SCT016 27/26 Q1007 NOSIG
METAR WADD 021830Z 29010KT 9999 SCT016 27/26 Q1007 NOSIG
METAR WADD 021800Z 29009KT 9999 SCT016 27/26 Q1007 NOSIG
METAR WADD 021730Z 29009KT 9999 SCT016 27/26 Q1007 NOSIG
METAR WADD 021700Z 29008KT 9999 SCT016 27/26 Q1008 NOSIG
METAR WADD 021630Z 28009KT 9999 SCT016 26/26 Q1008 NOSIG
METAR WADD 021600Z 28010KT 9999 BKN016 25/25 Q1008 RERA NOSIG
METAR WADD 021530Z 26006KT 240V310 9999 FEW015CB SCT016 26/26 Q1009 N OSIG
METAR WADD 021500Z 22005KT 170V250 9999 FEW015CB SCT016 26/25 Q1009 R ERA NOSIG
METAR WADD 021430Z 22005KT 150V250 5000 -RA FEW014CB BKN015 27/25 Q1009 TEMPO TL1530 -RA RMK CB IN APCH AND CLIMB-OUT
METAR WADD 021400Z 27011KT 9999 FEW015CB SCT016 27/25 Q1009 NOSIG RMK CB IN CLIMB-OUT
METAR WADD 021330Z 28011KT 9999 FEW015CB SCT016 28/25 Q1009 NOSIG
METAR WADD 021300Z 29008KT 9999 SCT016 28/25 Q1009 NOSIG
METAR WADD 021230Z 29009KT 9999 SCT016 27/25 Q1008 NOSIG
METAR WADD 021200Z 29010KT 9999 SCT016 27/25 Q1008 NOSIG</description><pubDate>Tue, 03 Mar 2026 11:39:56 </pubDate></item></channel></rss>