<rss version="2.0"><channel><title>Aviation Weather METAR Data for WADD</title><link>https://aviationweather.gov/api/data/metar?ids=WADD&amp;hours=24</link><description>Latest METAR data for WADD</description><item><title>2025-01-26 08:40:36Z</title><link>https://aviationweather.gov/api/data/metar?ids=WADD&amp;hours=24</link><description>WADD 260830Z 26010KT 9999 SCT016 29/27 Q1004 NOSIG
WADD 260800Z 25010KT 9999 SCT016 30/27 Q1004 NOSIG
WADD 260730Z 25009KT 9999 SCT016 30/27 Q1004 NOSIG
WADD 260700Z 26011KT 9999 SCT016 30/27 Q1004 NOSIG
WADD 260630Z 26011KT 9999 SCT016 30/27 Q1005 NOSIG
WADD 260600Z 26011KT 9999 SCT017 30/27 Q1005 NOSIG
WADD 260530Z 26009KT 9999 SCT015 30/27 Q1006 NOSIG
WADD 260500Z 26008KT 9999 SCT015 31/28 Q1006 NOSIG
WADD 260430Z 26008KT 9999 FEW015 30/27 Q1007 NOSIG
WADD 260400Z 26009KT 9999 FEW016 31/27 Q1007 NOSIG
WADD 260330Z 29010KT 9999 FEW016 30/27 Q1007 NOSIG
WADD 260300Z 29011KT 9999 FEW015CB FEW016 30/27 Q1008 NOSIG
WADD 260230Z 30010KT 9999 FEW015CB SCT015 30/27 Q1008 NOSIG
WADD 260200Z 29009KT 9999 FEW015CB SCT015 30/27 Q1008 NOSIG
WADD 260130Z 30008KT 260V320 9999 SCT015 29/27 Q1008 NOSIG
WADD 260100Z 30007KT 9999 SCT015 29/27 Q1008 NOSIG
WADD 260030Z 30007KT 9999 FEW016 29/26 Q1008 NOSIG
WADD 260000Z 31006KT 9999 FEW016 28/26 Q1008 NOSIG
WADD 252330Z 33004KT 290V010 9999 FEW017 28/26 Q1008 NOSIG
WADD 252300Z 33004KT 300V360 9999 SCT017 27/26 Q1007 NOSIG
WADD 252230Z 34003KT 9999 SCT017 27/26 Q1007 NOSIG
WADD 252200Z 34002KT 9999 SCT017 27/26 Q1007 NOSIG
WADD 252130Z VRB02KT 9999 SCT017 27/26 Q1007 NOSIG
WADD 252100Z 30005KT 9999 SCT017 28/26 Q1007 NOSIG
WADD 252030Z 29005KT 9999 SCT017 28/26 Q1007 NOSIG
WADD 252000Z 30006KT 9999 SCT017 28/26 Q1007 NOSIG
WADD 251930Z 29008KT 9999 SCT017 27/25 Q1007 NOSIG
WADD 251900Z 29007KT 9999 SCT017 27/26 Q1007 NOSIG
WADD 251830Z 30008KT 9999 SCT017 28/26 Q1007 NOSIG
WADD 251800Z 30006KT 9999 SCT017 27/26 Q1007 NOSIG
WADD 251730Z 32007KT 9999 SCT017 28/26 Q1007 NOSIG
WADD 251700Z 32004KT 9999 SCT017 28/26 Q1008 NOSIG
WADD 251630Z VRB01KT 9999 SCT017 27/26 Q1008 NOSIG
WADD 251600Z VRB02KT 9999 SCT017 28/26 Q1008 NOSIG
WADD 251530Z 22002KT 9999 SCT017 28/26 Q1009 NOSIG
WADD 251500Z VRB01KT 9999 SCT017 28/26 Q1009 NOSIG
WADD 251430Z VRB01KT 9999 SCT017 28/26 Q1008 NOSIG
WADD 251400Z VRB02KT 9999 SCT017 28/26 Q1008 NOSIG
WADD 251330Z VRB02KT 9999 FEW016CB SCT017 29/25 Q1008 NOSIG
WADD 251300Z 24003KT 9999 FEW016CB SCT017 28/26 Q1008 NOSIG
WADD 251230Z 25004KT 9999 FEW016CB SCT017 28/26 Q1007 NOSIG
WADD 251200Z 23003KT 9999 FEW016CB SCT017 29/26 Q1007 NOSIG
WADD 251130Z 23003KT 9999 FEW016CB SCT016 29/26 Q1007 NOSIG
WADD 251100Z 22005KT 160V270 9999 FEW016CB SCT017 29/26 Q1006 NOSIG
WADD 251030Z 22004KT 9999 SCT017 29/26 Q1006 NOSIG
WADD 251000Z 23005KT 170V260 9999 SCT017 30/26 Q1005 NOSIG
WADD 250930Z 24006KT 210V270 9999 SCT017 30/26 Q1005 NOSIG
WADD 250900Z 24007KT 210V270 9999 SCT017 31/26 Q1005 NOSIG</description><pubDate>Sun, 26 Jan 2025 08:40:36 </pubDate></item></channel></rss>